hora,metaf,aero
1668816000000,"METAF SBGL 190000Z  13005KT 9999       BKN027   22/16 Q1018=
",SBGL
1668819600000,"METAF SBGL 190100Z  10004KT 9999       BKN025   22/16 Q1018=
",SBGL
1668816000000,"METAF SBGR 190000Z  10010KT 8000       BKN015   16/12 Q1017=
",SBGR
1668819600000,"METAF SBGR 190100Z  10008KT 9999       FEW020   15/11 Q1018=
",SBGR
1668816000000,"METAF SBKP 190000Z  12021KT CAVOK 17/11 Q1015=
",SBKP
1668819600000,"METAF SBKP 190100Z  11019KT CAVOK 17/10 Q1015=
",SBKP
1668816000000,"METAF SBSP 190000Z  10008KT 4000     BR OVC033   16/13 Q1017=
",SBSP
1668819600000,"METAF SBSP 190100Z 09008KT 8000       BKN014   16/12 Q1018=
",SBSP
