hora,metaf,aero
1683936000000,"METAF SBBR 130000Z  21007KT CAVOK 22/14 Q1016=
",SBBR
1683939600000,"METAF SBBR 130100Z  20009KT CAVOK 21/14 Q1017=
",SBBR
1683943200000,"METAF SBBR 130200Z  20006KT CAVOK 20/14 Q1016=
",SBBR
1683946800000,"METAF SBBR 130300Z  20005KT CAVOK 20/14 Q1016=
",SBBR
1683950400000,"METAF SBBR 130400Z  19009KT CAVOK 19/13 Q1016=
",SBBR
1683954000000,"METAF SBBR 130500Z  19008KT CAVOK 18/12 Q1016=
",SBBR
1683957600000,"METAF SBBR 130600Z  20006KT 7000       FEW033   18/14 Q1016=
",SBBR
1683961200000,"METAF SBBR 130700Z  19005KT 9000       FEW033   17/13 Q1015=
",SBBR
1683964800000,"METAF SBBR 130800Z  19005KT CAVOK 17/13 Q1015=
",SBBR
1683968400000,"METAF SBBR 130900Z  19005KT CAVOK 17/12 Q1016=
",SBBR
1683972000000,"METAF SBBR 131000Z  19005KT CAVOK 17/12 Q1016=
",SBBR
1683975600000,"METAF SBBR 131100Z  17004KT CAVOK 18/12 Q1017=
",SBBR
1683979200000,"METAF SBBR 131200Z  17005KT CAVOK 21/12 Q1018=
",SBBR
1683982800000,"METAF SBBR 131300Z  16004KT CAVOK 23/12 Q1018=
",SBBR
1683986400000,"METAF SBBR 131400Z  16004KT CAVOK 24/12 Q1018=
",SBBR
1683990000000,"METAF SBBR 131500Z  15003KT CAVOK 25/11 Q1017=
",SBBR
1683993600000,"METAF SBBR 131600Z  15002KT CAVOK 26/11 Q1016=
",SBBR
1683997200000,"METAF SBBR 131700Z  18003KT CAVOK 27/11 Q1014=
",SBBR
1684000800000,"METAF SBBR 131800Z  19003KT CAVOK 28/11 Q1013=
",SBBR
1684004400000,"METAF SBBR 131900Z  21004KT CAVOK 28/10 Q1013=
",SBBR
1684008000000,"METAF SBBR 132000Z  20005KT CAVOK 27/10 Q1013=
",SBBR
1684011600000,"METAF SBBR 132100Z  19007KT CAVOK 26/09 Q1014=
",SBBR
1684015200000,"METAF SBBR 132200Z  19006KT CAVOK 25/08 Q1015=
",SBBR
1684018800000,"METAF SBBR 132300Z  19007KT CAVOK 24/07 Q1016=
",SBBR
1683936000000,"METAF SBCF 130000Z  10006KT CAVOK 18/15 Q1016=
",SBCF
1683939600000,"METAF SBCF 130100Z  12005KT 2000     BR SCT027   17/15 Q1017=
",SBCF
1683943200000,"METAF SBCF 130200Z  12006KT 2000     BR BKN023   17/15 Q1017=
",SBCF
1683946800000,"METAF SBCF 130300Z  12005KT 1000     BR BKN023   16/15 Q1016=
",SBCF
1683950400000,"METAF SBCF 130400Z  12006KT 1000     BR OVC024   16/15 Q1016=
",SBCF
1683954000000,"METAF SBCF 130500Z  13006KT 0650 FG     OVC028   15/15 Q1016=
",SBCF
1683957600000,"METAF SBCF 130600Z  12005KT 1000     BR BKN032   14/13 Q1016=
",SBCF
1683961200000,"METAF SBCF 130700Z  13005KT 1000     BR BKN030   14/13 Q1016=
",SBCF
1683964800000,"METAF SBCF 130800Z  13005KT 1000     BR OVC030   13/13 Q1016=
",SBCF
1683968400000,"METAF SBCF 130900Z  13004KT 1000     BR OVC031   13/12 Q1016=
",SBCF
1683972000000,"METAF SBCF 131000Z  13006KT 2000     BR OVC029   15/13 Q1017=
",SBCF
1683975600000,"METAF SBCF 131100Z  11007KT 5000     BR OVC028   17/15 Q1018=
",SBCF
1683979200000,"METAF SBCF 131200Z  10007KT 9999       BKN028   20/15 Q1018=
",SBCF
1683982800000,"METAF SBCF 131300Z 08005KT 9999       BKN027   22/15 Q1018=
",SBCF
1683986400000,"METAF SBCF 131400Z 06004KT 9999       BKN033   24/15 Q1017=
",SBCF
1683990000000,"METAF SBCF 131500Z 04003KT 9999       FEW033   25/14 Q1016=
",SBCF
1683993600000,"METAF SBCF 131600Z 01002KT CAVOK 26/14 Q1015=
",SBCF
1683997200000,"METAF SBCF 131700Z  33002KT CAVOK 27/13 Q1014=
",SBCF
1684000800000,"METAF SBCF 131800Z  30005KT CAVOK 27/11 Q1013=
",SBCF
1684004400000,"METAF SBCF 131900Z  27005KT CAVOK 27/11 Q1013=
",SBCF
1684008000000,"METAF SBCF 132000Z  25005KT CAVOK 26/11 Q1014=
",SBCF
1684011600000,"METAF SBCF 132100Z  23006KT CAVOK 22/11 Q1015=
",SBCF
1684015200000,"METAF SBCF 132200Z  21007KT CAVOK 21/10 Q1016=
",SBCF
1684018800000,"METAF SBCF 132300Z  15007KT CAVOK 20/12 Q1017=
",SBCF
1683936000000,"METAF SBCT 130000Z  10005KT 0800 FG     OVC033   010/10 Q1020=
",SBCT
1683939600000,"METAF SBCT 130100Z  11005KT 0550 FG     OVC017   010/10 Q1020=
",SBCT
1683943200000,"METAF SBCT 130200Z  12004KT 0400 FG     OVC033   09/09 Q1021=
",SBCT
1683946800000,"METAF SBCT 130300Z  10004KT 0450 FG     OVC033   09/09 Q1020=
",SBCT
1683950400000,"METAF SBCT 130400Z  10004KT 0750 FG     OVC033   09/09 Q1020=
",SBCT
1683954000000,"METAF SBCT 130500Z  10003KT 0500 FG     OVC032   09/08 Q1020=
",SBCT
1683957600000,"METAF SBCT 130600Z 08003KT 1000     BR OVC031   08/08 Q1020=
",SBCT
1683961200000,"METAF SBCT 130700Z 07003KT 0650 FG     OVC012   08/08 Q1019=
",SBCT
1683964800000,"METAF SBCT 130800Z  10003KT 0500 FG     OVC014   08/08 Q1019=
",SBCT
1683968400000,"METAF SBCT 130900Z  10003KT 0500 FG     OVC011   08/07 Q1019=
",SBCT
1683972000000,"METAF SBCT 131000Z 09003KT 0500 FG     OVC013   08/07 Q1019=
",SBCT
1683975600000,"METAF SBCT 131100Z 05003KT 1000     BR OVC014   010/09 Q1020=
",SBCT
1683979200000,"METAF SBCT 131200Z 03004KT 6000       OVC012   12/09 Q1021=
",SBCT
1683982800000,"METAF SBCT 131300Z 02003KT 9999       BKN020   14/09 Q1021=
",SBCT
1683986400000,"METAF SBCT 131400Z  36004KT 9999       BKN027   15/08 Q1021=
",SBCT
1683990000000,"METAF SBCT 131500Z 01003KT 9999       SCT033   16/08 Q1020=
",SBCT
1683993600000,"METAF SBCT 131600Z  36002KT 9999       FEW033   17/07 Q1019=
",SBCT
1683997200000,"METAF SBCT 131700Z  35002KT CAVOK 18/07 Q1018=
",SBCT
1684000800000,"METAF SBCT 131800Z  29004KT CAVOK 19/07 Q1017=
",SBCT
1684004400000,"METAF SBCT 131900Z  29006KT CAVOK 19/05 Q1018=
",SBCT
1684008000000,"METAF SBCT 132000Z  27004KT CAVOK 18/06 Q1018=
",SBCT
1684011600000,"METAF SBCT 132100Z 09002KT CAVOK 15/09 Q1019=
",SBCT
1684015200000,"METAF SBCT 132200Z 07005KT 4000     BR BKN013   13/11 Q1019=
",SBCT
1684018800000,"METAF SBCT 132300Z 06004KT 2000     BR OVC014   12/11 Q1020=
",SBCT
1683936000000,"METAF SBFL 130000Z  20010KT 9999       BKN033   17/12 Q1021=
",SBFL
1683939600000,"METAF SBFL 130100Z  20010KT 9999       BKN033   17/11 Q1021=
",SBFL
1683943200000,"METAF SBFL 130200Z  20009KT 9999       BKN033   16/11 Q1021=
",SBFL
1683946800000,"METAF SBFL 130300Z  21009KT 9999       BKN033   16/11 Q1021=
",SBFL
1683950400000,"METAF SBFL 130400Z  21009KT 9999       BKN033   16/10 Q1020=
",SBFL
1683954000000,"METAF SBFL 130500Z  21010KT 9999       BKN033   16/10 Q1020=
",SBFL
1683957600000,"METAF SBFL 130600Z  21009KT 9999       OVC033   16/10 Q1020=
",SBFL
1683961200000,"METAF SBFL 130700Z  21009KT 9999       OVC033   16/10 Q1019=
",SBFL
1683964800000,"METAF SBFL 130800Z  21008KT 9999       OVC033   16/10 Q1019=
",SBFL
1683968400000,"METAF SBFL 130900Z  21006KT 9999       BKN033   16/10 Q1019=
",SBFL
1683972000000,"METAF SBFL 131000Z  21006KT 9999       BKN033   16/09 Q1020=
",SBFL
1683975600000,"METAF SBFL 131100Z  22004KT 9999       BKN033   18/10 Q1020=
",SBFL
1683979200000,"METAF SBFL 131200Z  27003KT 9999       OVC032   18/11 Q1021=
",SBFL
1683982800000,"METAF SBFL 131300Z  30002KT 9999       OVC033   19/11 Q1021=
",SBFL
1683986400000,"METAF SBFL 131400Z  34002KT 9999       BKN033   19/10 Q1021=
",SBFL
1683990000000,"METAF SBFL 131500Z 01004KT 9999       SCT033   20/11 Q1020=
",SBFL
1683993600000,"METAF SBFL 131600Z 02007KT 9999       BKN033   20/11 Q1019=
",SBFL
1683997200000,"METAF SBFL 131700Z 04007KT 9999       BKN033   20/12 Q1018=
",SBFL
1684000800000,"METAF SBFL 131800Z 01009KT 9999       BKN033   21/13 Q1017=
",SBFL
1684004400000,"METAF SBFL 131900Z 02010KT 9999       BKN033   21/13 Q1017=
",SBFL
1684008000000,"METAF SBFL 132000Z 03010KT 9999       OVC031   20/13 Q1018=
",SBFL
1684011600000,"METAF SBFL 132100Z 03008KT 9999       OVC033   19/13 Q1018=
",SBFL
1684015200000,"METAF SBFL 132200Z 03006KT 9999       BKN026   18/14 Q1019=
",SBFL
1684018800000,"METAF SBFL 132300Z 01005KT 9000       OVC025   18/14 Q1019=
",SBFL
1683936000000,"METAF SBGL 130000Z  24003KT 9999       OVC026   21/16 Q1018=
",SBGL
1683939600000,"METAF SBGL 130100Z  28003KT 9999       OVC026   21/16 Q1018=
",SBGL
1683943200000,"METAF SBGL 130200Z  28003KT 9999  - RA  OVC028   20/16 Q1018=
",SBGL
1683946800000,"METAF SBGL 130300Z  29004KT 9000    RA  OVC025   20/16 Q1018=
",SBGL
1683950400000,"METAF SBGL 130400Z  28005KT 8000       OVC021   20/16 Q1018=
",SBGL
1683954000000,"METAF SBGL 130500Z  28005KT 6000       BKN021   19/16 Q1017=
",SBGL
1683957600000,"METAF SBGL 130600Z  28004KT 6000       OVC018   19/16 Q1017=
",SBGL
1683961200000,"METAF SBGL 130700Z  29004KT 5000    RABR OVC018   19/16 Q1017=
",SBGL
1683964800000,"METAF SBGL 130800Z  30004KT 5000  - RABR OVC017   19/16 Q1018=
",SBGL
1683968400000,"METAF SBGL 130900Z  31005KT 5000    RABR BKN020   18/15 Q1018=
",SBGL
1683972000000,"METAF SBGL 131000Z  30005KT 6000       BKN019   18/15 Q1018=
",SBGL
1683975600000,"METAF SBGL 131100Z  29005KT 9000       BKN019   20/15 Q1019=
",SBGL
1683979200000,"METAF SBGL 131200Z  27003KT 9999       OVC023   21/15 Q1020=
",SBGL
1683982800000,"METAF SBGL 131300Z  23003KT 9999       OVC028   22/15 Q1020=
",SBGL
1683986400000,"METAF SBGL 131400Z  20004KT 9999       OVC032   23/14 Q1019=
",SBGL
1683990000000,"METAF SBGL 131500Z  20005KT 9999       OVC033   23/14 Q1018=
",SBGL
1683993600000,"METAF SBGL 131600Z  19007KT 9999       OVC033   24/14 Q1017=
",SBGL
1683997200000,"METAF SBGL 131700Z  18008KT 9999       BKN033   24/14 Q1017=
",SBGL
1684000800000,"METAF SBGL 131800Z  18009KT 9999       BKN033   23/14 Q1017=
",SBGL
1684004400000,"METAF SBGL 131900Z  17009KT 9999       BKN031   23/14 Q1017=
",SBGL
1684008000000,"METAF SBGL 132000Z  16007KT 9999       OVC029   22/15 Q1018=
",SBGL
1684011600000,"METAF SBGL 132100Z  16006KT 9999       OVC033   22/15 Q1018=
",SBGL
1684015200000,"METAF SBGL 132200Z  15005KT 9999       OVC033   22/15 Q1019=
",SBGL
1684018800000,"METAF SBGL 132300Z  12004KT 9999       OVC033   22/15 Q1020=
",SBGL
1683936000000,"METAF SBGR 130000Z  18006KT 2000     BR OVC033   14/12 Q1020=
",SBGR
1683939600000,"METAF SBGR 130100Z  17006KT 2000     BR OVC033   13/12 Q1020=
",SBGR
1683943200000,"METAF SBGR 130200Z  16004KT 2000     BR OVC033   13/12 Q1020=
",SBGR
1683946800000,"METAF SBGR 130300Z  14004KT 2000     BR OVC033   13/12 Q1019=
",SBGR
1683950400000,"METAF SBGR 130400Z  14004KT 1000     BR OVC033   13/12 Q1019=
",SBGR
1683954000000,"METAF SBGR 130500Z  13003KT 1000     BR OVC033   12/11 Q1019=
",SBGR
1683957600000,"METAF SBGR 130600Z  16004KT 1000     BR OVC033   12/11 Q1019=
",SBGR
1683961200000,"METAF SBGR 130700Z  14005KT 1000     BR OVC033   12/11 Q1018=
",SBGR
1683964800000,"METAF SBGR 130800Z  12004KT 1000     BR OVC033   12/11 Q1018=
",SBGR
1683968400000,"METAF SBGR 130900Z  12004KT 1000     BR OVC033   12/11 Q1018=
",SBGR
1683972000000,"METAF SBGR 131000Z  11004KT 1000     BR OVC033   12/11 Q1019=
",SBGR
1683975600000,"METAF SBGR 131100Z  10005KT 3000     BR OVC033   13/12 Q1020=
",SBGR
1683979200000,"METAF SBGR 131200Z  12006KT 8000       OVC014   15/11 Q1020=
",SBGR
1683982800000,"METAF SBGR 131300Z  10005KT 9999       OVC021   16/10 Q1021=
",SBGR
1683986400000,"METAF SBGR 131400Z 09005KT 9999       BKN028   17/10 Q1020=
",SBGR
1683990000000,"METAF SBGR 131500Z 09004KT 9999       BKN033   18/09 Q1020=
",SBGR
1683993600000,"METAF SBGR 131600Z 09003KT 9999       SCT033   19/09 Q1019=
",SBGR
1683997200000,"METAF SBGR 131700Z  11002KT CAVOK 20/08 Q1017=
",SBGR
1684000800000,"METAF SBGR 131800Z  13001KT CAVOK 20/08 Q1017=
",SBGR
1684004400000,"METAF SBGR 131900Z  14006KT 9999       FEW033   20/09 Q1017=
",SBGR
1684008000000,"METAF SBGR 132000Z  13008KT 9999       OVC023   18/12 Q1018=
",SBGR
1684011600000,"METAF SBGR 132100Z  13007KT 9999       OVC018   16/11 Q1018=
",SBGR
1684015200000,"METAF SBGR 132200Z  13007KT 8000       OVC027   15/11 Q1019=
",SBGR
1684018800000,"METAF SBGR 132300Z  12007KT 6000       OVC033   15/11 Q1020=
",SBGR
1683936000000,"METAF SBKP 130000Z  13009KT 5000     BR FEW033   14/11 Q1018=
",SBKP
1683939600000,"METAF SBKP 130100Z  12009KT 5000     BR SCT033   14/11 Q1019=
",SBKP
1683943200000,"METAF SBKP 130200Z  11009KT 3000     BR BKN033   13/11 Q1019=
",SBKP
1683946800000,"METAF SBKP 130300Z  12010KT 2000     BR BKN014   13/12 Q1018=
",SBKP
1683950400000,"METAF SBKP 130400Z  12010KT 2000     BR BKN015   13/11 Q1018=
",SBKP
1683954000000,"METAF SBKP 130500Z  12010KT 2000     BR BKN018   13/11 Q1018=
",SBKP
1683957600000,"METAF SBKP 130600Z  12009KT 2000     BR BKN019   12/11 Q1018=
",SBKP
1683961200000,"METAF SBKP 130700Z  11009KT 2000     BR BKN016   12/11 Q1017=
",SBKP
1683964800000,"METAF SBKP 130800Z  11010KT 1000     BR BKN014   12/11 Q1018=
",SBKP
1683968400000,"METAF SBKP 130900Z  11010KT 1000     BR BKN017   12/11 Q1018=
",SBKP
1683972000000,"METAF SBKP 131000Z  11010KT 2000     BR BKN020   12/11 Q1019=
",SBKP
1683975600000,"METAF SBKP 131100Z  11011KT 5000     BR BKN021   14/11 Q1019=
",SBKP
1683979200000,"METAF SBKP 131200Z  11010KT 9999       FEW022   16/11 Q1019=
",SBKP
1683982800000,"METAF SBKP 131300Z  10007KT CAVOK 18/10 Q1020=
",SBKP
1683986400000,"METAF SBKP 131400Z  12006KT CAVOK 19/10 Q1020=
",SBKP
1683990000000,"METAF SBKP 131500Z  12004KT CAVOK 20/09 Q1019=
",SBKP
1683993600000,"METAF SBKP 131600Z  12002KT CAVOK 21/08 Q1018=
",SBKP
1683997200000,"METAF SBKP 131700Z  20001KT CAVOK 22/07 Q1017=
",SBKP
1684000800000,"METAF SBKP 131800Z  23004KT CAVOK 22/06 Q1016=
",SBKP
1684004400000,"METAF SBKP 131900Z  22004KT CAVOK 22/07 Q1016=
",SBKP
1684008000000,"METAF SBKP 132000Z  22004KT CAVOK 21/08 Q1017=
",SBKP
1684011600000,"METAF SBKP 132100Z  21005KT CAVOK 18/08 Q1017=
",SBKP
1684015200000,"METAF SBKP 132200Z  17005KT CAVOK 17/08 Q1018=
",SBKP
1684018800000,"METAF SBKP 132300Z  11011KT 9000       FEW027   16/12 Q1019=
",SBKP
1683936000000,"METAF SBPA 130000Z  11004KT 9999       FEW033   16/08 Q1021=
",SBPA
1683939600000,"METAF SBPA 130100Z 08005KT 9999       FEW033   15/09 Q1021=
",SBPA
1683943200000,"METAF SBPA 130200Z 05004KT CAVOK 14/09 Q1021=
",SBPA
1683946800000,"METAF SBPA 130300Z 05003KT CAVOK 14/08 Q1021=
",SBPA
1683950400000,"METAF SBPA 130400Z 06003KT CAVOK 13/08 Q1021=
",SBPA
1683954000000,"METAF SBPA 130500Z 04003KT CAVOK 13/08 Q1021=
",SBPA
1683957600000,"METAF SBPA 130600Z  25002KT CAVOK 13/08 Q1020=
",SBPA
1683961200000,"METAF SBPA 130700Z  29002KT CAVOK 12/08 Q1020=
",SBPA
1683964800000,"METAF SBPA 130800Z  29003KT CAVOK 12/07 Q1019=
",SBPA
1683968400000,"METAF SBPA 130900Z  28003KT CAVOK 11/07 Q1020=
",SBPA
1683972000000,"METAF SBPA 131000Z  29004KT CAVOK 11/07 Q1020=
",SBPA
1683975600000,"METAF SBPA 131100Z  29003KT CAVOK 11/07 Q1021=
",SBPA
1683979200000,"METAF SBPA 131200Z  29004KT CAVOK 13/07 Q1021=
",SBPA
1683982800000,"METAF SBPA 131300Z  29003KT CAVOK 15/07 Q1021=
",SBPA
1683986400000,"METAF SBPA 131400Z  31003KT CAVOK 16/07 Q1021=
",SBPA
1683990000000,"METAF SBPA 131500Z  31004KT CAVOK 18/06 Q1020=
",SBPA
1683993600000,"METAF SBPA 131600Z  30004KT CAVOK 19/05 Q1019=
",SBPA
1683997200000,"METAF SBPA 131700Z  29004KT CAVOK 20/04 Q1018=
",SBPA
1684000800000,"METAF SBPA 131800Z  29004KT CAVOK 21/05 Q1017=
",SBPA
1684004400000,"METAF SBPA 131900Z  28005KT CAVOK 22/05 Q1017=
",SBPA
1684008000000,"METAF SBPA 132000Z  29005KT CAVOK 21/05 Q1017=
",SBPA
1684011600000,"METAF SBPA 132100Z  28005KT CAVOK 21/05 Q1018=
",SBPA
1684015200000,"METAF SBPA 132200Z  29003KT CAVOK 20/06 Q1018=
",SBPA
1684018800000,"METAF SBPA 132300Z  31003KT CAVOK 19/06 Q1018=
",SBPA
1683936000000,"METAF SBRJ 130000Z  24003KT 9999       OVC026   21/16 Q1018=
",SBRJ
1683939600000,"METAF SBRJ 130100Z  28003KT 9999       OVC026   21/16 Q1018=
",SBRJ
1683943200000,"METAF SBRJ 130200Z  28003KT 9999  - RA  OVC028   20/16 Q1018=
",SBRJ
1683946800000,"METAF SBRJ 130300Z  29004KT 9000    RA  OVC025   20/16 Q1018=
",SBRJ
1683950400000,"METAF SBRJ 130400Z  28005KT 8000       OVC021   20/16 Q1018=
",SBRJ
1683954000000,"METAF SBRJ 130500Z  28005KT 6000       BKN021   19/16 Q1017=
",SBRJ
1683957600000,"METAF SBRJ 130600Z  28004KT 6000       OVC018   19/16 Q1017=
",SBRJ
1683961200000,"METAF SBRJ 130700Z  29004KT 5000    RABR OVC018   19/16 Q1017=
",SBRJ
1683964800000,"METAF SBRJ 130800Z  30004KT 5000  - RABR OVC017   19/16 Q1018=
",SBRJ
1683968400000,"METAF SBRJ 130900Z  31005KT 5000    RABR BKN020   18/15 Q1018=
",SBRJ
1683972000000,"METAF SBRJ 131000Z  30005KT 6000       BKN019   18/15 Q1018=
",SBRJ
1683975600000,"METAF SBRJ 131100Z  29005KT 9000       BKN019   20/15 Q1019=
",SBRJ
1683979200000,"METAF SBRJ 131200Z  27003KT 9999       OVC023   21/15 Q1020=
",SBRJ
1683982800000,"METAF SBRJ 131300Z  23003KT 9999       OVC028   22/15 Q1020=
",SBRJ
1683986400000,"METAF SBRJ 131400Z  20004KT 9999       OVC032   23/14 Q1019=
",SBRJ
1683990000000,"METAF SBRJ 131500Z  20005KT 9999       OVC033   23/14 Q1018=
",SBRJ
1683993600000,"METAF SBRJ 131600Z  19007KT 9999       OVC033   24/14 Q1017=
",SBRJ
1683997200000,"METAF SBRJ 131700Z  18008KT 9999       BKN033   24/14 Q1017=
",SBRJ
1684000800000,"METAF SBRJ 131800Z  18009KT 9999       BKN033   23/14 Q1017=
",SBRJ
1684004400000,"METAF SBRJ 131900Z  17009KT 9999       BKN031   23/14 Q1017=
",SBRJ
1684008000000,"METAF SBRJ 132000Z  16007KT 9999       OVC029   22/15 Q1018=
",SBRJ
1684011600000,"METAF SBRJ 132100Z  16006KT 9999       OVC033   22/15 Q1018=
",SBRJ
1684015200000,"METAF SBRJ 132200Z  15005KT 9999       OVC033   22/15 Q1019=
",SBRJ
1684018800000,"METAF SBRJ 132300Z  12004KT 9999       OVC033   22/15 Q1020=
",SBRJ
1683936000000,"METAF SBSP 130000Z  18007KT 2000     BR OVC033   14/12 Q1020=
",SBSP
1683939600000,"METAF SBSP 130100Z  18007KT 2000     BR OVC033   14/12 Q1020=
",SBSP
1683943200000,"METAF SBSP 130200Z  16005KT 2000     BR OVC033   14/12 Q1020=
",SBSP
1683946800000,"METAF SBSP 130300Z  15003KT 1000     BR OVC033   14/12 Q1020=
",SBSP
1683950400000,"METAF SBSP 130400Z  15003KT 1000     BR OVC033   13/12 Q1019=
",SBSP
1683954000000,"METAF SBSP 130500Z  14003KT 2000     BR OVC033   13/12 Q1019=
",SBSP
1683957600000,"METAF SBSP 130600Z  16005KT 1000     BR OVC033   13/12 Q1019=
",SBSP
1683961200000,"METAF SBSP 130700Z  15005KT 1000     BR OVC033   13/12 Q1018=
",SBSP
1683964800000,"METAF SBSP 130800Z  14004KT 1000     BR OVC033   13/12 Q1018=
",SBSP
1683968400000,"METAF SBSP 130900Z  12003KT 1000     BR OVC033   13/12 Q1019=
",SBSP
1683972000000,"METAF SBSP 131000Z  10003KT 1000     BR OVC033   13/12 Q1019=
",SBSP
1683975600000,"METAF SBSP 131100Z 09004KT 4000     BR OVC033   14/11 Q1020=
",SBSP
1683979200000,"METAF SBSP 131200Z  12005KT 9000       OVC014   15/11 Q1020=
",SBSP
1683982800000,"METAF SBSP 131300Z  11004KT 9999       OVC018   16/11 Q1021=
",SBSP
1683986400000,"METAF SBSP 131400Z  11003KT 9999       OVC022   17/11 Q1020=
",SBSP
1683990000000,"METAF SBSP 131500Z  14005KT 9999       OVC020   17/12 Q1020=
",SBSP
1683993600000,"METAF SBSP 131600Z  14004KT 9999       OVC023   18/12 Q1019=
",SBSP
1683997200000,"METAF SBSP 131700Z  14005KT 9999       OVC027   19/11 Q1018=
",SBSP
1684000800000,"METAF SBSP 131800Z  14005KT 9999       BKN033   19/10 Q1017=
",SBSP
1684004400000,"METAF SBSP 131900Z  14010KT 9999       OVC024   18/11 Q1017=
",SBSP
1684008000000,"METAF SBSP 132000Z  14009KT 9999       BKN033   17/11 Q1018=
",SBSP
1684011600000,"METAF SBSP 132100Z  14008KT 8000       OVC033   16/12 Q1018=
",SBSP
1684015200000,"METAF SBSP 132200Z  14007KT 7000       OVC033   15/12 Q1019=
",SBSP
1684018800000,"METAF SBSP 132300Z  12006KT 5000     BR OVC033   15/12 Q1020=
",SBSP
