hora,metaf,aero
1655337600000,"METAF SBGL 160000Z 09006KT CAVOK 20/15 Q1021=
",SBGL
1655341200000,"METAF SBGL 160100Z 07006KT CAVOK 19/15 Q1021=
",SBGL
1655337600000,"METAF SBGR 160000Z 08004KT CAVOK 13/09 Q1020=
",SBGR
1655341200000,"METAF SBGR 160100Z 06005KT CAVOK 12/09 Q1020=
",SBGR
1655337600000,"METAF SBKP 160000Z  12005KT CAVOK 19/07 Q1019=
",SBKP
1655341200000,"METAF SBKP 160100Z  11006KT CAVOK 18/07 Q1020=
",SBKP
1655337600000,"METAF SBSP 160000Z 07002KT 6000       FEW033   15/12 Q1020=
",SBSP
1655341200000,"METAF SBSP 160100Z  35002KT 6000       FEW033   15/12 Q1020=
",SBSP
