hora,metaf,aero
1672531200000,"METAF SBGL 010000Z 08008KT 9999       BKN033   26/20 Q1016=
",SBGL
1672534800000,"METAF SBGL 010100Z 08009KT 9999       BKN033   25/20 Q1015=
",SBGL
1672538400000,"METAF SBGL 010200Z 07007KT 9000       FEW020   24/20 Q1016=
",SBGL
1672542000000,"METAF SBGL 010300Z 07006KT CAVOK 24/19 Q1016=
",SBGL
1672545600000,"METAF SBGL 010400Z 08005KT CAVOK 24/19 Q1014=
",SBGL
1672549200000,"METAF SBGL 010500Z  10005KT CAVOK 23/19 Q1014=
",SBGL
1672552800000,"METAF SBGL 010600Z 04002KT 5000     BR BKN022   22/20 Q1014=
",SBGL
1672556400000,"METAF SBGL 010700Z 05002KT 5000     BR BKN024   22/19 Q1013=
",SBGL
1672560000000,"METAF SBGL 010800Z  33001KT 5000     BR BKN028   22/19 Q1014=
",SBGL
1672563600000,"METAF SBGL 010900Z  24002KT 7000       BKN033   22/19 Q1016=
",SBGL
1672567200000,"METAF SBGL 011000Z  20002KT 9999       SCT032   24/19 Q1015=
",SBGL
1672570800000,"METAF SBGL 011100Z  18004KT 9999       FEW028   26/19 Q1015=
",SBGL
1672574400000,"METAF SBGL 011200Z  16001KT 9999       BKN025   26/20 Q1017=
",SBGL
1672578000000,"METAF SBGL 011300Z  14003KT 9999       BKN030   28/20 Q1015=
",SBGL
1672581600000,"METAF SBGL 011400Z  17005KT 9999       SCT033   29/20 Q1015=
",SBGL
1672585200000,"METAF SBGL 011500Z  17007KT 9999       SCT033   29/20 Q1015=
",SBGL
1672588800000,"METAF SBGL 011600Z  15008KT 9999       SCT033   30/20 Q1014=
",SBGL
1672592400000,"METAF SBGL 011700Z  14009KT 9999       SCT033   30/20 Q1012=
",SBGL
1672596000000,"METAF SBGL 011800Z  14008KT CAVOK 30/19 Q1013=
",SBGL
1672599600000,"METAF SBGL 011900Z  12006KT 9999       SCT033   31/20 Q1011=
",SBGL
1672603200000,"METAF SBGL 012000Z 07007KT 9999       OVC033   30/21 Q1011=
",SBGL
1672606800000,"METAF SBGL 012100Z 07008KT 9999       BKN033   29/21 Q1012=
",SBGL
1672610400000,"METAF SBGL 012200Z 08011KT 9999       BKN028   28/21 Q1012=
",SBGL
1672614000000,"METAF SBGL 012300Z 08011KT 9999       SCT022   26/21 Q1013=
",SBGL
1672531200000,"METAF SBGR 010000Z 09006KT 5000     BR BKN012   21/18 Q1017=
",SBGR
1672534800000,"METAF SBGR 010100Z 08005KT 4000     BR BKN011   20/18 Q1016=
",SBGR
1672538400000,"METAF SBGR 010200Z 06005KT 4000     BR BKN025   20/17 Q1016=
",SBGR
1672542000000,"METAF SBGR 010300Z 05004KT 3000     BR BKN020   19/17 Q1016=
",SBGR
1672545600000,"METAF SBGR 010400Z 04005KT 2000     BR BKN020   19/17 Q1014=
",SBGR
1672549200000,"METAF SBGR 010500Z 04006KT 3000     BR BKN020   19/17 Q1013=
",SBGR
1672552800000,"METAF SBGR 010600Z 03004KT 2000     BR BKN028   17/16 Q1015=
",SBGR
1672556400000,"METAF SBGR 010700Z 03001KT 2000     BR BKN033   17/16 Q1015=
",SBGR
1672560000000,"METAF SBGR 010800Z  36003KT 3000     BR BKN033   18/16 Q1015=
",SBGR
1672563600000,"METAF SBGR 010900Z  34004KT 6000       FEW033   19/16 Q1016=
",SBGR
1672567200000,"METAF SBGR 011000Z  34007KT CAVOK 21/16 Q1015=
",SBGR
1672570800000,"METAF SBGR 011100Z  34009KT CAVOK 23/16 Q1015=
",SBGR
1672574400000,"METAF SBGR 011200Z 08005KT 9999       SCT023   22/16 Q1018=
",SBGR
1672578000000,"METAF SBGR 011300Z 06003KT 9999       FEW031   24/16 Q1018=
",SBGR
1672581600000,"METAF SBGR 011400Z  36002KT 9999       SCT033   26/16 Q1017=
",SBGR
1672585200000,"METAF SBGR 011500Z  31004KT 9999       FEW033   28/16 Q1016=
",SBGR
1672588800000,"METAF SBGR 011600Z  31005KT CAVOK 29/16 Q1014=
",SBGR
1672592400000,"METAF SBGR 011700Z  32004KT CAVOK 30/16 Q1012=
",SBGR
1672596000000,"METAF SBGR 011800Z  12008KT 9999    RA  BKN033   27/18 Q1014=
",SBGR
1672599600000,"METAF SBGR 011900Z  11007KT 9999    RA  SCT033   27/17 Q1012=
",SBGR
1672603200000,"METAF SBGR 012000Z  11007KT CAVOK 28/16 Q1012=
",SBGR
1672606800000,"METAF SBGR 012100Z  11006KT CAVOK 27/15 Q1013=
",SBGR
1672610400000,"METAF SBGR 012200Z  11005KT CAVOK 25/16 Q1012=
",SBGR
1672614000000,"METAF SBGR 012300Z  12005KT CAVOK 24/17 Q1012=
",SBGR
1672567200000,"METAF SBKP 011000Z 02007KT CAVOK 21/16 Q1015=
",SBKP
1672531200000,"METAF SBKP 010000Z  11010KT 6000       SCT029   22/19 Q1016=
",SBKP
1672534800000,"METAF SBKP 010100Z  11008KT 4000     BR SCT023   21/19 Q1015=
",SBKP
1672538400000,"METAF SBKP 010200Z  10008KT 3000     BR BKN020   21/19 Q1015=
",SBKP
1672542000000,"METAF SBKP 010300Z  10007KT 3000     BR SCT025   20/18 Q1016=
",SBKP
1672545600000,"METAF SBKP 010400Z 07006KT 4000     BR SCT033   20/18 Q1014=
",SBKP
1672549200000,"METAF SBKP 010500Z 05005KT 4000     BR FEW033   20/17 Q1013=
",SBKP
1672552800000,"METAF SBKP 010600Z  10005KT 2000     BR BKN033   18/17 Q1015=
",SBKP
1672556400000,"METAF SBKP 010700Z  10004KT 2000     BR SCT033   18/16 Q1015=
",SBKP
1672560000000,"METAF SBKP 010800Z 06004KT 2000     BR FEW033   17/16 Q1015=
",SBKP
1672563600000,"METAF SBKP 010900Z 06004KT 4000     BR FEW033   18/16 Q1016=
",SBKP
1672570800000,"METAF SBKP 011100Z  36008KT CAVOK 23/17 Q1015=
",SBKP
1672574400000,"METAF SBKP 011200Z 06004KT 9999       FEW033   25/17 Q1017=
",SBKP
1672578000000,"METAF SBKP 011300Z  33003KT 9999       SCT033   27/17 Q1017=
",SBKP
1672581600000,"METAF SBKP 011400Z  31005KT 9999       FEW033   28/17 Q1017=
",SBKP
1672585200000,"METAF SBKP 011500Z  31005KT CAVOK 29/17 Q1016=
",SBKP
1672588800000,"METAF SBKP 011600Z  29004KT CAVOK 30/17 Q1014=
",SBKP
1672592400000,"METAF SBKP 011700Z  28004KT CAVOK 30/17 Q1012=
",SBKP
1672596000000,"METAF SBKP 011800Z  11009KT CAVOK 30/17 Q1012=
",SBKP
1672599600000,"METAF SBKP 011900Z  11009KT CAVOK 30/17 Q1011=
",SBKP
1672603200000,"METAF SBKP 012000Z  11009KT CAVOK 29/18 Q1011=
",SBKP
1672606800000,"METAF SBKP 012100Z  10009KT CAVOK 28/18 Q1012=
",SBKP
1672610400000,"METAF SBKP 012200Z 09005KT CAVOK 26/19 Q1011=
",SBKP
1672614000000,"METAF SBKP 012300Z  10006KT CAVOK 25/18 Q1011=
",SBKP
1672531200000,"METAF SBSP 010000Z 09005KT 5000     BR BKN012   21/18 Q1017=
",SBSP
1672534800000,"METAF SBSP 010100Z 09003KT 4000     BR BKN015   21/18 Q1016=
",SBSP
1672538400000,"METAF SBSP 010200Z 05004KT 4000     BR BKN012   20/18 Q1016=
",SBSP
1672542000000,"METAF SBSP 010300Z 05003KT 5000     BR BKN021   20/17 Q1016=
",SBSP
1672545600000,"METAF SBSP 010400Z 03004KT 3000     BR BKN019   20/17 Q1014=
",SBSP
1672549200000,"METAF SBSP 010500Z 03005KT 2000     BR OVC018   19/18 Q1013=
",SBSP
1672552800000,"METAF SBSP 010600Z 03003KT 2000     BR OVC026   18/17 Q1015=
",SBSP
1672556400000,"METAF SBSP 010700Z  30001KT 1000     BR OVC031   18/17 Q1015=
",SBSP
1672560000000,"METAF SBSP 010800Z  35002KT 1000     BR BKN023   18/17 Q1015=
",SBSP
1672563600000,"METAF SBSP 010900Z  35003KT 3000     BR BKN033   18/17 Q1016=
",SBSP
1672567200000,"METAF SBSP 011000Z  34004KT CAVOK 21/16 Q1015=
",SBSP
1672570800000,"METAF SBSP 011100Z  34006KT CAVOK 23/15 Q1015=
",SBSP
1672574400000,"METAF SBSP 011200Z 06004KT 9999       SCT026   23/16 Q1018=
",SBSP
1672578000000,"METAF SBSP 011300Z 03003KT 9999       SCT033   25/16 Q1018=
",SBSP
1672581600000,"METAF SBSP 011400Z  35004KT 9999       FEW033   26/15 Q1017=
",SBSP
1672585200000,"METAF SBSP 011500Z  31004KT CAVOK 28/15 Q1016=
",SBSP
1672588800000,"METAF SBSP 011600Z  29004KT CAVOK 29/15 Q1014=
",SBSP
1672592400000,"METAF SBSP 011700Z  28002KT CAVOK 30/15 Q1012=
",SBSP
1672596000000,"METAF SBSP 011800Z  13008KT 9999       SCT033   27/17 Q1014=
",SBSP
1672599600000,"METAF SBSP 011900Z  13007KT 9999       FEW033   27/17 Q1013=
",SBSP
1672603200000,"METAF SBSP 012000Z  12007KT CAVOK 27/16 Q1012=
",SBSP
1672606800000,"METAF SBSP 012100Z  13007KT CAVOK 27/17 Q1013=
",SBSP
1672610400000,"METAF SBSP 012200Z  13005KT CAVOK 25/17 Q1012=
",SBSP
1672614000000,"METAF SBSP 012300Z  13005KT CAVOK 24/17 Q1012=
",SBSP
