hora,metaf,aero
1680220800000,"METAF SBBR 310000Z  16004KT CAVOK 23/12 Q1015=
",SBBR
1680224400000,"METAF SBBR 310100Z  16003KT CAVOK 22/11 Q1015=
",SBBR
1680228000000,"METAF SBBR 310200Z  15003KT CAVOK 21/11 Q1015=
",SBBR
1680231600000,"METAF SBBR 310300Z  12002KT CAVOK 21/11 Q1016=
",SBBR
1680235200000,"METAF SBBR 310400Z 07002KT CAVOK 20/11 Q1015=
",SBBR
1680238800000,"METAF SBBR 310500Z 07001KT CAVOK 20/10 Q1015=
",SBBR
1680242400000,"METAF SBBR 310600Z  16001KT CAVOK 19/12 Q1015=
",SBBR
1680246000000,"METAF SBBR 310700Z  18002KT CAVOK 19/11 Q1015=
",SBBR
1680249600000,"METAF SBBR 310800Z  13003KT CAVOK 18/11 Q1015=
",SBBR
1680253200000,"METAF SBBR 310900Z  14003KT CAVOK 17/11 Q1015=
",SBBR
1680256800000,"METAF SBBR 311000Z  14002KT CAVOK 18/10 Q1016=
",SBBR
1680260400000,"METAF SBBR 311100Z  12003KT CAVOK 20/10 Q1017=
",SBBR
1680264000000,"METAF SBBR 311200Z  11004KT CAVOK 23/11 Q1017=
",SBBR
1680267600000,"METAF SBBR 311300Z  11006KT CAVOK 25/10 Q1017=
",SBBR
1680271200000,"METAF SBBR 311400Z  10005KT CAVOK 26/09 Q1017=
",SBBR
1680274800000,"METAF SBBR 311500Z  10005KT CAVOK 27/09 Q1016=
",SBBR
1680278400000,"METAF SBBR 311600Z  10005KT CAVOK 28/09 Q1015=
",SBBR
1680282000000,"METAF SBBR 311700Z  10005KT CAVOK 28/09 Q1014=
",SBBR
1680285600000,"METAF SBBR 311800Z  11005KT CAVOK 29/09 Q1013=
",SBBR
1680289200000,"METAF SBBR 311900Z  12006KT CAVOK 29/09 Q1012=
",SBBR
1680292800000,"METAF SBBR 312000Z  13006KT CAVOK 29/09 Q1012=
",SBBR
1680296400000,"METAF SBBR 312100Z  14006KT CAVOK 29/09 Q1013=
",SBBR
1680300000000,"METAF SBBR 312200Z  15006KT CAVOK 28/10 Q1013=
",SBBR
1680303600000,"METAF SBBR 312300Z  16004KT CAVOK 27/10 Q1014=
",SBBR
1680220800000,"METAF SBCF 310000Z  11004KT CAVOK 19/13 Q1016=
",SBCF
1680224400000,"METAF SBCF 310100Z  14005KT CAVOK 18/12 Q1016=
",SBCF
1680228000000,"METAF SBCF 310200Z  16006KT CAVOK 18/12 Q1016=
",SBCF
1680231600000,"METAF SBCF 310300Z  17007KT CAVOK 18/12 Q1016=
",SBCF
1680235200000,"METAF SBCF 310400Z  16006KT CAVOK 17/11 Q1016=
",SBCF
1680238800000,"METAF SBCF 310500Z  13005KT CAVOK 16/10 Q1015=
",SBCF
1680242400000,"METAF SBCF 310600Z  13005KT CAVOK 15/12 Q1015=
",SBCF
1680246000000,"METAF SBCF 310700Z  12003KT CAVOK 15/10 Q1015=
",SBCF
1680249600000,"METAF SBCF 310800Z 09002KT CAVOK 15/09 Q1015=
",SBCF
1680253200000,"METAF SBCF 310900Z 09001KT CAVOK 15/09 Q1016=
",SBCF
1680256800000,"METAF SBCF 311000Z  16001KT CAVOK 18/10 Q1017=
",SBCF
1680260400000,"METAF SBCF 311100Z 06001KT CAVOK 21/11 Q1017=
",SBCF
1680264000000,"METAF SBCF 311200Z 01003KT CAVOK 24/11 Q1017=
",SBCF
1680267600000,"METAF SBCF 311300Z  36005KT CAVOK 26/11 Q1017=
",SBCF
1680271200000,"METAF SBCF 311400Z  34004KT CAVOK 28/10 Q1017=
",SBCF
1680274800000,"METAF SBCF 311500Z  31004KT CAVOK 29/09 Q1015=
",SBCF
1680278400000,"METAF SBCF 311600Z  28004KT CAVOK 30/09 Q1015=
",SBCF
1680282000000,"METAF SBCF 311700Z  26005KT CAVOK 31/09 Q1013=
",SBCF
1680285600000,"METAF SBCF 311800Z  27003KT CAVOK 31/10 Q1013=
",SBCF
1680289200000,"METAF SBCF 311900Z  26002KT CAVOK 31/10 Q1012=
",SBCF
1680292800000,"METAF SBCF 312000Z  24002KT CAVOK 30/10 Q1012=
",SBCF
1680296400000,"METAF SBCF 312100Z  21003KT CAVOK 26/11 Q1012=
",SBCF
1680300000000,"METAF SBCF 312200Z  22005KT CAVOK 24/12 Q1013=
",SBCF
1680303600000,"METAF SBCF 312300Z  22006KT CAVOK 23/12 Q1013=
",SBCF
1680220800000,"METAF SBCT 310000Z  14002KT 2000     BR BKN010   19/18 Q1016=
",SBCT
1680224400000,"METAF SBCT 310100Z  10003KT 1000  - RABR BKN033   19/18 Q1016=
",SBCT
1680228000000,"METAF SBCT 310200Z 09003KT 1000     BR BKN033   18/17 Q1016=
",SBCT
1680231600000,"METAF SBCT 310300Z 05002KT 2000     BR BKN033   18/17 Q1016=
",SBCT
1680235200000,"METAF SBCT 310400Z 04002KT 1000     BR BKN033   18/17 Q1016=
",SBCT
1680238800000,"METAF SBCT 310500Z 09001KT 1000     BR BKN033   17/16 Q1016=
",SBCT
1680242400000,"METAF SBCT 310600Z  16001KT 1000     BR OVC028   17/16 Q1015=
",SBCT
1680246000000,"METAF SBCT 310700Z  19001KT 0450 FG     OVC027   16/16 Q1015=
",SBCT
1680249600000,"METAF SBCT 310800Z  20002KT 0250 FG     OVC026   16/16 Q1015=
",SBCT
1680253200000,"METAF SBCT 310900Z  22002KT 0250 FG     OVC026   16/16 Q1016=
",SBCT
1680256800000,"METAF SBCT 311000Z  22002KT 0250 FG     OVC019   16/16 Q1016=
",SBCT
1680260400000,"METAF SBCT 311100Z  24002KT 2000     BR OVC019   18/17 Q1017=
",SBCT
1680264000000,"METAF SBCT 311200Z  22003KT 9999       SCT019   20/16 Q1017=
",SBCT
1680267600000,"METAF SBCT 311300Z  23004KT 9999       FEW026   22/16 Q1017=
",SBCT
1680271200000,"METAF SBCT 311400Z  24003KT 9999       SCT032   24/16 Q1017=
",SBCT
1680274800000,"METAF SBCT 311500Z  24004KT 9999       FEW033   25/16 Q1016=
",SBCT
1680278400000,"METAF SBCT 311600Z  24004KT CAVOK 26/16 Q1015=
",SBCT
1680282000000,"METAF SBCT 311700Z  24006KT CAVOK 27/16 Q1014=
",SBCT
1680285600000,"METAF SBCT 311800Z  23006KT CAVOK 27/16 Q1013=
",SBCT
1680289200000,"METAF SBCT 311900Z  22005KT CAVOK 27/16 Q1012=
",SBCT
1680292800000,"METAF SBCT 312000Z  22006KT CAVOK 27/16 Q1012=
",SBCT
1680296400000,"METAF SBCT 312100Z  19002KT CAVOK 26/17 Q1012=
",SBCT
1680300000000,"METAF SBCT 312200Z 05003KT 7000       FEW021   22/19 Q1013=
",SBCT
1680303600000,"METAF SBCT 312300Z 03004KT 4000     BR SCT017   21/19 Q1013=
",SBCT
1680220800000,"METAF SBFL 310000Z  19009KT 2000     BR BKN012   24/22 Q1014=
",SBFL
1680224400000,"METAF SBFL 310100Z  19007KT 2000     BR BKN013   24/22 Q1014=
",SBFL
1680228000000,"METAF SBFL 310200Z  20005KT 3000     BR BKN014   23/22 Q1014=
",SBFL
1680231600000,"METAF SBFL 310300Z  21004KT 3000     BR BKN016   23/21 Q1014=
",SBFL
1680235200000,"METAF SBFL 310400Z  26002KT 4000     BR BKN016   23/21 Q1014=
",SBFL
1680238800000,"METAF SBFL 310500Z  27004KT 4000     BR OVC016   23/21 Q1014=
",SBFL
1680242400000,"METAF SBFL 310600Z  30005KT 6000       SCT023   23/19 Q1013=
",SBFL
1680246000000,"METAF SBFL 310700Z  30005KT 6000       FEW025   23/19 Q1013=
",SBFL
1680249600000,"METAF SBFL 310800Z  28005KT 7000       FEW028   23/19 Q1013=
",SBFL
1680253200000,"METAF SBFL 310900Z  30005KT 8000       FEW030   23/19 Q1013=
",SBFL
1680256800000,"METAF SBFL 311000Z  30005KT 8000       FEW030   23/19 Q1014=
",SBFL
1680260400000,"METAF SBFL 311100Z  31004KT CAVOK 24/19 Q1014=
",SBFL
1680264000000,"METAF SBFL 311200Z  20001KT 9999       FEW023   24/20 Q1015=
",SBFL
1680267600000,"METAF SBFL 311300Z  17002KT 9999       FEW024   25/20 Q1015=
",SBFL
1680271200000,"METAF SBFL 311400Z  12002KT 9999       FEW025   25/20 Q1014=
",SBFL
1680274800000,"METAF SBFL 311500Z 08003KT 9999       SCT026   25/20 Q1014=
",SBFL
1680278400000,"METAF SBFL 311600Z 07004KT 9999       SCT026   26/21 Q1013=
",SBFL
1680282000000,"METAF SBFL 311700Z 07005KT 9000       SCT025   26/21 Q1012=
",SBFL
1680285600000,"METAF SBFL 311800Z 08007KT 9000       SCT033   26/21 Q1011=
",SBFL
1680289200000,"METAF SBFL 311900Z 06008KT 8000       SCT033   25/21 Q1011=
",SBFL
1680292800000,"METAF SBFL 312000Z 06006KT 7000       SCT033   25/21 Q1010=
",SBFL
1680296400000,"METAF SBFL 312100Z 05005KT 6000       SCT033   25/22 Q1010=
",SBFL
1680300000000,"METAF SBFL 312200Z 02006KT 4000     BR SCT033   24/22 Q1010=
",SBFL
1680303600000,"METAF SBFL 312300Z  35007KT 3000     BR SCT033   24/22 Q1011=
",SBFL
1680220800000,"METAF SBGL 310000Z 01003KT 7000       BKN017   26/23 Q1015=
",SBGL
1680224400000,"METAF SBGL 310100Z  33003KT 6000       BKN015   26/23 Q1015=
",SBGL
1680228000000,"METAF SBGL 310200Z  25002KT 6000       SCT015   26/23 Q1015=
",SBGL
1680231600000,"METAF SBGL 310300Z  27002KT 5000     BR SCT015   26/23 Q1014=
",SBGL
1680235200000,"METAF SBGL 310400Z  28003KT 5000     BR FEW016   25/22 Q1013=
",SBGL
1680238800000,"METAF SBGL 310500Z  23003KT CAVOK 25/22 Q1012=
",SBGL
1680242400000,"METAF SBGL 310600Z  22002KT CAVOK 24/21 Q1012=
",SBGL
1680246000000,"METAF SBGL 310700Z  23002KT CAVOK 24/21 Q1012=
",SBGL
1680249600000,"METAF SBGL 310800Z  21002KT CAVOK 24/20 Q1012=
",SBGL
1680253200000,"METAF SBGL 310900Z  18002KT CAVOK 24/20 Q1012=
",SBGL
1680256800000,"METAF SBGL 311000Z  20003KT CAVOK 26/20 Q1013=
",SBGL
1680260400000,"METAF SBGL 311100Z  26002KT CAVOK 28/19 Q1013=
",SBGL
1680264000000,"METAF SBGL 311200Z  30002KT CAVOK 29/19 Q1014=
",SBGL
1680267600000,"METAF SBGL 311300Z  29004KT CAVOK 31/18 Q1013=
",SBGL
1680271200000,"METAF SBGL 311400Z  25006KT CAVOK 32/18 Q1013=
",SBGL
1680274800000,"METAF SBGL 311500Z  22009KT CAVOK 32/19 Q1013=
",SBGL
1680278400000,"METAF SBGL 311600Z  22009KT CAVOK 32/19 Q1012=
",SBGL
1680282000000,"METAF SBGL 311700Z  22010KT CAVOK 32/19 Q1011=
",SBGL
1680285600000,"METAF SBGL 311800Z  19010KT CAVOK 30/20 Q1011=
",SBGL
1680289200000,"METAF SBGL 311900Z  20009KT CAVOK 30/20 Q1011=
",SBGL
1680292800000,"METAF SBGL 312000Z  19007KT CAVOK 29/20 Q1011=
",SBGL
1680296400000,"METAF SBGL 312100Z  20005KT CAVOK 28/21 Q1012=
",SBGL
1680300000000,"METAF SBGL 312200Z  21004KT CAVOK 27/21 Q1012=
",SBGL
1680303600000,"METAF SBGL 312300Z  18001KT CAVOK 27/21 Q1013=
",SBGL
1680220800000,"METAF SBGR 310000Z  32003KT 9999       FEW030   23/18 Q1016=
",SBGR
1680224400000,"METAF SBGR 310100Z  33004KT 9999       SCT027   23/18 Q1016=
",SBGR
1680228000000,"METAF SBGR 310200Z  35004KT 9000       FEW033   22/18 Q1015=
",SBGR
1680231600000,"METAF SBGR 310300Z  33004KT 8000       SCT033   22/18 Q1015=
",SBGR
1680235200000,"METAF SBGR 310400Z  31003KT 7000       SCT033   21/18 Q1015=
",SBGR
1680238800000,"METAF SBGR 310500Z  33003KT 6000       SCT027   21/18 Q1015=
",SBGR
1680242400000,"METAF SBGR 310600Z  32004KT 7000       FEW033   20/16 Q1014=
",SBGR
1680246000000,"METAF SBGR 310700Z  28003KT 6000       FEW029   19/16 Q1015=
",SBGR
1680249600000,"METAF SBGR 310800Z  30003KT 5000     BR SCT028   19/16 Q1015=
",SBGR
1680253200000,"METAF SBGR 310900Z  30003KT 5000     BR SCT025   19/16 Q1015=
",SBGR
1680256800000,"METAF SBGR 311000Z  30003KT 5000     BR SCT026   20/17 Q1016=
",SBGR
1680260400000,"METAF SBGR 311100Z  27003KT 8000       SCT027   21/17 Q1017=
",SBGR
1680264000000,"METAF SBGR 311200Z  29004KT 9999       FEW024   24/17 Q1017=
",SBGR
1680267600000,"METAF SBGR 311300Z  29004KT CAVOK 25/17 Q1017=
",SBGR
1680271200000,"METAF SBGR 311400Z  29005KT 9999       FEW033   26/17 Q1016=
",SBGR
1680274800000,"METAF SBGR 311500Z  29006KT 9999       FEW033   27/17 Q1015=
",SBGR
1680278400000,"METAF SBGR 311600Z  29007KT 9999       FEW033   28/17 Q1014=
",SBGR
1680282000000,"METAF SBGR 311700Z  29009KT CAVOK 29/16 Q1013=
",SBGR
1680285600000,"METAF SBGR 311800Z  28009KT CAVOK 29/15 Q1012=
",SBGR
1680289200000,"METAF SBGR 311900Z  27005KT CAVOK 28/16 Q1012=
",SBGR
1680292800000,"METAF SBGR 312000Z  17005KT 9999  -TSRA  SCT032 FEW030CB 26/18 Q1012=
",SBGR
1680296400000,"METAF SBGR 312100Z  16004KT 9999  -TSRA  SCT021 FEW030CB 24/19 Q1013=
",SBGR
1680300000000,"METAF SBGR 312200Z 09003KT 9999    RA  BKN022   24/19 Q1014=
",SBGR
1680303600000,"METAF SBGR 312300Z 07005KT 9000    RA  SCT020   23/19 Q1014=
",SBGR
1680220800000,"METAF SBKP 310000Z 02004KT 6000       FEW030   22/19 Q1016=
",SBKP
1680224400000,"METAF SBKP 310100Z 05005KT 6000       SCT033   22/19 Q1015=
",SBKP
1680228000000,"METAF SBKP 310200Z 04005KT 6000       FEW028   22/19 Q1015=
",SBKP
1680231600000,"METAF SBKP 310300Z 03004KT 4000     BR SCT028   21/18 Q1015=
",SBKP
1680235200000,"METAF SBKP 310400Z 03002KT 4000     BR SCT024   21/18 Q1015=
",SBKP
1680238800000,"METAF SBKP 310500Z 05001KT 4000     BR SCT020   20/18 Q1015=
",SBKP
1680242400000,"METAF SBKP 310600Z 03003KT 3000     BR SCT029   19/17 Q1014=
",SBKP
1680246000000,"METAF SBKP 310700Z  17001KT 3000     BR SCT027   18/17 Q1014=
",SBKP
1680249600000,"METAF SBKP 310800Z  12001KT 2000     BR BKN026   18/16 Q1015=
",SBKP
1680253200000,"METAF SBKP 310900Z 09001KT 2000     BR BKN025   18/16 Q1015=
",SBKP
1680256800000,"METAF SBKP 311000Z 07002KT 2000     BR BKN025   19/17 Q1015=
",SBKP
1680260400000,"METAF SBKP 311100Z  35001KT 7000       SCT030   21/18 Q1017=
",SBKP
1680264000000,"METAF SBKP 311200Z  32004KT 9999       SCT030   23/18 Q1017=
",SBKP
1680267600000,"METAF SBKP 311300Z  32003KT 9999       SCT026   25/18 Q1017=
",SBKP
1680271200000,"METAF SBKP 311400Z  31004KT 9999       SCT033   26/18 Q1016=
",SBKP
1680274800000,"METAF SBKP 311500Z  30006KT 9999       FEW033   28/18 Q1015=
",SBKP
1680278400000,"METAF SBKP 311600Z  28007KT CAVOK 28/17 Q1015=
",SBKP
1680282000000,"METAF SBKP 311700Z  27007KT CAVOK 29/17 Q1013=
",SBKP
1680285600000,"METAF SBKP 311800Z  27008KT CAVOK 29/16 Q1012=
",SBKP
1680289200000,"METAF SBKP 311900Z  27009KT CAVOK 29/17 Q1012=
",SBKP
1680292800000,"METAF SBKP 312000Z  27008KT CAVOK 29/17 Q1012=
",SBKP
1680296400000,"METAF SBKP 312100Z  26005KT CAVOK 27/18 Q1012=
",SBKP
1680300000000,"METAF SBKP 312200Z  18003KT CAVOK 25/18 Q1012=
",SBKP
1680303600000,"METAF SBKP 312300Z  11003KT CAVOK 24/19 Q1013=
",SBKP
1680220800000,"METAF SBPA 310000Z  13005KT 9999       BKN033   24/18 Q1014=
",SBPA
1680224400000,"METAF SBPA 310100Z  10005KT 9999       BKN033   24/19 Q1014=
",SBPA
1680228000000,"METAF SBPA 310200Z 08005KT 7000       SCT033   23/19 Q1014=
",SBPA
1680231600000,"METAF SBPA 310300Z 08004KT 7000       SCT033   23/19 Q1014=
",SBPA
1680235200000,"METAF SBPA 310400Z 08003KT 7000       SCT033   23/19 Q1013=
",SBPA
1680238800000,"METAF SBPA 310500Z 08002KT 7000       SCT033   22/19 Q1013=
",SBPA
1680242400000,"METAF SBPA 310600Z  30002KT 6000       SCT033   22/19 Q1013=
",SBPA
1680246000000,"METAF SBPA 310700Z  29003KT 5000     BR SCT033   21/18 Q1013=
",SBPA
1680249600000,"METAF SBPA 310800Z  32004KT 5000     BR FEW033   21/18 Q1014=
",SBPA
1680253200000,"METAF SBPA 310900Z  32004KT 5000     BR SCT033   21/18 Q1014=
",SBPA
1680256800000,"METAF SBPA 311000Z  30004KT 5000     BR SCT032   21/18 Q1014=
",SBPA
1680260400000,"METAF SBPA 311100Z  31003KT 7000       SCT032   22/18 Q1015=
",SBPA
1680264000000,"METAF SBPA 311200Z  33004KT 9999       SCT033   23/18 Q1015=
",SBPA
1680267600000,"METAF SBPA 311300Z  32004KT 9999       SCT033   25/18 Q1015=
",SBPA
1680271200000,"METAF SBPA 311400Z  31006KT 9999       FEW033   27/18 Q1014=
",SBPA
1680274800000,"METAF SBPA 311500Z  30006KT 9999       FEW033   29/18 Q1013=
",SBPA
1680278400000,"METAF SBPA 311600Z  30007KT 9999       FEW033   30/18 Q1012=
",SBPA
1680282000000,"METAF SBPA 311700Z  29008KT 9999       SCT033   32/18 Q1010=
",SBPA
1680285600000,"METAF SBPA 311800Z  30008KT 9999       BKN033   32/19 Q1009=
",SBPA
1680289200000,"METAF SBPA 311900Z  29007KT 9999       OVC033   33/19 Q1009=
",SBPA
1680292800000,"METAF SBPA 312000Z  27009KT 9999       OVC033   33/19 Q1008=
",SBPA
1680296400000,"METAF SBPA 312100Z  27010KT 9999       BKN033   31/19 Q1009=
",SBPA
1680300000000,"METAF SBPA 312200Z  26009KT 9999       SCT033   30/19 Q1009=
",SBPA
1680303600000,"METAF SBPA 312300Z  19016KT 9999  -TSRA  OVC033 FEW030CB 27/19 Q1011=
",SBPA
1680220800000,"METAF SBRJ 310000Z 01003KT 7000       BKN017   26/23 Q1015=
",SBRJ
1680224400000,"METAF SBRJ 310100Z  33003KT 6000       BKN015   26/23 Q1015=
",SBRJ
1680228000000,"METAF SBRJ 310200Z  25002KT 6000       SCT015   26/23 Q1015=
",SBRJ
1680231600000,"METAF SBRJ 310300Z  27002KT 5000     BR SCT015   26/23 Q1014=
",SBRJ
1680235200000,"METAF SBRJ 310400Z  28003KT 5000     BR FEW016   25/22 Q1013=
",SBRJ
1680238800000,"METAF SBRJ 310500Z  23003KT CAVOK 25/22 Q1012=
",SBRJ
1680242400000,"METAF SBRJ 310600Z  22002KT CAVOK 24/21 Q1012=
",SBRJ
1680246000000,"METAF SBRJ 310700Z  23002KT CAVOK 24/21 Q1012=
",SBRJ
1680249600000,"METAF SBRJ 310800Z  21002KT CAVOK 24/20 Q1012=
",SBRJ
1680253200000,"METAF SBRJ 310900Z  18002KT CAVOK 24/20 Q1012=
",SBRJ
1680256800000,"METAF SBRJ 311000Z  20003KT CAVOK 26/20 Q1013=
",SBRJ
1680260400000,"METAF SBRJ 311100Z  26002KT CAVOK 28/19 Q1013=
",SBRJ
1680264000000,"METAF SBRJ 311200Z  30002KT CAVOK 29/19 Q1014=
",SBRJ
1680267600000,"METAF SBRJ 311300Z  29004KT CAVOK 31/18 Q1013=
",SBRJ
1680271200000,"METAF SBRJ 311400Z  25006KT CAVOK 32/18 Q1013=
",SBRJ
1680274800000,"METAF SBRJ 311500Z  22009KT CAVOK 32/19 Q1013=
",SBRJ
1680278400000,"METAF SBRJ 311600Z  22009KT CAVOK 32/19 Q1012=
",SBRJ
1680282000000,"METAF SBRJ 311700Z  22010KT CAVOK 32/19 Q1011=
",SBRJ
1680285600000,"METAF SBRJ 311800Z  19010KT CAVOK 30/20 Q1011=
",SBRJ
1680289200000,"METAF SBRJ 311900Z  20009KT CAVOK 30/20 Q1011=
",SBRJ
1680292800000,"METAF SBRJ 312000Z  19007KT CAVOK 29/20 Q1011=
",SBRJ
1680296400000,"METAF SBRJ 312100Z  20005KT CAVOK 28/21 Q1012=
",SBRJ
1680300000000,"METAF SBRJ 312200Z  21004KT CAVOK 27/21 Q1012=
",SBRJ
1680303600000,"METAF SBRJ 312300Z  18001KT CAVOK 27/21 Q1013=
",SBRJ
1680220800000,"METAF SBSP 310000Z 01002KT 9999       SCT033   24/18 Q1016=
",SBSP
1680224400000,"METAF SBSP 310100Z  34002KT 9999       FEW031   24/18 Q1016=
",SBSP
1680228000000,"METAF SBSP 310200Z 01003KT 9999       FEW030   23/18 Q1015=
",SBSP
1680231600000,"METAF SBSP 310300Z  35002KT 9000       FEW031   23/18 Q1015=
",SBSP
1680235200000,"METAF SBSP 310400Z  28002KT 8000       FEW033   22/18 Q1015=
",SBSP
1680238800000,"METAF SBSP 310500Z  31002KT 7000       SCT032   22/18 Q1015=
",SBSP
1680242400000,"METAF SBSP 310600Z  29002KT 6000       FEW033   20/17 Q1014=
",SBSP
1680246000000,"METAF SBSP 310700Z  28002KT 5000     BR SCT033   20/17 Q1015=
",SBSP
1680249600000,"METAF SBSP 310800Z  27002KT 5000     BR SCT033   20/17 Q1015=
",SBSP
1680253200000,"METAF SBSP 310900Z  29002KT 5000     BR SCT033   19/17 Q1015=
",SBSP
1680256800000,"METAF SBSP 311000Z  30003KT 6000       SCT027   20/17 Q1016=
",SBSP
1680260400000,"METAF SBSP 311100Z  27003KT 9000       SCT027   21/17 Q1017=
",SBSP
1680264000000,"METAF SBSP 311200Z  29004KT 9999       FEW025   23/17 Q1017=
",SBSP
1680267600000,"METAF SBSP 311300Z  29004KT CAVOK 25/16 Q1017=
",SBSP
1680271200000,"METAF SBSP 311400Z  29005KT 9999       FEW033   27/15 Q1016=
",SBSP
1680274800000,"METAF SBSP 311500Z  29006KT CAVOK 28/15 Q1015=
",SBSP
1680278400000,"METAF SBSP 311600Z  29007KT CAVOK 29/15 Q1014=
",SBSP
1680282000000,"METAF SBSP 311700Z  28007KT CAVOK 29/15 Q1013=
",SBSP
1680285600000,"METAF SBSP 311800Z  20005KT 9999  - RA     28/17 Q1012=
",SBSP
1680289200000,"METAF SBSP 311900Z  15008KT 9999  -TSRA  SCT024 FEW030CB 26/19 Q1013=
",SBSP
1680292800000,"METAF SBSP 312000Z  15006KT 9999  -TSRA  BKN018 FEW030CB 25/20 Q1012=
",SBSP
1680296400000,"METAF SBSP 312100Z  14003KT 9999  -TSRA  BKN018 FEW030CB 24/20 Q1013=
",SBSP
1680300000000,"METAF SBSP 312200Z  11003KT 9000       BKN018   24/20 Q1013=
",SBSP
1680303600000,"METAF SBSP 312300Z 09004KT 8000       BKN016   24/20 Q1013=
",SBSP
