hora,metaf,aero
1660521600000,"METAF SBBR 150000Z 05008KT CAVOK 18/04 Q1017=
",SBBR
1660525200000,"METAF SBBR 150100Z 03007KT CAVOK 17/05 Q1019=
",SBBR
1660528800000,"METAF SBBR 150200Z 03007KT CAVOK 16/05 Q1016=
",SBBR
1660532400000,"METAF SBBR 150300Z 03008KT CAVOK 15/05 Q1017=
",SBBR
1660536000000,"METAF SBBR 150400Z 03008KT CAVOK 14/05 Q1017=
",SBBR
1660539600000,"METAF SBBR 150500Z 03007KT CAVOK 14/05 Q1017=
",SBBR
1660543200000,"METAF SBBR 150600Z 04008KT CAVOK 13/06 Q1015=
",SBBR
1660546800000,"METAF SBBR 150700Z 04007KT CAVOK 12/05 Q1017=
",SBBR
1660550400000,"METAF SBBR 150800Z 03008KT CAVOK 12/05 Q1015=
",SBBR
1660554000000,"METAF SBBR 150900Z 03008KT CAVOK 12/05 Q1016=
",SBBR
1660557600000,"METAF SBBR 151000Z 04007KT CAVOK 12/05 Q1017=
",SBBR
1660561200000,"METAF SBBR 151100Z 06013KT CAVOK 17/05 Q1018=
",SBBR
1660564800000,"METAF SBBR 151200Z 06013KT CAVOK 20/05 Q1018=
",SBBR
1660568400000,"METAF SBBR 151300Z 05015KT CAVOK 21/05 Q1020=
",SBBR
1660572000000,"METAF SBBR 151400Z 06013KT CAVOK 23/05 Q1018=
",SBBR
1660575600000,"METAF SBBR 151500Z 06010KT CAVOK 24/05 Q1018=
",SBBR
1660579200000,"METAF SBBR 151600Z 05008KT CAVOK 25/05 Q1017=
",SBBR
1660582800000,"METAF SBBR 151700Z 06006KT CAVOK 26/05 Q1016=
",SBBR
1660586400000,"METAF SBBR 151800Z 01008KT CAVOK 27/03 Q1013=
",SBBR
1660590000000,"METAF SBBR 151900Z 02007KT CAVOK 27/03 Q1013=
",SBBR
1660593600000,"METAF SBBR 152000Z 03007KT CAVOK 27/03 Q1012=
",SBBR
1660597200000,"METAF SBBR 152100Z 04006KT CAVOK 24/03 Q1013=
",SBBR
1660600800000,"METAF SBBR 152200Z 05008KT CAVOK 22/04 Q1014=
",SBBR
1660604400000,"METAF SBBR 152300Z 04008KT CAVOK 21/04 Q1015=
",SBBR
1660521600000,"METAF SBCF 150000Z 07009KT CAVOK 16/07 Q1018=
",SBCF
1660525200000,"METAF SBCF 150100Z 07007KT CAVOK 14/07 Q1021=
",SBCF
1660528800000,"METAF SBCF 150200Z 07007KT CAVOK 13/06 Q1020=
",SBCF
1660532400000,"METAF SBCF 150300Z 07007KT CAVOK 13/06 Q1020=
",SBCF
1660536000000,"METAF SBCF 150400Z 09006KT CAVOK 12/07 Q1020=
",SBCF
1660539600000,"METAF SBCF 150500Z  12005KT CAVOK 11/07 Q1020=
",SBCF
1660543200000,"METAF SBCF 150600Z  12006KT CAVOK 09/06 Q1019=
",SBCF
1660546800000,"METAF SBCF 150700Z  13006KT 5000     BR FEW033   08/06 Q1021=
",SBCF
1660550400000,"METAF SBCF 150800Z  12007KT 4000     BR FEW033   08/06 Q1019=
",SBCF
1660554000000,"METAF SBCF 150900Z  12006KT 3000     BR SCT033   08/06 Q1020=
",SBCF
1660557600000,"METAF SBCF 151000Z  13006KT 4000     BR SCT033   11/08 Q1021=
",SBCF
1660561200000,"METAF SBCF 151100Z 08008KT 9999       FEW033   15/09 Q1022=
",SBCF
1660564800000,"METAF SBCF 151200Z 07010KT CAVOK 18/09 Q1022=
",SBCF
1660568400000,"METAF SBCF 151300Z 06009KT CAVOK 21/07 Q1023=
",SBCF
1660572000000,"METAF SBCF 151400Z 05007KT CAVOK 22/05 Q1021=
",SBCF
1660575600000,"METAF SBCF 151500Z 04008KT CAVOK 23/04 Q1021=
",SBCF
1660579200000,"METAF SBCF 151600Z 04009KT CAVOK 24/02 Q1018=
",SBCF
1660582800000,"METAF SBCF 151700Z 04008KT CAVOK 25/01 Q1018=
",SBCF
1660586400000,"METAF SBCF 151800Z 04007KT CAVOK 26/02 Q1016=
",SBCF
1660590000000,"METAF SBCF 151900Z 03006KT CAVOK 26/01 Q1016=
",SBCF
1660593600000,"METAF SBCF 152000Z 03006KT CAVOK 26/02 Q1015=
",SBCF
1660597200000,"METAF SBCF 152100Z 05006KT CAVOK 20/03 Q1016=
",SBCF
1660600800000,"METAF SBCF 152200Z 07008KT CAVOK 20/05 Q1016=
",SBCF
1660604400000,"METAF SBCF 152300Z 07010KT CAVOK 18/09 Q1018=
",SBCF
1660521600000,"METAF SBCT 150000Z 04005KT 0800 FG     OVC033   14/13 Q1017=
",SBCT
1660525200000,"METAF SBCT 150100Z  36005KT 0550 FG     OVC033   13/13 Q1017=
",SBCT
1660528800000,"METAF SBCT 150200Z 01003KT 0800 FG     OVC026   13/13 Q1017=
",SBCT
1660532400000,"METAF SBCT 150300Z 02004KT 0550 FG     OVC028   13/13 Q1014=
",SBCT
1660536000000,"METAF SBCT 150400Z 04004KT 1000     BR OVC030   12/12 Q1016=
",SBCT
1660539600000,"METAF SBCT 150500Z  34005KT 1000     BR BKN026   12/11 Q1016=
",SBCT
1660543200000,"METAF SBCT 150600Z  35004KT 1000     BR BKN033   010/09 Q1015=
",SBCT
1660546800000,"METAF SBCT 150700Z  36005KT 1000     BR BKN033   010/09 Q1015=
",SBCT
1660550400000,"METAF SBCT 150800Z  35005KT 3000     BR SCT033   010/09 Q1014=
",SBCT
1660554000000,"METAF SBCT 150900Z 01005KT 3000     BR SCT033   010/08 Q1013=
",SBCT
1660557600000,"METAF SBCT 151000Z 02006KT 4000     BR FEW033   11/09 Q1014=
",SBCT
1660561200000,"METAF SBCT 151100Z  35007KT CAVOK 15/11 Q1013=
",SBCT
1660564800000,"METAF SBCT 151200Z 01008KT CAVOK 18/11 Q1016=
",SBCT
1660568400000,"METAF SBCT 151300Z  35010KT CAVOK 21/11 Q1015=
",SBCT
1660572000000,"METAF SBCT 151400Z  34013KT CAVOK 23/10 Q1015=
",SBCT
1660575600000,"METAF SBCT 151500Z  33013KT CAVOK 24/10 Q1013=
",SBCT
1660579200000,"METAF SBCT 151600Z  34014KT CAVOK 25/10 Q1013=
",SBCT
1660582800000,"METAF SBCT 151700Z  33015KT CAVOK 25/10 Q1011=
",SBCT
1660586400000,"METAF SBCT 151800Z  33014KT CAVOK 25/11 Q1011=
",SBCT
1660590000000,"METAF SBCT 151900Z  32015KT CAVOK 25/09 Q1008=
",SBCT
1660593600000,"METAF SBCT 152000Z  32011KT CAVOK 24/10 Q1009=
",SBCT
1660597200000,"METAF SBCT 152100Z  32007KT CAVOK 22/10 Q1009=
",SBCT
1660600800000,"METAF SBCT 152200Z  35006KT CAVOK 20/11 Q1010=
",SBCT
1660604400000,"METAF SBCT 152300Z  36006KT CAVOK 19/11 Q1011=
",SBCT
1660521600000,"METAF SBFL 150000Z  30005KT 2000     BR OVC014   17/15 Q1018=
",SBFL
1660525200000,"METAF SBFL 150100Z  30005KT 2000     BR OVC013   17/16 Q1016=
",SBFL
1660528800000,"METAF SBFL 150200Z  33005KT 2000     BR OVC011   17/16 Q1019=
",SBFL
1660532400000,"METAF SBFL 150300Z  33007KT 1000     BR OVC033   17/16 Q1015=
",SBFL
1660536000000,"METAF SBFL 150400Z  33008KT 2000     BR OVC013   17/16 Q1016=
",SBFL
1660539600000,"METAF SBFL 150500Z  34009KT 2000     BR OVC013   17/16 Q1015=
",SBFL
1660543200000,"METAF SBFL 150600Z  32006KT 2000     BR OVC033   15/14 Q1015=
",SBFL
1660546800000,"METAF SBFL 150700Z  32009KT 2000     BR OVC033   16/14 Q1012=
",SBFL
1660550400000,"METAF SBFL 150800Z  35008KT 2000     BR BKN033   16/15 Q1014=
",SBFL
1660554000000,"METAF SBFL 150900Z  35010KT 2000     BR SCT033   16/15 Q1012=
",SBFL
1660557600000,"METAF SBFL 151000Z  36010KT 3000     BR FEW033   16/14 Q1014=
",SBFL
1660561200000,"METAF SBFL 151100Z  36011KT 4000     BR FEW033   17/15 Q1012=
",SBFL
1660564800000,"METAF SBFL 151200Z  33006KT 2000     BR OVC017   18/16 Q1016=
",SBFL
1660568400000,"METAF SBFL 151300Z  33009KT 3000     BR OVC017   19/17 Q1013=
",SBFL
1660572000000,"METAF SBFL 151400Z  36010KT 6000       OVC015   20/17 Q1015=
",SBFL
1660575600000,"METAF SBFL 151500Z 01011KT 7000       BKN016   21/17 Q1012=
",SBFL
1660579200000,"METAF SBFL 151600Z 02013KT 8000       SCT018   21/17 Q1012=
",SBFL
1660582800000,"METAF SBFL 151700Z 01013KT 7000       FEW018   21/17 Q1009=
",SBFL
1660586400000,"METAF SBFL 151800Z 01015KT 6000       SCT015   20/17 Q1009=
",SBFL
1660590000000,"METAF SBFL 151900Z  36013KT 6000       SCT033   20/17 Q1006=
",SBFL
1660593600000,"METAF SBFL 152000Z 02010KT 6000       FEW033   20/17 Q1008=
",SBFL
1660597200000,"METAF SBFL 152100Z 02010KT 3000     BR    19/17 Q1006=
",SBFL
1660600800000,"METAF SBFL 152200Z 02012KT 2000     BR    18/17 Q1008=
",SBFL
1660604400000,"METAF SBFL 152300Z  35012KT 2000     BR    18/17 Q1008=
",SBFL
1660521600000,"METAF SBGL 150000Z 08015KT CAVOK 22/15 Q1017=
",SBGL
1660525200000,"METAF SBGL 150100Z 09015KT CAVOK 22/14 Q1019=
",SBGL
1660528800000,"METAF SBGL 150200Z 08013KT CAVOK 21/14 Q1020=
",SBGL
1660532400000,"METAF SBGL 150300Z 08011KT CAVOK 21/14 Q1018=
",SBGL
1660536000000,"METAF SBGL 150400Z 09010KT CAVOK 21/15 Q1018=
",SBGL
1660539600000,"METAF SBGL 150500Z 09009KT CAVOK 20/15 Q1018=
",SBGL
1660543200000,"METAF SBGL 150600Z 09008KT CAVOK 19/13 Q1018=
",SBGL
1660546800000,"METAF SBGL 150700Z  10008KT CAVOK 19/14 Q1018=
",SBGL
1660550400000,"METAF SBGL 150800Z 09007KT CAVOK 19/14 Q1019=
",SBGL
1660554000000,"METAF SBGL 150900Z 07007KT CAVOK 19/14 Q1018=
",SBGL
1660557600000,"METAF SBGL 151000Z  10004KT CAVOK 19/13 Q1019=
",SBGL
1660561200000,"METAF SBGL 151100Z  10003KT CAVOK 21/13 Q1019=
",SBGL
1660564800000,"METAF SBGL 151200Z  14003KT CAVOK 21/12 Q1019=
",SBGL
1660568400000,"METAF SBGL 151300Z  15001KT CAVOK 22/14 Q1019=
",SBGL
1660572000000,"METAF SBGL 151400Z  14002KT CAVOK 24/14 Q1020=
",SBGL
1660575600000,"METAF SBGL 151500Z 08003KT CAVOK 25/13 Q1017=
",SBGL
1660579200000,"METAF SBGL 151600Z 08003KT CAVOK 25/13 Q1016=
",SBGL
1660582800000,"METAF SBGL 151700Z 07004KT CAVOK 26/13 Q1015=
",SBGL
1660586400000,"METAF SBGL 151800Z  13003KT CAVOK 27/14 Q1014=
",SBGL
1660590000000,"METAF SBGL 151900Z  11003KT CAVOK 27/13 Q1013=
",SBGL
1660593600000,"METAF SBGL 152000Z  14003KT CAVOK 27/13 Q1013=
",SBGL
1660597200000,"METAF SBGL 152100Z 08006KT CAVOK 26/14 Q1012=
",SBGL
1660600800000,"METAF SBGL 152200Z  10007KT CAVOK 26/13 Q1013=
",SBGL
1660604400000,"METAF SBGL 152300Z 09011KT CAVOK 24/14 Q1013=
",SBGL
1660521600000,"METAF SBGR 150000Z 07005KT 5000     BR FEW029   15/13 Q1016=
",SBGR
1660525200000,"METAF SBGR 150100Z 05005KT CAVOK 15/12 Q1020=
",SBGR
1660528800000,"METAF SBGR 150200Z 05006KT CAVOK 15/12 Q1020=
",SBGR
1660532400000,"METAF SBGR 150300Z 03006KT CAVOK 15/11 Q1017=
",SBGR
1660536000000,"METAF SBGR 150400Z 03007KT CAVOK 15/10 Q1018=
",SBGR
1660539600000,"METAF SBGR 150500Z 01008KT CAVOK 16/08 Q1016=
",SBGR
1660543200000,"METAF SBGR 150600Z 02008KT CAVOK 16/07 Q1016=
",SBGR
1660546800000,"METAF SBGR 150700Z 01009KT CAVOK 15/07 Q1017=
",SBGR
1660550400000,"METAF SBGR 150800Z 02009KT CAVOK 15/07 Q1017=
",SBGR
1660554000000,"METAF SBGR 150900Z 01010KT CAVOK 15/07 Q1016=
",SBGR
1660557600000,"METAF SBGR 151000Z 01009KT CAVOK 15/07 Q1017=
",SBGR
1660561200000,"METAF SBGR 151100Z 01009KT CAVOK 18/08 Q1017=
",SBGR
1660564800000,"METAF SBGR 151200Z  36010KT CAVOK 20/08 Q1017=
",SBGR
1660568400000,"METAF SBGR 151300Z  35010KT CAVOK 22/08 Q1018=
",SBGR
1660572000000,"METAF SBGR 151400Z  35009KT CAVOK 24/07 Q1019=
",SBGR
1660575600000,"METAF SBGR 151500Z  34009KT CAVOK 25/07 Q1017=
",SBGR
1660579200000,"METAF SBGR 151600Z  33009KT CAVOK 25/07 Q1016=
",SBGR
1660582800000,"METAF SBGR 151700Z  34010KT CAVOK 26/07 Q1015=
",SBGR
1660586400000,"METAF SBGR 151800Z  33009KT CAVOK 26/07 Q1013=
",SBGR
1660590000000,"METAF SBGR 151900Z  33008KT CAVOK 26/07 Q1012=
",SBGR
1660593600000,"METAF SBGR 152000Z  32006KT CAVOK 25/07 Q1013=
",SBGR
1660597200000,"METAF SBGR 152100Z  34007KT CAVOK 20/06 Q1012=
",SBGR
1660600800000,"METAF SBGR 152200Z  34008KT CAVOK 19/04 Q1013=
",SBGR
1660604400000,"METAF SBGR 152300Z  34008KT CAVOK 19/04 Q1013=
",SBGR
1660521600000,"METAF SBKP 150000Z  11005KT CAVOK 21/07 Q1015=
",SBKP
1660525200000,"METAF SBKP 150100Z  10007KT CAVOK 20/07 Q1019=
",SBKP
1660528800000,"METAF SBKP 150200Z  10007KT CAVOK 19/09 Q1019=
",SBKP
1660532400000,"METAF SBKP 150300Z 08006KT CAVOK 18/10 Q1017=
",SBKP
1660536000000,"METAF SBKP 150400Z 06007KT CAVOK 18/09 Q1017=
",SBKP
1660539600000,"METAF SBKP 150500Z 04008KT CAVOK 19/07 Q1016=
",SBKP
1660543200000,"METAF SBKP 150600Z 04007KT CAVOK 17/08 Q1015=
",SBKP
1660546800000,"METAF SBKP 150700Z 03008KT CAVOK 17/08 Q1017=
",SBKP
1660550400000,"METAF SBKP 150800Z 03008KT CAVOK 17/08 Q1017=
",SBKP
1660554000000,"METAF SBKP 150900Z 03009KT CAVOK 16/07 Q1016=
",SBKP
1660557600000,"METAF SBKP 151000Z 03010KT CAVOK 17/07 Q1017=
",SBKP
1660561200000,"METAF SBKP 151100Z 03010KT CAVOK 18/07 Q1017=
",SBKP
1660564800000,"METAF SBKP 151200Z 02010KT CAVOK 20/07 Q1017=
",SBKP
1660568400000,"METAF SBKP 151300Z 01011KT CAVOK 23/07 Q1018=
",SBKP
1660572000000,"METAF SBKP 151400Z  36010KT CAVOK 24/06 Q1018=
",SBKP
1660575600000,"METAF SBKP 151500Z  36008KT CAVOK 26/06 Q1017=
",SBKP
1660579200000,"METAF SBKP 151600Z  35008KT CAVOK 27/05 Q1016=
",SBKP
1660582800000,"METAF SBKP 151700Z  34009KT CAVOK 28/04 Q1014=
",SBKP
1660586400000,"METAF SBKP 151800Z  34007KT CAVOK 28/05 Q1012=
",SBKP
1660590000000,"METAF SBKP 151900Z  33008KT CAVOK 29/04 Q1012=
",SBKP
1660593600000,"METAF SBKP 152000Z  35007KT CAVOK 28/04 Q1012=
",SBKP
1660597200000,"METAF SBKP 152100Z  34005KT CAVOK 27/04 Q1011=
",SBKP
1660600800000,"METAF SBKP 152200Z 02005KT CAVOK 25/04 Q1012=
",SBKP
1660604400000,"METAF SBKP 152300Z 02005KT CAVOK 24/04 Q1012=
",SBKP
1660521600000,"METAF SBPA 150000Z 08007KT CAVOK 19/13 Q1013=
",SBPA
1660525200000,"METAF SBPA 150100Z 07005KT CAVOK 18/12 Q1012=
",SBPA
1660528800000,"METAF SBPA 150200Z 08006KT CAVOK 18/12 Q1013=
",SBPA
1660532400000,"METAF SBPA 150300Z 06005KT CAVOK 17/12 Q1010=
",SBPA
1660536000000,"METAF SBPA 150400Z 05004KT CAVOK 17/11 Q1011=
",SBPA
1660539600000,"METAF SBPA 150500Z 01003KT CAVOK 18/10 Q1009=
",SBPA
1660543200000,"METAF SBPA 150600Z 04003KT CAVOK 18/11 Q1010=
",SBPA
1660546800000,"METAF SBPA 150700Z 03003KT CAVOK 18/10 Q1008=
",SBPA
1660550400000,"METAF SBPA 150800Z 06004KT CAVOK 18/10 Q1007=
",SBPA
1660554000000,"METAF SBPA 150900Z 06004KT CAVOK 18/10 Q1006=
",SBPA
1660557600000,"METAF SBPA 151000Z 06004KT CAVOK 18/10 Q1007=
",SBPA
1660561200000,"METAF SBPA 151100Z 08004KT CAVOK 18/09 Q1005=
",SBPA
1660564800000,"METAF SBPA 151200Z 07003KT CAVOK 19/11 Q1008=
",SBPA
1660568400000,"METAF SBPA 151300Z  32001KT CAVOK 20/10 Q1006=
",SBPA
1660572000000,"METAF SBPA 151400Z  18010KT 9999  -TSRA   FEW030CB 20/12 Q1010=
",SBPA
1660575600000,"METAF SBPA 151500Z 08008KT 9999  - RA     19/13 Q1006=
",SBPA
1660579200000,"METAF SBPA 151600Z  10003KT CAVOK 20/13 Q1007=
",SBPA
1660582800000,"METAF SBPA 151700Z 09003KT CAVOK 20/13 Q1004=
",SBPA
1660586400000,"METAF SBPA 151800Z  11006KT 8000  - RA     20/16 Q1004=
",SBPA
1660590000000,"METAF SBPA 151900Z  10004KT 9999  -TSRA   FEW030CB 20/15 Q1001=
",SBPA
1660593600000,"METAF SBPA 152000Z  14004KT 8000  -TSRA   FEW030CB 20/16 Q1004=
",SBPA
1660597200000,"METAF SBPA 152100Z 09005KT CAVOK 20/15 Q1001=
",SBPA
1660600800000,"METAF SBPA 152200Z 08005KT CAVOK 19/15 Q1003=
",SBPA
1660604400000,"METAF SBPA 152300Z 07004KT 7000  -TSRA   FEW030CB 19/16 Q1002=
",SBPA
1660521600000,"METAF SBRJ 150000Z 06012KT CAVOK 21/14 Q1017=
",SBRJ
1660525200000,"METAF SBRJ 150100Z 07012KT CAVOK 21/13 Q1019=
",SBRJ
1660528800000,"METAF SBRJ 150200Z 06011KT CAVOK 20/13 Q1020=
",SBRJ
1660532400000,"METAF SBRJ 150300Z 05009KT CAVOK 20/13 Q1018=
",SBRJ
1660536000000,"METAF SBRJ 150400Z 06007KT CAVOK 20/13 Q1019=
",SBRJ
1660539600000,"METAF SBRJ 150500Z 05006KT CAVOK 19/14 Q1019=
",SBRJ
1660543200000,"METAF SBRJ 150600Z 05004KT CAVOK 19/12 Q1018=
",SBRJ
1660546800000,"METAF SBRJ 150700Z 08003KT CAVOK 18/13 Q1018=
",SBRJ
1660550400000,"METAF SBRJ 150800Z 07003KT CAVOK 18/13 Q1019=
",SBRJ
1660554000000,"METAF SBRJ 150900Z 02004KT CAVOK 18/13 Q1018=
",SBRJ
1660557600000,"METAF SBRJ 151000Z  36004KT CAVOK 19/13 Q1019=
",SBRJ
1660561200000,"METAF SBRJ 151100Z  36005KT CAVOK 20/12 Q1019=
",SBRJ
1660564800000,"METAF SBRJ 151200Z 02003KT CAVOK 21/12 Q1019=
",SBRJ
1660568400000,"METAF SBRJ 151300Z 05002KT CAVOK 23/11 Q1019=
",SBRJ
1660572000000,"METAF SBRJ 151400Z 09002KT CAVOK 24/12 Q1020=
",SBRJ
1660575600000,"METAF SBRJ 151500Z 08003KT CAVOK 25/13 Q1017=
",SBRJ
1660579200000,"METAF SBRJ 151600Z 08004KT CAVOK 25/13 Q1016=
",SBRJ
1660582800000,"METAF SBRJ 151700Z 07004KT CAVOK 26/12 Q1015=
",SBRJ
1660586400000,"METAF SBRJ 151800Z  12005KT CAVOK 26/15 Q1014=
",SBRJ
1660590000000,"METAF SBRJ 151900Z  11004KT CAVOK 26/14 Q1013=
",SBRJ
1660593600000,"METAF SBRJ 152000Z  13004KT CAVOK 26/14 Q1014=
",SBRJ
1660597200000,"METAF SBRJ 152100Z 07004KT CAVOK 26/14 Q1012=
",SBRJ
1660600800000,"METAF SBRJ 152200Z 06008KT CAVOK 25/12 Q1013=
",SBRJ
1660604400000,"METAF SBRJ 152300Z 06010KT CAVOK 24/13 Q1014=
",SBRJ
1660521600000,"METAF SBSP 150000Z 05003KT 4000     BR SCT023   18/15 Q1017=
",SBSP
1660525200000,"METAF SBSP 150100Z 05004KT 5000     BR FEW029   17/14 Q1019=
",SBSP
1660528800000,"METAF SBSP 150200Z 04005KT 5000     BR FEW027   17/14 Q1020=
",SBSP
1660532400000,"METAF SBSP 150300Z 03006KT 6000       FEW033   17/13 Q1017=
",SBSP
1660536000000,"METAF SBSP 150400Z 03006KT 7000       FEW033   17/13 Q1017=
",SBSP
1660539600000,"METAF SBSP 150500Z 03007KT CAVOK 16/12 Q1016=
",SBSP
1660543200000,"METAF SBSP 150600Z 03006KT CAVOK 16/11 Q1016=
",SBSP
1660546800000,"METAF SBSP 150700Z 02006KT CAVOK 16/09 Q1017=
",SBSP
1660550400000,"METAF SBSP 150800Z 02007KT CAVOK 16/08 Q1017=
",SBSP
1660554000000,"METAF SBSP 150900Z 02007KT CAVOK 15/07 Q1016=
",SBSP
1660557600000,"METAF SBSP 151000Z 02007KT CAVOK 16/07 Q1017=
",SBSP
1660561200000,"METAF SBSP 151100Z 01007KT CAVOK 17/07 Q1017=
",SBSP
1660564800000,"METAF SBSP 151200Z  36006KT CAVOK 19/07 Q1017=
",SBSP
1660568400000,"METAF SBSP 151300Z  35007KT CAVOK 22/07 Q1018=
",SBSP
1660572000000,"METAF SBSP 151400Z  34008KT CAVOK 24/06 Q1019=
",SBSP
1660575600000,"METAF SBSP 151500Z  34009KT CAVOK 25/06 Q1016=
",SBSP
1660579200000,"METAF SBSP 151600Z  33009KT CAVOK 26/05 Q1015=
",SBSP
1660582800000,"METAF SBSP 151700Z  33010KT CAVOK 27/05 Q1014=
",SBSP
1660586400000,"METAF SBSP 151800Z  33009KT CAVOK 27/06 Q1012=
",SBSP
1660590000000,"METAF SBSP 151900Z  33009KT CAVOK 27/05 Q1012=
",SBSP
1660593600000,"METAF SBSP 152000Z  32007KT CAVOK 27/04 Q1012=
",SBSP
1660597200000,"METAF SBSP 152100Z  32006KT CAVOK 26/04 Q1011=
",SBSP
1660600800000,"METAF SBSP 152200Z  34003KT CAVOK 24/05 Q1012=
",SBSP
1660604400000,"METAF SBSP 152300Z  35005KT CAVOK 24/05 Q1013=
",SBSP
