hora,metaf,aero
1664582400000,"METAF SBGL 010000Z 07005KT 9999       OVC033   19/15 Q1021=
",SBGL
1664586000000,"METAF SBGL 010100Z 06005KT 9000       BKN033   19/15 Q1021=
",SBGL
1664589600000,"METAF SBGL 010200Z 06005KT 8000       BKN033   18/14 Q1019=
",SBGL
1664593200000,"METAF SBGL 010300Z 06007KT 9000       SCT033   19/14 Q1023=
",SBGL
1664596800000,"METAF SBGL 010400Z  10002KT 9000       BKN033   18/14 Q1020=
",SBGL
1664600400000,"METAF SBGL 010500Z  11005KT 8000       OVC011   18/14 Q1019=
",SBGL
1664604000000,"METAF SBGL 010600Z  10003KT 7000       OVC033   18/14 Q1018=
",SBGL
1664607600000,"METAF SBGL 010700Z 08004KT 7000       BKN012   18/14 Q1017=
",SBGL
1664611200000,"METAF SBGL 010800Z 07002KT 6000       OVC011   17/14 Q1017=
",SBGL
1664614800000,"METAF SBGL 010900Z 02002KT 7000       OVC011   18/14 Q1022=
",SBGL
1664618400000,"METAF SBGL 011000Z 03002KT 9999       BKN010   19/14 Q1019=
",SBGL
1664622000000,"METAF SBGL 011100Z 04001KT 9999       BKN010   21/14 Q1019=
",SBGL
1664625600000,"METAF SBGL 011200Z 06002KT 9999       BKN010   22/15 Q1020=
",SBGL
1664629200000,"METAF SBGL 011300Z  14003KT 9999       SCT010   23/15 Q1019=
",SBGL
1664632800000,"METAF SBGL 011400Z  13005KT 9999       SCT010   24/15 Q1018=
",SBGL
1664636400000,"METAF SBGL 011500Z  14007KT 9999       FEW010   26/15 Q1020=
",SBGL
1664640000000,"METAF SBGL 011600Z  14009KT 9999       BKN010   26/16 Q1017=
",SBGL
1664643600000,"METAF SBGL 011700Z  13010KT 9999       SCT010   26/16 Q1015=
",SBGL
1664647200000,"METAF SBGL 011800Z  13010KT 9999       BKN033   26/16 Q1016=
",SBGL
1664650800000,"METAF SBGL 011900Z  12012KT 9999       BKN033   26/16 Q1013=
",SBGL
1664654400000,"METAF SBGL 012000Z  10011KT 9999       BKN033   25/17 Q1014=
",SBGL
1664658000000,"METAF SBGL 012100Z 09009KT 9999       BKN033   25/16 Q1018=
",SBGL
1664661600000,"METAF SBGL 012200Z 08008KT 9999       SCT033   23/16 Q1016=
",SBGL
1664665200000,"METAF SBGL 012300Z 09008KT 9999       SCT033   22/16 Q1017=
",SBGL
1664582400000,"METAF SBGR 010000Z 07007KT 3000  - RABR OVC033   16/14 Q1019=
",SBGR
1664586000000,"METAF SBGR 010100Z  11005KT 1000  - RABR OVC033   15/14 Q1018=
",SBGR
1664589600000,"METAF SBGR 010200Z  11004KT 1000    RABR OVC033   14/14 Q1018=
",SBGR
1664593200000,"METAF SBGR 010300Z  13004KT 1000    RABR OVC033   14/14 Q1022=
",SBGR
1664596800000,"METAF SBGR 010400Z  13004KT 0600 FG  RA  OVC033   14/13 Q1017=
",SBGR
1664600400000,"METAF SBGR 010500Z  12003KT 0400 FG     OVC033   14/14 Q1017=
",SBGR
1664604000000,"METAF SBGR 010600Z  14002KT 0250 FG     OVC033   13/13 Q1018=
",SBGR
1664607600000,"METAF SBGR 010700Z 08004KT 0250 FG     OVC033   13/13 Q1016=
",SBGR
1664611200000,"METAF SBGR 010800Z 08004KT 0250 FG     OVC033   13/13 Q1016=
",SBGR
1664614800000,"METAF SBGR 010900Z 09003KT 0250 FG     OVC033   13/13 Q1020=
",SBGR
1664618400000,"METAF SBGR 011000Z 08003KT 1000     BR OVC033   14/13 Q1017=
",SBGR
1664622000000,"METAF SBGR 011100Z 04003KT 3000    RABR OVC033   16/14 Q1018=
",SBGR
1664625600000,"METAF SBGR 011200Z  11003KT 8000       OVC033   18/14 Q1020=
",SBGR
1664629200000,"METAF SBGR 011300Z 09002KT 9999       OVC025   20/15 Q1017=
",SBGR
1664632800000,"METAF SBGR 011400Z  34001KT 9999    RA  OVC028   22/15 Q1017=
",SBGR
1664636400000,"METAF SBGR 011500Z  30005KT 9999    RA  BKN033   25/15 Q1020=
",SBGR
1664640000000,"METAF SBGR 011600Z  30010KT 9999    RA  FEW033   26/15 Q1015=
",SBGR
1664643600000,"METAF SBGR 011700Z  26009KT 9999    RA  FEW033   26/15 Q1014=
",SBGR
1664647200000,"METAF SBGR 011800Z  32003KT 9999    RA  SCT033   26/16 Q1015=
",SBGR
1664650800000,"METAF SBGR 011900Z  19004KT 9999  -TSRA  BKN033 FEW030CB 25/16 Q1012=
",SBGR
1664654400000,"METAF SBGR 012000Z  15007KT 9999  -TSRA  BKN026 FEW030CB 23/16 Q1013=
",SBGR
1664658000000,"METAF SBGR 012100Z  15008KT 9999  - RA  BKN033   21/16 Q1018=
",SBGR
1664661600000,"METAF SBGR 012200Z  13005KT 8000       BKN033   19/15 Q1014=
",SBGR
1664665200000,"METAF SBGR 012300Z  11004KT 8000       SCT033   19/15 Q1015=
",SBGR
1664582400000,"METAF SBKP 010000Z 07011KT 4000     BR SCT033   17/15 Q1018=
",SBKP
1664586000000,"METAF SBKP 010100Z  10007KT 3000     BR SCT033   17/15 Q1016=
",SBKP
1664589600000,"METAF SBKP 010200Z  13006KT 2000     BR BKN033   17/15 Q1017=
",SBKP
1664593200000,"METAF SBKP 010300Z  12005KT 2000     BR OVC033   16/15 Q1021=
",SBKP
1664596800000,"METAF SBKP 010400Z  12005KT 2000    RABR OVC033   16/14 Q1018=
",SBKP
1664600400000,"METAF SBKP 010500Z  12006KT 2000    RABR OVC033   15/14 Q1017=
",SBKP
1664604000000,"METAF SBKP 010600Z  12007KT 1000    RABR OVC033   15/14 Q1017=
",SBKP
1664607600000,"METAF SBKP 010700Z  11008KT 1000    RABR OVC033   15/14 Q1015=
",SBKP
1664611200000,"METAF SBKP 010800Z  10008KT 1000     BR BKN033   15/14 Q1015=
",SBKP
1664614800000,"METAF SBKP 010900Z  10007KT 2000     BR BKN033   14/13 Q1020=
",SBKP
1664618400000,"METAF SBKP 011000Z 04004KT 4000  - RABR OVC033   16/14 Q1017=
",SBKP
1664622000000,"METAF SBKP 011100Z 05003KT 5000  - RABR OVC028   18/15 Q1018=
",SBKP
1664625600000,"METAF SBKP 011200Z  36004KT 9999       SCT033   22/15 Q1020=
",SBKP
1664629200000,"METAF SBKP 011300Z  32005KT 9999       BKN033   23/15 Q1016=
",SBKP
1664632800000,"METAF SBKP 011400Z  32008KT 9999       BKN033   24/15 Q1016=
",SBKP
1664636400000,"METAF SBKP 011500Z  30009KT 9999       SCT033   26/16 Q1020=
",SBKP
1664640000000,"METAF SBKP 011600Z  29009KT 9999       FEW033   27/16 Q1016=
",SBKP
1664643600000,"METAF SBKP 011700Z  28011KT CAVOK 28/15 Q1013=
",SBKP
1664647200000,"METAF SBKP 011800Z  27009KT CAVOK 28/15 Q1015=
",SBKP
1664650800000,"METAF SBKP 011900Z  26008KT CAVOK 27/15 Q1011=
",SBKP
1664654400000,"METAF SBKP 012000Z  25008KT CAVOK 27/15 Q1013=
",SBKP
1664658000000,"METAF SBKP 012100Z  24008KT CAVOK 26/16 Q1017=
",SBKP
1664661600000,"METAF SBKP 012200Z  29003KT CAVOK 23/17 Q1014=
",SBKP
1664665200000,"METAF SBKP 012300Z  17003KT 9999       FEW032   23/17 Q1014=
",SBKP
1664582400000,"METAF SBSP 010000Z  12004KT 2000  - RABR OVC033   16/15 Q1020=
",SBSP
1664586000000,"METAF SBSP 010100Z  12005KT 1000    RABR OVC033   15/14 Q1019=
",SBSP
1664589600000,"METAF SBSP 010200Z  13004KT 1000     BR OVC033   15/14 Q1018=
",SBSP
1664593200000,"METAF SBSP 010300Z  13004KT 1000     BR OVC033   15/14 Q1022=
",SBSP
1664596800000,"METAF SBSP 010400Z  13004KT 0400 FG  RA  OVC033   14/14 Q1018=
",SBSP
1664600400000,"METAF SBSP 010500Z  15004KT 0250 FG     OVC033   14/14 Q1018=
",SBSP
1664604000000,"METAF SBSP 010600Z  13003KT 0250 FG  RA  OVC033   14/14 Q1018=
",SBSP
1664607600000,"METAF SBSP 010700Z  10004KT 0250 FG     OVC033   14/13 Q1016=
",SBSP
1664611200000,"METAF SBSP 010800Z 09003KT 0250 FG  RA  OVC033   14/13 Q1016=
",SBSP
1664614800000,"METAF SBSP 010900Z  11003KT 0250 FG  RA  OVC033   13/13 Q1020=
",SBSP
1664618400000,"METAF SBSP 011000Z 07003KT 1000     BR OVC033   15/14 Q1017=
",SBSP
1664622000000,"METAF SBSP 011100Z 03004KT 5000     BR OVC033   16/14 Q1018=
",SBSP
1664625600000,"METAF SBSP 011200Z  10003KT 9999       BKN033   19/14 Q1021=
",SBSP
1664629200000,"METAF SBSP 011300Z 06002KT 9999       OVC033   20/14 Q1017=
",SBSP
1664632800000,"METAF SBSP 011400Z  35002KT 9999       OVC033   22/14 Q1017=
",SBSP
1664636400000,"METAF SBSP 011500Z  32003KT 9999       BKN033   24/14 Q1020=
",SBSP
1664640000000,"METAF SBSP 011600Z  30007KT 9999  - RA  SCT033   26/15 Q1015=
",SBSP
1664643600000,"METAF SBSP 011700Z  16011KT 9999  -TSRA  BKN033 FEW030CB 22/16 Q1015=
",SBSP
1664647200000,"METAF SBSP 011800Z  18007KT 9999  - RA  BKN026   23/16 Q1016=
",SBSP
1664650800000,"METAF SBSP 011900Z  15008KT 9999  -TSRA  BKN033 FEW030CB 23/16 Q1012=
",SBSP
1664654400000,"METAF SBSP 012000Z  15009KT 9999  - RA  BKN033   21/16 Q1013=
",SBSP
1664658000000,"METAF SBSP 012100Z  14007KT 9000       BKN033   20/16 Q1019=
",SBSP
1664661600000,"METAF SBSP 012200Z  12004KT 7000       BKN033   19/15 Q1014=
",SBSP
1664665200000,"METAF SBSP 012300Z  11003KT 8000       SCT033   19/15 Q1015=
",SBSP
