hora,metar,aero,hora_dt
1654041600000,METAR SBBR 010000Z 07002KT CAVOK 21/08 Q1018=,SBBR,2022-06-01 00:00:00
1654045200000,METAR SBBR 010100Z 10002KT CAVOK 20/09 Q1019=,SBBR,2022-06-01 01:00:00
1654048800000,METAR SBBR 010200Z 00000KT CAVOK 16/09 Q1019=,SBBR,2022-06-01 02:00:00
1654052400000,METAR SBBR 010300Z 27002KT CAVOK 16/09 Q1019=,SBBR,2022-06-01 03:00:00
1654056000000,METAR SBBR 010400Z 00000KT CAVOK 14/09 Q1018=,SBBR,2022-06-01 04:00:00
1654059600000,METAR SBBR 010500Z 27004KT CAVOK 13/08 Q1018=,SBBR,2022-06-01 05:00:00
1654063200000,METAR SBBR 010600Z 25003KT CAVOK 14/08 Q1018=,SBBR,2022-06-01 06:00:00
1654066800000,METAR SBBR 010700Z 28002KT CAVOK 12/08 Q1018=,SBBR,2022-06-01 07:00:00
1654070400000,METAR SBBR 010800Z VRB01KT CAVOK 11/08 Q1018=,SBBR,2022-06-01 08:00:00
1654074000000,METAR SBBR 010900Z 26002KT CAVOK 12/09 Q1019=,SBBR,2022-06-01 09:00:00
1654077600000,METAR SBBR 011000Z VRB02KT CAVOK 11/08 Q1019=,SBBR,2022-06-01 10:00:00
1654081200000,METAR SBBR 011100Z VRB01KT CAVOK 15/10 Q1020=,SBBR,2022-06-01 11:00:00
1654084800000,METAR SBBR 011200Z VRB02KT CAVOK 20/11 Q1021=,SBBR,2022-06-01 12:00:00
1654088400000,METAR SBBR 011300Z 08009KT 050V110 CAVOK 23/12 Q1020=,SBBR,2022-06-01 13:00:00
1654092000000,METAR SBBR 011400Z 09011KT CAVOK 25/12 Q1020=,SBBR,2022-06-01 14:00:00
1654095600000,METAR SBBR 011500Z 09009KT 060V130 CAVOK 27/11 Q1019=,SBBR,2022-06-01 15:00:00
1654099200000,METAR SBBR 011600Z 08006KT 320V130 CAVOK 27/10 Q1018=,SBBR,2022-06-01 16:00:00
1654102800000,METAR SBBR 011700Z 06007KT 010V110 CAVOK 28/10 Q1017=,SBBR,2022-06-01 17:00:00
1654106400000,METAR SBBR 011800Z 06004KT CAVOK 28/09 Q1017=,SBBR,2022-06-01 18:00:00
1654110000000,METAR SBBR 011900Z 11003KT CAVOK 28/09 Q1016=,SBBR,2022-06-01 19:00:00
1654113600000,METAR SBBR 012000Z 07006KT 010V110 CAVOK 27/10 Q1016=,SBBR,2022-06-01 20:00:00
1654117200000,METAR SBBR 012100Z 11007KT CAVOK 26/09 Q1017=,SBBR,2022-06-01 21:00:00
1654120800000,METAR SBBR 012200Z 12007KT CAVOK 25/09 Q1017=,SBBR,2022-06-01 22:00:00
1654124400000,METAR SBBR 012300Z 05002KT CAVOK 22/10 Q1018=,SBBR,2022-06-01 23:00:00
1654041600000,METAR SBCF 010000Z 12006KT CAVOK 21/14 Q1018=,SBCF,2022-06-01 00:00:00
1654045200000,METAR SBCF 010100Z 10005KT CAVOK 21/14 Q1018=,SBCF,2022-06-01 01:00:00
1654048800000,METAR SBCF 010200Z 14003KT CAVOK 19/14 Q1018=,SBCF,2022-06-01 02:00:00
1654052400000,METAR SBCF 010300Z 12002KT CAVOK 19/14 Q1018=,SBCF,2022-06-01 03:00:00
1654056000000,METAR SBCF 010400Z 00000KT CAVOK 18/14 Q1018=,SBCF,2022-06-01 04:00:00
1654059600000,METAR SBCF 010500Z 11002KT CAVOK 19/14 Q1018=,SBCF,2022-06-01 05:00:00
1654063200000,METAR SBCF 010600Z 14005KT CAVOK 17/14 Q1018=,SBCF,2022-06-01 06:00:00
1654066800000,METAR SBCF 010700Z 12002KT CAVOK 17/14 Q1018=,SBCF,2022-06-01 07:00:00
1654070400000,METAR SBCF 010800Z 13003KT CAVOK 17/14 Q1018=,SBCF,2022-06-01 08:00:00
1654074000000,METAR SBCF 010900Z 15002KT CAVOK 17/14 Q1019=,SBCF,2022-06-01 09:00:00
1654077600000,METAR SBCF 011000Z 13003KT CAVOK 17/14 Q1019=,SBCF,2022-06-01 10:00:00
1654081200000,METAR SBCF 011100Z 14003KT 110V180 CAVOK 17/14 Q1020=,SBCF,2022-06-01 11:00:00
1654084800000,METAR SBCF 011200Z VRB02KT CAVOK 20/15 Q1021=,SBCF,2022-06-01 12:00:00
1654088400000,METAR SBCF 011300Z 06006KT 020V100 CAVOK 23/15 Q1021=,SBCF,2022-06-01 13:00:00
1654092000000,METAR SBCF 011400Z 15005KT 130V190 9999 FEW025 24/16 Q1020=,SBCF,2022-06-01 14:00:00
1654095600000,METAR SBCF 011500Z 12007KT 060V210 9999 FEW030 25/16 Q1019=,SBCF,2022-06-01 15:00:00
1654099200000,METAR SBCF 011600Z 09005KT 030V170 9999 FEW035 26/16 Q1018=,SBCF,2022-06-01 16:00:00
1654102800000,METAR SBCF 011700Z 06006KT 9999 FEW035 27/15 Q1017=,SBCF,2022-06-01 17:00:00
1654106400000,METAR SBCF 011800Z 14007KT 9999 FEW040 26/16 Q1016=,SBCF,2022-06-01 18:00:00
1654110000000,METAR SBCF 011900Z 12007KT 9999 FEW040 25/16 Q1016=,SBCF,2022-06-01 19:00:00
1654113600000,METAR SBCF 012000Z 09009KT CAVOK 25/16 Q1017=,SBCF,2022-06-01 20:00:00
1654117200000,METAR SBCF 012100Z 09009KT CAVOK 24/15 Q1017=,SBCF,2022-06-01 21:00:00
1654120800000,METAR SBCF 012200Z 11007KT CAVOK 22/15 Q1018=,SBCF,2022-06-01 22:00:00
1654124400000,METAR SBCF 012300Z 09011KT CAVOK 22/16 Q1018=,SBCF,2022-06-01 23:00:00
1654041600000,METAR SBCT 010000Z 10006KT 7000 -RA BKN004 OVC012 10/10 Q1019=,SBCT,2022-06-01 00:00:00
1654045200000,METAR SBCT 010100Z 10005KT 9000 -RADZ BKN006 10/10 Q1019=,SBCT,2022-06-01 01:00:00
1654048800000,METAR SBCT 010200Z 11004KT 080V140 5000 -RADZ OVC004 10/10 Q1020=,SBCT,2022-06-01 02:00:00
1654052400000,METAR SBCT 010300Z 11005KT 5000 -RADZ OVC004 10/10 Q1020=,SBCT,2022-06-01 03:00:00
1654056000000,METAR SBCT 010400Z 10004KT 4000 -RADZ OVC005 10/10 Q1020=,SBCT,2022-06-01 04:00:00
1654059600000,METAR SBCT 010500Z 12003KT 5000 -RADZ OVC005 10/10 Q1019=,SBCT,2022-06-01 05:00:00
1654063200000,METAR SBCT 010600Z 11004KT 6000 -RADZ OVC005 10/10 Q1019=,SBCT,2022-06-01 06:00:00
1654066800000,METAR SBCT 010700Z 10004KT 7000 -RADZ OVC005 11/11 Q1018=,SBCT,2022-06-01 07:00:00
1654070400000,METAR SBCT 010800Z 10005KT 080V140 7000 BKN005 11/11 Q1018=,SBCT,2022-06-01 08:00:00
1654074000000,METAR SBCT 010900Z 11003KT 080V140 7000 BKN005 11/11 Q1019=,SBCT,2022-06-01 09:00:00
1654077600000,METAR SBCT 011000Z 09005KT 6000 -RA BKN005 OVC014 11/11 Q1019=,SBCT,2022-06-01 10:00:00
1654081200000,METAR SBCT 011100Z 10004KT 060V120 5000 -RA BKN005 OVC020 11/11 Q1019=,SBCT,2022-06-01 11:00:00
1654084800000,METAR SBCT 011200Z 09004KT 060V130 4000 -RA BR BKN006 OVC020 11/11 Q1020=,SBCT,2022-06-01 12:00:00
1654088400000,METAR SBCT 011300Z 11004KT 5000 -DZ BKN006 OVC020 12/12 Q1019=,SBCT,2022-06-01 13:00:00
1654092000000,METAR SBCT 011400Z 08007KT 6000 -DZ BKN006 OVC025 13/13 Q1019=,SBCT,2022-06-01 14:00:00
1654094700000,SPECI SBCT 011445Z 03004KT 360V080 3000 -RA BKN006 OVC025 13/13 Q1019=,SBCT,2022-06-01 14:45:00
1654095600000,METAR SBCT 011500Z 06005KT 360V100 3000 -TSRA BKN006 FEW020CB OVC025 13/13 Q1019=,SBCT,2022-06-01 15:00:00
1654099200000,METAR SBCT 011600Z VRB02KT 3000 -TSRA FEW002 BKN007 FEW020CB OVC025 13/13 Q1018=,SBCT,2022-06-01 16:00:00
1654101300000,SPECI SBCT 011635Z 07005KT 3000 -RA FEW002 BKN007 OVC025 13/13 Q1017 RETS=,SBCT,2022-06-01 16:35:00
1654102800000,METAR SBCT 011700Z 07003KT 040V110 2000 -RA FEW003 BKN007 OVC025 13/13 Q1017 RETS=,SBCT,2022-06-01 17:00:00
1654104000000,SPECI SBCT 011720Z 07004KT 010V140 5000 -RA SCT003 BKN007 OVC022 13/13 Q1017=,SBCT,2022-06-01 17:20:00
1654106400000,METAR SBCT 011800Z 08003KT 060V120 5000 RA BKN003 BKN006 OVC013 13/13 Q1017=,SBCT,2022-06-01 18:00:00
1654108800000,SPECI SBCT 011840Z 09003KT 060V130 4000 -RA BR BKN003 BKN006 OVC012 13/13 Q1016 RERA=,SBCT,2022-06-01 18:40:00
1654110000000,METAR SBCT 011900Z VRB02KT 3000 -RA BR BKN003 OVC012 13/13 Q1016 RERA=,SBCT,2022-06-01 19:00:00
1654113600000,METAR SBCT 012000Z 15003KT 3000 RA BKN002 OVC010 13/13 Q1016=,SBCT,2022-06-01 20:00:00
1654115100000,SPECI SBCT 012025Z VRB02KT 4000 -RA BKN004 OVC012 13/13 Q1017 RERA=,SBCT,2022-06-01 20:25:00
1654117200000,METAR SBCT 012100Z VRB02KT 5000 RA SCT003 BKN005 OVC012 13/13 Q1017=,SBCT,2022-06-01 21:00:00
1654120800000,METAR SBCT 012200Z 08003KT 8000 -RA SCT002 BKN006 OVC012 13/13 Q1017 RERA=,SBCT,2022-06-01 22:00:00
1654124400000,METAR SBCT 012300Z 07003KT 8000 -DZ SCT003 BKN007 OVC012 13/13 Q1017=,SBCT,2022-06-01 23:00:00
1654041600000,METAR SBFL 010000Z 17009KT 140V200 9999 BKN030 14/07 Q1020=,SBFL,2022-06-01 00:00:00
1654045200000,METAR SBFL 010100Z 15005KT 9999 BKN030 13/07 Q1021=,SBFL,2022-06-01 01:00:00
1654048800000,METAR SBFL 010200Z 21007KT 9999 BKN030 13/08 Q1020=,SBFL,2022-06-01 02:00:00
1654052400000,METAR SBFL 010300Z 22005KT 9999 BKN030 13/10 Q1020=,SBFL,2022-06-01 03:00:00
1654056000000,METAR SBFL 010400Z 26002KT 9999 BKN030 13/10 Q1020=,SBFL,2022-06-01 04:00:00
1654059600000,METAR SBFL 010500Z 28004KT 9999 BKN040 13/11 Q1020=,SBFL,2022-06-01 05:00:00
1654063200000,METAR SBFL 010600Z 29002KT 9999 BKN040 12/11 Q1019=,SBFL,2022-06-01 06:00:00
1654066800000,METAR SBFL 010700Z 30002KT 9999 SCT010 BKN040 13/12 Q1019=,SBFL,2022-06-01 07:00:00
1654070400000,METAR SBFL 010800Z 25002KT 9999 SCT010 BKN040 13/12 Q1019=,SBFL,2022-06-01 08:00:00
1654074000000,METAR SBFL 010900Z 27002KT 9999 FEW010 BKN030 13/12 Q1019=,SBFL,2022-06-01 09:00:00
1654077600000,METAR SBFL 011000Z 26003KT 9999 BKN030 13/10 Q1019=,SBFL,2022-06-01 10:00:00
1654081200000,METAR SBFL 011100Z 26004KT 9999 SCT015 BKN025 14/11 Q1020=,SBFL,2022-06-01 11:00:00
1654084800000,METAR SBFL 011200Z 26005KT 9999 SCT015 BKN025 14/12 Q1020=,SBFL,2022-06-01 12:00:00
1654088400000,METAR SBFL 011300Z 25003KT 220V280 9999 FEW015 BKN030 14/11 Q1020=,SBFL,2022-06-01 13:00:00
1654092000000,METAR SBFL 011400Z 24003KT 9999 FEW015 BKN030 15/11 Q1019=,SBFL,2022-06-01 14:00:00
1654095600000,METAR SBFL 011500Z 24004KT 210V270 9999 SCT008 BKN025 15/11 Q1018=,SBFL,2022-06-01 15:00:00
1654099200000,METAR SBFL 011600Z 29005KT 9999 SCT008 BKN020 15/12 Q1017=,SBFL,2022-06-01 16:00:00
1654102800000,METAR SBFL 011700Z VRB02KT 9000 -RA SCT009 OVC020 15/13 Q1016=,SBFL,2022-06-01 17:00:00
1654104600000,SPECI SBFL 011730Z 25004KT 9000 -RA BKN010 OVC025 15/14 Q1016=,SBFL,2022-06-01 17:30:00
1654106400000,METAR SBFL 011800Z 21001KT 8000 -RA BKN010 OVC025 15/14 Q1016=,SBFL,2022-06-01 18:00:00
1654107840000,SPECI SBFL 011824Z 22001KT 2500 -RA BKN008 OVC025 14/13 Q1016=,SBFL,2022-06-01 18:24:00
1654110000000,METAR SBFL 011900Z 21003KT 3000 -RA BKN008 OVC025 14/13 Q1015=,SBFL,2022-06-01 19:00:00
1654113600000,METAR SBFL 012000Z 11004KT 4000 -RA BKN010 OVC025 14/13 Q1015=,SBFL,2022-06-01 20:00:00
1654117200000,METAR SBFL 012100Z 12003KT 4000 -RA BKN008 OVC025 14/14 Q1016=,SBFL,2022-06-01 21:00:00
1654120800000,METAR SBFL 012200Z 34002KT 3000 -RA BKN007 OVC025 14/14 Q1016=,SBFL,2022-06-01 22:00:00
1654124400000,METAR SBFL 012300Z 03002KT 4000 -RA BKN008 OVC025 14/14 Q1016=,SBFL,2022-06-01 23:00:00
1654041600000,METAR SBGL 010000Z 10002KT 9999 SCT020 BKN040 23/20 Q1016=,SBGL,2022-06-01 00:00:00
1654045200000,METAR SBGL 010100Z 09004KT 9999 SCT020 OVC040 22/20 Q1016=,SBGL,2022-06-01 01:00:00
1654048800000,METAR SBGL 010200Z 00000KT 9999 SCT018 OVC030 22/20 Q1016=,SBGL,2022-06-01 02:00:00
1654052400000,METAR SBGL 010300Z 12002KT 9999 SCT018 OVC030 22/20 Q1015=,SBGL,2022-06-01 03:00:00
1654056000000,METAR SBGL 010400Z 10002KT 9999 SCT018 OVC030 22/20 Q1015=,SBGL,2022-06-01 04:00:00
1654059600000,METAR SBGL 010500Z 15003KT 9999 SCT018 OVC030 22/19 Q1015=,SBGL,2022-06-01 05:00:00
1654063200000,METAR SBGL 010600Z 35002KT 9999 SCT015 OVC030 21/19 Q1014=,SBGL,2022-06-01 06:00:00
1654066800000,METAR SBGL 010700Z 34004KT 9999 SCT015 OVC030 20/19 Q1014=,SBGL,2022-06-01 07:00:00
1654070400000,METAR SBGL 010800Z 33003KT 8000 SCT015 OVC030 20/19 Q1015=,SBGL,2022-06-01 08:00:00
1654074000000,METAR SBGL 010900Z 00000KT 8000 FEW015 BKN050 21/20 Q1015=,SBGL,2022-06-01 09:00:00
1654075800000,SPECI SBGL 010930Z 00000KT 4000 BR FEW015 BKN050 21/20 Q1016=,SBGL,2022-06-01 09:30:00
1654077600000,METAR COR SBGL 011000Z 00000KT 5000 BR FEW007 BKN050 21/20 Q1016=,SBGL,2022-06-01 10:00:00
1654081200000,METAR SBGL 011100Z 10003KT 070V130 7000 FEW009 BKN070 23/21 Q1016=,SBGL,2022-06-01 11:00:00
1654084800000,METAR SBGL 011200Z VRB02KT 8000 FEW010 BKN080 23/20 Q1017=,SBGL,2022-06-01 12:00:00
1654088400000,METAR SBGL 011300Z 36003KT 310V040 7000 SCT012 25/21 Q1017=,SBGL,2022-06-01 13:00:00
1654092000000,METAR SBGL 011400Z 12008KT 8000 SCT018 BKN030 27/22 Q1016=,SBGL,2022-06-01 14:00:00
1654095600000,METAR SBGL 011500Z 13010KT 9999 BKN019 25/20 Q1015=,SBGL,2022-06-01 15:00:00
1654099200000,METAR SBGL 011600Z 14008KT 100V160 9999 FEW025 26/21 Q1014=,SBGL,2022-06-01 16:00:00
1654102800000,METAR SBGL 011700Z 11008KT 070V150 9999 FEW025 27/20 Q1013=,SBGL,2022-06-01 17:00:00
1654106400000,METAR SBGL 011800Z 12010KT CAVOK 26/20 Q1012=,SBGL,2022-06-01 18:00:00
1654110000000,METAR SBGL 011900Z 12010KT CAVOK 24/21 Q1012=,SBGL,2022-06-01 19:00:00
1654113600000,METAR SBGL 012000Z 14006KT CAVOK 24/21 Q1012=,SBGL,2022-06-01 20:00:00
1654117200000,METAR SBGL 012100Z 13005KT CAVOK 23/21 Q1013=,SBGL,2022-06-01 21:00:00
1654120800000,METAR SBGL 012200Z 14005KT CAVOK 23/21 Q1013=,SBGL,2022-06-01 22:00:00
1654124400000,METAR SBGL 012300Z 25002KT 9999 SCT025 23/21 Q1014=,SBGL,2022-06-01 23:00:00
1654041600000,METAR SBGR 010000Z 13005KT 9999 OVC009 16/15 Q1019=,SBGR,2022-06-01 00:00:00
1654045200000,METAR SBGR 010100Z 13003KT 9999 OVC009 16/15 Q1020=,SBGR,2022-06-01 01:00:00
1654048800000,METAR SBGR 010200Z 10003KT 9999 SCT008 OVC017 16/15 Q1019=,SBGR,2022-06-01 02:00:00
1654052400000,METAR SBGR 010300Z 16003KT 9999 SCT008 OVC017 16/15 Q1019=,SBGR,2022-06-01 03:00:00
1654054080000,SPECI SBGR 010328Z 15003KT 9999 BKN009 OVC015 16/15 Q1019=,SBGR,2022-06-01 03:28:00
1654056000000,METAR SBGR 010400Z 13003KT 9999 BKN009 OVC015 16/16 Q1019=,SBGR,2022-06-01 04:00:00
1654059600000,METAR COR SBGR 010500Z 16003KT 9999 -RA BKN008 OVC015 16/16 Q1019=,SBGR,2022-06-01 05:00:00
1654063200000,METAR SBGR 010600Z 16003KT 9000 -RA BKN008 OVC015 16/16 Q1018=,SBGR,2022-06-01 06:00:00
1654063980000,SPECI SBGR 010613Z 05003KT 6000 TSRA BKN008 SCT020 FEW030CB BKN080 16/16 Q1018=,SBGR,2022-06-01 06:13:00
1654066800000,METAR SBGR 010700Z 07003KT 6000 -RA VCTS BKN007 SCT015 FEW040CB BKN090 16/16 Q1018 RETSRA=,SBGR,2022-06-01 07:00:00
1654070400000,METAR SBGR 010800Z 00000KT 7000 -RA BKN009 BKN080 OVC100 16/16 Q1019=,SBGR,2022-06-01 08:00:00
1654074000000,METAR SBGR 010900Z 15003KT 6000 -RA BKN008 OVC100 16/16 Q1019=,SBGR,2022-06-01 09:00:00
1654077600000,METAR SBGR 011000Z 10003KT 6000 OVC008 16/16 Q1019=,SBGR,2022-06-01 10:00:00
1654081200000,METAR SBGR 011100Z 11002KT 6000 OVC006 16/16 Q1020=,SBGR,2022-06-01 11:00:00
1654084800000,METAR SBGR 011200Z 06008KT 8000 OVC006 17/16 Q1020=,SBGR,2022-06-01 12:00:00
1654088400000,METAR SBGR 011300Z 07008KT 9999 OVC006 17/17 Q1020=,SBGR,2022-06-01 13:00:00
1654092000000,METAR SBGR 011400Z 08006KT 9999 BKN007 18/17 Q1020=,SBGR,2022-06-01 14:00:00
1654095600000,METAR SBGR 011500Z 07006KT 9999 -RA BKN009 OVC080 19/17 Q1018=,SBGR,2022-06-01 15:00:00
1654099200000,METAR SBGR 011600Z 07007KT 9999 BKN010 20/18 Q1017=,SBGR,2022-06-01 16:00:00
1654102800000,METAR SBGR 011700Z 09002KT 9999 FEW015 BKN080 21/18 Q1016=,SBGR,2022-06-01 17:00:00
1654106400000,METAR SBGR 011800Z 08002KT 9999 BKN017 22/18 Q1015=,SBGR,2022-06-01 18:00:00
1654110000000,METAR SBGR 011900Z 14005KT 9999 BKN013 21/19 Q1015=,SBGR,2022-06-01 19:00:00
1654113600000,METAR SBGR 012000Z 11004KT 9999 OVC013 21/19 Q1016=,SBGR,2022-06-01 20:00:00
1654117200000,METAR SBGR 012100Z 11003KT 9999 OVC011 20/19 Q1016=,SBGR,2022-06-01 21:00:00
1654120800000,METAR SBGR 012200Z 09004KT 9999 OVC009 20/19 Q1017=,SBGR,2022-06-01 22:00:00
1654124400000,METAR SBGR 012300Z 08005KT 9999 OVC009 20/19 Q1017=,SBGR,2022-06-01 23:00:00
1654041600000,METAR SBKP 010000Z 12013KT CAVOK 17/15 Q1017=,SBKP,2022-06-01 00:00:00
1654045200000,METAR SBKP 010100Z 12014KT CAVOK 17/15 Q1018=,SBKP,2022-06-01 01:00:00
1654048800000,METAR SBKP 010200Z 12013KT CAVOK 17/15 Q1017=,SBKP,2022-06-01 02:00:00
1654052400000,METAR SBKP 010300Z 12012KT 9999 VCTS SCT020 FEW040CB 17/15 Q1017=,SBKP,2022-06-01 03:00:00
1654056000000,METAR SBKP 010400Z 12014KT 9999 VCTS SCT020 FEW040CB BKN070 17/15 Q1017=,SBKP,2022-06-01 04:00:00
1654058460000,SPECI SBKP 010441Z 14012KT 9999 -TSRA BKN030 FEW040CB OVC070 17/15 Q1017=,SBKP,2022-06-01 04:41:00
1654059600000,METAR COR SBKP 010500Z 26019G29KT 3000 +TSRA BR BKN005 SCT030 SCT040CB 17/15 Q1019=,SBKP,2022-06-01 05:00:00
1654060920000,SPECI SBKP 010522Z 14014KT 6000 TSRA FEW005 BKN025 SCT040CB 17/16 Q1017 RERA=,SBKP,2022-06-01 05:22:00
1654063200000,METAR SBKP 010600Z 12010KT 6000 TSRA BKN021 FEW040CB OVC070 17/16 Q1017 RERA=,SBKP,2022-06-01 06:00:00
1654066800000,METAR SBKP 010700Z 11007KT 8000 -TSRA FEW003 SCT025 FEW040CB OVC100 17/16 Q1017 RERA=,SBKP,2022-06-01 07:00:00
1654070400000,METAR SBKP 010800Z 11009KT 9999 SCT025 FEW050TCU OVC100 16/15 Q1017 RETS=,SBKP,2022-06-01 08:00:00
1654074000000,METAR SBKP 010900Z 11006KT 9999 FEW010 BKN043 OVC100 17/15 Q1018=,SBKP,2022-06-01 09:00:00
1654077600000,METAR SBKP 011000Z 10006KT 8000 3500E FEW010 SCT040 BKN080 16/15 Q1018=,SBKP,2022-06-01 10:00:00
1654081200000,METAR SBKP 011100Z 12005KT 8000 -RA FEW010 BKN080 17/16 Q1019=,SBKP,2022-06-01 11:00:00
1654084800000,METAR SBKP 011200Z 10006KT 9000 FEW040 BKN066 17/16 Q1019=,SBKP,2022-06-01 12:00:00
1654088400000,METAR SBKP 011300Z 12003KT 9999 SCT040 BKN066 BKN100 18/17 Q1019=,SBKP,2022-06-01 13:00:00
1654092000000,METAR SBKP 011400Z 12004KT 9999 FEW030 SCT040 BKN050 20/17 Q1019=,SBKP,2022-06-01 14:00:00
1654095600000,METAR SBKP 011500Z 09005KT 9999 FEW020 BKN100 21/18 Q1017=,SBKP,2022-06-01 15:00:00
1654099200000,METAR SBKP 011600Z 02006KT 9999 FEW020 BKN100 23/18 Q1016=,SBKP,2022-06-01 16:00:00
1654102800000,METAR SBKP 011700Z 32003KT 9999 FEW020 BKN100 24/18 Q1015=,SBKP,2022-06-01 17:00:00
1654106400000,METAR SBKP 011800Z 03002KT 9999 FEW020 BKN100 26/18 Q1014=,SBKP,2022-06-01 18:00:00
1654110000000,METAR SBKP 011900Z 34006KT CAVOK 25/17 Q1014=,SBKP,2022-06-01 19:00:00
1654113600000,METAR SBKP 012000Z 26005KT CAVOK 24/18 Q1015=,SBKP,2022-06-01 20:00:00
1654117200000,METAR SBKP 012100Z 20003KT CAVOK 24/18 Q1015=,SBKP,2022-06-01 21:00:00
1654120800000,METAR SBKP 012200Z 20003KT CAVOK 23/18 Q1015=,SBKP,2022-06-01 22:00:00
1654124400000,METAR SBKP 012300Z 15003KT CAVOK 21/18 Q1016=,SBKP,2022-06-01 23:00:00
1654041600000,METAR SBPA 010000Z VRB03KT CAVOK 09/04 Q1021=,SBPA,2022-06-01 00:00:00
1654045200000,METAR SBPA 010100Z 15003KT 130V190 CAVOK 09/04 Q1021=,SBPA,2022-06-01 01:00:00
1654048800000,METAR SBPA 010200Z 07004KT CAVOK 07/05 Q1021=,SBPA,2022-06-01 02:00:00
1654052400000,METAR SBPA 010300Z 08004KT CAVOK 07/05 Q1021=,SBPA,2022-06-01 03:00:00
1654056000000,METAR SBPA 010400Z VRB02KT CAVOK 06/05 Q1021=,SBPA,2022-06-01 04:00:00
1654059600000,METAR SBPA 010500Z 21002KT CAVOK 05/04 Q1021=,SBPA,2022-06-01 05:00:00
1654063200000,METAR SBPA 010600Z 11002KT CAVOK 05/04 Q1021=,SBPA,2022-06-01 06:00:00
1654066800000,METAR SBPA 010700Z VRB02KT 9000 NSC 04/04 Q1020=,SBPA,2022-06-01 07:00:00
1654070400000,METAR SBPA 010800Z VRB01KT CAVOK 05/05 Q1020=,SBPA,2022-06-01 08:00:00
1654074000000,METAR SBPA 010900Z 08004KT CAVOK 06/05 Q1020=,SBPA,2022-06-01 09:00:00
1654077600000,METAR SBPA 011000Z VRB01KT 9999 SCT045 BKN080 06/06 Q1020=,SBPA,2022-06-01 10:00:00
1654081200000,METAR SBPA 011100Z 00000KT 9999 FEW005 BKN050 07/06 Q1021=,SBPA,2022-06-01 11:00:00
1654084800000,METAR SBPA 011200Z VRB01KT 9999 FEW005 BKN041 08/06 Q1020=,SBPA,2022-06-01 12:00:00
1654088400000,METAR SBPA 011300Z VRB02KT 9999 FEW005 BKN040 09/07 Q1021=,SBPA,2022-06-01 13:00:00
1654092000000,METAR SBPA 011400Z 17007KT 120V200 9999 FEW010 BKN029 BKN036 11/08 Q1019=,SBPA,2022-06-01 14:00:00
1654095600000,METAR SBPA 011500Z 16005KT 9999 FEW010 SCT028 OVC036 12/09 Q1019=,SBPA,2022-06-01 15:00:00
1654099200000,METAR SBPA 011600Z 17006KT 9999 FEW015 OVC030 12/08 Q1019=,SBPA,2022-06-01 16:00:00
1654102800000,METAR SBPA 011700Z 17008KT 140V200 9999 FEW015 OVC030 12/07 Q1018=,SBPA,2022-06-01 17:00:00
1654106400000,METAR SBPA 011800Z 16006KT 9999 FEW015 OVC030 12/08 Q1018=,SBPA,2022-06-01 18:00:00
1654110000000,METAR SBPA 011900Z 14005KT 9999 FEW015 OVC030 12/08 Q1018=,SBPA,2022-06-01 19:00:00
1654113600000,METAR SBPA 012000Z 18005KT 150V220 9999 FEW020 OVC030 12/09 Q1018=,SBPA,2022-06-01 20:00:00
1654117200000,METAR SBPA 012100Z 18006KT 150V210 9999 BKN020 OVC030 12/09 Q1018=,SBPA,2022-06-01 21:00:00
1654120800000,METAR SBPA 012200Z 18003KT 140V230 9000 OVC026 12/09 Q1019=,SBPA,2022-06-01 22:00:00
1654124400000,METAR SBPA 012300Z 14004KT 9000 OVC026 12/09 Q1020=,SBPA,2022-06-01 23:00:00
1654041600000,METAR SBRF 010000Z 26002KT 9999 VCSH FEW013 BKN019 25/24 Q1012=,SBRF,2022-06-01 00:00:00
1654045200000,METAR SBRF 010100Z 13004KT 100V160 9999 FEW013 BKN019 26/25 Q1012=,SBRF,2022-06-01 01:00:00
1654048800000,METAR SBRF 010200Z 11004KT 050V140 9999 SCT019 SCT060 27/24 Q1012=,SBRF,2022-06-01 02:00:00
1654052400000,METAR SBRF 010300Z 11004KT 070V140 9999 SCT019 SCT060 27/24 Q1011=,SBRF,2022-06-01 03:00:00
1654056000000,METAR SBRF 010400Z 14004KT 110V170 9999 VCSH SCT019 BKN070 27/24 Q1011=,SBRF,2022-06-01 04:00:00
1654059600000,METAR SBRF 010500Z 13004KT 9999 SCT019 26/24 Q1010=,SBRF,2022-06-01 05:00:00
1654063200000,METAR SBRF 010600Z 19004KT 150V210 9999 SCT019 24/22 Q1010=,SBRF,2022-06-01 06:00:00
1654065840000,SPECI SBRF 010644Z 09008KT 040V130 2000 SHRA BR BKN017 FEW020TCU 25/23 Q1010=,SBRF,2022-06-01 06:44:00
1654066800000,METAR SBRF 010700Z 09006KT 030V130 1500 R36///// R18/1600D SHRA BR BKN017 FEW020TCU 24/23 Q1010=,SBRF,2022-06-01 07:00:00
1654067520000,SPECI SBRF 010712Z 18004KT 140V230 3000 -RA BR SCT010 BKN017 FEW020TCU 23/23 Q1011 RESHRA=,SBRF,2022-06-01 07:12:00
1654070400000,METAR SBRF 010800Z 21004KT 180V240 9999 VCSH FEW010 BKN017 FEW020TCU 24/23 Q1011 RESHRA=,SBRF,2022-06-01 08:00:00
1654074000000,METAR SBRF 010900Z 21002KT 9999 FEW010 SCT019 FEW021TCU BKN033 24/23 Q1012=,SBRF,2022-06-01 09:00:00
1654077600000,METAR SBRF 011000Z 19014KT 9999 VCSH BKN007 BKN017 FEW021TCU BKN033 24/23 Q1012=,SBRF,2022-06-01 10:00:00
1654081200000,METAR SBRF 011100Z 19007KT 9999 SCT012 SCT023 25/24 Q1013=,SBRF,2022-06-01 11:00:00
1654084800000,METAR SBRF 011200Z 18007KT 9999 BKN016 BKN060 26/23 Q1013=,SBRF,2022-06-01 12:00:00
1654088400000,METAR SBRF 011300Z 18006KT 140V220 9999 FEW016 SCT070 28/23 Q1013=,SBRF,2022-06-01 13:00:00
1654092000000,METAR SBRF 011400Z 14004KT 9999 FEW023 SCT080 29/23 Q1012=,SBRF,2022-06-01 14:00:00
1654095600000,METAR SBRF 011500Z 14007KT 9999 FEW025 SCT090 29/23 Q1012=,SBRF,2022-06-01 15:00:00
1654099200000,METAR SBRF 011600Z 15009KT 9999 FEW025 SCT090 29/24 Q1011=,SBRF,2022-06-01 16:00:00
1654102800000,METAR SBRF 011700Z 15010KT 9999 SCT023 28/24 Q1010=,SBRF,2022-06-01 17:00:00
1654106400000,METAR SBRF 011800Z 16009KT 9999 SCT023 28/24 Q1010=,SBRF,2022-06-01 18:00:00
1654110000000,METAR SBRF 011900Z 15008KT 9999 SCT023 FEW025TCU 28/22 Q1010=,SBRF,2022-06-01 19:00:00
1654113600000,METAR SBRF 012000Z 18006KT 9999 SCT023 FEW025TCU 26/22 Q1010=,SBRF,2022-06-01 20:00:00
1654117200000,METAR SBRF 012100Z 19007KT 9999 VCSH FEW015 SCT020 26/24 Q1011=,SBRF,2022-06-01 21:00:00
1654120800000,METAR SBRF 012200Z 18006KT 9999 FEW013 BKN020 25/23 Q1011=,SBRF,2022-06-01 22:00:00
1654124400000,METAR SBRF 012300Z 22003KT 9999 VCSH FEW013 BKN020 24/24 Q1012=,SBRF,2022-06-01 23:00:00
1654041600000,METAR SBRJ 010000Z 17006KT 9999 SCT025 OVC050 23/20 Q1015=,SBRJ,2022-06-01 00:00:00
1654045200000,METAR SBRJ 010100Z 15004KT 9999 FEW020 SCT030 BKN080 23/21 Q1015=,SBRJ,2022-06-01 01:00:00
1654048800000,METAR SBRJ 010200Z VRB01KT 9999 FEW020 BKN100 23/21 Q1015=,SBRJ,2022-06-01 02:00:00
1654073400000,SPECI SBRJ 010850Z 36003KT 9999 FEW010 BKN075 22/21 Q1015=,SBRJ,2022-06-01 08:50:00
1654074000000,METAR SBRJ 010900Z 01004KT 9999 FEW010 BKN075 22/21 Q1015=,SBRJ,2022-06-01 09:00:00
1654077600000,METAR SBRJ 011000Z 36003KT 9000 FEW010 BKN100 22/21 Q1015=,SBRJ,2022-06-01 10:00:00
1654081200000,METAR SBRJ 011100Z VRB02KT 8000 FEW010 BKN100 23/21 Q1016=,SBRJ,2022-06-01 11:00:00
1654084800000,METAR SBRJ 011200Z 14004KT 9000 FEW010 BKN100 23/21 Q1016=,SBRJ,2022-06-01 12:00:00
1654088400000,METAR SBRJ 011300Z 15006KT 8000 FEW008 SCT015 24/21 Q1017=,SBRJ,2022-06-01 13:00:00
1654092000000,METAR SBRJ 011400Z 14007KT 8000 SCT012 25/22 Q1016=,SBRJ,2022-06-01 14:00:00
1654095600000,METAR SBRJ 011500Z 14009KT 8000 SCT012 24/22 Q1015=,SBRJ,2022-06-01 15:00:00
1654099200000,METAR SBRJ 011600Z 16010KT 9000 FEW012 24/22 Q1014=,SBRJ,2022-06-01 16:00:00
1654102800000,METAR SBRJ 011700Z 16010KT 8000 FEW012 24/21 Q1013=,SBRJ,2022-06-01 17:00:00
1654106400000,METAR SBRJ 011800Z 16011KT 9000 FEW010 24/22 Q1012=,SBRJ,2022-06-01 18:00:00
1654110000000,METAR SBRJ 011900Z 16009KT 9999 FEW010 24/21 Q1012=,SBRJ,2022-06-01 19:00:00
1654113600000,METAR SBRJ 012000Z 17011KT 9999 FEW010 23/22 Q1012=,SBRJ,2022-06-01 20:00:00
1654117200000,METAR SBRJ 012100Z 19010KT 9999 FEW010 24/22 Q1012=,SBRJ,2022-06-01 21:00:00
1654120800000,METAR SBRJ 012200Z 19010KT 9999 FEW010 24/22 Q1013=,SBRJ,2022-06-01 22:00:00
1654124400000,METAR SBRJ 012300Z 18008KT 9999 FEW010 24/22 Q1013=,SBRJ,2022-06-01 23:00:00
1654041600000,METAR SBSP 010000Z 15008KT 9999 FEW005 OVC007 15/13 Q1020=,SBSP,2022-06-01 00:00:00
1654045200000,METAR SBSP 010100Z 12006KT 090V160 9999 SCT006 OVC008 15/14 Q1020=,SBSP,2022-06-01 01:00:00
1654048800000,METAR SBSP 010200Z 17005KT 9999 SCT006 OVC008 15/14 Q1020=,SBSP,2022-06-01 02:00:00
1654048860000,SPECI SBSP 010201Z 17005KT 9999 SCT006 OVC008 15/14 Q1020=,SBSP,2022-06-01 02:01:00
1654050360000,SPECI SBSP 010226Z AUTO 15007KT 9999 BKN006 OVC014 15/14 Q1019=,SBSP,2022-06-01 02:26:00
1654051440000,SPECI SBSP 010244Z AUTO 15006KT 9999 SCT005 OVC007 15/14 Q1020=,SBSP,2022-06-01 02:44:00
1654052400000,METAR SBSP 010300Z AUTO 17006KT 9999 SCT004 OVC007 15/14 Q1020=,SBSP,2022-06-01 03:00:00
1654056000000,METAR SBSP 010400Z AUTO 17005KT 9999 SCT003 OVC005 15/14 Q1020=,SBSP,2022-06-01 04:00:00
1654058220000,SPECI SBSP 010437Z AUTO 17005KT 9999 BKN004 OVC013 15/14 Q1019=,SBSP,2022-06-01 04:37:00
1654059000000,SPECI SBSP 010450Z AUTO 18006KT 9999 OVC005 15/14 Q1019=,SBSP,2022-06-01 04:50:00
1654059180000,SPECI SBSP 010453Z AUTO 18006KT 9999 BKN004 OVC013 15/14 Q1019=,SBSP,2022-06-01 04:53:00
1654059600000,METAR SBSP 010500Z AUTO 18006KT 9999 BKN004 OVC013 15/14 Q1019=,SBSP,2022-06-01 05:00:00
1654060740000,SPECI SBSP 010519Z AUTO 14004KT 9999 -RA BKN004 BKN007 OVC014 15/14 Q1019=,SBSP,2022-06-01 05:19:00
1654061460000,SPECI SBSP 010531Z AUTO 14005KT 9999 -RA SCT003 BKN005 OVC013 15/14 Q1019=,SBSP,2022-06-01 05:31:00
1654062960000,SPECI SBSP 010556Z AUTO 11004KT 070V130 9999 -RA SCT003 BKN006 OVC015 15/14 Q1018=,SBSP,2022-06-01 05:56:00
1654063020000,SPECI SBSP 010557Z AUTO 11004KT 060V130 9999 -RA SCT003 BKN006 OVC013 15/14 Q1018=,SBSP,2022-06-01 05:57:00
1654063200000,METAR SBSP 010600Z AUTO 11004KT 060V130 9999 -RA SCT003 BKN006 OVC013 15/14 Q1018=,SBSP,2022-06-01 06:00:00
1654064580000,SPECI SBSP 010623Z AUTO 06004KT 030V090 9999 -RA BKN004 OVC014 15/14 Q1019=,SBSP,2022-06-01 06:23:00
1654066500000,SPECI SBSP 010655Z AUTO 12003KT 080V190 9999 -RA BKN005 OVC014 15/14 Q1019=,SBSP,2022-06-01 06:55:00
1654066800000,METAR SBSP 010700Z AUTO 12003KT 080V190 9999 -RA BKN005 OVC014 15/14 Q1019=,SBSP,2022-06-01 07:00:00
1654067100000,SPECI SBSP 010705Z AUTO 00000KT 9999 -RA OVC004 15/14 Q1019=,SBSP,2022-06-01 07:05:00
1654068300000,SPECI SBSP 010725Z AUTO 17003KT 9999 -RA SCT004 BKN010 OVC013 15/14 Q1019=,SBSP,2022-06-01 07:25:00
1654068360000,SPECI SBSP 010726Z AUTO 17003KT 9999 -RA BKN004 OVC013 15/14 Q1019=,SBSP,2022-06-01 07:26:00
1654069020000,SPECI SBSP 010737Z AUTO VRB02KT 9999 FEW004 SCT006 OVC013 15/14 Q1019=,SBSP,2022-06-01 07:37:00
1654069380000,SPECI SBSP 010743Z AUTO 18003KT 9999 SCT005 BKN011 OVC013 15/14 Q1019=,SBSP,2022-06-01 07:43:00
1654069740000,SPECI SBSP 010749Z AUTO 18003KT 9999 SCT005 BKN009 OVC013 15/14 Q1019=,SBSP,2022-06-01 07:49:00
1654070400000,METAR SBSP 010800Z AUTO 18004KT 9999 SCT005 BKN009 OVC012 15/14 Q1019=,SBSP,2022-06-01 08:00:00
1654071060000,SPECI SBSP 010811Z AUTO 16005KT 9999 -RA BKN005 OVC009 15/14 Q1019=,SBSP,2022-06-01 08:11:00
1654071240000,SPECI SBSP 010814Z AUTO 17005KT 9000 -RA BKN004 OVC006 15/14 Q1019=,SBSP,2022-06-01 08:14:00
1654072680000,SPECI SBSP 010838Z AUTO 17004KT 9999 -RA SCT003 BKN005 OVC009 15/14 Q1019=,SBSP,2022-06-01 08:38:00
1654073280000,SPECI SBSP 010848Z AUTO 15003KT 9999 -RA SCT003 BKN005 OVC010 15/14 Q1019=,SBSP,2022-06-01 08:48:00
1654074000000,METAR SBSP 010900Z 14004KT 8000 SCT004 OVC010 15/14 Q1019=,SBSP,2022-06-01 09:00:00
1654077600000,METAR SBSP 011000Z 10003KT 8000 -RA SCT009 OVC011 15/14 Q1020=,SBSP,2022-06-01 10:00:00
1654078560000,SPECI SBSP 011016Z 07003KT 030V160 9000 -RA SCT015 SCT023 15/14 Q1020=,SBSP,2022-06-01 10:16:00
1654081200000,METAR SBSP 011100Z 09004KT 060V120 9999 -RA SCT007 SCT023 16/15 Q1020=,SBSP,2022-06-01 11:00:00
1654083180000,SPECI SBSP 011133Z 09003KT 9000 SCT005 BKN007 16/15 Q1021=,SBSP,2022-06-01 11:33:00
1654084800000,METAR SBSP 011200Z 08003KT 030V130 9999 -RA SCT005 BKN006 16/15 Q1021=,SBSP,2022-06-01 12:00:00
1654088400000,METAR SBSP 011300Z 06004KT 9999 SCT006 OVC007 17/15 Q1021=,SBSP,2022-06-01 13:00:00
1654092000000,METAR SBSP 011400Z 07003KT 040V100 9999 FEW007 SCT008 18/16 Q1020=,SBSP,2022-06-01 14:00:00
1654095600000,METAR SBSP 011500Z 03003KT 350V090 9999 SCT009 20/16 Q1019=,SBSP,2022-06-01 15:00:00
1654099200000,METAR SBSP 011600Z 36002KT 9999 SCT040 BKN070 21/16 Q1018=,SBSP,2022-06-01 16:00:00
1654102800000,METAR SBSP 011700Z 05003KT 9999 FEW040 21/16 Q1016=,SBSP,2022-06-01 17:00:00
1654106400000,METAR SBSP 011800Z 08002KT CAVOK 22/16 Q1016=,SBSP,2022-06-01 18:00:00
1654110000000,METAR SBSP 011900Z 21006KT 170V250 9000 FEW021 21/18 Q1016=,SBSP,2022-06-01 19:00:00
1654111680000,SPECI SBSP 011928Z 18008KT 5000 BR SCT006 19/17 Q1016=,SBSP,2022-06-01 19:28:00
1654112340000,SPECI SBSP 011939Z 19008KT 4500 BR SCT004 BKN006 19/17 Q1016=,SBSP,2022-06-01 19:39:00
1654113600000,METAR COR SBSP 012000Z 19008KT 4500 2200S BR SCT003 BKN005 19/17 Q1017=,SBSP,2022-06-01 20:00:00
1654115040000,SPECI SBSP 012024Z 15006KT 4000 1800S R17/P2000D R35/P2000 BR SCT002 BKN004 18/16 Q1017=,SBSP,2022-06-01 20:24:00
1654117200000,METAR SBSP 012100Z 16005KT 4400 2100S BR SCT001 BKN004 18/16 Q1017=,SBSP,2022-06-01 21:00:00
1654118340000,SPECI SBSP 012119Z 17006KT 3000 BR SCT001 BKN003 17/16 Q1017=,SBSP,2022-06-01 21:19:00
1654119180000,SPECI SBSP 012133Z 17005KT 1500 R17/P2000N R35/P2000N BR SCT001 BKN002 17/16 Q1017=,SBSP,2022-06-01 21:33:00
1654120800000,METAR SBSP 012200Z 16004KT 1900 R35/P2000N R17/P2000N BR OVC002 17/16 Q1017=,SBSP,2022-06-01 22:00:00
1654124400000,METAR COR SBSP 012300Z 13002KT 5000 BR SCT002 BKN005 17/16 Q1018=,SBSP,2022-06-01 23:00:00
1654041600000,METAR SBSV 010000Z 11008KT 9999 FEW023 27/21 Q1014=,SBSV,2022-06-01 00:00:00
1654045200000,METAR SBSV 010100Z 11009KT 9999 FEW023 27/21 Q1014=,SBSV,2022-06-01 01:00:00
1654048800000,METAR SBSV 010200Z 11007KT 9999 FEW023 27/21 Q1014=,SBSV,2022-06-01 02:00:00
1654052400000,METAR SBSV 010300Z 11008KT 9999 FEW023 27/21 Q1014=,SBSV,2022-06-01 03:00:00
1654056000000,METAR SBSV 010400Z 11005KT 9999 SCT023 27/22 Q1013=,SBSV,2022-06-01 04:00:00
1654059600000,METAR SBSV 010500Z 12007KT 9999 SCT023 27/21 Q1013=,SBSV,2022-06-01 05:00:00
1654063200000,METAR SBSV 010600Z 13005KT 9999 SCT023 27/21 Q1013=,SBSV,2022-06-01 06:00:00
1654066800000,METAR SBSV 010700Z 13006KT 9999 SCT023 27/22 Q1012=,SBSV,2022-06-01 07:00:00
1654070400000,METAR SBSV 010800Z 13005KT 9999 SCT023 27/21 Q1013=,SBSV,2022-06-01 08:00:00
1654074000000,METAR SBSV 010900Z 14004KT 9999 SCT023 27/22 Q1013=,SBSV,2022-06-01 09:00:00
1654077600000,METAR SBSV 011000Z 15006KT 9999 SCT023 27/22 Q1014=,SBSV,2022-06-01 10:00:00
1654081200000,METAR SBSV 011100Z 15007KT 9999 SCT023 28/22 Q1015=,SBSV,2022-06-01 11:00:00
1654084800000,METAR SBSV 011200Z 15008KT 9999 SCT023 29/22 Q1015=,SBSV,2022-06-01 12:00:00
1654088400000,METAR SBSV 011300Z 15009KT 110V180 9999 SCT023 29/22 Q1015=,SBSV,2022-06-01 13:00:00
1654092000000,METAR SBSV 011400Z 16009KT 130V210 9999 SCT023 29/22 Q1015=,SBSV,2022-06-01 14:00:00
1654095600000,METAR SBSV 011500Z 15011KT 9999 SCT023 30/22 Q1014=,SBSV,2022-06-01 15:00:00
1654099200000,METAR SBSV 011600Z 16012KT 9999 SCT023 30/22 Q1013=,SBSV,2022-06-01 16:00:00
1654102800000,METAR SBSV 011700Z 15011KT 130V190 9999 VCSH SCT023 FEW026TCU 30/23 Q1013=,SBSV,2022-06-01 17:00:00
1654106400000,METAR SBSV 011800Z 16010KT 9999 SCT023 FEW026TCU 30/22 Q1012=,SBSV,2022-06-01 18:00:00
1654110000000,METAR SBSV 011900Z 17009KT 9999 SCT023 29/22 Q1012=,SBSV,2022-06-01 19:00:00
1654113600000,METAR SBSV 012000Z 16009KT 9999 SCT023 28/22 Q1012=,SBSV,2022-06-01 20:00:00
1654117200000,METAR SBSV 012100Z 17007KT 9999 SCT023 BKN080 28/23 Q1012=,SBSV,2022-06-01 21:00:00
1654120800000,METAR SBSV 012200Z 15011KT 9999 SCT023 BKN080 26/23 Q1013=,SBSV,2022-06-01 22:00:00
1654124400000,METAR SBSV 012300Z 15004KT 100V190 9999 SCT023 BKN080 26/23 Q1013=,SBSV,2022-06-01 23:00:00
1654128000000,METAR SBBR 020000Z 09002KT CAVOK 22/10 Q1019=,SBBR,2022-06-02 00:00:00
1654131600000,METAR SBBR 020100Z VRB01KT CAVOK 20/10 Q1019=,SBBR,2022-06-02 01:00:00
1654135200000,METAR SBBR 020200Z 29001KT CAVOK 17/10 Q1019=,SBBR,2022-06-02 02:00:00
1654138800000,METAR SBBR 020300Z 00000KT CAVOK 17/10 Q1019=,SBBR,2022-06-02 03:00:00
1654142400000,METAR SBBR 020400Z 27002KT CAVOK 15/10 Q1019=,SBBR,2022-06-02 04:00:00
1654146000000,METAR SBBR 020500Z 00000KT CAVOK 14/10 Q1019=,SBBR,2022-06-02 05:00:00
1654149600000,METAR SBBR 020600Z 28002KT CAVOK 15/10 Q1018=,SBBR,2022-06-02 06:00:00
1654153200000,METAR SBBR 020700Z 24002KT CAVOK 14/10 Q1018=,SBBR,2022-06-02 07:00:00
1654156800000,METAR SBBR 020800Z 27002KT CAVOK 13/10 Q1018=,SBBR,2022-06-02 08:00:00
1654160400000,METAR SBBR 020900Z 26003KT CAVOK 13/10 Q1019=,SBBR,2022-06-02 09:00:00
1654164000000,METAR SBBR 021000Z 28002KT CAVOK 14/10 Q1020=,SBBR,2022-06-02 10:00:00
1654167600000,METAR SBBR 021100Z 28002KT CAVOK 16/11 Q1020=,SBBR,2022-06-02 11:00:00
1654171200000,METAR SBBR 021200Z VRB01KT CAVOK 21/11 Q1021=,SBBR,2022-06-02 12:00:00
1654174800000,METAR SBBR 021300Z 07006KT 030V090 CAVOK 23/11 Q1021=,SBBR,2022-06-02 13:00:00
1654178400000,METAR SBBR 021400Z 07004KT 010V120 CAVOK 25/12 Q1021=,SBBR,2022-06-02 14:00:00
1654182000000,METAR SBBR 021500Z 35004KT 290V090 CAVOK 27/11 Q1020=,SBBR,2022-06-02 15:00:00
1654185600000,METAR SBBR 021600Z 30005KT CAVOK 28/09 Q1019=,SBBR,2022-06-02 16:00:00
1654189200000,METAR SBBR 021700Z 19006KT 130V230 9999 FEW040 28/10 Q1018=,SBBR,2022-06-02 17:00:00
1654192800000,METAR SBBR 021800Z VRB01KT 9999 FEW045 29/10 Q1018=,SBBR,2022-06-02 18:00:00
1654196400000,METAR SBBR 021900Z 17005KT 130V210 CAVOK 29/11 Q1017=,SBBR,2022-06-02 19:00:00
1654200000000,METAR SBBR 022000Z 17008KT CAVOK 28/11 Q1017=,SBBR,2022-06-02 20:00:00
1654203600000,METAR SBBR 022100Z 18006KT 150V210 CAVOK 26/11 Q1018=,SBBR,2022-06-02 21:00:00
1654207200000,METAR SBBR 022200Z 19004KT CAVOK 24/11 Q1019=,SBBR,2022-06-02 22:00:00
1654210800000,METAR SBBR 022300Z 19003KT CAVOK 22/10 Q1019=,SBBR,2022-06-02 23:00:00
1654128000000,METAR SBCF 020000Z 09010KT CAVOK 21/16 Q1019=,SBCF,2022-06-02 00:00:00
1654131600000,METAR SBCF 020100Z 08007KT CAVOK 20/15 Q1019=,SBCF,2022-06-02 01:00:00
1654135200000,METAR SBCF 020200Z 13004KT 100V160 CAVOK 19/15 Q1019=,SBCF,2022-06-02 02:00:00
1654138800000,METAR SBCF 020300Z 11005KT CAVOK 19/15 Q1019=,SBCF,2022-06-02 03:00:00
1654142400000,METAR SBCF 020400Z 14002KT CAVOK 18/15 Q1019=,SBCF,2022-06-02 04:00:00
1654146000000,METAR SBCF 020500Z 12003KT CAVOK 18/15 Q1018=,SBCF,2022-06-02 05:00:00
1654149600000,METAR SBCF 020600Z VRB02KT CAVOK 17/15 Q1018=,SBCF,2022-06-02 06:00:00
1654153200000,METAR SBCF 020700Z VRB02KT CAVOK 17/15 Q1018=,SBCF,2022-06-02 07:00:00
1654156800000,METAR SBCF 020800Z VRB01KT CAVOK 16/15 Q1018=,SBCF,2022-06-02 08:00:00
1654160400000,METAR SBCF 020900Z 12002KT CAVOK 17/15 Q1018=,SBCF,2022-06-02 09:00:00
1654164000000,METAR SBCF 021000Z 15002KT CAVOK 15/13 Q1019=,SBCF,2022-06-02 10:00:00
1654167600000,METAR SBCF 021100Z 19002KT CAVOK 16/15 Q1019=,SBCF,2022-06-02 11:00:00
1654171200000,METAR SBCF 021200Z 02005KT CAVOK 21/15 Q1020=,SBCF,2022-06-02 12:00:00
1654174800000,METAR SBCF 021300Z 24002KT CAVOK 23/15 Q1020=,SBCF,2022-06-02 13:00:00
1654178400000,METAR SBCF 021400Z 33005KT CAVOK 24/15 Q1020=,SBCF,2022-06-02 14:00:00
1654182000000,METAR SBCF 021500Z 29007KT CAVOK 26/15 Q1019=,SBCF,2022-06-02 15:00:00
1654185600000,METAR SBCF 021600Z 34005KT CAVOK 27/15 Q1018=,SBCF,2022-06-02 16:00:00
1654189200000,METAR SBCF 021700Z 26007KT 9999 FEW040 28/14 Q1017=,SBCF,2022-06-02 17:00:00
1654192800000,METAR SBCF 021800Z 25006KT 9999 FEW040 28/14 Q1017=,SBCF,2022-06-02 18:00:00
1654196400000,METAR SBCF 021900Z 22004KT CAVOK 27/14 Q1017=,SBCF,2022-06-02 19:00:00
1654200000000,METAR SBCF 022000Z 22004KT CAVOK 26/15 Q1017=,SBCF,2022-06-02 20:00:00
1654203600000,METAR SBCF 022100Z 23003KT CAVOK 24/14 Q1018=,SBCF,2022-06-02 21:00:00
1654207200000,METAR SBCF 022200Z 20002KT CAVOK 23/14 Q1018=,SBCF,2022-06-02 22:00:00
1654210800000,METAR SBCF 022300Z 21002KT CAVOK 22/14 Q1019=,SBCF,2022-06-02 23:00:00
1654128000000,METAR SBCT 020000Z 04005KT 8000 -RA SCT003 BKN006 OVC011 13/13 Q1017=,SBCT,2022-06-02 00:00:00
1654131600000,METAR SBCT 020100Z 08003KT 040V200 9000 BKN003 OVC012 13/13 Q1017=,SBCT,2022-06-02 01:00:00
1654135200000,METAR SBCT 020200Z 10002KT 8000 OVC003 13/13 Q1017=,SBCT,2022-06-02 02:00:00
1654138800000,METAR SBCT 020300Z 04005KT 8000 OVC003 13/13 Q1017=,SBCT,2022-06-02 03:00:00
1654142400000,METAR SBCT 020400Z 04004KT 6000 OVC003 13/13 Q1016=,SBCT,2022-06-02 04:00:00
1654146000000,METAR SBCT 020500Z 23012KT 4000 RA BKN002 OVC009 14/14 Q1017 RERA=,SBCT,2022-06-02 05:00:00
1654146780000,SPECI SBCT 020513Z 33005KT 4000 TSRA BKN004 BKN009 FEW035CB 14/14 Q1016 RERA=,SBCT,2022-06-02 05:13:00
1654149600000,METAR SBCT 020600Z 35006KT 8000 BKN005 BKN045 14/14 Q1016 RETSRA=,SBCT,2022-06-02 06:00:00
1654153200000,METAR SBCT 020700Z 03002KT 8000 -RA BKN005 OVC040 14/14 Q1015=,SBCT,2022-06-02 07:00:00
1654156800000,METAR SBCT 020800Z 26005KT 4000 RA BKN006 OVC040 14/14 Q1016=,SBCT,2022-06-02 08:00:00
1654160400000,METAR SBCT 020900Z 33003KT 4000 RA SCT006 BKN045 OVC070 14/14 Q1017=,SBCT,2022-06-02 09:00:00
1654164000000,METAR SBCT 021000Z 31004KT 4000 RA SCT005 BKN025 OVC070 14/14 Q1017=,SBCT,2022-06-02 10:00:00
1654167600000,METAR SBCT 021100Z 00000KT 4000 RA BR BKN008 OVC040 14/14 Q1018=,SBCT,2022-06-02 11:00:00
1654171200000,METAR SBCT 021200Z VRB04KT 6000 -RA BKN012 OVC050 15/15 Q1019 RERA=,SBCT,2022-06-02 12:00:00
1654174800000,METAR SBCT 021300Z 25003KT 7000 SCT014 BKN050 14/14 Q1019=,SBCT,2022-06-02 13:00:00
1654178400000,METAR SBCT 021400Z 28004KT 200V350 4000 -RA BR SCT010 OVC040 14/14 Q1019=,SBCT,2022-06-02 14:00:00
1654182000000,METAR SBCT 021500Z VRB02KT 5000 -RA BKN014 OVC050 14/14 Q1019=,SBCT,2022-06-02 15:00:00
1654185600000,METAR COR SBCT 021600Z 17003KT 6000 -RA BKN012 OVC050 14/14 Q1018=,SBCT,2022-06-02 16:00:00
1654189200000,METAR SBCT 021700Z VRB02KT 8000 -RA FEW005 BKN014 OVC070 14/14 Q1017=,SBCT,2022-06-02 17:00:00
1654192800000,METAR SBCT 021800Z 03004KT 5000 -RA FEW002 BKN010 OVC070 14/14 Q1017=,SBCT,2022-06-02 18:00:00
1654194600000,SPECI SBCT 021830Z 06004KT 3000 -RA FEW002 BKN010 OVC070 14/14 Q1017=,SBCT,2022-06-02 18:30:00
1654196400000,METAR SBCT 021900Z 05004KT 010V110 4000 -RA FEW003 BKN010 OVC070 14/14 Q1017=,SBCT,2022-06-02 19:00:00
1654200000000,METAR SBCT 022000Z 05004KT 4000 -RA SCT004 BKN010 OVC025 14/14 Q1017=,SBCT,2022-06-02 20:00:00
1654203600000,METAR SBCT 022100Z 09006KT 5000 -RA SCT004 BKN010 OVC025 13/13 Q1017=,SBCT,2022-06-02 21:00:00
1654205700000,SPECI SBCT 022135Z 12004KT 2500 -RA BR SCT004 BKN010 OVC025 13/13 Q1017=,SBCT,2022-06-02 21:35:00
1654207200000,METAR SBCT 022200Z 13005KT 100V160 2000 RA BR SCT004 BKN008 OVC015 12/12 Q1018=,SBCT,2022-06-02 22:00:00
1654208700000,SPECI SBCT 022225Z 14008KT 100V170 3000 -RA BR BKN008 OVC015 12/12 Q1018 RERA=,SBCT,2022-06-02 22:25:00
1654210800000,METAR SBCT 022300Z 11006KT 4000 -RA BR BKN008 OVC015 12/12 Q1019 RERA=,SBCT,2022-06-02 23:00:00
1654128000000,METAR SBFL 020000Z 08002KT 4000 -RA BKN008 OVC025 14/14 Q1016=,SBFL,2022-06-02 00:00:00
1654131600000,METAR SBFL 020100Z 25001KT 9000 -RA BKN008 OVC025 14/13 Q1016=,SBFL,2022-06-02 01:00:00
1654135200000,METAR SBFL 020200Z 20010KT 170V230 8000 -RA BKN008 OVC020 14/13 Q1016=,SBFL,2022-06-02 02:00:00
1654138800000,METAR SBFL 020300Z 12006KT 8000 BKN008 OVC020 14/13 Q1015 RERA=,SBFL,2022-06-02 03:00:00
1654142400000,METAR SBFL 020400Z 18008KT 140V230 8000 -DZ BKN010 OVC020 14/12 Q1015=,SBFL,2022-06-02 04:00:00
1654146000000,METAR SBFL 020500Z 19008G18KT 8000 -RA BKN010 OVC020 14/12 Q1015=,SBFL,2022-06-02 05:00:00
1654149600000,METAR SBFL 020600Z 20008KT 8000 -RA BKN010 OVC020 15/12 Q1019=,SBFL,2022-06-02 06:00:00
1654153200000,METAR SBFL 020700Z 20009KT 9999 -RA SCT010 OVC020 15/12 Q1014=,SBFL,2022-06-02 07:00:00
1654156800000,METAR SBFL 020800Z 23005KT 9999 FEW010 BKN020 15/12 Q1015=,SBFL,2022-06-02 08:00:00
1654160400000,METAR SBFL 020900Z 21006KT 160V280 9999 SCT010 BKN020 16/12 Q1015=,SBFL,2022-06-02 09:00:00
1654164000000,METAR SBFL 021000Z 24003KT 150V300 9999 SCT012 OVC025 16/12 Q1015=,SBFL,2022-06-02 10:00:00
1654167600000,METAR SBFL 021100Z 21007KT 9999 SCT020 OVC040 16/12 Q1016=,SBFL,2022-06-02 11:00:00
1654171200000,METAR SBFL 021200Z 22010KT 9999 VCSH SCT020 OVC040 16/12 Q1017=,SBFL,2022-06-02 12:00:00
1654174800000,METAR SBFL 021300Z 20006KT 9999 SCT015 BKN040 16/12 Q1017=,SBFL,2022-06-02 13:00:00
1654178400000,METAR SBFL 021400Z 19007KT 9999 SCT020 BKN040 17/12 Q1017=,SBFL,2022-06-02 14:00:00
1654182000000,METAR SBFL 021500Z 20007KT 9999 SCT020 BKN040 17/12 Q1017=,SBFL,2022-06-02 15:00:00
1654185600000,METAR SBFL 021600Z 20006KT 9999 SCT020 BKN036 15/13 Q1017=,SBFL,2022-06-02 16:00:00
1654189200000,METAR SBFL 021700Z 17004KT 9999 SCT020 BKN040 16/13 Q1016=,SBFL,2022-06-02 17:00:00
1654192800000,METAR SBFL 021800Z 18009KT 100V230 9999 FEW009 BKN040 OVC100 16/13 Q1015=,SBFL,2022-06-02 18:00:00
1654196400000,METAR SBFL 021900Z 20014G25KT 160V220 9999 FEW009 BKN040 OVC100 16/12 Q1015=,SBFL,2022-06-02 19:00:00
1654200000000,METAR SBFL 022000Z 20012G22KT 170V230 9999 FEW009 BKN040 OVC100 15/12 Q1016=,SBFL,2022-06-02 20:00:00
1654203600000,METAR SBFL 022100Z 20013KT 9999 OVC046 15/11 Q1017=,SBFL,2022-06-02 21:00:00
1654207200000,METAR SBFL 022200Z 19011KT 160V220 9999 OVC046 15/11 Q1018=,SBFL,2022-06-02 22:00:00
1654210800000,METAR SBFL 022300Z 19012KT 9999 OVC046 15/11 Q1018=,SBFL,2022-06-02 23:00:00
1654128000000,METAR SBGL 020000Z 32004KT 9999 BKN025 23/21 Q1014=,SBGL,2022-06-02 00:00:00
1654131600000,METAR SBGL 020100Z 30003KT 9999 SCT025 23/21 Q1014=,SBGL,2022-06-02 01:00:00
1654135200000,METAR SBGL 020200Z 30004KT 7000 SCT025 22/21 Q1014=,SBGL,2022-06-02 02:00:00
1654138800000,METAR SBGL 020300Z 28005KT 6000 SCT020 22/21 Q1013=,SBGL,2022-06-02 03:00:00
1654140600000,SPECI SBGL 020330Z 30004KT 3500 BR SCT020 22/21 Q1013=,SBGL,2022-06-02 03:30:00
1654142400000,METAR SBGL 020400Z 30003KT 3500 BR SCT018 22/21 Q1013=,SBGL,2022-06-02 04:00:00
1654146000000,METAR COR SBGL 020500Z 35004KT 3000 BR BKN010 22/20 Q1012=,SBGL,2022-06-02 05:00:00
1654149600000,METAR SBGL 020600Z 29002KT 3000 BR BKN010 22/20 Q1012=,SBGL,2022-06-02 06:00:00
1654153200000,METAR SBGL 020700Z 34002KT 3000 BR BKN010 21/20 Q1012=,SBGL,2022-06-02 07:00:00
1654156800000,METAR SBGL 020800Z 01003KT 3000 BR BKN010 21/20 Q1012=,SBGL,2022-06-02 08:00:00
1654160400000,METAR SBGL 020900Z 04002KT 2000 BR BKN004 21/20 Q1011=,SBGL,2022-06-02 09:00:00
1654161600000,SPECI SBGL 020920Z 08002KT 0800 R28/1700D R10/2000D R15/2000D FG BKN004 21/20 Q1012=,SBGL,2022-06-02 09:20:00
1654164000000,METAR SBGL 021000Z 12003KT 1500 R10/1300N R28/1500N R33/1600N R15/1600N BR BKN005 OVC040 21/20 Q1013=,SBGL,2022-06-02 10:00:00
1654167600000,METAR SBGL 021100Z 13002KT 1700 R10/1700 R28/P2000 R15/P2000 R33/P2000 BR BKN004 BKN007 22/21 Q1013=,SBGL,2022-06-02 11:00:00
1654171200000,METAR SBGL 021200Z 00000KT 2500 BR BKN006 23/21 Q1013=,SBGL,2022-06-02 12:00:00
1654174800000,METAR SBGL 021300Z 04002KT 3500 BR SCT006 25/21 Q1013=,SBGL,2022-06-02 13:00:00
1654178400000,METAR SBGL 021400Z 01007KT 4000 HZ FEW007 26/22 Q1013=,SBGL,2022-06-02 14:00:00
1654182000000,METAR SBGL 021500Z 14008KT 4500 HZ FEW013 27/22 Q1012=,SBGL,2022-06-02 15:00:00
1654185600000,METAR SBGL 021600Z 19014KT 7000 SCT023 27/21 Q1012=,SBGL,2022-06-02 16:00:00
1654189200000,METAR SBGL 021700Z 23023KT 9999 FEW013 BKN023 25/19 Q1013=,SBGL,2022-06-02 17:00:00
1654192800000,METAR SBGL 021800Z 23019KT 9999 FEW015 BKN030 24/19 Q1014=,SBGL,2022-06-02 18:00:00
1654196400000,METAR SBGL 021900Z 23017KT 9999 BKN033 23/19 Q1014=,SBGL,2022-06-02 19:00:00
1654200000000,METAR SBGL 022000Z 22017KT 9999 BKN019 23/19 Q1015=,SBGL,2022-06-02 20:00:00
1654203600000,METAR SBGL 022100Z 24010KT 9999 SCT019 BKN023 23/18 Q1016=,SBGL,2022-06-02 21:00:00
1654207200000,METAR SBGL 022200Z 24013KT 9999 BKN019 BKN040 22/18 Q1017=,SBGL,2022-06-02 22:00:00
1654210800000,METAR SBGL 022300Z 25009KT 9999 FEW025 BKN050 22/18 Q1017=,SBGL,2022-06-02 23:00:00
1654128000000,METAR SBGR 020000Z 14001KT 9000 SCT009 19/18 Q1018=,SBGR,2022-06-02 00:00:00
1654131600000,METAR SBGR 020100Z 07004KT 6000 FEW007 18/18 Q1018=,SBGR,2022-06-02 01:00:00
1654135200000,METAR SBGR 020200Z 07004KT 5000 2000E BR FEW006 18/18 Q1017=,SBGR,2022-06-02 02:00:00
1654138800000,METAR SBGR 020300Z 09002KT 5000 2000E BR FEW001 17/17 Q1017=,SBGR,2022-06-02 03:00:00
1654142400000,METAR SBGR 020400Z 00000KT 3500 BR SCT001 16/16 Q1017=,SBGR,2022-06-02 04:00:00
1654146000000,METAR SBGR 020500Z 09001KT 4000 1800E BR SCT002 16/16 Q1016=,SBGR,2022-06-02 05:00:00
1654148220000,SPECI SBGR 020537Z 08004KT 0600 R09R/0450N R09L/1200N R27R/1200N R27L/1200N FG BKN001 16/16 Q1016=,SBGR,2022-06-02 05:37:00
1654149600000,METAR SBGR 020600Z 08004KT 0600 R27R/0600N R27L/0900N R09R/1200N R09L/1200N FG BKN002 16/16 Q1016=,SBGR,2022-06-02 06:00:00
1654153200000,METAR SBGR 020700Z 06005KT 0400 R09R/0500N R09L/0500N R27R/0500N R27L/0500N FG BKN001 16/16 Q1015=,SBGR,2022-06-02 07:00:00
1654156800000,METAR SBGR 020800Z 06004KT 0400 R09R/0500N R09L/0500N R27R/0500N R27L/0500N FG OVC002 16/16 Q1015=,SBGR,2022-06-02 08:00:00
1654160400000,METAR SBGR 020900Z 07005KT 1000 R09R/0800N R09L/0800N R27R/0800N R27L/0800N BR BKN002 16/16 Q1015=,SBGR,2022-06-02 09:00:00
1654164000000,METAR SBGR 021000Z 07005KT 0900 R09R/0600N R09L/0600N R27R/0600N R27L/0600N FG OVC002 16/16 Q1016=,SBGR,2022-06-02 10:00:00
1654167600000,METAR SBGR 021100Z 05002KT 1100 R09R/0900N R09L/1400N R27R/1800N R27L/1900N BR BKN002 17/17 Q1017=,SBGR,2022-06-02 11:00:00
1654171200000,METAR SBGR 021200Z 00000KT 1500 R09R/P2000 R09L/P2000 R27R/P2000 R27L/P2000 BR BKN002 SCT030 18/18 Q1018=,SBGR,2022-06-02 12:00:00
1654172220000,SPECI SBGR 021217Z 00000KT 5000 BR SCT005 SCT040 18/18 Q1018=,SBGR,2022-06-02 12:17:00
1654174800000,METAR SBGR 021300Z VRB01KT 7000 SCT040 20/19 Q1018=,SBGR,2022-06-02 13:00:00
1654178400000,METAR SBGR 021400Z 17007KT 7000 NSC 22/18 Q1018=,SBGR,2022-06-02 14:00:00
1654179780000,SPECI SBGR 021423Z 18009KT 5000 BR BKN009 BKN050 19/17 Q1018=,SBGR,2022-06-02 14:23:00
1654182000000,METAR SBGR 021500Z 18007KT 8000 OVC008 18/16 Q1019=,SBGR,2022-06-02 15:00:00
1654183980000,SPECI SBGR 021533Z 21004KT 9999 FEW011 BKN015 18/15 Q1018=,SBGR,2022-06-02 15:33:00
1654185600000,METAR SBGR 021600Z VRB04KT 9999 OVC017 18/15 Q1018=,SBGR,2022-06-02 16:00:00
1654189200000,METAR SBGR 021700Z 24003KT 9999 FEW019 OVC023 19/15 Q1018=,SBGR,2022-06-02 17:00:00
1654192800000,METAR SBGR 021800Z 18005KT 9999 BKN030 SCT070 19/14 Q1017=,SBGR,2022-06-02 18:00:00
1654196400000,METAR SBGR 021900Z 16005KT 9999 FEW023 BKN070 19/14 Q1018=,SBGR,2022-06-02 19:00:00
1654200000000,METAR SBGR 022000Z 15005KT 9999 BKN040 18/14 Q1018=,SBGR,2022-06-02 20:00:00
1654203600000,METAR SBGR 022100Z 14004KT 9999 SCT020 BKN070 17/14 Q1019=,SBGR,2022-06-02 21:00:00
1654207200000,METAR SBGR 022200Z 00000KT 9999 FEW020 16/14 Q1019=,SBGR,2022-06-02 22:00:00
1654210800000,METAR SBGR 022300Z 07005KT CAVOK 16/14 Q1019=,SBGR,2022-06-02 23:00:00
1654128000000,METAR SBKP 020000Z 13005KT CAVOK 21/18 Q1016=,SBKP,2022-06-02 00:00:00
1654131600000,METAR SBKP 020100Z 14006KT CAVOK 20/18 Q1016=,SBKP,2022-06-02 01:00:00
1654135200000,METAR SBKP 020200Z 11006KT CAVOK 20/18 Q1016=,SBKP,2022-06-02 02:00:00
1654138800000,METAR SBKP 020300Z 12004KT CAVOK 19/18 Q1016=,SBKP,2022-06-02 03:00:00
1654142400000,METAR SBKP 020400Z 11004KT CAVOK 19/18 Q1016=,SBKP,2022-06-02 04:00:00
1654146000000,METAR SBKP 020500Z 14004KT CAVOK 18/17 Q1015=,SBKP,2022-06-02 05:00:00
1654149600000,METAR SBKP 020600Z 11004KT 9000 NSC 18/17 Q1015=,SBKP,2022-06-02 06:00:00
1654153200000,METAR SBKP 020700Z 10005KT CAVOK 18/17 Q1014=,SBKP,2022-06-02 07:00:00
1654156800000,METAR SBKP 020800Z 11005KT CAVOK 17/16 Q1014=,SBKP,2022-06-02 08:00:00
1654160400000,METAR SBKP 020900Z 10005KT CAVOK 17/16 Q1015=,SBKP,2022-06-02 09:00:00
1654164000000,METAR SBKP 021000Z 13003KT 6000 NSC 17/16 Q1015=,SBKP,2022-06-02 10:00:00
1654167600000,METAR SBKP 021100Z 18003KT 6000 NSC 18/17 Q1017=,SBKP,2022-06-02 11:00:00
1654171200000,METAR SBKP 021200Z 00000KT 6000 NSC 20/17 Q1017=,SBKP,2022-06-02 12:00:00
1654174800000,METAR SBKP 021300Z 03006KT 7000 NSC 22/17 Q1017=,SBKP,2022-06-02 13:00:00
1654178400000,METAR SBKP 021400Z 36006KT 9000 NSC 24/17 Q1017=,SBKP,2022-06-02 14:00:00
1654182000000,METAR SBKP 021500Z 32007KT 7000 NSC 25/17 Q1017=,SBKP,2022-06-02 15:00:00
1654185600000,METAR COR SBKP 021600Z 27006KT 240V330 6000 NSC 25/18 Q1016=,SBKP,2022-06-02 16:00:00
1654189200000,METAR SBKP 021700Z 22008KT 6000 FEW020 24/17 Q1016=,SBKP,2022-06-02 17:00:00
1654192800000,METAR SBKP 021800Z 22007KT 190V360 6000 FEW020 24/18 Q1015=,SBKP,2022-06-02 18:00:00
1654196400000,METAR SBKP 021900Z 19008KT CAVOK 24/17 Q1016=,SBKP,2022-06-02 19:00:00
1654200000000,METAR SBKP 022000Z 13009KT 9999 FEW026 21/15 Q1016=,SBKP,2022-06-02 20:00:00
1654203600000,METAR SBKP 022100Z 12010KT CAVOK 20/14 Q1017=,SBKP,2022-06-02 21:00:00
1654207200000,METAR SBKP 022200Z 12011KT CAVOK 19/14 Q1017=,SBKP,2022-06-02 22:00:00
1654210800000,METAR SBKP 022300Z 12012KT CAVOK 18/14 Q1018=,SBKP,2022-06-02 23:00:00
1654128000000,METAR SBPA 020000Z 06005KT 9000 VCSH FEW010 OVC027 11/09 Q1020=,SBPA,2022-06-02 00:00:00
1654131600000,METAR SBPA 020100Z VRB02KT 9999 VCSH FEW015 OVC029 11/10 Q1020=,SBPA,2022-06-02 01:00:00
1654135200000,METAR SBPA 020200Z 33003KT 9999 VCSH FEW015 BKN028 11/10 Q1020=,SBPA,2022-06-02 02:00:00
1654138800000,METAR SBPA 020300Z VRB02KT 9999 FEW027 BKN031 11/10 Q1020=,SBPA,2022-06-02 03:00:00
1654142400000,METAR SBPA 020400Z 18003KT 140V210 9999 FEW025 BKN031 11/09 Q1019=,SBPA,2022-06-02 04:00:00
1654146000000,METAR SBPA 020500Z 17003KT 120V210 9999 FEW025 BKN030 11/07 Q1019=,SBPA,2022-06-02 05:00:00
1654149600000,METAR SBPA 020600Z 17003KT 120V200 9999 BKN033 11/07 Q1019=,SBPA,2022-06-02 06:00:00
1654153200000,METAR SBPA 020700Z 16003KT 9999 BKN033 11/08 Q1018=,SBPA,2022-06-02 07:00:00
1654156800000,METAR SBPA 020800Z 24003KT 200V280 9999 BKN035 10/08 Q1019=,SBPA,2022-06-02 08:00:00
1654160400000,METAR SBPA 020900Z 27003KT 9999 VCSH FEW010 BKN040 10/08 Q1019=,SBPA,2022-06-02 09:00:00
1654164000000,METAR SBPA 021000Z 21005KT 180V240 9999 FEW015 BKN043 10/08 Q1020=,SBPA,2022-06-02 10:00:00
1654167600000,METAR SBPA 021100Z 22004KT 190V250 9999 FEW010 BKN045 10/08 Q1020=,SBPA,2022-06-02 11:00:00
1654171200000,METAR SBPA 021200Z 21004KT 160V250 9999 FEW015 BKN050 11/08 Q1021=,SBPA,2022-06-02 12:00:00
1654174800000,METAR SBPA 021300Z 21005KT 170V270 9999 FEW017 BKN050 OVC070 11/08 Q1021=,SBPA,2022-06-02 13:00:00
1654178400000,METAR SBPA 021400Z 19005KT 160V270 9999 FEW017 BKN050 OVC070 11/08 Q1021=,SBPA,2022-06-02 14:00:00
1654182000000,METAR SBPA 021500Z 21004KT 140V310 9999 FEW020 OVC050 12/08 Q1021=,SBPA,2022-06-02 15:00:00
1654185600000,METAR SBPA 021600Z 16007KT 120V190 9999 SCT020 OVC060 13/08 Q1020=,SBPA,2022-06-02 16:00:00
1654189200000,METAR SBPA 021700Z 17007KT 9999 FEW025 OVC060 13/07 Q1017=,SBPA,2022-06-02 17:00:00
1654192800000,METAR SBPA 021800Z 16007KT 9999 SCT030 OVC065 13/07 Q1020=,SBPA,2022-06-02 18:00:00
1654196400000,METAR SBPA 021900Z 18005KT 9999 SCT030 BKN075 13/08 Q1020=,SBPA,2022-06-02 19:00:00
1654200000000,METAR SBPA 022000Z 17007KT 9999 FEW035 BKN070 13/08 Q1020=,SBPA,2022-06-02 20:00:00
1654203600000,METAR SBPA 022100Z 17006KT 9999 FEW030 BKN070 12/08 Q1021=,SBPA,2022-06-02 21:00:00
1654207200000,METAR SBPA 022200Z 19008KT 9999 FEW030 BKN073 12/08 Q1022=,SBPA,2022-06-02 22:00:00
1654210800000,METAR SBPA 022300Z 18005KT 9999 FEW040 BKN075 12/07 Q1022=,SBPA,2022-06-02 23:00:00
1654128000000,METAR SBRF 020000Z 18004KT 6000 -RA FEW013 SCT020 BKN050 24/24 Q1012=,SBRF,2022-06-02 00:00:00
1654131600000,METAR SBRF 020100Z 22004KT 190V260 9999 SCT023 SCT060 24/24 Q1012=,SBRF,2022-06-02 01:00:00
1654135200000,METAR SBRF 020200Z 21004KT 180V260 9999 BKN023 BKN060 25/24 Q1012=,SBRF,2022-06-02 02:00:00
1654138800000,METAR SBRF 020300Z VRB02KT 9999 SCT020 BKN060 24/24 Q1011=,SBRF,2022-06-02 03:00:00
1654142400000,METAR SBRF 020400Z 24003KT 190V270 9999 FEW020 BKN060 24/23 Q1011=,SBRF,2022-06-02 04:00:00
1654146000000,METAR SBRF 020500Z VRB02KT 9999 FEW020 BKN060 24/23 Q1011=,SBRF,2022-06-02 05:00:00
1654149600000,METAR SBRF 020600Z 27003KT 230V330 9000 VCSH FEW005 SCT018 BKN050 24/23 Q1010=,SBRF,2022-06-02 06:00:00
1654153200000,METAR SBRF 020700Z 23004KT 190V260 9999 FEW023 BKN070 24/23 Q1010=,SBRF,2022-06-02 07:00:00
1654156800000,METAR SBRF 020800Z VRB02KT 9999 FEW020 BKN070 23/23 Q1010=,SBRF,2022-06-02 08:00:00
1654160400000,METAR SBRF 020900Z VRB02KT 9999 SCT020 BKN100 24/23 Q1011=,SBRF,2022-06-02 09:00:00
1654164000000,METAR SBRF 021000Z VRB02KT 9999 FEW016 BKN023 BKN070 25/23 Q1011=,SBRF,2022-06-02 10:00:00
1654167600000,METAR SBRF 021100Z 22004KT 9999 FEW014 BKN023 BKN060 26/24 Q1012=,SBRF,2022-06-02 11:00:00
1654171200000,METAR SBRF 021200Z 20006KT 9999 SCT016 BKN060 27/24 Q1012=,SBRF,2022-06-02 12:00:00
1654174800000,METAR SBRF 021300Z 19006KT 9999 SCT016 BKN060 28/24 Q1012=,SBRF,2022-06-02 13:00:00
1654178400000,METAR SBRF 021400Z 17009KT 9999 SCT023 28/24 Q1012=,SBRF,2022-06-02 14:00:00
1654182000000,METAR SBRF 021500Z 15009KT 9999 SCT020 FEW025TCU 29/24 Q1011=,SBRF,2022-06-02 15:00:00
1654185600000,METAR SBRF 021600Z 15010KT 9999 SCT023 29/24 Q1011=,SBRF,2022-06-02 16:00:00
1654189200000,METAR SBRF 021700Z 16012KT 9999 SCT023 29/24 Q1010=,SBRF,2022-06-02 17:00:00
1654192800000,METAR SBRF 021800Z 15010KT 9999 FEW023 SCT100 28/23 Q1010=,SBRF,2022-06-02 18:00:00
1654196400000,METAR SBRF 021900Z 15006KT 9999 FEW023 BKN100 28/24 Q1010=,SBRF,2022-06-02 19:00:00
1654200000000,METAR SBRF 022000Z 09007KT 050V130 9000 VCSH FEW012 SCT015 BKN050 26/24 Q1011=,SBRF,2022-06-02 20:00:00
1654203600000,METAR SBRF 022100Z VRB02KT 9999 SCT023 BKN060 25/24 Q1011=,SBRF,2022-06-02 21:00:00
1654207200000,METAR SBRF 022200Z VRB02KT 9999 FEW023 BKN080 25/24 Q1012=,SBRF,2022-06-02 22:00:00
1654210800000,METAR SBRF 022300Z VRB02KT 9999 BKN025 BKN080 26/25 Q1012=,SBRF,2022-06-02 23:00:00
1654128000000,METAR SBRJ 020000Z 16005KT 9999 FEW010 SCT020 23/22 Q1013=,SBRJ,2022-06-02 00:00:00
1654131600000,METAR SBRJ 020100Z 14004KT 9999 FEW010 SCT020 23/22 Q1013=,SBRJ,2022-06-02 01:00:00
1654135200000,METAR SBRJ 020200Z 13003KT 9000 FEW010 SCT017 23/22 Q1013=,SBRJ,2022-06-02 02:00:00
1654159800000,SPECI SBRJ 020850Z 03001KT 4000 BR BKN007 22/22 Q1011=,SBRJ,2022-06-02 08:50:00
1654160400000,METAR SBRJ 020900Z 04003KT 4000 BR BKN007 22/22 Q1011=,SBRJ,2022-06-02 09:00:00
1654162200000,SPECI SBRJ 020930Z 03002KT 3000 BR OVC007 22/22 Q1011=,SBRJ,2022-06-02 09:30:00
1654164000000,METAR SBRJ 021000Z 00000KT 2000 BR BKN007 22/22 Q1012=,SBRJ,2022-06-02 10:00:00
1654167600000,METAR SBRJ 021100Z 01003KT 3000 BR BKN008 23/22 Q1012=,SBRJ,2022-06-02 11:00:00
1654171200000,METAR SBRJ 021200Z 33002KT 2000 BR BKN008 23/22 Q1013=,SBRJ,2022-06-02 12:00:00
1654174800000,METAR SBRJ 021300Z 08002KT 3000 BR BKN008 24/22 Q1013=,SBRJ,2022-06-02 13:00:00
1654176600000,SPECI SBRJ 021330Z 13008KT 4500 BR FEW010 24/22 Q1013=,SBRJ,2022-06-02 13:30:00
1654178400000,METAR SBRJ 021400Z 14009KT 6000 FEW010 24/22 Q1013=,SBRJ,2022-06-02 14:00:00
1654182000000,METAR SBRJ 021500Z 17014KT 6000 FEW010 25/22 Q1012=,SBRJ,2022-06-02 15:00:00
1654185600000,METAR SBRJ 021600Z 19021KT 8000 FEW010 25/21 Q1012=,SBRJ,2022-06-02 16:00:00
1654189200000,METAR SBRJ 021700Z 19015G26KT 9999 FEW010 BKN020 24/21 Q1013=,SBRJ,2022-06-02 17:00:00
1654192800000,METAR SBRJ 021800Z 19014KT 8000 FEW010 BKN018 BKN040 24/20 Q1013=,SBRJ,2022-06-02 18:00:00
1654196400000,METAR SBRJ 021900Z 21012KT 180V240 9000 FEW012 BKN020 OVC035 24/19 Q1014=,SBRJ,2022-06-02 19:00:00
1654200000000,METAR SBRJ 022000Z 22010KT 170V270 9000 SCT012 BKN020 OVC035 23/20 Q1014=,SBRJ,2022-06-02 20:00:00
1654203600000,METAR SBRJ 022100Z 21009KT 170V250 9999 SCT015 BKN023 OVC040 23/19 Q1015=,SBRJ,2022-06-02 21:00:00
1654207200000,METAR SBRJ 022200Z 18005KT 150V230 9999 FEW015 SCT023 OVC040 23/18 Q1016=,SBRJ,2022-06-02 22:00:00
1654210800000,METAR SBRJ 022300Z 19006KT 160V240 9999 FEW020 OVC050 23/18 Q1016=,SBRJ,2022-06-02 23:00:00
1654128000000,METAR SBSP 020000Z 13002KT 5000 BR SCT007 BKN008 17/16 Q1018=,SBSP,2022-06-02 00:00:00
1654131600000,METAR SBSP 020100Z 20002KT 6000 SCT007 BKN100 18/17 Q1018=,SBSP,2022-06-02 01:00:00
1654135200000,METAR SBSP 020200Z 00000KT 6000 FEW015 18/17 Q1018=,SBSP,2022-06-02 02:00:00
1654135260000,SPECI SBSP 020201Z 00000KT 7000 NSC 18/16 Q1017=,SBSP,2022-06-02 02:01:00
1654138800000,METAR SBSP 020300Z AUTO 24003KT 5000 BR NCD 17/16 Q1017=,SBSP,2022-06-02 03:00:00
1654139160000,SPECI SBSP 020306Z AUTO 00000KT 4900 BR NCD 17/16 Q1017=,SBSP,2022-06-02 03:06:00
1654139820000,SPECI SBSP 020317Z AUTO VRB01KT 5000 BR NCD 17/16 Q1017=,SBSP,2022-06-02 03:17:00
1654142400000,METAR SBSP 020400Z AUTO 01002KT 5000 BR NCD 17/16 Q1017=,SBSP,2022-06-02 04:00:00
1654146000000,METAR SBSP 020500Z AUTO 01003KT 6000 NCD 17/16 Q1016=,SBSP,2022-06-02 05:00:00
1654146960000,SPECI SBSP 020516Z AUTO 01002KT 4500 BR NCD 17/16 Q1016=,SBSP,2022-06-02 05:16:00
1654147500000,SPECI SBSP 020525Z AUTO VRB02KT 2500 BR FEW002 17/16 Q1016=,SBSP,2022-06-02 05:25:00
1654147740000,SPECI SBSP 020529Z AUTO 04003KT 1200 R17/P2000N BR FEW002 17/16 Q1016=,SBSP,2022-06-02 05:29:00
1654148640000,SPECI SBSP 020544Z AUTO VRB02KT 0650 R17/P2000N FG SCT001 BKN003 17/16 Q1016=,SBSP,2022-06-02 05:44:00
1654149600000,METAR SBSP 020600Z AUTO 35001KT 0700 R17/P2000N FG SCT001 BKN003 17/16 Q1016=,SBSP,2022-06-02 06:00:00
1654149900000,SPECI SBSP 020605Z AUTO 01001KT 0900 R17/P2000N FG SCT001 BKN002 17/16 Q1016=,SBSP,2022-06-02 06:05:00
1654150500000,SPECI SBSP 020615Z AUTO 02002KT 0650 R17/P2000N FG SCT000 OVC002 17/16 Q1016=,SBSP,2022-06-02 06:15:00
1654151760000,SPECI SBSP 020636Z AUTO 05003KT 0550 R17/0600D FG FEW000 OVC002 17/16 Q1016=,SBSP,2022-06-02 06:36:00
1654153200000,METAR SBSP 020700Z AUTO 02003KT 0550 R17/0600N FG FEW000 OVC002 17/16 Q1015=,SBSP,2022-06-02 07:00:00
1654153920000,SPECI SBSP 020712Z AUTO 04004KT 0900 R17/1100N FG SCT001 OVC003 17/16 Q1015=,SBSP,2022-06-02 07:12:00
1654154640000,SPECI SBSP 020724Z AUTO 04003KT 1200 R17/1400U BR BKN000 OVC003 17/16 Q1015=,SBSP,2022-06-02 07:24:00
1654155720000,SPECI SBSP 020742Z AUTO 02004KT 1800 BR BKN001 BKN003 17/16 Q1015=,SBSP,2022-06-02 07:42:00
1654155960000,SPECI SBSP 020746Z AUTO 02004KT 1900 BR BKN000 17/16 Q1015=,SBSP,2022-06-02 07:46:00
1654156800000,METAR SBSP 020800Z AUTO 02003KT 2400 BR BKN001 17/16 Q1015=,SBSP,2022-06-02 08:00:00
1654157160000,SPECI SBSP 020806Z AUTO 02003KT 3800 BR FEW001 17/16 Q1015=,SBSP,2022-06-02 08:06:00
1654158660000,SPECI SBSP 020831Z AUTO 02002KT 2300 BR NCD 17/16 Q1015=,SBSP,2022-06-02 08:31:00
1654159080000,SPECI SBSP 020838Z AUTO 02002KT 1100 R17/P2000N BR FEW000 17/16 Q1015=,SBSP,2022-06-02 08:38:00
1654159980000,SPECI SBSP 020853Z AUTO VRB01KT 2500 BR NCD 16/16 Q1016=,SBSP,2022-06-02 08:53:00
1654160400000,METAR COR SBSP 020900Z VRB01KT 2500 1100N BR NSC 16/16 Q1016=,SBSP,2022-06-02 09:00:00
1654162080000,SPECI COR SBSP 020928Z 04001KT 0800 R17/1900D FG VV001 17/16 Q1017=,SBSP,2022-06-02 09:28:00
1654164000000,METAR SBSP 021000Z 01001KT 0800 R17/0450D R35/1900D FG VV001 17/16 Q1017=,SBSP,2022-06-02 10:00:00
1654164480000,SPECI SBSP 021008Z 02002KT 0200 R17/0450D R35/1600D FG VV001 17/16 Q1017=,SBSP,2022-06-02 10:08:00
1654166040000,SPECI SBSP 021034Z VRB01KT 0050 R17/0325N R35/1000N FG NSC 17/16 Q1017=,SBSP,2022-06-02 10:34:00
1654167600000,METAR SBSP 021100Z VRB02KT 0900 R17/1200U R35/1300U FG FEW001 17/16 Q1018=,SBSP,2022-06-02 11:00:00
1654168200000,SPECI SBSP 021110Z VRB01KT 3000 BR FEW020 17/17 Q1018=,SBSP,2022-06-02 11:10:00
1654171200000,METAR SBSP 021200Z 35002KT 9000 NSC 18/18 Q1018=,SBSP,2022-06-02 12:00:00
1654174800000,METAR SBSP 021300Z 23004KT 180V350 9999 FEW026 21/17 Q1019=,SBSP,2022-06-02 13:00:00
1654177020000,SPECI SBSP 021337Z 19012KT 7000 -DZ SCT002 BKN009 18/16 Q1020=,SBSP,2022-06-02 13:37:00
1654178400000,METAR SBSP 021400Z 19015KT 7000 SCT002 BKN007 16/14 Q1020=,SBSP,2022-06-02 14:00:00
1654182000000,METAR SBSP 021500Z 21009KT 5000 BR OVC005 16/14 Q1020=,SBSP,2022-06-02 15:00:00
1654184640000,SPECI SBSP 021544Z 20008KT 9999 SCT009 BKN011 17/14 Q1019=,SBSP,2022-06-02 15:44:00
1654185600000,METAR SBSP 021600Z 21006KT 9999 FEW011 BKN023 17/14 Q1019=,SBSP,2022-06-02 16:00:00
1654189200000,METAR SBSP 021700Z 18007KT 160V220 9999 FEW015 OVC030 18/13 Q1019=,SBSP,2022-06-02 17:00:00
1654192800000,METAR SBSP 021800Z 18009KT 9999 BKN033 18/13 Q1018=,SBSP,2022-06-02 18:00:00
1654196400000,METAR SBSP 021900Z 17011KT 9999 FEW011 BKN033 17/12 Q1019=,SBSP,2022-06-02 19:00:00
1654200000000,METAR SBSP 022000Z 15007KT 9999 FEW013 BKN050 16/13 Q1019=,SBSP,2022-06-02 20:00:00
1654203600000,METAR SBSP 022100Z 13005KT 9999 SCT013 16/13 Q1019=,SBSP,2022-06-02 21:00:00
1654207200000,METAR SBSP 022200Z 12003KT 050V170 CAVOK 16/13 Q1020=,SBSP,2022-06-02 22:00:00
1654210800000,METAR SBSP 022300Z 05005KT CAVOK 16/13 Q1020=,SBSP,2022-06-02 23:00:00
1654128000000,METAR SBSV 020000Z 11009KT 9999 SCT023 BKN080 27/23 Q1013=,SBSV,2022-06-02 00:00:00
1654131600000,METAR SBSV 020100Z 12005KT 9999 VCSH BKN020 FEW023TCU BKN070 27/23 Q1014=,SBSV,2022-06-02 01:00:00
1654131900000,SPECI SBSV 020105Z 11009G21KT 5000 SHRA FEW010 BKN017 FEW023TCU BKN060 24/22 Q1014=,SBSV,2022-06-02 01:05:00
1654134000000,SPECI SBSV 020140Z 17004KT 9999 FEW010 BKN020 FEW023TCU BKN060 25/23 Q1014 RESHRA=,SBSV,2022-06-02 01:40:00
1654135200000,METAR SBSV 020200Z 17003KT 100V210 5000 -RA FEW010 BKN020 FEW023TCU BKN060 25/23 Q1014=,SBSV,2022-06-02 02:00:00
1654138800000,METAR SBSV 020300Z 11008KT 9999 BKN020 FEW023TCU BKN060 26/23 Q1013=,SBSV,2022-06-02 03:00:00
1654142400000,METAR SBSV 020400Z 11005KT 9999 SCT020 FEW023TCU BKN060 27/23 Q1013=,SBSV,2022-06-02 04:00:00
1654146000000,METAR SBSV 020500Z 10010G20KT 9999 BKN020 FEW023TCU BKN070 26/22 Q1013=,SBSV,2022-06-02 05:00:00
1654149600000,METAR SBSV 020600Z 09012KT 8000 VCSH BKN020 FEW023TCU BKN060 25/23 Q1013=,SBSV,2022-06-02 06:00:00
1654153200000,METAR SBSV 020700Z 22003KT 180V290 9999 SCT020 FEW023TCU BKN060 25/22 Q1012=,SBSV,2022-06-02 07:00:00
1654156800000,METAR SBSV 020800Z 00000KT 9999 SCT023 SCT080 24/22 Q1012=,SBSV,2022-06-02 08:00:00
1654160400000,METAR SBSV 020900Z 12003KT 070V160 9999 VCSH BKN020 FEW023TCU BKN050 26/23 Q1013=,SBSV,2022-06-02 09:00:00
1654164000000,METAR SBSV 021000Z 25003KT 9999 VCSH SCT010 BKN015 FEW023TCU BKN050 25/23 Q1013=,SBSV,2022-06-02 10:00:00
1654167600000,METAR SBSV 021100Z 34005KT 8000 VCSH FEW010 SCT015 FEW023TCU BKN100 25/23 Q1014=,SBSV,2022-06-02 11:00:00
1654168020000,SPECI SBSV 021107Z 10004KT 5000 RA BKN010 BKN015 FEW023TCU 25/23 Q1015=,SBSV,2022-06-02 11:07:00
1654169760000,SPECI SBSV 021136Z 25003KT 8000 VCSH SCT010 BKN015 FEW023TCU 25/22 Q1015 RERA=,SBSV,2022-06-02 11:36:00
1654171200000,METAR SBSV 021200Z 00000KT 5000 -RA BR SCT010 BKN015 FEW023TCU 25/22 Q1015 RERA=,SBSV,2022-06-02 12:00:00
1654174800000,METAR SBSV 021300Z 32002KT 8000 VCSH SCT010 BKN020 FEW023TCU 26/23 Q1015=,SBSV,2022-06-02 13:00:00
1654178400000,METAR SBSV 021400Z 13008KT 9999 VCSH SCT020 FEW023TCU BKN060 28/22 Q1014=,SBSV,2022-06-02 14:00:00
1654182000000,METAR SBSV 021500Z 09014KT 5000 -RA SCT008 BKN018 FEW023TCU 25/23 Q1014=,SBSV,2022-06-02 15:00:00
1654185600000,METAR SBSV 021600Z 04002KT 9999 VCSH FEW010 SCT018 FEW023TCU BKN080 27/23 Q1013=,SBSV,2022-06-02 16:00:00
1654189200000,METAR SBSV 021700Z 15007KT 9999 SCT018 FEW023TCU BKN080 28/22 Q1013=,SBSV,2022-06-02 17:00:00
1654192800000,METAR SBSV 021800Z 14008KT 110V170 9999 VCSH SCT023 FEW026TCU BKN080 29/22 Q1013=,SBSV,2022-06-02 18:00:00
1654196400000,METAR SBSV 021900Z 14007KT 9999 SCT023 FEW026TCU BKN080 28/22 Q1013=,SBSV,2022-06-02 19:00:00
1654200000000,METAR SBSV 022000Z 15008KT 9999 SCT023 FEW026TCU BKN080 28/22 Q1013=,SBSV,2022-06-02 20:00:00
1654203600000,METAR SBSV 022100Z 15008KT 9999 SCT023 FEW026TCU BKN090 28/22 Q1013=,SBSV,2022-06-02 21:00:00
1654207200000,METAR SBSV 022200Z 15008KT 9999 SCT023 BKN090 28/21 Q1014=,SBSV,2022-06-02 22:00:00
1654210800000,METAR SBSV 022300Z 16008KT 140V210 9999 SCT023 BKN100 28/21 Q1014=,SBSV,2022-06-02 23:00:00
1654214400000,METAR SBBR 030000Z 23002KT CAVOK 20/10 Q1020=,SBBR,2022-06-03 00:00:00
1654218000000,METAR SBBR 030100Z 01002KT CAVOK 19/11 Q1020=,SBBR,2022-06-03 01:00:00
1654221600000,METAR SBBR 030200Z VRB02KT CAVOK 20/10 Q1020=,SBBR,2022-06-03 02:00:00
1654225200000,METAR SBBR 030300Z 30003KT CAVOK 16/11 Q1021=,SBBR,2022-06-03 03:00:00
1654228800000,METAR SBBR 030400Z 25002KT CAVOK 16/11 Q1021=,SBBR,2022-06-03 04:00:00
1654232400000,METAR SBBR 030500Z 30002KT CAVOK 15/11 Q1021=,SBBR,2022-06-03 05:00:00
1654236000000,METAR SBBR 030600Z VRB01KT CAVOK 14/11 Q1020=,SBBR,2022-06-03 06:00:00
1654239600000,METAR SBBR 030700Z 22002KT CAVOK 15/11 Q1020=,SBBR,2022-06-03 07:00:00
1654243200000,METAR SBBR 030800Z 27002KT CAVOK 14/11 Q1020=,SBBR,2022-06-03 08:00:00
1654246800000,METAR SBBR 030900Z 00000KT CAVOK 14/10 Q1021=,SBBR,2022-06-03 09:00:00
1654250400000,METAR SBBR 031000Z 34001KT CAVOK 13/10 Q1021=,SBBR,2022-06-03 10:00:00
1654254000000,METAR SBBR 031100Z 00000KT CAVOK 16/11 Q1022=,SBBR,2022-06-03 11:00:00
1654257600000,METAR SBBR 031200Z VRB02KT CAVOK 20/12 Q1022=,SBBR,2022-06-03 12:00:00
1654261200000,METAR SBBR 031300Z VRB02KT CAVOK 24/12 Q1022=,SBBR,2022-06-03 13:00:00
1654264800000,METAR SBBR 031400Z 12013KT CAVOK 26/10 Q1022=,SBBR,2022-06-03 14:00:00
1654268400000,METAR SBBR 031500Z 15010KT 120V200 CAVOK 27/11 Q1021=,SBBR,2022-06-03 15:00:00
1654272000000,METAR SBBR 031600Z 12011KT CAVOK 27/09 Q1020=,SBBR,2022-06-03 16:00:00
1654275600000,METAR SBBR 031700Z 16011KT 100V210 CAVOK 28/09 Q1020=,SBBR,2022-06-03 17:00:00
1654279200000,METAR SBBR 031800Z 15008KT CAVOK 28/09 Q1019=,SBBR,2022-06-03 18:00:00
1654282800000,METAR SBBR 031900Z 12009KT CAVOK 28/09 Q1019=,SBBR,2022-06-03 19:00:00
1654286400000,METAR SBBR 032000Z 12009KT CAVOK 27/10 Q1019=,SBBR,2022-06-03 20:00:00
1654290000000,METAR SBBR 032100Z 13007KT CAVOK 25/10 Q1019=,SBBR,2022-06-03 21:00:00
1654293600000,METAR SBBR 032200Z 14005KT CAVOK 24/10 Q1019=,SBBR,2022-06-03 22:00:00
1654297200000,METAR SBBR 032300Z 15004KT CAVOK 22/09 Q1020=,SBBR,2022-06-03 23:00:00
1654214400000,METAR SBCF 030000Z 23002KT CAVOK 20/15 Q1019=,SBCF,2022-06-03 00:00:00
1654218000000,METAR SBCF 030100Z 22002KT CAVOK 19/15 Q1019=,SBCF,2022-06-03 01:00:00
1654221600000,METAR SBCF 030200Z 11002KT CAVOK 19/15 Q1019=,SBCF,2022-06-03 02:00:00
1654225200000,METAR SBCF 030300Z 13002KT CAVOK 18/14 Q1019=,SBCF,2022-06-03 03:00:00
1654228800000,METAR SBCF 030400Z 18002KT CAVOK 16/14 Q1019=,SBCF,2022-06-03 04:00:00
1654232400000,METAR SBCF 030500Z 13002KT CAVOK 17/15 Q1019=,SBCF,2022-06-03 05:00:00
1654236000000,METAR SBCF 030600Z 20002KT CAVOK 15/14 Q1019=,SBCF,2022-06-03 06:00:00
1654239600000,METAR SBCF 030700Z 22003KT CAVOK 15/14 Q1019=,SBCF,2022-06-03 07:00:00
1654243200000,METAR SBCF 030800Z 13003KT CAVOK 16/14 Q1019=,SBCF,2022-06-03 08:00:00
1654246800000,METAR SBCF 030900Z 15003KT CAVOK 15/14 Q1019=,SBCF,2022-06-03 09:00:00
1654250400000,METAR SBCF 031000Z 15002KT CAVOK 15/14 Q1020=,SBCF,2022-06-03 10:00:00
1654254000000,METAR SBCF 031100Z 10002KT CAVOK 17/14 Q1020=,SBCF,2022-06-03 11:00:00
1654257600000,METAR SBCF 031200Z 13002KT CAVOK 19/15 Q1021=,SBCF,2022-06-03 12:00:00
1654261200000,METAR SBCF 031300Z 15002KT CAVOK 23/16 Q1021=,SBCF,2022-06-03 13:00:00
1654264800000,METAR SBCF 031400Z 17002KT CAVOK 26/16 Q1021=,SBCF,2022-06-03 14:00:00
1654268400000,METAR SBCF 031500Z 16005KT 9999 FEW040 26/13 Q1020=,SBCF,2022-06-03 15:00:00
1654272000000,METAR SBCF 031600Z 22006KT 9999 SCT040 28/14 Q1019=,SBCF,2022-06-03 16:00:00
1654275600000,METAR SBCF 031700Z 17007KT 9999 SCT040 28/14 Q1018=,SBCF,2022-06-03 17:00:00
1654279200000,METAR SBCF 031800Z 20005KT 9999 SCT040 28/13 Q1018=,SBCF,2022-06-03 18:00:00
1654282800000,METAR SBCF 031900Z 21006KT 9999 SCT045 28/13 Q1018=,SBCF,2022-06-03 19:00:00
1654286400000,METAR SBCF 032000Z 22005KT 9999 FEW045 SCT100 27/14 Q1018=,SBCF,2022-06-03 20:00:00
1654290000000,METAR SBCF 032100Z 21002KT 9999 FEW045 SCT100 25/14 Q1018=,SBCF,2022-06-03 21:00:00
1654293600000,METAR SBCF 032200Z 20002KT CAVOK 24/14 Q1018=,SBCF,2022-06-03 22:00:00
1654297200000,METAR SBCF 032300Z 14004KT CAVOK 23/14 Q1019=,SBCF,2022-06-03 23:00:00
1654214400000,METAR SBCT 030000Z 12006KT 6000 -RA BKN010 OVC020 12/12 Q1019=,SBCT,2022-06-03 00:00:00
1654218000000,METAR SBCT 030100Z 13008KT 6000 -RA BKN004 BKN012 OVC018 12/12 Q1020=,SBCT,2022-06-03 01:00:00
1654221600000,METAR SBCT 030200Z 12007KT 6000 -RA SCT004 BKN006 OVC012 11/11 Q1020=,SBCT,2022-06-03 02:00:00
1654225200000,METAR SBCT 030300Z 10006KT 8000 -RA BKN004 OVC018 11/11 Q1020=,SBCT,2022-06-03 03:00:00
1654228800000,METAR SBCT 030400Z 13005KT 8000 3500SE -RA BCFG BKN002 OVC010 11/11 Q1020=,SBCT,2022-06-03 04:00:00
1654232400000,METAR SBCT 030500Z 11005KT 080V150 8000 -RA SCT002 BKN005 OVC010 11/11 Q1020=,SBCT,2022-06-03 05:00:00
1654236000000,METAR SBCT 030600Z 13005KT 9999 BKN003 OVC009 11/11 Q1020=,SBCT,2022-06-03 06:00:00
1654239600000,METAR SBCT 030700Z 12006KT 7000 -RA BKN003 OVC010 11/11 Q1020=,SBCT,2022-06-03 07:00:00
1654243200000,METAR SBCT 030800Z 11006KT 9999 BKN003 OVC010 11/11 Q1020=,SBCT,2022-06-03 08:00:00
1654246800000,METAR SBCT 030900Z 12005KT 080V140 7000 -DZ BKN003 OVC009 11/11 Q1021=,SBCT,2022-06-03 09:00:00
1654250400000,METAR SBCT 031000Z 13004KT 080V150 4000 -DZ BR SCT002 BKN005 OVC010 11/11 Q1022=,SBCT,2022-06-03 10:00:00
1654254000000,METAR SBCT 031100Z 13007KT 9000 -DZ OVC003 11/11 Q1023=,SBCT,2022-06-03 11:00:00
1654257600000,METAR SBCT 031200Z 12006KT 9999 BKN004 OVC020 12/12 Q1023=,SBCT,2022-06-03 12:00:00
1654261200000,METAR SBCT 031300Z 10008KT 9999 OVC007 12/12 Q1023=,SBCT,2022-06-03 13:00:00
1654264800000,METAR SBCT 031400Z 11006KT 9999 OVC008 12/12 Q1023=,SBCT,2022-06-03 14:00:00
1654268400000,METAR SBCT 031500Z 13006KT 9999 BKN008 OVC012 13/12 Q1023=,SBCT,2022-06-03 15:00:00
1654272000000,METAR SBCT 031600Z 14007KT 9999 BKN007 OVC013 12/12 Q1023=,SBCT,2022-06-03 16:00:00
1654275600000,METAR SBCT 031700Z 09006KT 9999 BKN007 OVC013 14/12 Q1023=,SBCT,2022-06-03 17:00:00
1654279200000,METAR SBCT 031800Z 10006KT 070V140 9999 BKN010 BKN016 14/11 Q1023=,SBCT,2022-06-03 18:00:00
1654282800000,METAR SBCT 031900Z 09008KT 9999 FEW008 BKN011 BKN025 13/11 Q1022=,SBCT,2022-06-03 19:00:00
1654286400000,METAR SBCT 032000Z 09007KT 9999 SCT008 BKN011 BKN025 12/11 Q1023=,SBCT,2022-06-03 20:00:00
1654290000000,METAR SBCT 032100Z 09006KT 060V120 9999 BKN006 11/11 Q1023=,SBCT,2022-06-03 21:00:00
1654293600000,METAR SBCT 032200Z 09006KT 9999 BKN006 11/11 Q1023=,SBCT,2022-06-03 22:00:00
1654297200000,METAR SBCT 032300Z 10006KT 9999 BKN006 11/10 Q1024=,SBCT,2022-06-03 23:00:00
1654214400000,METAR SBFL 030000Z 19014KT 9999 OVC048 15/10 Q1019=,SBFL,2022-06-03 00:00:00
1654218000000,METAR SBFL 030100Z 19009KT 9999 OVC045 15/10 Q1019=,SBFL,2022-06-03 01:00:00
1654221600000,METAR SBFL 030200Z 19007KT 9999 OVC045 15/10 Q1019=,SBFL,2022-06-03 02:00:00
1654225200000,METAR SBFL 030300Z 14008KT 9999 OVC045 15/10 Q1020=,SBFL,2022-06-03 03:00:00
1654228800000,METAR SBFL 030400Z 19011KT 9999 OVC045 14/10 Q1020=,SBFL,2022-06-03 04:00:00
1654232400000,METAR SBFL 030500Z 19008KT 9999 OVC045 13/11 Q1020=,SBFL,2022-06-03 05:00:00
1654236000000,METAR SBFL 030600Z 20010KT 9999 OVC045 13/10 Q1020=,SBFL,2022-06-03 06:00:00
1654239600000,METAR SBFL 030700Z 19008KT 9999 OVC045 13/10 Q1020=,SBFL,2022-06-03 07:00:00
1654243200000,METAR SBFL 030800Z 19007KT 9999 OVC045 13/10 Q1021=,SBFL,2022-06-03 08:00:00
1654246800000,METAR SBFL 030900Z 19007KT 9999 OVC045 13/10 Q1021=,SBFL,2022-06-03 09:00:00
1654250400000,METAR SBFL 031000Z 20008KT 9999 OVC045 14/09 Q1022=,SBFL,2022-06-03 10:00:00
1654254000000,METAR SBFL 031100Z VRB03KT 9999 SCT010 OVC025 14/08 Q1023=,SBFL,2022-06-03 11:00:00
1654257600000,METAR SBFL 031200Z 19009KT 9999 SCT015 BKN025 15/08 Q1023=,SBFL,2022-06-03 12:00:00
1654261200000,METAR SBFL 031300Z 18007KT 140V220 9999 SCT015 BKN025 15/09 Q1023=,SBFL,2022-06-03 13:00:00
1654264800000,METAR SBFL 031400Z 17011KT 110V220 9999 FEW015 BKN025 16/08 Q1023=,SBFL,2022-06-03 14:00:00
1654268400000,METAR SBFL 031500Z 18009KT 150V220 9999 BKN030 16/09 Q1023=,SBFL,2022-06-03 15:00:00
1654272000000,METAR SBFL 031600Z 17010KT 9999 BKN030 17/10 Q1023=,SBFL,2022-06-03 16:00:00
1654275600000,METAR SBFL 031700Z 20010KT 160V240 9999 BKN030 17/10 Q1022=,SBFL,2022-06-03 17:00:00
1654279200000,METAR SBFL 031800Z 14009KT 9999 BKN030 17/10 Q1022=,SBFL,2022-06-03 18:00:00
1654282800000,METAR SBFL 031900Z 13007KT 9999 BKN030 16/11 Q1022=,SBFL,2022-06-03 19:00:00
1654286400000,METAR SBFL 032000Z 15007KT 9999 BKN030 16/10 Q1023=,SBFL,2022-06-03 20:00:00
1654290000000,METAR SBFL 032100Z 16005KT 9999 BKN030 16/10 Q1023=,SBFL,2022-06-03 21:00:00
1654293600000,METAR SBFL 032200Z 19007KT 9999 BKN030 15/09 Q1023=,SBFL,2022-06-03 22:00:00
1654297200000,METAR SBFL 032300Z 18005KT 9999 BKN030 15/09 Q1024=,SBFL,2022-06-03 23:00:00
1654214400000,METAR SBGL 030000Z 25008KT 9999 FEW020 BKN030 BKN050 22/18 Q1017=,SBGL,2022-06-03 00:00:00
1654218000000,METAR SBGL 030100Z 33007KT 9999 FEW016 BKN025 BKN050 22/19 Q1017=,SBGL,2022-06-03 01:00:00
1654221600000,METAR SBGL 030200Z 34006KT 9999 SCT020 BKN055 21/19 Q1016=,SBGL,2022-06-03 02:00:00
1654225200000,METAR SBGL 030300Z VRB03KT 9999 SCT045 20/18 Q1015=,SBGL,2022-06-03 03:00:00
1654228800000,METAR SBGL 030400Z VRB02KT 9999 FEW045 20/18 Q1015=,SBGL,2022-06-03 04:00:00
1654232400000,METAR SBGL 030500Z 30003KT 9999 FEW010 19/18 Q1015=,SBGL,2022-06-03 05:00:00
1654236000000,METAR SBGL 030600Z 31003KT 9999 FEW012 20/18 Q1015=,SBGL,2022-06-03 06:00:00
1654239600000,METAR SBGL 030700Z 28004KT 9999 FEW045 20/18 Q1015=,SBGL,2022-06-03 07:00:00
1654243200000,METAR SBGL 030800Z 31003KT 9999 FEW045 SCT100 20/18 Q1016=,SBGL,2022-06-03 08:00:00
1654246800000,METAR SBGL 030900Z 26005KT 9999 FEW025 20/18 Q1016=,SBGL,2022-06-03 09:00:00
1654250400000,METAR SBGL 031000Z 26004KT 9999 SCT019 BKN040 21/18 Q1017=,SBGL,2022-06-03 10:00:00
1654254000000,METAR SBGL 031100Z 31005KT 7000 FEW008 BKN018 OVC025 21/18 Q1018=,SBGL,2022-06-03 11:00:00
1654254900000,SPECI COR SBGL 031115Z 30006KT 2000 -RA BR FEW013 BKN015 OVC021 21/18 Q1018=,SBGL,2022-06-03 11:15:00
1654256220000,SPECI SBGL 031137Z 28004KT 9999 BKN014 OVC035 22/19 Q1019=,SBGL,2022-06-03 11:37:00
1654256400000,SPECI SBGL 031140Z 27005KT 2000 -RA BR FEW008 OVC013 20/19 Q1019=,SBGL,2022-06-03 11:40:00
1654257600000,METAR SBGL 031200Z 27005KT 2000 -RA BR FEW005 BKN010 OVC024 20/19 Q1019=,SBGL,2022-06-03 12:00:00
1654259460000,SPECI SBGL 031231Z 30004KT 5000 BR FEW003 BKN015 OVC027 21/19 Q1019=,SBGL,2022-06-03 12:31:00
1654261200000,METAR SBGL 031300Z 24006KT 9999 FEW004 BKN010 OVC028 21/18 Q1019=,SBGL,2022-06-03 13:00:00
1654264800000,METAR SBGL 031400Z 23007KT 9999 FEW010 SCT019 OVC025 22/18 Q1019=,SBGL,2022-06-03 14:00:00
1654267140000,SPECI SBGL 031439Z 28004KT 9999 BKN014 OVC035 22/19 Q1019=,SBGL,2022-06-03 14:39:00
1654268400000,METAR SBGL 031500Z 28004KT 9999 BKN014 OVC035 22/19 Q1019=,SBGL,2022-06-03 15:00:00
1654272000000,METAR SBGL 031600Z 28006KT 9999 SCT020 OVC035 23/18 Q1018=,SBGL,2022-06-03 16:00:00
1654275600000,METAR SBGL 031700Z 27007KT 9999 FEW008 BKN023 OVC035 22/18 Q1018=,SBGL,2022-06-03 17:00:00
1654279200000,METAR SBGL 031800Z 28007KT 9999 FEW008 BKN017 OVC040 22/18 Q1018=,SBGL,2022-06-03 18:00:00
1654282800000,METAR SBGL 031900Z 27006KT 9999 FEW008 BKN024 BKN035 22/18 Q1018=,SBGL,2022-06-03 19:00:00
1654286400000,METAR SBGL 032000Z 28008KT 9999 VCSH FEW008 BKN025 BKN035 22/17 Q1018=,SBGL,2022-06-03 20:00:00
1654290000000,METAR COR SBGL 032100Z 25010KT 4000 -RA HZ FEW008 BKN017 OVC030 21/17 Q1019=,SBGL,2022-06-03 21:00:00
1654293600000,METAR SBGL 032200Z 11003KT 9999 -RA FEW006 SCT016 OVC035 20/18 Q1019=,SBGL,2022-06-03 22:00:00
1654297200000,METAR SBGL 032300Z 18005KT 9999 BKN021 OVC030 20/18 Q1020=,SBGL,2022-06-03 23:00:00
1654214400000,METAR SBGR 030000Z 07005KT CAVOK 16/15 Q1019=,SBGR,2022-06-03 00:00:00
1654218000000,METAR SBGR 030100Z 07007KT CAVOK 16/15 Q1019=,SBGR,2022-06-03 01:00:00
1654221600000,METAR SBGR 030200Z 09006KT CAVOK 16/15 Q1018=,SBGR,2022-06-03 02:00:00
1654225200000,METAR SBGR 030300Z 12002KT CAVOK 16/15 Q1019=,SBGR,2022-06-03 03:00:00
1654228800000,METAR SBGR 030400Z 12002KT CAVOK 15/15 Q1019=,SBGR,2022-06-03 04:00:00
1654232400000,METAR SBGR 030500Z 00000KT CAVOK 15/14 Q1019=,SBGR,2022-06-03 05:00:00
1654236000000,METAR SBGR 030600Z 00000KT 9999 BKN017 BKN100 16/15 Q1019=,SBGR,2022-06-03 06:00:00
1654237380000,SPECI SBGR 030623Z 20002KT 9999 BKN008 16/15 Q1019=,SBGR,2022-06-03 06:23:00
1654239600000,METAR SBGR 030700Z 17002KT 5000 BR BKN005 16/15 Q1019=,SBGR,2022-06-03 07:00:00
1654243200000,METAR SBGR 030800Z 20003KT 4000 BR OVC006 16/15 Q1019=,SBGR,2022-06-03 08:00:00
1654246800000,METAR SBGR 030900Z 16004KT 4000 BR OVC007 16/15 Q1020=,SBGR,2022-06-03 09:00:00
1654250400000,METAR SBGR 031000Z 17006KT 9999 OVC008 16/15 Q1021=,SBGR,2022-06-03 10:00:00
1654254000000,METAR SBGR 031100Z 18003KT 9999 OVC010 16/15 Q1022=,SBGR,2022-06-03 11:00:00
1654257600000,METAR SBGR 031200Z 18004KT 9999 BKN013 OVC015 16/14 Q1023=,SBGR,2022-06-03 12:00:00
1654261200000,METAR SBGR 031300Z 19005KT 9999 BKN015 OVC020 17/14 Q1023=,SBGR,2022-06-03 13:00:00
1654264800000,METAR SBGR 031400Z 00000KT 9999 OVC015 17/14 Q1023=,SBGR,2022-06-03 14:00:00
1654268400000,METAR SBGR 031500Z 18005KT 9999 OVC017 18/14 Q1022=,SBGR,2022-06-03 15:00:00
1654272000000,METAR SBGR 031600Z 20005KT 9999 BKN020 18/14 Q1022=,SBGR,2022-06-03 16:00:00
1654275600000,METAR SBGR 031700Z 15005KT 9999 BKN020 20/14 Q1021=,SBGR,2022-06-03 17:00:00
1654279200000,METAR SBGR 031800Z 15007KT 9999 BKN025 19/14 Q1021=,SBGR,2022-06-03 18:00:00
1654282800000,METAR SBGR 031900Z 19006KT 9999 SCT025 BKN045 19/14 Q1021=,SBGR,2022-06-03 19:00:00
1654286400000,METAR SBGR 032000Z 16007KT 9999 BKN015 17/14 Q1021=,SBGR,2022-06-03 20:00:00
1654290000000,METAR SBGR 032100Z 17007KT 9999 BKN015 16/14 Q1022=,SBGR,2022-06-03 21:00:00
1654293600000,METAR SBGR 032200Z 17005KT 9999 SCT013 BKN020 16/14 Q1022=,SBGR,2022-06-03 22:00:00
1654297200000,METAR SBGR 032300Z 16008KT 9999 BKN011 15/14 Q1023=,SBGR,2022-06-03 23:00:00
1654214400000,METAR SBKP 030000Z 12010KT CAVOK 18/14 Q1018=,SBKP,2022-06-03 00:00:00
1654218000000,METAR SBKP 030100Z 10008KT CAVOK 18/14 Q1017=,SBKP,2022-06-03 01:00:00
1654221600000,METAR SBKP 030200Z 12007KT CAVOK 18/14 Q1017=,SBKP,2022-06-03 02:00:00
1654225200000,METAR SBKP 030300Z 13005KT CAVOK 18/14 Q1018=,SBKP,2022-06-03 03:00:00
1654228800000,METAR SBKP 030400Z 13005KT CAVOK 17/15 Q1018=,SBKP,2022-06-03 04:00:00
1654232400000,METAR SBKP 030500Z 00000KT CAVOK 18/15 Q1018=,SBKP,2022-06-03 05:00:00
1654236000000,METAR SBKP 030600Z 18004KT CAVOK 17/15 Q1018=,SBKP,2022-06-03 06:00:00
1654239600000,METAR SBKP 030700Z 16004KT CAVOK 17/15 Q1018=,SBKP,2022-06-03 07:00:00
1654243200000,METAR SBKP 030800Z 17005KT 9999 BKN025 BKN100 17/15 Q1018=,SBKP,2022-06-03 08:00:00
1654246800000,METAR SBKP 030900Z 13007KT 9000 SCT040 BKN100 17/15 Q1019=,SBKP,2022-06-03 09:00:00
1654250400000,METAR SBKP 031000Z 14008KT 5000 BR SCT025 BKN100 17/15 Q1019=,SBKP,2022-06-03 10:00:00
1654254000000,METAR SBKP 031100Z 13011KT 5000 BR SCT023 BKN100 17/15 Q1020=,SBKP,2022-06-03 11:00:00
1654257600000,METAR SBKP 031200Z 13012KT 5000 BR FEW030 SCT050 18/15 Q1021=,SBKP,2022-06-03 12:00:00
1654261200000,METAR SBKP 031300Z 14013KT 9999 FEW015 SCT030 BKN050 19/15 Q1022=,SBKP,2022-06-03 13:00:00
1654264800000,METAR SBKP 031400Z 13012KT 9999 SCT020 BKN050 19/14 Q1022=,SBKP,2022-06-03 14:00:00
1654268400000,METAR SBKP 031500Z 12008KT 9999 BKN023 20/14 Q1021=,SBKP,2022-06-03 15:00:00
1654272000000,METAR SBKP 031600Z 12009KT 9999 BKN025 21/14 Q1020=,SBKP,2022-06-03 16:00:00
1654275600000,METAR SBKP 031700Z 11008KT 060V150 9999 BKN030 21/14 Q1020=,SBKP,2022-06-03 17:00:00
1654279200000,METAR SBKP 031800Z 12009KT 9999 SCT035 21/14 Q1019=,SBKP,2022-06-03 18:00:00
1654282800000,METAR SBKP 031900Z 12008KT 9999 BKN035 21/14 Q1019=,SBKP,2022-06-03 19:00:00
1654286400000,METAR SBKP 032000Z 13011KT 9999 BKN033 20/14 Q1020=,SBKP,2022-06-03 20:00:00
1654290000000,METAR SBKP 032100Z 13010KT 9999 BKN038 19/13 Q1020=,SBKP,2022-06-03 21:00:00
1654293600000,METAR SBKP 032200Z 13011KT 9999 SCT040 17/13 Q1021=,SBKP,2022-06-03 22:00:00
1654297200000,METAR SBKP 032300Z 14011KT 9999 FEW045 16/13 Q1021=,SBKP,2022-06-03 23:00:00
1654214400000,METAR SBPA 030000Z 21003KT 160V270 9999 FEW020 BKN070 12/08 Q1023=,SBPA,2022-06-03 00:00:00
1654218000000,METAR SBPA 030100Z 23004KT 190V260 9999 BKN020 OVC070 12/08 Q1023=,SBPA,2022-06-03 01:00:00
1654221600000,METAR SBPA 030200Z 22004KT 9999 BKN020 OVC080 12/08 Q1024=,SBPA,2022-06-03 02:00:00
1654225200000,METAR SBPA 030300Z 22004KT 180V240 9999 FEW025 BKN080 11/08 Q1024=,SBPA,2022-06-03 03:00:00
1654228800000,METAR SBPA 030400Z 21002KT 9999 FEW025 SCT080 10/08 Q1024=,SBPA,2022-06-03 04:00:00
1654232400000,METAR SBPA 030500Z 22005KT 9999 FEW025 SCT080 10/07 Q1024=,SBPA,2022-06-03 05:00:00
1654236000000,METAR SBPA 030600Z 21004KT 170V240 9999 FEW025 10/07 Q1024=,SBPA,2022-06-03 06:00:00
1654239600000,METAR SBPA 030700Z 23003KT 190V260 9999 FEW025 09/07 Q1024=,SBPA,2022-06-03 07:00:00
1654243200000,METAR SBPA 030800Z 21003KT 110V260 9999 FEW015 09/07 Q1024=,SBPA,2022-06-03 08:00:00
1654246800000,METAR SBPA 030900Z VRB01KT CAVOK 08/06 Q1025=,SBPA,2022-06-03 09:00:00
1654250400000,METAR SBPA 031000Z VRB02KT CAVOK 08/05 Q1025=,SBPA,2022-06-03 10:00:00
1654254000000,METAR SBPA 031100Z VRB02KT CAVOK 07/06 Q1025=,SBPA,2022-06-03 11:00:00
1654257600000,METAR SBPA 031200Z VRB01KT CAVOK 10/06 Q1026=,SBPA,2022-06-03 12:00:00
1654261200000,METAR SBPA 031300Z VRB02KT CAVOK 11/06 Q1026=,SBPA,2022-06-03 13:00:00
1654264800000,METAR SBPA 031400Z VRB04KT CAVOK 13/07 Q1026=,SBPA,2022-06-03 14:00:00
1654268400000,METAR SBPA 031500Z 32004KT 250V320 CAVOK 13/07 Q1026=,SBPA,2022-06-03 15:00:00
1654272000000,METAR SBPA 031600Z 31006KT 260V360 9999 BKN030 14/07 Q1025=,SBPA,2022-06-03 16:00:00
1654275600000,METAR SBPA 031700Z 35003KT 260V070 9999 FEW030 SCT040 14/08 Q1025=,SBPA,2022-06-03 17:00:00
1654279200000,METAR SBPA 031800Z 26004KT 230V300 9999 FEW030 BKN033 15/08 Q1024=,SBPA,2022-06-03 18:00:00
1654282800000,METAR SBPA 031900Z 14003KT 090V170 9999 FEW030 BKN035 15/09 Q1024=,SBPA,2022-06-03 19:00:00
1654286400000,METAR SBPA 032000Z 15005KT 100V180 9999 FEW025 BKN033 14/10 Q1025=,SBPA,2022-06-03 20:00:00
1654290000000,METAR SBPA 032100Z 14007KT 9999 FEW025 SCT037 13/10 Q1025=,SBPA,2022-06-03 21:00:00
1654293600000,METAR SBPA 032200Z 14003KT 9999 FEW037 12/10 Q1024=,SBPA,2022-06-03 22:00:00
1654297200000,METAR SBPA 032300Z 10004KT 9999 BKN040 12/10 Q1025=,SBPA,2022-06-03 23:00:00
1654214400000,METAR SBRF 030000Z 29003KT 240V330 9999 BKN018 BKN100 25/24 Q1012=,SBRF,2022-06-03 00:00:00
1654218000000,METAR SBRF 030100Z VRB02KT 5000 -SHRA BR SCT007 SCT014 BKN020 25/24 Q1013=,SBRF,2022-06-03 01:00:00
1654221600000,METAR SBRF 030200Z VRB02KT 5000 -RA BR FEW007 SCT014 BKN040 25/24 Q1012=,SBRF,2022-06-03 02:00:00
1654225200000,METAR SBRF 030300Z 22004KT 190V260 9999 FEW007 SCT014 BKN040 25/24 Q1012=,SBRF,2022-06-03 03:00:00
1654228800000,METAR SBRF 030400Z 21004KT 170V240 6000 -RA FEW007 SCT014 BKN040 24/24 Q1012=,SBRF,2022-06-03 04:00:00
1654232400000,METAR SBRF 030500Z 18005KT 8000 -RA FEW007 SCT014 BKN040 24/24 Q1011=,SBRF,2022-06-03 05:00:00
1654236000000,METAR SBRF 030600Z 20003KT 8000 -RA FEW007 SCT014 BKN040 24/24 Q1011=,SBRF,2022-06-03 06:00:00
1654239600000,METAR SBRF 030700Z 25002KT 9999 FEW007 SCT018 BKN040 24/24 Q1011=,SBRF,2022-06-03 07:00:00
1654243200000,METAR SBRF 030800Z VRB01KT 9999 SCT018 BKN040 24/24 Q1012=,SBRF,2022-06-03 08:00:00
1654246800000,METAR SBRF 030900Z VRB02KT 9000 VCSH SCT018 BKN040 24/24 Q1012=,SBRF,2022-06-03 09:00:00
1654250400000,METAR SBRF 031000Z 23001KT 4000 -RA BR FEW007 BKN013 BKN045 24/24 Q1013=,SBRF,2022-06-03 10:00:00
1654251240000,SPECI SBRF 031014Z 09006KT 1000 R18/1100 R36/1300 RA BR BKN005 OVC016 24/24 Q1013=,SBRF,2022-06-03 10:14:00
1654254000000,METAR SBRF 031100Z 30002KT 2000 -RA BR SCT006 BKN010 OVC018 24/24 Q1014 RERA=,SBRF,2022-06-03 11:00:00
1654257600000,METAR SBRF 031200Z 30003KT 8000 VCSH FEW004 SCT013 BKN040 25/25 Q1014=,SBRF,2022-06-03 12:00:00
1654261200000,METAR SBRF 031300Z 29004KT 9999 FEW007 SCT009 BKN060 26/24 Q1014=,SBRF,2022-06-03 13:00:00
1654264800000,METAR SBRF 031400Z 31005KT 9000 -RA SCT013 BKN020 BKN040 26/24 Q1014=,SBRF,2022-06-03 14:00:00
1654268400000,METAR SBRF 031500Z 15003KT 7000 -RA SCT013 BKN020 BKN040 25/24 Q1013=,SBRF,2022-06-03 15:00:00
1654272000000,METAR SBRF 031600Z 07003KT 9999 SCT013 SCT018 FEW022TCU 27/24 Q1012=,SBRF,2022-06-03 16:00:00
1654275600000,METAR SBRF 031700Z 35008KT 9999 VCSH SCT015 BKN020 26/23 Q1012=,SBRF,2022-06-03 17:00:00
1654279200000,METAR SBRF 031800Z 32008KT 9999 SCT015 BKN020 FEW023TCU BKN060 27/24 Q1012=,SBRF,2022-06-03 18:00:00
1654282800000,METAR SBRF 031900Z 30006KT 9999 FEW015 BKN020 FEW023TCU BKN060 26/24 Q1012=,SBRF,2022-06-03 19:00:00
1654286400000,METAR SBRF 032000Z 30005KT 9999 FEW015 BKN020 BKN050 26/23 Q1011=,SBRF,2022-06-03 20:00:00
1654290000000,METAR SBRF 032100Z 29003KT 9999 SCT020 BKN050 25/24 Q1012=,SBRF,2022-06-03 21:00:00
1654293600000,METAR SBRF 032200Z 30003KT 9999 SCT020 BKN050 25/23 Q1012=,SBRF,2022-06-03 22:00:00
1654297200000,METAR SBRF 032300Z 29003KT 9999 SCT020 BKN050 25/23 Q1012=,SBRF,2022-06-03 23:00:00
1654214400000,METAR SBRJ 030000Z 20007KT 9999 FEW020 OVC050 23/19 Q1017=,SBRJ,2022-06-03 00:00:00
1654218000000,METAR SBRJ 030100Z 24003KT 170V340 9999 FEW020 OVC050 23/19 Q1017=,SBRJ,2022-06-03 01:00:00
1654221600000,METAR SBRJ 030200Z 33008KT 290V360 9999 SCT020 BKN050 22/20 Q1016=,SBRJ,2022-06-03 02:00:00
1654246200000,SPECI SBRJ 030850Z 16003KT 9999 FEW020 SCT045 BKN100 21/19 Q1015=,SBRJ,2022-06-03 08:50:00
1654246800000,METAR SBRJ 030900Z 15004KT 9999 FEW020 SCT045 BKN100 21/19 Q1015=,SBRJ,2022-06-03 09:00:00
1654250400000,METAR SBRJ 031000Z 20005KT 9999 SCT020 BKN045 BKN100 22/19 Q1016=,SBRJ,2022-06-03 10:00:00
1654254000000,METAR SBRJ 031100Z 01001KT 9999 FEW013 OVC017 22/19 Q1017=,SBRJ,2022-06-03 11:00:00
1654255800000,SPECI SBRJ 031130Z 19006KT 5000 -RA BR BKN013 OVC017 21/20 Q1018=,SBRJ,2022-06-03 11:30:00
1654257600000,METAR SBRJ 031200Z 19006KT 4000 -RA BR FEW008 BKN013 OVC020 21/20 Q1018=,SBRJ,2022-06-03 12:00:00
1654261200000,METAR SBRJ 031300Z 19009KT 6000 SCT008 BKN017 OVC020 21/20 Q1018=,SBRJ,2022-06-03 13:00:00
1654264800000,METAR SBRJ 031400Z 24005KT 9999 FEW008 BKN017 OVC025 21/18 Q1018=,SBRJ,2022-06-03 14:00:00
1654268400000,METAR SBRJ 031500Z 22006KT 9999 FEW010 OVC025 23/18 Q1018=,SBRJ,2022-06-03 15:00:00
1654272000000,METAR SBRJ 031600Z 27006KT 9999 SCT030 BKN040 23/18 Q1018=,SBRJ,2022-06-03 16:00:00
1654275600000,METAR SBRJ 031700Z 26005KT 9999 BKN030 OVC040 23/18 Q1017=,SBRJ,2022-06-03 17:00:00
1654279200000,METAR SBRJ 031800Z 19004KT 9999 SCT025 BKN030 23/18 Q1017=,SBRJ,2022-06-03 18:00:00
1654282800000,METAR SBRJ 031900Z 27008KT 9999 SCT025 BKN035 23/17 Q1017=,SBRJ,2022-06-03 19:00:00
1654286400000,METAR SBRJ 032000Z 24008KT 9999 FEW012 BKN020 BKN035 22/18 Q1018=,SBRJ,2022-06-03 20:00:00
1654287780000,SPECI COR SBRJ 032023Z 20009KT 3000 -RA BR BKN012 BKN030 22/20 Q1018=,SBRJ,2022-06-03 20:23:00
1654288380000,SPECI SBRJ 032033Z 22008KT 3000 RA BR BKN012 OVC030 21/19 Q1018=,SBRJ,2022-06-03 20:33:00
1654290000000,METAR SBRJ 032100Z 21005KT 3000 -RA BR SCT007 BKN012 OVC030 20/20 Q1018 RERA=,SBRJ,2022-06-03 21:00:00
1654291500000,SPECI SBRJ 032125Z 18009KT 5000 -RA BR BKN013 OVC030 21/19 Q1018=,SBRJ,2022-06-03 21:25:00
1654293600000,METAR SBRJ 032200Z 18009KT 5000 -RA BR BKN012 OVC030 21/19 Q1019=,SBRJ,2022-06-03 22:00:00
1654297200000,METAR SBRJ 032300Z 17013KT 8000 -RA BKN014 OVC030 21/18 Q1019=,SBRJ,2022-06-03 23:00:00
1654299300000,SPECI SBRJ 032335Z 18011KT 3000 RA BR BKN012 OVC030 20/19 Q1020=,SBRJ,2022-06-03 23:35:00
1654214400000,METAR SBSP 030000Z 05004KT 020V090 CAVOK 16/13 Q1019=,SBSP,2022-06-03 00:00:00
1654218000000,METAR SBSP 030100Z 05005KT 020V080 CAVOK 16/13 Q1019=,SBSP,2022-06-03 01:00:00
1654221600000,METAR SBSP 030200Z VRB02KT CAVOK 16/13 Q1019=,SBSP,2022-06-03 02:00:00
1654221660000,SPECI SBSP 030201Z VRB02KT CAVOK 16/13 Q1019=,SBSP,2022-06-03 02:01:00
1654225200000,METAR SBSP 030300Z AUTO 15004KT CAVOK 15/13 Q1019=,SBSP,2022-06-03 03:00:00
1654228800000,METAR SBSP 030400Z AUTO 16004KT CAVOK 15/13 Q1019=,SBSP,2022-06-03 04:00:00
1654231560000,SPECI SBSP 030446Z AUTO 19007KT 9999 SCT004 BKN006 15/13 Q1020=,SBSP,2022-06-03 04:46:00
1654232400000,METAR SBSP 030500Z AUTO 18007KT 9999 SCT004 BKN006 15/13 Q1020=,SBSP,2022-06-03 05:00:00
1654234800000,SPECI SBSP 030540Z AUTO 17007KT 7000 SCT002 OVC004 15/13 Q1019=,SBSP,2022-06-03 05:40:00
1654236000000,METAR SBSP 030600Z AUTO 18006KT 6000 OVC002 14/13 Q1019=,SBSP,2022-06-03 06:00:00
1654238460000,SPECI SBSP 030641Z AUTO 16006KT 9999 SCT003 OVC005 15/14 Q1019=,SBSP,2022-06-03 06:41:00
1654238820000,SPECI SBSP 030647Z AUTO 17006KT 9999 OVC004 15/14 Q1019=,SBSP,2022-06-03 06:47:00
1654239600000,METAR SBSP 030700Z AUTO 18006KT 9999 SCT003 OVC005 15/14 Q1020=,SBSP,2022-06-03 07:00:00
1654241280000,SPECI SBSP 030728Z AUTO 18004KT 9999 OVC004 15/13 Q1019=,SBSP,2022-06-03 07:28:00
1654242180000,SPECI SBSP 030743Z AUTO 20006KT 9999 SCT003 OVC005 15/13 Q1020=,SBSP,2022-06-03 07:43:00
1654243200000,METAR SBSP 030800Z AUTO 20006KT 9000 SCT003 OVC005 15/13 Q1020=,SBSP,2022-06-03 08:00:00
1654246800000,METAR SBSP 030900Z 18005KT 9000 BKN006 BKN007 15/13 Q1021=,SBSP,2022-06-03 09:00:00
1654250400000,METAR SBSP 031000Z 20008KT 9999 4900S -DZ SCT004 OVC006 15/13 Q1022=,SBSP,2022-06-03 10:00:00
1654254000000,METAR SBSP 031100Z 19008KT 160V230 9999 SCT005 OVC008 15/13 Q1022=,SBSP,2022-06-03 11:00:00
1654257600000,METAR SBSP 031200Z 19009KT 9999 SCT008 OVC009 15/13 Q1023=,SBSP,2022-06-03 12:00:00
1654261200000,METAR SBSP 031300Z 20007KT 9999 BKN008 OVC011 16/13 Q1024=,SBSP,2022-06-03 13:00:00
1654264800000,METAR COR SBSP 031400Z 20010KT 9999 SCT009 BKN013 16/13 Q1023=,SBSP,2022-06-03 14:00:00
1654267500000,SPECI SBSP 031445Z 19011KT 9999 SCT015 SCT050 18/14 Q1023=,SBSP,2022-06-03 14:45:00
1654268400000,METAR SBSP 031500Z 18011KT 9999 SCT015 SCT050 18/13 Q1023=,SBSP,2022-06-03 15:00:00
1654272000000,METAR SBSP 031600Z 19009KT 9999 SCT015 BKN023 18/13 Q1022=,SBSP,2022-06-03 16:00:00
1654275600000,METAR SBSP 031700Z 19010KT 160V220 9999 BKN015 BKN040 18/13 Q1022=,SBSP,2022-06-03 17:00:00
1654279200000,METAR SBSP 031800Z 16009KT 9999 SCT011 BKN015 BKN036 17/14 Q1022=,SBSP,2022-06-03 18:00:00
1654282800000,METAR SBSP 031900Z 17009KT 9000 SCT009 BKN013 BKN043 16/14 Q1022=,SBSP,2022-06-03 19:00:00
1654283400000,SPECI SBSP 031910Z 19011KT 4000 -DZ BR SCT004 BKN011 BKN021 16/13 Q1022=,SBSP,2022-06-03 19:10:00
1654284060000,SPECI SBSP 031921Z 20010KT 2500 -RA BR SCT004 BKN009 OVC017 16/14 Q1022=,SBSP,2022-06-03 19:21:00
1654286400000,METAR SBSP 032000Z 20010KT 4000 -RA BR SCT005 BKN008 OVC015 15/14 Q1023=,SBSP,2022-06-03 20:00:00
1654287120000,SPECI SBSP 032012Z 17008KT 6000 SCT005 BKN011 OVC017 15/14 Q1023=,SBSP,2022-06-03 20:12:00
1654290000000,METAR SBSP 032100Z 18008KT 9000 SCT006 OVC009 15/13 Q1023=,SBSP,2022-06-03 21:00:00
1654291620000,SPECI SBSP 032127Z 19010KT 4000 -DZ BR SCT003 BKN009 OVC015 15/13 Q1023=,SBSP,2022-06-03 21:27:00
1654293600000,METAR SBSP 032200Z 18008KT 3000 -DZ BR SCT003 OVC006 14/13 Q1023=,SBSP,2022-06-03 22:00:00
1654297200000,METAR SBSP 032300Z 15009KT 6000 -DZ SCT004 OVC006 14/13 Q1024=,SBSP,2022-06-03 23:00:00
1654214400000,METAR SBSV 030000Z 16007KT 9999 SCT023 BKN080 27/21 Q1015=,SBSV,2022-06-03 00:00:00
1654218000000,METAR SBSV 030100Z 16007KT 9999 FEW020 SCT080 27/21 Q1015=,SBSV,2022-06-03 01:00:00
1654221600000,METAR SBSV 030200Z 16007KT CAVOK 27/21 Q1014=,SBSV,2022-06-03 02:00:00
1654225200000,METAR SBSV 030300Z 15007KT CAVOK 27/21 Q1014=,SBSV,2022-06-03 03:00:00
1654228800000,METAR SBSV 030400Z 15007KT 9999 FEW023 SCT100 27/21 Q1014=,SBSV,2022-06-03 04:00:00
1654232400000,METAR SBSV 030500Z 14007KT 9999 SCT023 27/21 Q1014=,SBSV,2022-06-03 05:00:00
1654236000000,METAR SBSV 030600Z 15007KT 9999 SCT023 27/21 Q1014=,SBSV,2022-06-03 06:00:00
1654239600000,METAR SBSV 030700Z 16007KT 9999 SCT023 27/21 Q1014=,SBSV,2022-06-03 07:00:00
1654243200000,METAR SBSV 030800Z 15006KT 9999 SCT023 26/22 Q1014=,SBSV,2022-06-03 08:00:00
1654246800000,METAR SBSV 030900Z 15006KT 9999 SCT023 26/21 Q1014=,SBSV,2022-06-03 09:00:00
1654250400000,METAR SBSV 031000Z 15007KT 9999 SCT023 27/21 Q1015=,SBSV,2022-06-03 10:00:00
1654254000000,METAR SBSV 031100Z 15008KT 9999 FEW025 28/21 Q1015=,SBSV,2022-06-03 11:00:00
1654257600000,METAR SBSV 031200Z 16009KT 140V200 9999 FEW025 28/21 Q1016=,SBSV,2022-06-03 12:00:00
1654261200000,METAR SBSV 031300Z 15009KT 9999 FEW025 29/22 Q1016=,SBSV,2022-06-03 13:00:00
1654264800000,METAR SBSV 031400Z 17009KT 130V210 9999 FEW025 29/22 Q1015=,SBSV,2022-06-03 14:00:00
1654268400000,METAR SBSV 031500Z 18007KT 140V250 9999 FEW025 29/21 Q1015=,SBSV,2022-06-03 15:00:00
1654272000000,METAR SBSV 031600Z 17008KT 9999 SCT025 29/21 Q1014=,SBSV,2022-06-03 16:00:00
1654275600000,METAR SBSV 031700Z 16008KT 130V200 9999 SCT025 29/21 Q1014=,SBSV,2022-06-03 17:00:00
1654279200000,METAR SBSV 031800Z 16009KT 9999 SCT023 29/20 Q1013=,SBSV,2022-06-03 18:00:00
1654282800000,METAR SBSV 031900Z 17008KT 9999 FEW023 28/20 Q1013=,SBSV,2022-06-03 19:00:00
1654286400000,METAR SBSV 032000Z 18007KT 9999 FEW023 28/21 Q1013=,SBSV,2022-06-03 20:00:00
1654290000000,METAR SBSV 032100Z 17006KT 9999 FEW023 27/21 Q1013=,SBSV,2022-06-03 21:00:00
1654293600000,METAR SBSV 032200Z 16007KT 9999 FEW023 27/21 Q1014=,SBSV,2022-06-03 22:00:00
1654297200000,METAR SBSV 032300Z 16007KT 130V210 9999 FEW023 27/20 Q1014=,SBSV,2022-06-03 23:00:00
1654300800000,METAR SBBR 040000Z 18003KT CAVOK 21/09 Q1020=,SBBR,2022-06-04 00:00:00
1654304400000,METAR SBBR 040100Z 28002KT CAVOK 18/10 Q1021=,SBBR,2022-06-04 01:00:00
1654308000000,METAR SBBR 040200Z 29002KT CAVOK 18/09 Q1021=,SBBR,2022-06-04 02:00:00
1654311600000,METAR SBBR 040300Z 25002KT CAVOK 17/09 Q1020=,SBBR,2022-06-04 03:00:00
1654315200000,METAR SBBR 040400Z VRB01KT CAVOK 16/10 Q1020=,SBBR,2022-06-04 04:00:00
1654318800000,METAR SBBR 040500Z 28003KT CAVOK 14/10 Q1020=,SBBR,2022-06-04 05:00:00
1654322400000,METAR SBBR 040600Z VRB01KT CAVOK 14/10 Q1019=,SBBR,2022-06-04 06:00:00
1654326000000,METAR SBBR 040700Z VRB02KT CAVOK 14/10 Q1019=,SBBR,2022-06-04 07:00:00
1654329600000,METAR SBBR 040800Z 03001KT CAVOK 14/10 Q1019=,SBBR,2022-06-04 08:00:00
1654333200000,METAR SBBR 040900Z VRB01KT CAVOK 14/09 Q1020=,SBBR,2022-06-04 09:00:00
1654336800000,METAR SBBR 041000Z 34001KT CAVOK 13/10 Q1020=,SBBR,2022-06-04 10:00:00
1654340400000,METAR SBBR 041100Z 03001KT CAVOK 16/12 Q1022=,SBBR,2022-06-04 11:00:00
1654344000000,METAR SBBR 041200Z 15002KT CAVOK 21/12 Q1022=,SBBR,2022-06-04 12:00:00
1654347600000,METAR SBBR 041300Z 13009KT CAVOK 23/12 Q1022=,SBBR,2022-06-04 13:00:00
1654351200000,METAR SBBR 041400Z 11013KT CAVOK 24/12 Q1022=,SBBR,2022-06-04 14:00:00
1654354800000,METAR SBBR 041500Z 09010KT 9999 FEW035 26/13 Q1021=,SBBR,2022-06-04 15:00:00
1654358400000,METAR SBBR 041600Z 10011KT 9999 FEW040 26/12 Q1021=,SBBR,2022-06-04 16:00:00
1654362000000,METAR SBBR 041700Z 10010KT 9999 FEW040 27/13 Q1020=,SBBR,2022-06-04 17:00:00
1654365600000,METAR SBBR 041800Z 11009KT 050V150 9999 SCT040 27/13 Q1020=,SBBR,2022-06-04 18:00:00
1654369200000,METAR SBBR 041900Z 10011KT 9999 SCT040 27/13 Q1019=,SBBR,2022-06-04 19:00:00
1654372800000,METAR SBBR 042000Z 12011KT 9999 FEW040 26/13 Q1019=,SBBR,2022-06-04 20:00:00
1654376400000,METAR SBBR 042100Z 12008KT CAVOK 24/13 Q1020=,SBBR,2022-06-04 21:00:00
1654380000000,METAR SBBR 042200Z 13007KT CAVOK 23/13 Q1020=,SBBR,2022-06-04 22:00:00
1654383600000,METAR SBBR 042300Z 12008KT CAVOK 22/13 Q1021=,SBBR,2022-06-04 23:00:00
1654300800000,METAR SBCF 040000Z 10006KT CAVOK 23/15 Q1019=,SBCF,2022-06-04 00:00:00
1654304400000,METAR SBCF 040100Z 12006KT CAVOK 20/15 Q1020=,SBCF,2022-06-04 01:00:00
1654308000000,METAR SBCF 040200Z 11008KT CAVOK 20/15 Q1020=,SBCF,2022-06-04 02:00:00
1654311600000,METAR SBCF 040300Z 12009KT CAVOK 19/16 Q1020=,SBCF,2022-06-04 03:00:00
1654315200000,METAR SBCF 040400Z 12009KT CAVOK 19/16 Q1020=,SBCF,2022-06-04 04:00:00
1654318800000,METAR SBCF 040500Z 12008KT CAVOK 18/16 Q1020=,SBCF,2022-06-04 05:00:00
1654322400000,METAR SBCF 040600Z 12007KT CAVOK 17/15 Q1020=,SBCF,2022-06-04 06:00:00
1654326000000,METAR SBCF 040700Z 12008KT CAVOK 17/14 Q1020=,SBCF,2022-06-04 07:00:00
1654329600000,METAR SBCF 040800Z 12009KT CAVOK 17/13 Q1020=,SBCF,2022-06-04 08:00:00
1654333200000,METAR SBCF 040900Z 11009KT 9999 FEW035 17/12 Q1021=,SBCF,2022-06-04 09:00:00
1654336800000,METAR SBCF 041000Z 12009KT 9999 FEW035 16/13 Q1022=,SBCF,2022-06-04 10:00:00
1654340400000,METAR SBCF 041100Z 12008KT 9999 FEW035 17/13 Q1022=,SBCF,2022-06-04 11:00:00
1654344000000,METAR SBCF 041200Z 13010KT 9999 FEW035 18/13 Q1023=,SBCF,2022-06-04 12:00:00
1654347600000,METAR SBCF 041300Z 13011KT 9999 FEW035 20/14 Q1023=,SBCF,2022-06-04 13:00:00
1654351200000,METAR SBCF 041400Z 12008KT 9999 FEW035 22/14 Q1023=,SBCF,2022-06-04 14:00:00
1654354800000,METAR SBCF 041500Z 11010KT 9999 FEW040 24/14 Q1022=,SBCF,2022-06-04 15:00:00
1654358400000,METAR SBCF 041600Z 11008KT 9999 FEW040 24/14 Q1021=,SBCF,2022-06-04 16:00:00
1654362000000,METAR SBCF 041700Z 09010KT CAVOK 24/14 Q1021=,SBCF,2022-06-04 17:00:00
1654365600000,METAR SBCF 041800Z 08012KT 9999 FEW040 24/14 Q1021=,SBCF,2022-06-04 18:00:00
1654369200000,METAR SBCF 041900Z 08011KT 9999 FEW040 23/14 Q1021=,SBCF,2022-06-04 19:00:00
1654372800000,METAR SBCF 042000Z 08015KT CAVOK 22/13 Q1021=,SBCF,2022-06-04 20:00:00
1654376400000,METAR SBCF 042100Z 08011KT CAVOK 20/13 Q1021=,SBCF,2022-06-04 21:00:00
1654380000000,METAR SBCF 042200Z 09011KT CAVOK 19/13 Q1022=,SBCF,2022-06-04 22:00:00
1654383600000,METAR SBCF 042300Z 10009KT CAVOK 18/13 Q1022=,SBCF,2022-06-04 23:00:00
1654300800000,METAR SBCT 040000Z 10007KT 9999 BKN006 10/10 Q1024=,SBCT,2022-06-04 00:00:00
1654304400000,METAR SBCT 040100Z 10006KT 070V130 9999 OVC005 10/10 Q1024=,SBCT,2022-06-04 01:00:00
1654308000000,METAR SBCT 040200Z 08005KT 9999 OVC004 10/10 Q1025=,SBCT,2022-06-04 02:00:00
1654311600000,METAR SBCT 040300Z 10004KT 9999 OVC004 10/10 Q1024=,SBCT,2022-06-04 03:00:00
1654315200000,METAR SBCT 040400Z 13005KT 9999 OVC004 10/10 Q1025=,SBCT,2022-06-04 04:00:00
1654318800000,METAR SBCT 040500Z 12005KT 6000 2000SE OVC002 10/10 Q1024=,SBCT,2022-06-04 05:00:00
1654322400000,METAR SBCT 040600Z 14006KT 6000 2000SE OVC002 09/09 Q1024=,SBCT,2022-06-04 06:00:00
1654326000000,METAR SBCT 040700Z 13005KT 6000 OVC003 09/09 Q1024=,SBCT,2022-06-04 07:00:00
1654329600000,METAR SBCT 040800Z 14006KT 7000 OVC003 09/09 Q1024=,SBCT,2022-06-04 08:00:00
1654333200000,METAR SBCT 040900Z 14004KT 5000 BR OVC003 09/09 Q1024=,SBCT,2022-06-04 09:00:00
1654336800000,METAR SBCT 041000Z 14004KT 8000 OVC003 09/09 Q1024=,SBCT,2022-06-04 10:00:00
1654340400000,METAR SBCT 041100Z 14005KT 9999 OVC003 10/10 Q1025=,SBCT,2022-06-04 11:00:00
1654344000000,METAR SBCT 041200Z 14005KT 9999 OVC003 10/10 Q1026=,SBCT,2022-06-04 12:00:00
1654347600000,METAR SBCT 041300Z 15005KT 9999 OVC004 11/11 Q1026=,SBCT,2022-06-04 13:00:00
1654351200000,METAR SBCT 041400Z 13003KT 9999 OVC005 12/12 Q1026=,SBCT,2022-06-04 14:00:00
1654354800000,METAR SBCT 041500Z 08004KT 9999 OVC010 14/12 Q1026=,SBCT,2022-06-04 15:00:00
1654358400000,METAR SBCT 041600Z 08007KT 9999 BKN009 BKN030 15/13 Q1025=,SBCT,2022-06-04 16:00:00
1654362000000,METAR SBCT 041700Z 11005KT 9999 BKN010 BKN025 14/12 Q1024=,SBCT,2022-06-04 17:00:00
1654365600000,METAR SBCT 041800Z 11007KT 9999 BKN010 BKN033 14/12 Q1024=,SBCT,2022-06-04 18:00:00
1654369200000,METAR SBCT 041900Z 11008KT 9999 SCT010 SCT033 15/12 Q1024=,SBCT,2022-06-04 19:00:00
1654372800000,METAR SBCT 042000Z 11005KT 9999 SCT010 13/12 Q1024=,SBCT,2022-06-04 20:00:00
1654376400000,METAR SBCT 042100Z 11005KT 9999 BKN004 SCT070 12/11 Q1024=,SBCT,2022-06-04 21:00:00
1654380000000,METAR SBCT 042200Z 10005KT 9999 BKN004 BKN083 11/11 Q1024=,SBCT,2022-06-04 22:00:00
1654383600000,METAR SBCT 042300Z 09004KT 9999 BKN005 BKN009 11/11 Q1024=,SBCT,2022-06-04 23:00:00
1654300800000,METAR SBFL 040000Z 19007KT 9999 BKN030 15/08 Q1024=,SBFL,2022-06-04 00:00:00
1654304400000,METAR SBFL 040100Z VRB02KT CAVOK 15/09 Q1024=,SBFL,2022-06-04 01:00:00
1654308000000,METAR SBFL 040200Z VRB02KT 9999 FEW030 OVC066 15/09 Q1024=,SBFL,2022-06-04 02:00:00
1654311600000,METAR SBFL 040300Z 21008KT 9999 FEW030 BKN066 15/09 Q1024=,SBFL,2022-06-04 03:00:00
1654315200000,METAR SBFL 040400Z 20009KT 9999 FEW030 SCT066 15/11 Q1024=,SBFL,2022-06-04 04:00:00
1654318800000,METAR SBFL 040500Z 19006KT 9999 FEW030 SCT066 15/11 Q1024=,SBFL,2022-06-04 05:00:00
1654322400000,METAR SBFL 040600Z 20006KT CAVOK 14/11 Q1024=,SBFL,2022-06-04 06:00:00
1654326000000,METAR SBFL 040700Z 27007KT 9999 FEW030 SCT066 13/10 Q1024=,SBFL,2022-06-04 07:00:00
1654329600000,METAR SBFL 040800Z 27004KT 9999 FEW030 SCT066 13/11 Q1023=,SBFL,2022-06-04 08:00:00
1654333200000,METAR SBFL 040900Z 28006KT CAVOK 13/12 Q1024=,SBFL,2022-06-04 09:00:00
1654336800000,METAR SBFL 041000Z 28006KT 250V320 9999 FEW030 SCT066 13/11 Q1024=,SBFL,2022-06-04 10:00:00
1654340400000,METAR SBFL 041100Z 29003KT 9999 FEW030 SCT066 14/11 Q1025=,SBFL,2022-06-04 11:00:00
1654344000000,METAR SBFL 041200Z 31005KT 9999 FEW030 SCT066 15/11 Q1025=,SBFL,2022-06-04 12:00:00
1654347600000,METAR SBFL 041300Z 30003KT 9999 FEW030 16/12 Q1025=,SBFL,2022-06-04 13:00:00
1654351200000,METAR SBFL 041400Z 30004KT 9999 FEW030 18/12 Q1025=,SBFL,2022-06-04 14:00:00
1654354800000,METAR SBFL 041500Z 28005KT 9999 SCT030 19/12 Q1025=,SBFL,2022-06-04 15:00:00
1654358400000,METAR SBFL 041600Z 23001KT 9999 SCT030 19/12 Q1024=,SBFL,2022-06-04 16:00:00
1654362000000,METAR SBFL 041700Z 08006KT 9999 BKN030 19/13 Q1023=,SBFL,2022-06-04 17:00:00
1654365600000,METAR SBFL 041800Z 35004KT 9999 BKN045 19/13 Q1022=,SBFL,2022-06-04 18:00:00
1654369200000,METAR SBFL 041900Z 35005KT 9999 BKN045 19/13 Q1023=,SBFL,2022-06-04 19:00:00
1654372800000,METAR SBFL 042000Z 35006KT 9999 SCT030 BKN045 18/14 Q1023=,SBFL,2022-06-04 20:00:00
1654376400000,METAR SBFL 042100Z 01005KT 9999 SCT030 BKN045 17/14 Q1023=,SBFL,2022-06-04 21:00:00
1654380000000,METAR SBFL 042200Z 06001KT 9999 SCT030 BKN045 17/14 Q1023=,SBFL,2022-06-04 22:00:00
1654383600000,METAR SBFL 042300Z 24002KT 9999 BKN030 BKN045 16/14 Q1023=,SBFL,2022-06-04 23:00:00
1654300800000,METAR SBGL 040000Z 13010KT 9999 FEW015 BKN019 OVC030 20/18 Q1020=,SBGL,2022-06-04 00:00:00
1654304400000,METAR SBGL 040100Z 17004KT 9999 FEW015 BKN023 OVC040 19/17 Q1021=,SBGL,2022-06-04 01:00:00
1654306200000,SPECI SBGL 040130Z 20006KT 3500 RA BR BKN011 OVC040 20/18 Q1021=,SBGL,2022-06-04 01:30:00
1654308000000,METAR SBGL 040200Z 26002KT 6000 -RA BKN014 OVC040 19/18 Q1021 RERA=,SBGL,2022-06-04 02:00:00
1654309200000,SPECI SBGL 040220Z 21003KT 3500 -RA BR BKN012 OVC040 19/18 Q1021=,SBGL,2022-06-04 02:20:00
1654311600000,METAR SBGL 040300Z 00000KT 3500 -RA BR FEW006 BKN013 OVC026 19/18 Q1021=,SBGL,2022-06-04 03:00:00
1654312200000,SPECI SBGL 040310Z 35002KT 3500 -RA BR BKN005 BKN013 OVC026 19/18 Q1021=,SBGL,2022-06-04 03:10:00
1654315200000,METAR SBGL 040400Z 35004KT 7000 SCT007 BKN020 BKN040 19/18 Q1021=,SBGL,2022-06-04 04:00:00
1654318800000,METAR SBGL 040500Z 25002KT 2500 -RA BR BKN004 BKN007 OVC020 19/18 Q1021=,SBGL,2022-06-04 05:00:00
1654322400000,METAR SBGL 040600Z 13004KT 3000 -RA BR BKN007 BKN013 OVC033 18/17 Q1021=,SBGL,2022-06-04 06:00:00
1654326000000,METAR SBGL 040700Z 36004KT 4500 BR BKN011 BKN023 OVC033 19/17 Q1021=,SBGL,2022-06-04 07:00:00
1654329600000,METAR SBGL 040800Z 00000KT 2500 -RA BR SCT003 BKN004 OVC011 19/18 Q1021=,SBGL,2022-06-04 08:00:00
1654333200000,METAR SBGL 040900Z 02004KT 4000 -RA BR FEW003 BKN005 OVC013 18/17 Q1021=,SBGL,2022-06-04 09:00:00
1654336800000,METAR SBGL 041000Z 01003KT 4500 -RA BR FEW003 BKN004 OVC013 18/17 Q1022=,SBGL,2022-06-04 10:00:00
1654340400000,METAR COR SBGL 041100Z 04003KT 4000 -RA BR SCT004 BKN009 OVC030 19/18 Q1023=,SBGL,2022-06-04 11:00:00
1654344000000,METAR SBGL 041200Z 02004KT 6000 FEW006 BKN012 OVC040 19/17 Q1023=,SBGL,2022-06-04 12:00:00
1654347600000,METAR SBGL 041300Z 01005KT 8000 VCSH FEW012 BKN014 OVC025 20/17 Q1023=,SBGL,2022-06-04 13:00:00
1654349400000,SPECI SBGL 041330Z 14006KT 2000 -RA BR SCT005 BKN014 OVC025 18/16 Q1023=,SBGL,2022-06-04 13:30:00
1654351200000,METAR SBGL 041400Z 15008KT 2000 -RA BR SCT005 BKN014 OVC025 18/17 Q1023=,SBGL,2022-06-04 14:00:00
1654354800000,METAR SBGL 041500Z 14008KT 2000 -RA BR SCT005 BKN009 OVC025 18/17 Q1023=,SBGL,2022-06-04 15:00:00
1654356000000,SPECI SBGL 041520Z 12004KT 5000 -RA BR FEW005 SCT009 OVC025 19/17 Q1023=,SBGL,2022-06-04 15:20:00
1654358400000,METAR SBGL 041600Z 12006KT 7000 FEW005 SCT010 OVC030 20/17 Q1022=,SBGL,2022-06-04 16:00:00
1654362000000,METAR SBGL 041700Z 16006KT 8000 SCT010 OVC030 20/16 Q1022=,SBGL,2022-06-04 17:00:00
1654365600000,METAR SBGL 041800Z 12006KT 9999 FEW008 SCT027 OVC035 20/16 Q1021=,SBGL,2022-06-04 18:00:00
1654369200000,METAR SBGL 041900Z 09004KT 9999 FEW008 OVC035 20/16 Q1021=,SBGL,2022-06-04 19:00:00
1654372800000,METAR SBGL 042000Z 05006KT 9999 FEW008 BKN018 OVC035 19/17 Q1022=,SBGL,2022-06-04 20:00:00
1654376400000,METAR SBGL 042100Z 04005KT 9999 FEW008 OVC040 19/16 Q1022=,SBGL,2022-06-04 21:00:00
1654380000000,METAR SBGL 042200Z 03003KT 9999 FEW008 OVC040 19/17 Q1022=,SBGL,2022-06-04 22:00:00
1654383600000,METAR SBGL 042300Z 23003KT 9999 FEW008 SCT045 BKN070 18/16 Q1023=,SBGL,2022-06-04 23:00:00
1654300800000,METAR SBGR 040000Z 16004KT 9999 BKN010 15/14 Q1023=,SBGR,2022-06-04 00:00:00
1654304400000,METAR SBGR 040100Z 14004KT 9999 BKN013 15/14 Q1023=,SBGR,2022-06-04 01:00:00
1654308000000,METAR SBGR 040200Z 12004KT 9999 BKN010 15/14 Q1023=,SBGR,2022-06-04 02:00:00
1654311600000,METAR SBGR 040300Z 11003KT 8000 OVC008 15/14 Q1023=,SBGR,2022-06-04 03:00:00
1654315200000,METAR SBGR 040400Z 15004KT 4000 -DZ BR BKN006 OVC010 15/15 Q1023=,SBGR,2022-06-04 04:00:00
1654317300000,SPECI SBGR 040435Z 13006KT 9000 BKN006 BKN015 15/14 Q1023=,SBGR,2022-06-04 04:35:00
1654318800000,METAR SBGR 040500Z 13004KT 9999 SCT005 BKN009 15/14 Q1023=,SBGR,2022-06-04 05:00:00
1654322400000,METAR SBGR 040600Z 09004KT 9000 OVC008 15/14 Q1023=,SBGR,2022-06-04 06:00:00
1654326000000,METAR SBGR 040700Z 12003KT 6000 BKN005 OVC007 14/14 Q1023=,SBGR,2022-06-04 07:00:00
1654329600000,METAR SBGR 040800Z 12004KT 5000 -DZ BR BKN005 OVC007 15/14 Q1023=,SBGR,2022-06-04 08:00:00
1654333200000,METAR SBGR 040900Z 13006KT 7000 -DZ SCT004 BKN007 OVC010 15/14 Q1023=,SBGR,2022-06-04 09:00:00
1654336800000,METAR SBGR 041000Z 13005KT 9999 BKN009 OVC013 14/14 Q1024=,SBGR,2022-06-04 10:00:00
1654340400000,METAR SBGR 041100Z 13005KT 9999 BKN009 15/14 Q1024=,SBGR,2022-06-04 11:00:00
1654344000000,METAR SBGR 041200Z 11007KT 9999 BKN010 16/14 Q1025=,SBGR,2022-06-04 12:00:00
1654347600000,METAR SBGR 041300Z 12008KT 9999 BKN013 BKN020 16/14 Q1025=,SBGR,2022-06-04 13:00:00
1654351200000,METAR SBGR 041400Z 13006KT 9999 SCT014 BKN020 17/14 Q1025=,SBGR,2022-06-04 14:00:00
1654354800000,METAR SBGR 041500Z 12008KT 9999 SCT017 BKN025 18/14 Q1024=,SBGR,2022-06-04 15:00:00
1654358400000,METAR SBGR 041600Z 12008KT 9999 BKN025 20/14 Q1023=,SBGR,2022-06-04 16:00:00
1654362000000,METAR SBGR 041700Z 13007KT 9999 BKN026 20/14 Q1022=,SBGR,2022-06-04 17:00:00
1654365600000,METAR SBGR 041800Z 13007KT 9999 BKN030 19/14 Q1022=,SBGR,2022-06-04 18:00:00
1654369200000,METAR COR SBGR 041900Z 12007KT 9999 BKN030 19/14 Q1022=,SBGR,2022-06-04 19:00:00
1654372800000,METAR SBGR 042000Z 13008KT 9999 FEW015 BKN030 17/14 Q1022=,SBGR,2022-06-04 20:00:00
1654376400000,METAR SBGR 042100Z 13007KT 9999 FEW011 BKN025 16/13 Q1023=,SBGR,2022-06-04 21:00:00
1654377000000,SPECI SBGR 042110Z 13007KT 9999 BKN012 16/13 Q1023=,SBGR,2022-06-04 21:10:00
1654380000000,METAR SBGR 042200Z 14005KT 9999 OVC010 15/13 Q1023=,SBGR,2022-06-04 22:00:00
1654383600000,METAR SBGR 042300Z 13006KT 9999 OVC010 15/13 Q1023=,SBGR,2022-06-04 23:00:00
1654300800000,METAR SBKP 040000Z 15009KT 9999 FEW045 16/13 Q1022=,SBKP,2022-06-04 00:00:00
1654304400000,METAR SBKP 040100Z 13007KT 9999 FEW020 15/13 Q1022=,SBKP,2022-06-04 01:00:00
1654308000000,METAR SBKP 040200Z 15010KT 9999 BKN020 17/13 Q1022=,SBKP,2022-06-04 02:00:00
1654311600000,METAR SBKP 040300Z 15008KT 9999 SCT030 17/13 Q1022=,SBKP,2022-06-04 03:00:00
1654315200000,METAR SBKP 040400Z 15011KT 9999 BKN023 17/13 Q1022=,SBKP,2022-06-04 04:00:00
1654318800000,METAR SBKP 040500Z 13009KT 9999 SCT030 15/13 Q1022=,SBKP,2022-06-04 05:00:00
1654322400000,METAR SBKP 040600Z 15009KT 9999 FEW023 15/13 Q1022=,SBKP,2022-06-04 06:00:00
1654326000000,METAR SBKP 040700Z 16008KT 9999 FEW023 15/13 Q1022=,SBKP,2022-06-04 07:00:00
1654329600000,METAR SBKP 040800Z 15011KT 9999 FEW023 15/13 Q1021=,SBKP,2022-06-04 08:00:00
1654333200000,METAR SBKP 040900Z 14005KT 9999 FEW020 15/13 Q1022=,SBKP,2022-06-04 09:00:00
1654336800000,METAR SBKP 041000Z 13005KT 9999 FEW023 14/13 Q1022=,SBKP,2022-06-04 10:00:00
1654340400000,METAR SBKP 041100Z 13008KT 9999 FEW023 15/13 Q1023=,SBKP,2022-06-04 11:00:00
1654344000000,METAR SBKP 041200Z 12011KT 9999 FEW015 18/14 Q1024=,SBKP,2022-06-04 12:00:00
1654347600000,METAR SBKP 041300Z 12015KT 9999 FEW020 19/13 Q1023=,SBKP,2022-06-04 13:00:00
1654351200000,METAR SBKP 041400Z 12011KT 090V150 9999 FEW025 21/13 Q1023=,SBKP,2022-06-04 14:00:00
1654354800000,METAR SBKP 041500Z 13011KT 9999 FEW030 21/13 Q1022=,SBKP,2022-06-04 15:00:00
1654358400000,METAR SBKP 041600Z 12007KT 070V160 9999 FEW030 23/12 Q1021=,SBKP,2022-06-04 16:00:00
1654362000000,METAR SBKP 041700Z 12007KT 040V160 CAVOK 23/13 Q1021=,SBKP,2022-06-04 17:00:00
1654365600000,METAR SBKP 041800Z 14007KT 110V180 9999 FEW030 23/13 Q1020=,SBKP,2022-06-04 18:00:00
1654369200000,METAR SBKP 041900Z 15010KT 9999 FEW030 23/13 Q1020=,SBKP,2022-06-04 19:00:00
1654372800000,METAR SBKP 042000Z 15012KT 9999 FEW030 22/13 Q1020=,SBKP,2022-06-04 20:00:00
1654376400000,METAR SBKP 042100Z 14012KT 9999 FEW025 19/13 Q1020=,SBKP,2022-06-04 21:00:00
1654380000000,METAR SBKP 042200Z 13014KT CAVOK 17/14 Q1021=,SBKP,2022-06-04 22:00:00
1654383600000,METAR SBKP 042300Z 13015KT CAVOK 17/13 Q1021=,SBKP,2022-06-04 23:00:00
1654300800000,METAR SBPA 040000Z 10004KT 9999 BKN040 12/11 Q1025=,SBPA,2022-06-04 00:00:00
1654304400000,METAR SBPA 040100Z 08003KT 9000 NSC 11/10 Q1025=,SBPA,2022-06-04 01:00:00
1654306200000,SPECI SBPA 040130Z 08003KT 6000 BKN011 10/10 Q1025=,SBPA,2022-06-04 01:30:00
1654308000000,METAR SBPA 040200Z 10003KT 7000 OVC010 11/10 Q1025=,SBPA,2022-06-04 02:00:00
1654311600000,METAR SBPA 040300Z 10006KT 8000 OVC006 12/11 Q1025=,SBPA,2022-06-04 03:00:00
1654315200000,METAR SBPA 040400Z 11004KT 8000 OVC005 11/11 Q1024=,SBPA,2022-06-04 04:00:00
1654318800000,METAR SBPA 040500Z 12004KT 5000 BR FEW002 OVC005 11/11 Q1024=,SBPA,2022-06-04 05:00:00
1654322400000,METAR SBPA 040600Z 11005KT 5000 BR FEW002 OVC005 11/11 Q1023=,SBPA,2022-06-04 06:00:00
1654326000000,METAR SBPA 040700Z 07005KT 5000 BR SCT002 OVC005 10/10 Q1023=,SBPA,2022-06-04 07:00:00
1654326240000,SPECI SBPA 040704Z 07005KT 2000 BR OVC002 10/10 Q1023=,SBPA,2022-06-04 07:04:00
1654326720000,SPECI SBPA 040712Z 06004KT 0300 R29///// R11/1100 FG VV002 10/10 Q1023=,SBPA,2022-06-04 07:12:00
1654329600000,METAR SBPA 040800Z 05004KT 0400 R29///// R11/1100 FG VV002 09/09 Q1023=,SBPA,2022-06-04 08:00:00
1654333200000,METAR SBPA 040900Z 09004KT 0500 R29///// R11/1400 FG VV003 08/08 Q1023=,SBPA,2022-06-04 09:00:00
1654335240000,SPECI SBPA 040934Z 00000KT 2000 BR BCFG SCT004 08/08 Q1023=,SBPA,2022-06-04 09:34:00
1654335840000,SPECI SBPA 040944Z 00000KT 5000 BR BCFG FEW005 08/08 Q1023=,SBPA,2022-06-04 09:44:00
1654336800000,METAR SBPA 041000Z 00000KT 9000 NSC 08/08 Q1023=,SBPA,2022-06-04 10:00:00
1654340400000,METAR SBPA 041100Z 06003KT 020V090 5000 BR BCFG FEW005 09/09 Q1023=,SBPA,2022-06-04 11:00:00
1654344000000,METAR SBPA 041200Z 05004KT 9999 FEW002 11/11 Q1024=,SBPA,2022-06-04 12:00:00
1654347600000,METAR SBPA 041300Z 08006KT 9999 FEW002 13/11 Q1024=,SBPA,2022-06-04 13:00:00
1654351200000,METAR SBPA 041400Z 09008KT 9999 FEW010 16/11 Q1023=,SBPA,2022-06-04 14:00:00
1654354800000,METAR SBPA 041500Z 09009KT 9999 FEW030 18/11 Q1022=,SBPA,2022-06-04 15:00:00
1654358400000,METAR SBPA 041600Z 11008KT 080V140 9999 FEW040 19/12 Q1021=,SBPA,2022-06-04 16:00:00
1654362000000,METAR SBPA 041700Z 09008KT 060V130 9999 SCT049 20/11 Q1020=,SBPA,2022-06-04 17:00:00
1654365600000,METAR SBPA 041800Z 11009KT 080V140 9999 SCT049 20/12 Q1019=,SBPA,2022-06-04 18:00:00
1654369200000,METAR SBPA 041900Z 12008KT 9999 FEW049 20/12 Q1019=,SBPA,2022-06-04 19:00:00
1654372800000,METAR SBPA 042000Z 11010KT 080V140 9999 FEW049 18/12 Q1019=,SBPA,2022-06-04 20:00:00
1654376400000,METAR SBPA 042100Z 11008KT 9999 FEW025 17/13 Q1019=,SBPA,2022-06-04 21:00:00
1654380000000,METAR SBPA 042200Z 10007KT CAVOK 16/13 Q1019=,SBPA,2022-06-04 22:00:00
1654383600000,METAR SBPA 042300Z 11008KT CAVOK 16/13 Q1019=,SBPA,2022-06-04 23:00:00
1654300800000,METAR SBRF 040000Z 25002KT 9999 SCT020 BKN050 25/23 Q1013=,SBRF,2022-06-04 00:00:00
1654304400000,METAR SBRF 040100Z 24002KT 9999 FEW020 BKN080 25/23 Q1013=,SBRF,2022-06-04 01:00:00
1654308000000,METAR SBRF 040200Z 20005KT 5000 -RA BR SCT010 SCT020 BKN080 25/24 Q1013=,SBRF,2022-06-04 02:00:00
1654311600000,METAR SBRF 040300Z 17004KT 8000 VCSH BKN007 BKN020 BKN080 24/24 Q1013=,SBRF,2022-06-04 03:00:00
1654315200000,METAR SBRF 040400Z 20004KT 5000 -RA FEW007 SCT018 OVC050 24/23 Q1013=,SBRF,2022-06-04 04:00:00
1654318800000,METAR SBRF 040500Z 15003KT 5000 -RA FEW005 OVC050 23/23 Q1012=,SBRF,2022-06-04 05:00:00
1654322400000,METAR SBRF 040600Z VRB02KT 8000 VCSH FEW005 BKN060 23/23 Q1012=,SBRF,2022-06-04 06:00:00
1654326000000,METAR SBRF 040700Z 23002KT 9999 FEW008 BKN100 23/23 Q1012=,SBRF,2022-06-04 07:00:00
1654329600000,METAR SBRF 040800Z 25003KT 9999 FEW022 BKN100 23/23 Q1012=,SBRF,2022-06-04 08:00:00
1654333200000,METAR SBRF 040900Z 00000KT 9999 FEW022 BKN100 23/23 Q1012=,SBRF,2022-06-04 09:00:00
1654336800000,METAR SBRF 041000Z VRB02KT 9999 FEW022 SCT050 BKN080 24/23 Q1013=,SBRF,2022-06-04 10:00:00
1654340400000,METAR SBRF 041100Z 19006KT 160V220 9999 FEW020 BKN043 BKN080 25/23 Q1014=,SBRF,2022-06-04 11:00:00
1654344000000,METAR SBRF 041200Z 19006KT 160V230 9999 FEW010 SCT020 BKN036 26/23 Q1014=,SBRF,2022-06-04 12:00:00
1654347600000,METAR SBRF 041300Z 19008KT 160V220 9999 VCSH SCT010 BKN018 BKN036 26/23 Q1014=,SBRF,2022-06-04 13:00:00
1654350240000,SPECI SBRF 041344Z 18008KT 3000 -RA BR BKN007 BKN018 OVC033 25/24 Q1014=,SBRF,2022-06-04 13:44:00
1654351200000,METAR SBRF 041400Z 18008KT 150V210 3000 RA BR BKN007 BKN018 OVC033 25/24 Q1014=,SBRF,2022-06-04 14:00:00
1654353240000,SPECI SBRF 041434Z 17008KT 150V210 2000 R36///// R18/1600N RA BR BKN003 BKN018 OVC033 23/23 Q1014=,SBRF,2022-06-04 14:34:00
1654354800000,METAR COR SBRF 041500Z 18006KT 150V210 2000 R36///// R18/1800N RA BR BKN003 BKN018 OVC033 24/23 Q1014=,SBRF,2022-06-04 15:00:00
1654356240000,SPECI SBRF 041524Z 21004KT 180V240 3000 -RA BR BKN005 BKN018 OVC033 24/23 Q1013 RERA=,SBRF,2022-06-04 15:24:00
1654357260000,SPECI COR SBRF 041541Z 22004KT 170V260 5000 BR SCT008 BKN018 OVC033 24/24 Q1013 RERA=,SBRF,2022-06-04 15:41:00
1654358400000,METAR SBRF 041600Z 21004KT 190V250 7000 SCT007 BKN018 OVC033 24/23 Q1013 RERA=,SBRF,2022-06-04 16:00:00
1654362000000,METAR SBRF 041700Z 27004KT 200V290 9999 FEW009 SCT019 BKN033 24/23 Q1013=,SBRF,2022-06-04 17:00:00
1654365600000,METAR SBRF 041800Z VRB02KT 9999 FEW010 BKN050 25/23 Q1013=,SBRF,2022-06-04 18:00:00
1654369200000,METAR SBRF 041900Z 23004KT 190V250 9999 FEW012 BKN060 25/23 Q1013=,SBRF,2022-06-04 19:00:00
1654372800000,METAR SBRF 042000Z 14004KT 110V170 9999 FEW010 BKN018 25/23 Q1013=,SBRF,2022-06-04 20:00:00
1654376400000,METAR SBRF 042100Z 18008KT 9999 VCSH FEW009 SCT018 24/23 Q1013=,SBRF,2022-06-04 21:00:00
1654380000000,METAR SBRF 042200Z 19004KT 160V220 9999 FEW010 SCT060 24/23 Q1013=,SBRF,2022-06-04 22:00:00
1654383600000,METAR SBRF 042300Z 00000KT 9999 FEW018 23/23 Q1013=,SBRF,2022-06-04 23:00:00
1654300800000,METAR SBRJ 040000Z 17011KT 4000 -RA BR BKN012 OVC030 20/18 Q1020 RERA=,SBRJ,2022-06-04 00:00:00
1654304400000,METAR SBRJ 040100Z 14005KT 9000 -RA SCT012 OVC030 20/19 Q1020=,SBRJ,2022-06-04 01:00:00
1654308000000,METAR SBRJ 040200Z 21005KT 9999 SCT012 OVC040 20/19 Q1020=,SBRJ,2022-06-04 02:00:00
1654332600000,SPECI SBRJ 040850Z VRB02KT 6000 -RA BKN010 OVC025 19/18 Q1021=,SBRJ,2022-06-04 08:50:00
1654333200000,METAR SBRJ 040900Z VRB02KT 6000 -RA FEW008 BKN010 OVC025 19/18 Q1021=,SBRJ,2022-06-04 09:00:00
1654335600000,SPECI SBRJ 040940Z 16010KT 140V200 4500 -RA BR FEW007 BKN010 OVC025 19/18 Q1023 RERA=,SBRJ,2022-06-04 09:40:00
1654336800000,METAR SBRJ 041000Z VRB02KT 8000 BKN010 BKN025 OVC050 19/18 Q1021=,SBRJ,2022-06-04 10:00:00
1654340400000,METAR SBRJ 041100Z 05004KT 8000 -RA BKN010 BKN025 OVC040 19/18 Q1022=,SBRJ,2022-06-04 11:00:00
1654344000000,METAR SBRJ 041200Z 01004KT 340V040 9000 BKN010 BKN025 BKN050 20/19 Q1023=,SBRJ,2022-06-04 12:00:00
1654345740000,SPECI SBRJ 041229Z VRB06KT 4500 +RA BR FEW007 BKN010 OVC025 19/17 Q1023=,SBRJ,2022-06-04 12:29:00
1654346400000,SPECI COR SBRJ 041240Z 16010KT 140V200 4500 -RA BR FEW007 BKN010 OVC025 19/18 Q1023 RERA=,SBRJ,2022-06-04 12:40:00
1654347600000,METAR SBRJ 041300Z 15008KT 4500 -RA BR FEW007 BKN010 OVC025 19/18 Q1023 RERA=,SBRJ,2022-06-04 13:00:00
1654351200000,METAR SBRJ 041400Z 17008KT 5000 -RA BR BKN010 OVC025 19/18 Q1023=,SBRJ,2022-06-04 14:00:00
1654354800000,METAR SBRJ 041500Z 12005KT 090V150 8000 BKN012 OVC030 20/17 Q1022=,SBRJ,2022-06-04 15:00:00
1654358400000,METAR SBRJ 041600Z 11004KT 8000 BKN012 OVC030 21/16 Q1022=,SBRJ,2022-06-04 16:00:00
1654362000000,METAR SBRJ 041700Z 12009KT 090V150 9999 SCT013 OVC030 21/17 Q1021=,SBRJ,2022-06-04 17:00:00
1654365600000,METAR SBRJ 041800Z 11006KT 9999 SCT013 OVC040 21/16 Q1021=,SBRJ,2022-06-04 18:00:00
1654369200000,METAR SBRJ 041900Z 13009KT 9999 FEW013 SCT030 OVC045 21/16 Q1021=,SBRJ,2022-06-04 19:00:00
1654372800000,METAR SBRJ 042000Z 12009KT 9999 SCT030 OVC045 21/16 Q1021=,SBRJ,2022-06-04 20:00:00
1654376400000,METAR SBRJ 042100Z 12007KT 9999 FEW030 OVC045 21/15 Q1021=,SBRJ,2022-06-04 21:00:00
1654380000000,METAR SBRJ 042200Z 11006KT 9999 FEW030 OVC045 21/14 Q1022=,SBRJ,2022-06-04 22:00:00
1654383600000,METAR SBRJ 042300Z 10005KT 9999 FEW030 OVC045 21/14 Q1022=,SBRJ,2022-06-04 23:00:00
1654300800000,METAR SBSP 040000Z 15007KT 6000 BKN006 OVC021 14/13 Q1024=,SBSP,2022-06-04 00:00:00
1654302120000,SPECI SBSP 040022Z 15007KT 4000 -DZ BR SCT003 BKN006 OVC011 14/13 Q1024=,SBSP,2022-06-04 00:22:00
1654304400000,METAR SBSP 040100Z 15007KT 3000 -DZ BR SCT003 BKN005 OVC011 14/13 Q1024=,SBSP,2022-06-04 01:00:00
1654308000000,METAR SBSP 040200Z 15007KT 5000 BR SCT003 BKN005 OVC019 14/13 Q1024=,SBSP,2022-06-04 02:00:00
1654308060000,SPECI SBSP 040201Z 15007KT 6000 FEW002 BKN004 OVC014 14/13 Q1024=,SBSP,2022-06-04 02:01:00
1654308420000,SPECI SBSP 040207Z AUTO 15007KT 4700 -RA BR SCT003 BKN008 OVC012 14/13 Q1024=,SBSP,2022-06-04 02:07:00
1654308720000,SPECI SBSP 040212Z AUTO 15008KT 4100 -RA BR BKN003 OVC010 14/13 Q1024=,SBSP,2022-06-04 02:12:00
1654308960000,SPECI SBSP 040216Z AUTO 16009KT 4100 -RA BR BKN003 BKN006 OVC010 14/13 Q1024=,SBSP,2022-06-04 02:16:00
1654310100000,SPECI SBSP 040235Z AUTO 16010KT 7000 -RA BKN004 OVC010 14/13 Q1024=,SBSP,2022-06-04 02:35:00
1654310280000,SPECI SBSP 040238Z AUTO 16010KT 7000 -RA BKN004 OVC006 14/13 Q1024=,SBSP,2022-06-04 02:38:00
1654310400000,SPECI SBSP 040240Z AUTO 16010KT 7000 -RA BKN003 BKN005 OVC009 14/13 Q1024=,SBSP,2022-06-04 02:40:00
1654311060000,SPECI SBSP 040251Z AUTO 15008KT 8000 OVC004 14/13 Q1024=,SBSP,2022-06-04 02:51:00
1654311600000,METAR SBSP 040300Z AUTO 15008KT 9000 OVC004 14/13 Q1024=,SBSP,2022-06-04 03:00:00
1654312620000,SPECI SBSP 040317Z AUTO 14008KT 9999 SCT003 OVC005 14/13 Q1024=,SBSP,2022-06-04 03:17:00
1654313700000,SPECI SBSP 040335Z AUTO 16010KT 9999 OVC004 14/13 Q1024=,SBSP,2022-06-04 03:35:00
1654314360000,SPECI SBSP 040346Z AUTO 15009KT 9999 OVC005 14/13 Q1024=,SBSP,2022-06-04 03:46:00
1654314540000,SPECI SBSP 040349Z AUTO 15009KT 9999 OVC004 14/13 Q1024=,SBSP,2022-06-04 03:49:00
1654315200000,METAR SBSP 040400Z AUTO 16009KT 9000 OVC004 13/12 Q1024=,SBSP,2022-06-04 04:00:00
1654317060000,SPECI SBSP 040431Z AUTO 15008KT 9999 SCT003 OVC005 13/12 Q1024=,SBSP,2022-06-04 04:31:00
1654317600000,SPECI SBSP 040440Z AUTO 14008KT 9999 OVC004 14/13 Q1024=,SBSP,2022-06-04 04:40:00
1654318560000,SPECI SBSP 040456Z AUTO 14006KT 110V170 9999 OVC005 13/12 Q1024=,SBSP,2022-06-04 04:56:00
1654318800000,METAR SBSP 040500Z AUTO 14006KT 110V170 9999 OVC005 13/12 Q1024=,SBSP,2022-06-04 05:00:00
1654322400000,METAR SBSP 040600Z AUTO 15008KT 7000 SCT003 OVC006 13/12 Q1024=,SBSP,2022-06-04 06:00:00
1654322460000,SPECI SBSP 040601Z AUTO 15009KT 6000 SCT003 BKN005 OVC010 13/12 Q1024=,SBSP,2022-06-04 06:01:00
1654322520000,SPECI SBSP 040602Z AUTO 15009KT 7000 SCT003 BKN005 OVC008 13/12 Q1024=,SBSP,2022-06-04 06:02:00
1654323360000,SPECI SBSP 040616Z AUTO 15010KT 9999 OVC004 13/12 Q1023=,SBSP,2022-06-04 06:16:00
1654324920000,SPECI SBSP 040642Z AUTO 15008KT 9999 SCT004 BKN006 OVC030 13/12 Q1023=,SBSP,2022-06-04 06:42:00
1654326000000,METAR SBSP 040700Z AUTO 15008KT 9999 SCT005 BKN007 OVC030 13/12 Q1023=,SBSP,2022-06-04 07:00:00
1654327740000,SPECI SBSP 040729Z AUTO 13006KT 090V160 9999 SCT006 BKN027 OVC042 13/12 Q1023=,SBSP,2022-06-04 07:29:00
1654328880000,SPECI SBSP 040748Z AUTO 13006KT 9999 BKN005 BKN028 OVC045 13/12 Q1023=,SBSP,2022-06-04 07:48:00
1654329600000,METAR SBSP 040800Z AUTO 14007KT 9999 SCT005 BKN007 OVC045 13/12 Q1023=,SBSP,2022-06-04 08:00:00
1654333200000,METAR SBSP 040900Z 13006KT 9999 BKN006 14/13 Q1024=,SBSP,2022-06-04 09:00:00
1654336800000,METAR SBSP 041000Z 15006KT 9999 SCT006 OVC008 14/13 Q1024=,SBSP,2022-06-04 10:00:00
1654340400000,METAR SBSP 041100Z 13009KT 9999 SCT004 OVC007 14/12 Q1025=,SBSP,2022-06-04 11:00:00
1654344000000,METAR SBSP 041200Z 13007KT 9999 BKN005 OVC009 14/13 Q1026=,SBSP,2022-06-04 12:00:00
1654347600000,METAR SBSP 041300Z 15008KT 9999 SCT007 OVC010 14/13 Q1026=,SBSP,2022-06-04 13:00:00
1654349640000,SPECI SBSP 041334Z 14008KT 8000 -DZ BKN010 OVC020 15/13 Q1026=,SBSP,2022-06-04 13:34:00
1654351200000,METAR SBSP 041400Z 13007KT 9999 -DZ BKN010 BKN018 15/13 Q1026=,SBSP,2022-06-04 14:00:00
1654354800000,METAR SBSP 041500Z 15007KT 9999 BKN010 OVC015 17/13 Q1025=,SBSP,2022-06-04 15:00:00
1654358400000,METAR SBSP 041600Z 16010KT 9999 SCT011 BKN015 17/13 Q1024=,SBSP,2022-06-04 16:00:00
1654362000000,METAR SBSP 041700Z 17012KT 9999 BKN015 18/13 Q1023=,SBSP,2022-06-04 17:00:00
1654365600000,METAR SBSP 041800Z 16012KT 9999 SCT011 BKN014 16/13 Q1023=,SBSP,2022-06-04 18:00:00
1654369200000,METAR SBSP 041900Z 16010KT 9999 SCT009 BKN013 16/13 Q1023=,SBSP,2022-06-04 19:00:00
1654372800000,METAR SBSP 042000Z 15010KT 9999 SCT007 BKN014 15/13 Q1023=,SBSP,2022-06-04 20:00:00
1654376400000,METAR SBSP 042100Z 15012KT 9999 SCT006 BKN009 14/12 Q1023=,SBSP,2022-06-04 21:00:00
1654380000000,METAR SBSP 042200Z 14009KT 9999 SCT006 BKN009 14/11 Q1023=,SBSP,2022-06-04 22:00:00
1654383600000,METAR SBSP 042300Z 13008KT 9999 SCT008 BKN011 14/12 Q1024=,SBSP,2022-06-04 23:00:00
1654300800000,METAR SBSV 040000Z 16009KT 9999 FEW023 27/21 Q1014=,SBSV,2022-06-04 00:00:00
1654304400000,METAR SBSV 040100Z 15009KT 9999 FEW023 27/21 Q1015=,SBSV,2022-06-04 01:00:00
1654308000000,METAR SBSV 040200Z 16009KT 140V200 9999 SCT023 27/20 Q1015=,SBSV,2022-06-04 02:00:00
1654311600000,METAR SBSV 040300Z 16009KT 9999 SCT023 27/20 Q1015=,SBSV,2022-06-04 03:00:00
1654315200000,METAR SBSV 040400Z 17009KT 9999 SCT023 27/21 Q1014=,SBSV,2022-06-04 04:00:00
1654318800000,METAR SBSV 040500Z 17010KT 9999 SCT023 27/21 Q1014=,SBSV,2022-06-04 05:00:00
1654322400000,METAR SBSV 040600Z 17010KT 9999 SCT023 27/21 Q1014=,SBSV,2022-06-04 06:00:00
1654326000000,METAR SBSV 040700Z 16011KT 9999 SCT023 27/20 Q1014=,SBSV,2022-06-04 07:00:00
1654329600000,METAR SBSV 040800Z 16011KT 9999 SCT020 27/21 Q1014=,SBSV,2022-06-04 08:00:00
1654333200000,METAR SBSV 040900Z 16012KT 9999 SCT023 27/21 Q1014=,SBSV,2022-06-04 09:00:00
1654336800000,METAR SBSV 041000Z 17006KT 130V210 9999 VCSH SCT023 FEW026TCU 27/23 Q1015=,SBSV,2022-06-04 10:00:00
1654340400000,METAR SBSV 041100Z 16014KT 9999 SCT023 SCT033 28/21 Q1016=,SBSV,2022-06-04 11:00:00
1654344000000,METAR SBSV 041200Z 16013KT 9999 SCT023 29/21 Q1016=,SBSV,2022-06-04 12:00:00
1654347600000,METAR SBSV 041300Z 16013KT 9999 SCT023 29/21 Q1016=,SBSV,2022-06-04 13:00:00
1654351200000,METAR SBSV 041400Z 16013KT 9999 SCT023 29/21 Q1016=,SBSV,2022-06-04 14:00:00
1654354800000,METAR SBSV 041500Z 16013KT 9999 SCT023 30/22 Q1015=,SBSV,2022-06-04 15:00:00
1654358400000,METAR SBSV 041600Z 16012KT 130V200 9999 SCT023 30/21 Q1015=,SBSV,2022-06-04 16:00:00
1654362000000,METAR SBSV 041700Z 16012KT 9999 SCT023 30/22 Q1015=,SBSV,2022-06-04 17:00:00
1654365600000,METAR SBSV 041800Z 17011KT 140V210 9999 SCT025 30/21 Q1015=,SBSV,2022-06-04 18:00:00
1654369200000,METAR SBSV 041900Z 16011KT 9999 SCT025 29/21 Q1015=,SBSV,2022-06-04 19:00:00
1654372800000,METAR SBSV 042000Z 17010KT 9999 SCT025 28/21 Q1015=,SBSV,2022-06-04 20:00:00
1654376400000,METAR SBSV 042100Z 16009KT 9999 SCT025 28/22 Q1015=,SBSV,2022-06-04 21:00:00
1654380000000,METAR SBSV 042200Z 14009KT 100V170 9999 SCT025 BKN050 26/22 Q1015=,SBSV,2022-06-04 22:00:00
1654383600000,METAR SBSV 042300Z 15014KT 9000 VCSH FEW010 SCT025 BKN050 27/23 Q1015=,SBSV,2022-06-04 23:00:00
1654387200000,METAR SBBR 050000Z 12008KT CAVOK 21/13 Q1021=,SBBR,2022-06-05 00:00:00
1654390800000,METAR SBBR 050100Z 11006KT 070V130 CAVOK 20/13 Q1021=,SBBR,2022-06-05 01:00:00
1654394400000,METAR SBBR 050200Z 03002KT CAVOK 18/13 Q1021=,SBBR,2022-06-05 02:00:00
1654398000000,METAR SBBR 050300Z 23002KT CAVOK 18/13 Q1021=,SBBR,2022-06-05 03:00:00
1654401600000,METAR SBBR 050400Z 25001KT CAVOK 17/13 Q1021=,SBBR,2022-06-05 04:00:00
1654405200000,METAR SBBR 050500Z 31001KT CAVOK 15/13 Q1020=,SBBR,2022-06-05 05:00:00
1654408800000,METAR SBBR 050600Z 07001KT CAVOK 15/13 Q1020=,SBBR,2022-06-05 06:00:00
1654412400000,METAR SBBR 050700Z 11006KT CAVOK 18/14 Q1020=,SBBR,2022-06-05 07:00:00
1654416000000,METAR SBBR 050800Z 07003KT CAVOK 16/14 Q1021=,SBBR,2022-06-05 08:00:00
1654419600000,METAR SBBR 050900Z 07004KT 9999 BKN030 16/14 Q1021=,SBBR,2022-06-05 09:00:00
1654423200000,METAR SBBR 051000Z 12005KT 9999 BKN040 17/14 Q1022=,SBBR,2022-06-05 10:00:00
1654426800000,METAR SBBR 051100Z 10008KT 9999 BKN040 17/15 Q1023=,SBBR,2022-06-05 11:00:00
1654430400000,METAR SBBR 051200Z 09011KT 9999 SCT015 SCT040 19/15 Q1024=,SBBR,2022-06-05 12:00:00
1654434000000,METAR SBBR 051300Z 08012KT 9999 SCT020 SCT040 21/14 Q1024=,SBBR,2022-06-05 13:00:00
1654437600000,METAR SBBR 051400Z 07012KT 040V100 9999 SCT023 22/14 Q1024=,SBBR,2022-06-05 14:00:00
1654441200000,METAR SBBR 051500Z 06012KT 9999 SCT033 23/14 Q1023=,SBBR,2022-06-05 15:00:00
1654444800000,METAR SBBR 051600Z 08011KT 9999 BKN040 24/13 Q1022=,SBBR,2022-06-05 16:00:00
1654448400000,METAR SBBR 051700Z 10013KT 030V130 9999 BKN045 25/12 Q1021=,SBBR,2022-06-05 17:00:00
1654452000000,METAR SBBR 051800Z 08010KT 9999 BKN045 25/12 Q1020=,SBBR,2022-06-05 18:00:00
1654455600000,METAR SBBR 051900Z 10011KT 9999 BKN045 24/12 Q1020=,SBBR,2022-06-05 19:00:00
1654459200000,METAR SBBR 052000Z 11009KT 9999 SCT045 24/13 Q1020=,SBBR,2022-06-05 20:00:00
1654462800000,METAR SBBR 052100Z 12007KT 9999 SCT045 23/13 Q1020=,SBBR,2022-06-05 21:00:00
1654466400000,METAR SBBR 052200Z 12009KT CAVOK 21/13 Q1021=,SBBR,2022-06-05 22:00:00
1654470000000,METAR SBBR 052300Z 12009KT CAVOK 20/13 Q1021=,SBBR,2022-06-05 23:00:00
1654387200000,METAR SBCF 050000Z 12008KT CAVOK 17/13 Q1023=,SBCF,2022-06-05 00:00:00
1654390800000,METAR SBCF 050100Z 12007KT CAVOK 17/13 Q1023=,SBCF,2022-06-05 01:00:00
1654394400000,METAR SBCF 050200Z 13004KT CAVOK 16/13 Q1023=,SBCF,2022-06-05 02:00:00
1654398000000,METAR SBCF 050300Z 13004KT CAVOK 15/13 Q1022=,SBCF,2022-06-05 03:00:00
1654401600000,METAR SBCF 050400Z 13006KT CAVOK 15/12 Q1022=,SBCF,2022-06-05 04:00:00
1654405200000,METAR SBCF 050500Z 13005KT CAVOK 15/12 Q1022=,SBCF,2022-06-05 05:00:00
1654408800000,METAR SBCF 050600Z 12006KT CAVOK 14/12 Q1022=,SBCF,2022-06-05 06:00:00
1654412400000,METAR SBCF 050700Z 12005KT CAVOK 14/12 Q1022=,SBCF,2022-06-05 07:00:00
1654416000000,METAR SBCF 050800Z 12007KT CAVOK 14/12 Q1022=,SBCF,2022-06-05 08:00:00
1654419600000,METAR SBCF 050900Z 12008KT CAVOK 13/11 Q1022=,SBCF,2022-06-05 09:00:00
1654423200000,METAR SBCF 051000Z 13007KT CAVOK 13/11 Q1023=,SBCF,2022-06-05 10:00:00
1654426800000,METAR SBCF 051100Z 12008KT CAVOK 14/11 Q1024=,SBCF,2022-06-05 11:00:00
1654430400000,METAR SBCF 051200Z 13007KT CAVOK 16/12 Q1025=,SBCF,2022-06-05 12:00:00
1654434000000,METAR SBCF 051300Z 11010KT CAVOK 19/11 Q1025=,SBCF,2022-06-05 13:00:00
1654437600000,METAR SBCF 051400Z 07010KT CAVOK 20/10 Q1024=,SBCF,2022-06-05 14:00:00
1654441200000,METAR SBCF 051500Z 07008KT 9999 FEW040 21/10 Q1023=,SBCF,2022-06-05 15:00:00
1654444800000,METAR SBCF 051600Z 11007KT 9999 FEW040 22/11 Q1022=,SBCF,2022-06-05 16:00:00
1654448400000,METAR SBCF 051700Z 13007KT 070V180 9999 FEW040 22/10 Q1022=,SBCF,2022-06-05 17:00:00
1654452000000,METAR SBCF 051800Z VRB04KT 9999 FEW040 23/10 Q1021=,SBCF,2022-06-05 18:00:00
1654455600000,METAR SBCF 051900Z 14006KT 120V180 9999 FEW040 23/10 Q1021=,SBCF,2022-06-05 19:00:00
1654459200000,METAR SBCF 052000Z 10004KT CAVOK 22/10 Q1021=,SBCF,2022-06-05 20:00:00
1654462800000,METAR SBCF 052100Z 07007KT CAVOK 21/10 Q1021=,SBCF,2022-06-05 21:00:00
1654466400000,METAR SBCF 052200Z 08009KT CAVOK 19/10 Q1021=,SBCF,2022-06-05 22:00:00
1654470000000,METAR SBCF 052300Z 08009KT CAVOK 19/10 Q1022=,SBCF,2022-06-05 23:00:00
1654387200000,METAR SBCT 050000Z 06006KT 9999 OVC006 12/12 Q1025=,SBCT,2022-06-05 00:00:00
1654390800000,METAR SBCT 050100Z 07004KT 9999 OVC009 12/12 Q1025=,SBCT,2022-06-05 01:00:00
1654394400000,METAR SBCT 050200Z 08004KT 9999 OVC009 12/12 Q1025=,SBCT,2022-06-05 02:00:00
1654398000000,METAR SBCT 050300Z 06005KT 9999 OVC009 12/12 Q1025=,SBCT,2022-06-05 03:00:00
1654401600000,METAR SBCT 050400Z 07009KT 9999 OVC008 12/12 Q1024=,SBCT,2022-06-05 04:00:00
1654405200000,METAR SBCT 050500Z 07007KT 9999 OVC007 12/12 Q1023=,SBCT,2022-06-05 05:00:00
1654408800000,METAR SBCT 050600Z 34003KT 9999 OVC007 12/12 Q1024=,SBCT,2022-06-05 06:00:00
1654412400000,METAR SBCT 050700Z 34003KT 9999 OVC007 12/12 Q1023=,SBCT,2022-06-05 07:00:00
1654416000000,METAR SBCT 050800Z 11002KT 9999 OVC007 12/12 Q1023=,SBCT,2022-06-05 08:00:00
1654419600000,METAR SBCT 050900Z 33001KT 9999 BKN012 12/12 Q1023=,SBCT,2022-06-05 09:00:00
1654423200000,METAR SBCT 051000Z 09003KT 9999 SCT013 SCT090 11/11 Q1023=,SBCT,2022-06-05 10:00:00
1654426800000,METAR SBCT 051100Z 05003KT 020V100 9999 FEW013 13/12 Q1024=,SBCT,2022-06-05 11:00:00
1654430400000,METAR SBCT 051200Z 05006KT 9999 FEW006 BKN009 14/12 Q1024=,SBCT,2022-06-05 12:00:00
1654434000000,METAR SBCT 051300Z 04005KT 360V080 9999 OVC010 14/12 Q1024=,SBCT,2022-06-05 13:00:00
1654437600000,METAR SBCT 051400Z 01006KT 9999 OVC010 15/12 Q1024=,SBCT,2022-06-05 14:00:00
1654441200000,METAR SBCT 051500Z 05005KT 340V110 9999 BKN013 SCT100 16/12 Q1023=,SBCT,2022-06-05 15:00:00
1654444800000,METAR SBCT 051600Z 10005KT 9999 SCT015 BKN080 17/13 Q1022=,SBCT,2022-06-05 16:00:00
1654448400000,METAR SBCT 051700Z 02004KT 340V060 9999 SCT017 18/13 Q1021=,SBCT,2022-06-05 17:00:00
1654452000000,METAR SBCT 051800Z 03004KT 9999 SCT015 BKN070 19/13 Q1021=,SBCT,2022-06-05 18:00:00
1654455600000,METAR SBCT 051900Z 01003KT 9999 SCT010 BKN070 19/13 Q1020=,SBCT,2022-06-05 19:00:00
1654459200000,METAR SBCT 052000Z 12009KT 9999 SCT007 BKN070 16/14 Q1021=,SBCT,2022-06-05 20:00:00
1654462800000,METAR SBCT 052100Z 12007KT 9999 SCT005 SCT050 BKN070 14/14 Q1021=,SBCT,2022-06-05 21:00:00
1654464600000,SPECI SBCT 052130Z 11006KT 9999 BKN004 BKN070 14/14 Q1021=,SBCT,2022-06-05 21:30:00
1654466400000,METAR SBCT 052200Z 13007KT 9999 BKN004 14/14 Q1021=,SBCT,2022-06-05 22:00:00
1654470000000,METAR SBCT 052300Z 08004KT 8000 OVC002 14/14 Q1021=,SBCT,2022-06-05 23:00:00
1654387200000,METAR SBFL 050000Z 33004KT 9999 BKN030 BKN045 17/15 Q1023=,SBFL,2022-06-05 00:00:00
1654390800000,METAR SBFL 050100Z 35006KT 9999 BKN030 BKN045 16/15 Q1023=,SBFL,2022-06-05 01:00:00
1654394400000,METAR SBFL 050200Z 34004KT 9999 BKN012 16/15 Q1023=,SBFL,2022-06-05 02:00:00
1654398000000,METAR SBFL 050300Z 30005KT 9999 BKN012 16/15 Q1023=,SBFL,2022-06-05 03:00:00
1654401600000,METAR SBFL 050400Z 31005KT 9999 BKN012 16/15 Q1023=,SBFL,2022-06-05 04:00:00
1654405200000,METAR SBFL 050500Z 33003KT 9999 BKN007 16/15 Q1022=,SBFL,2022-06-05 05:00:00
1654408800000,METAR SBFL 050600Z 30005KT 9999 BKN007 16/15 Q1022=,SBFL,2022-06-05 06:00:00
1654412400000,METAR SBFL 050700Z 34004KT 9999 BKN007 16/15 Q1021=,SBFL,2022-06-05 07:00:00
1654416000000,METAR SBFL 050800Z 35004KT 9999 SCT010 SCT030 16/16 Q1021=,SBFL,2022-06-05 08:00:00
1654419600000,METAR SBFL 050900Z 36004KT 9999 SCT010 SCT030 16/15 Q1021=,SBFL,2022-06-05 09:00:00
1654423200000,METAR SBFL 051000Z 36006KT 9999 SCT010 BKN030 16/15 Q1021=,SBFL,2022-06-05 10:00:00
1654426800000,METAR SBFL 051100Z 36007KT 9999 SCT010 BKN030 17/15 Q1021=,SBFL,2022-06-05 11:00:00
1654430400000,METAR SBFL 051200Z 35008KT 9999 FEW015 BKN030 17/16 Q1022=,SBFL,2022-06-05 12:00:00
1654434000000,METAR SBFL 051300Z 34010KT 9999 FEW015 BKN030 18/16 Q1021=,SBFL,2022-06-05 13:00:00
1654437600000,METAR SBFL 051400Z 35010KT 9999 FEW020 BKN035 20/16 Q1021=,SBFL,2022-06-05 14:00:00
1654441200000,METAR SBFL 051500Z 33014KT 9999 BKN025 BKN035 19/15 Q1021=,SBFL,2022-06-05 15:00:00
1654442940000,SPECI SBFL 051529Z 30014KT 8000 -TSRA BKN020 BKN030 FEW035CB 19/16 Q1021=,SBFL,2022-06-05 15:29:00
1654444800000,METAR SBFL 051600Z 33011KT 7000 -TSRA BKN020 BKN030 FEW035CB 18/16 Q1021=,SBFL,2022-06-05 16:00:00
1654445640000,SPECI SBFL 051614Z 33010KT 4500 -RA BKN020 BKN030 FEW035TCU 18/16 Q1020 RETS=,SBFL,2022-06-05 16:14:00
1654448400000,METAR SBFL 051700Z 35011KT 4900 -RA SCT020 BKN030 FEW035TCU 18/16 Q1019 RETS=,SBFL,2022-06-05 17:00:00
1654450680000,SPECI SBFL 051738Z 33011KT 9999 FEW010 BKN066 OVC100 18/16 Q1018=,SBFL,2022-06-05 17:38:00
1654452000000,METAR SBFL 051800Z 33011KT 9999 FEW010 BKN060 OVC100 18/16 Q1018=,SBFL,2022-06-05 18:00:00
1654455600000,METAR SBFL 051900Z 33012KT 9999 FEW010 BKN050 OVC100 18/16 Q1018=,SBFL,2022-06-05 19:00:00
1654459200000,METAR SBFL 052000Z 33011KT 8000 -RA FEW010 BKN023 OVC100 18/16 Q1018=,SBFL,2022-06-05 20:00:00
1654461540000,SPECI SBFL 052039Z 33008KT 7000 FEW010 BKN014 OVC023 17/16 Q1018=,SBFL,2022-06-05 20:39:00
1654462800000,METAR SBFL 052100Z 34008KT 9000 FEW010 BKN014 OVC023 18/16 Q1018=,SBFL,2022-06-05 21:00:00
1654466400000,METAR SBFL 052200Z 31009KT 7000 -RA BKN014 OVC023 17/17 Q1019=,SBFL,2022-06-05 22:00:00
1654470000000,METAR SBFL 052300Z 33009KT 7000 -RA FEW006 BKN014 OVC023 17/17 Q1019=,SBFL,2022-06-05 23:00:00
1654387200000,METAR SBGL 050000Z 25002KT 9999 FEW008 SCT040 BKN070 18/16 Q1023=,SBGL,2022-06-05 00:00:00
1654390800000,METAR SBGL 050100Z 00000KT 9999 FEW015 BKN045 BKN070 18/16 Q1023=,SBGL,2022-06-05 01:00:00
1654394400000,METAR SBGL 050200Z 00000KT 9999 FEW015 BKN070 18/16 Q1023=,SBGL,2022-06-05 02:00:00
1654398000000,METAR SBGL 050300Z 19002KT 9999 FEW015 SCT040 BKN070 18/16 Q1023=,SBGL,2022-06-05 03:00:00
1654401600000,METAR COR SBGL 050400Z 12002KT 9999 BKN040 BKN070 18/16 Q1023=,SBGL,2022-06-05 04:00:00
1654405200000,METAR SBGL 050500Z 10003KT 9999 SCT035 BKN070 18/16 Q1022=,SBGL,2022-06-05 05:00:00
1654408800000,METAR SBGL 050600Z 09003KT 9999 FEW035 BKN070 18/16 Q1023=,SBGL,2022-06-05 06:00:00
1654412400000,METAR SBGL 050700Z 09002KT 9999 FEW010 SCT040 BKN070 18/16 Q1022=,SBGL,2022-06-05 07:00:00
1654416000000,METAR SBGL 050800Z 06004KT 9999 FEW020 BKN060 18/16 Q1022=,SBGL,2022-06-05 08:00:00
1654419600000,METAR SBGL 050900Z 36006KT 9999 FEW008 BKN040 BKN070 17/15 Q1022=,SBGL,2022-06-05 09:00:00
1654423200000,METAR SBGL 051000Z 02004KT 9999 FEW009 BKN070 17/15 Q1023=,SBGL,2022-06-05 10:00:00
1654426800000,METAR SBGL 051100Z 06003KT 9999 FEW009 BKN060 19/16 Q1023=,SBGL,2022-06-05 11:00:00
1654430400000,METAR SBGL 051200Z 06005KT 9999 FEW012 SCT060 20/15 Q1023=,SBGL,2022-06-05 12:00:00
1654434000000,METAR SBGL 051300Z 05006KT 9999 FEW020 SCT060 21/16 Q1023=,SBGL,2022-06-05 13:00:00
1654437600000,METAR SBGL 051400Z 05004KT 9999 FEW020 21/16 Q1023=,SBGL,2022-06-05 14:00:00
1654441200000,METAR SBGL 051500Z 03005KT 9999 FEW020 23/17 Q1022=,SBGL,2022-06-05 15:00:00
1654444800000,METAR SBGL 051600Z 04006KT 9999 FEW030 23/15 Q1021=,SBGL,2022-06-05 16:00:00
1654448400000,METAR SBGL 051700Z 12009KT 9999 FEW030 23/15 Q1019=,SBGL,2022-06-05 17:00:00
1654452000000,METAR SBGL 051800Z 12008KT 9999 FEW030 23/15 Q1019=,SBGL,2022-06-05 18:00:00
1654455600000,METAR SBGL 051900Z 13006KT 9999 FEW030 23/15 Q1019=,SBGL,2022-06-05 19:00:00
1654459200000,METAR SBGL 052000Z 13007KT 9999 FEW030 22/15 Q1019=,SBGL,2022-06-05 20:00:00
1654462800000,METAR SBGL 052100Z 11010KT 9999 FEW030 20/15 Q1019=,SBGL,2022-06-05 21:00:00
1654466400000,METAR SBGL 052200Z 10010KT 9999 FEW030 20/14 Q1020=,SBGL,2022-06-05 22:00:00
1654470000000,METAR SBGL 052300Z 10010KT CAVOK 19/13 Q1020=,SBGL,2022-06-05 23:00:00
1654419600000,METAR SBGR 050900Z 07009KT 9999 OVC010 14/13 Q1023=,SBGR,2022-06-05 09:00:00
1654387200000,METAR SBGR 050000Z 13004KT 9999 OVC009 15/13 Q1024=,SBGR,2022-06-05 00:00:00
1654390800000,METAR SBGR 050100Z 13007KT 9999 BKN011 OVC017 15/13 Q1024=,SBGR,2022-06-05 01:00:00
1654394400000,METAR SBGR 050200Z 13005KT 9999 BKN013 OVC017 15/13 Q1024=,SBGR,2022-06-05 02:00:00
1654398000000,METAR SBGR 050300Z 13005KT 9999 BKN009 OVC013 15/13 Q1024=,SBGR,2022-06-05 03:00:00
1654401600000,METAR SBGR 050400Z 12005KT 9999 BKN009 BKN013 15/13 Q1024=,SBGR,2022-06-05 04:00:00
1654405200000,METAR SBGR 050500Z 13005KT 9999 BKN011 15/13 Q1024=,SBGR,2022-06-05 05:00:00
1654408800000,METAR SBGR 050600Z 12007KT 9999 BKN012 15/13 Q1023=,SBGR,2022-06-05 06:00:00
1654412400000,METAR SBGR 050700Z 08009KT 9999 BKN013 14/13 Q1023=,SBGR,2022-06-05 07:00:00
1654416000000,METAR SBGR 050800Z 07011KT 9999 BKN013 14/13 Q1022=,SBGR,2022-06-05 08:00:00
1654423200000,METAR SBGR 051000Z 07010KT 9999 OVC009 14/13 Q1023=,SBGR,2022-06-05 10:00:00
1654426800000,METAR SBGR 051100Z 06013KT 9999 OVC009 14/13 Q1024=,SBGR,2022-06-05 11:00:00
1654430400000,METAR COR SBGR 051200Z 06015KT 9999 BKN010 15/13 Q1024=,SBGR,2022-06-05 12:00:00
1654434000000,METAR SBGR 051300Z 07014KT 9999 BKN015 17/13 Q1024=,SBGR,2022-06-05 13:00:00
1654437600000,METAR SBGR 051400Z 07010KT CAVOK 18/13 Q1023=,SBGR,2022-06-05 14:00:00
1654441200000,METAR SBGR 051500Z 07007KT CAVOK 20/13 Q1022=,SBGR,2022-06-05 15:00:00
1654444800000,METAR SBGR 051600Z 08008KT CAVOK 22/14 Q1021=,SBGR,2022-06-05 16:00:00
1654448400000,METAR SBGR 051700Z 09006KT CAVOK 22/15 Q1020=,SBGR,2022-06-05 17:00:00
1654452000000,METAR SBGR 051800Z 12002KT CAVOK 23/15 Q1020=,SBGR,2022-06-05 18:00:00
1654455600000,METAR SBGR 051900Z 12004KT CAVOK 23/15 Q1020=,SBGR,2022-06-05 19:00:00
1654459200000,METAR SBGR 052000Z 08007KT CAVOK 21/14 Q1020=,SBGR,2022-06-05 20:00:00
1654462800000,METAR COR SBGR 052100Z 08006KT CAVOK 19/15 Q1020=,SBGR,2022-06-05 21:00:00
1654466400000,METAR SBGR 052200Z 08006KT CAVOK 17/15 Q1020=,SBGR,2022-06-05 22:00:00
1654470000000,METAR SBGR 052300Z 14003KT CAVOK 16/15 Q1021=,SBGR,2022-06-05 23:00:00
1654387200000,METAR SBKP 050000Z 13015KT CAVOK 16/13 Q1021=,SBKP,2022-06-05 00:00:00
1654390800000,METAR SBKP 050100Z 13013KT CAVOK 16/13 Q1022=,SBKP,2022-06-05 01:00:00
1654394400000,METAR SBKP 050200Z 13012KT 9999 FEW020 16/13 Q1022=,SBKP,2022-06-05 02:00:00
1654398000000,METAR SBKP 050300Z 13014KT CAVOK 16/13 Q1022=,SBKP,2022-06-05 03:00:00
1654401600000,METAR SBKP 050400Z 13013KT CAVOK 16/13 Q1022=,SBKP,2022-06-05 04:00:00
1654405200000,METAR SBKP 050500Z 12013KT CAVOK 16/13 Q1021=,SBKP,2022-06-05 05:00:00
1654408800000,METAR SBKP 050600Z 11013KT CAVOK 16/13 Q1021=,SBKP,2022-06-05 06:00:00
1654412400000,METAR SBKP 050700Z 12013KT CAVOK 15/13 Q1020=,SBKP,2022-06-05 07:00:00
1654416000000,METAR SBKP 050800Z 12011KT CAVOK 15/12 Q1020=,SBKP,2022-06-05 08:00:00
1654419600000,METAR SBKP 050900Z 11009KT CAVOK 14/12 Q1021=,SBKP,2022-06-05 09:00:00
1654423200000,METAR SBKP 051000Z 11008KT CAVOK 14/12 Q1021=,SBKP,2022-06-05 10:00:00
1654426800000,METAR SBKP 051100Z 11008KT CAVOK 15/12 Q1022=,SBKP,2022-06-05 11:00:00
1654430400000,METAR SBKP 051200Z 10006KT CAVOK 16/13 Q1022=,SBKP,2022-06-05 12:00:00
1654434000000,METAR SBKP 051300Z 14003KT CAVOK 19/13 Q1023=,SBKP,2022-06-05 13:00:00
1654437600000,METAR SBKP 051400Z 12003KT CAVOK 21/13 Q1022=,SBKP,2022-06-05 14:00:00
1654441200000,METAR SBKP 051500Z 33005KT CAVOK 23/13 Q1022=,SBKP,2022-06-05 15:00:00
1654444800000,METAR SBKP 051600Z 01005KT CAVOK 23/13 Q1020=,SBKP,2022-06-05 16:00:00
1654448400000,METAR SBKP 051700Z 34006KT CAVOK 25/12 Q1019=,SBKP,2022-06-05 17:00:00
1654452000000,METAR SBKP 051800Z 29005KT 9999 FEW030 25/13 Q1019=,SBKP,2022-06-05 18:00:00
1654455600000,METAR SBKP 051900Z VRB02KT 9999 FEW030 25/13 Q1019=,SBKP,2022-06-05 19:00:00
1654459200000,METAR SBKP 052000Z 31003KT CAVOK 25/14 Q1019=,SBKP,2022-06-05 20:00:00
1654462800000,METAR SBKP 052100Z 21004KT 160V270 CAVOK 23/13 Q1019=,SBKP,2022-06-05 21:00:00
1654466400000,METAR SBKP 052200Z 17004KT CAVOK 22/14 Q1019=,SBKP,2022-06-05 22:00:00
1654470000000,METAR SBKP 052300Z 16004KT CAVOK 20/14 Q1019=,SBKP,2022-06-05 23:00:00
1654387200000,METAR SBPA 050000Z 09007KT CAVOK 15/12 Q1019=,SBPA,2022-06-05 00:00:00
1654390800000,METAR SBPA 050100Z 09007KT CAVOK 15/13 Q1019=,SBPA,2022-06-05 01:00:00
1654394400000,METAR SBPA 050200Z 09006KT CAVOK 15/13 Q1019=,SBPA,2022-06-05 02:00:00
1654398000000,METAR SBPA 050300Z 10006KT CAVOK 15/13 Q1019=,SBPA,2022-06-05 03:00:00
1654401600000,METAR SBPA 050400Z 11002KT CAVOK 15/12 Q1019=,SBPA,2022-06-05 04:00:00
1654405200000,METAR SBPA 050500Z 11003KT 080V150 CAVOK 15/12 Q1019=,SBPA,2022-06-05 05:00:00
1654408800000,METAR SBPA 050600Z 09004KT CAVOK 15/13 Q1018=,SBPA,2022-06-05 06:00:00
1654412400000,METAR SBPA 050700Z 08003KT CAVOK 14/12 Q1018=,SBPA,2022-06-05 07:00:00
1654416000000,METAR SBPA 050800Z 10004KT CAVOK 14/13 Q1017=,SBPA,2022-06-05 08:00:00
1654419600000,METAR SBPA 050900Z VRB02KT CAVOK 15/12 Q1017=,SBPA,2022-06-05 09:00:00
1654423200000,METAR SBPA 051000Z 15002KT 9999 FEW040TCU SCT070 14/12 Q1018=,SBPA,2022-06-05 10:00:00
1654426800000,METAR SBPA 051100Z VRB01KT 9999 FEW040TCU BKN065 15/13 Q1018=,SBPA,2022-06-05 11:00:00
1654430400000,METAR SBPA 051200Z VRB02KT 9999 FEW040TCU BKN070 15/13 Q1018=,SBPA,2022-06-05 12:00:00
1654434000000,METAR SBPA 051300Z 09003KT 9999 FEW040TCU BKN070 16/14 Q1018=,SBPA,2022-06-05 13:00:00
1654437600000,METAR SBPA 051400Z VRB01KT 9999 FEW025 FEW040TCU BKN070 17/14 Q1018=,SBPA,2022-06-05 14:00:00
1654439880000,SPECI SBPA 051438Z 30003KT 260V340 9999 TS FEW025 FEW035CB BKN070 17/15 Q1018=,SBPA,2022-06-05 14:38:00
1654441200000,METAR SBPA 051500Z 30004KT 220V340 9999 -TSRA FEW025 FEW035CB BKN050 17/15 Q1017=,SBPA,2022-06-05 15:00:00
1654441800000,SPECI SBPA 051510Z 33003KT 4000 -TSRA BR SCT020 FEW035CB BKN050 17/15 Q1017=,SBPA,2022-06-05 15:10:00
1654444800000,METAR SBPA 051600Z VRB01KT 4000 -TSRA BR BKN020 FEW035CB OVC050 17/15 Q1017=,SBPA,2022-06-05 16:00:00
1654445400000,SPECI SBPA 051610Z VRB02KT 6000 TS BKN019 FEW035CB OVC050 17/16 Q1017=,SBPA,2022-06-05 16:10:00
1654448400000,METAR SBPA 051700Z 34003KT 310V020 8000 VCSH VCTS BKN015 FEW035CB OVC050 17/16 Q1016 RETS=,SBPA,2022-06-05 17:00:00
1654452000000,METAR COR SBPA 051800Z 31004G14KT 270V340 8000 VCSH FEW006 BKN017 FEW035TCU OVC050 17/16 Q1016=,SBPA,2022-06-05 18:00:00
1654455600000,METAR SBPA 051900Z 34004KT 200V010 5000 -RADZ BR FEW005 BKN013 OVC045 17/16 Q1016=,SBPA,2022-06-05 19:00:00
1654456800000,SPECI SBPA 051920Z VRB01KT 5000 -RADZ BR BKN004 OVC045 17/16 Q1015=,SBPA,2022-06-05 19:20:00
1654459200000,METAR SBPA 052000Z VRB02KT 8000 VCSH FEW004 BKN011 OVC060 17/16 Q1015=,SBPA,2022-06-05 20:00:00
1654462800000,METAR SBPA 052100Z 33003KT 300V030 9000 VCSH FEW008 BKN020 OVC045 17/16 Q1015=,SBPA,2022-06-05 21:00:00
1654466400000,METAR SBPA 052200Z VRB01KT 9000 FEW008 BKN030 BKN090 17/16 Q1015=,SBPA,2022-06-05 22:00:00
1654470000000,METAR SBPA 052300Z 10002KT 8000 -RA FEW008 BKN030 OVC080 17/16 Q1015=,SBPA,2022-06-05 23:00:00
1654387200000,METAR SBRF 050000Z 17003KT 9999 FEW025 23/22 Q1014=,SBRF,2022-06-05 00:00:00
1654390800000,METAR SBRF 050100Z 14001KT 9999 FEW025 23/22 Q1014=,SBRF,2022-06-05 01:00:00
1654394400000,METAR SBRF 050200Z 20002KT 9999 FEW025 SCT100 23/22 Q1013=,SBRF,2022-06-05 02:00:00
1654398000000,METAR SBRF 050300Z 00000KT 8000 VCSH SCT025 OVC100 23/22 Q1013=,SBRF,2022-06-05 03:00:00
1654401600000,METAR SBRF 050400Z 19008KT 5000 -RA SCT010 BKN020 BKN050 23/22 Q1013=,SBRF,2022-06-05 04:00:00
1654405200000,METAR SBRF 050500Z 21005KT 9999 VCSH BKN025 BKN080 23/22 Q1013=,SBRF,2022-06-05 05:00:00
1654408800000,METAR SBRF 050600Z 20008KT 9999 VCSH BKN025 BKN050 23/22 Q1012=,SBRF,2022-06-05 06:00:00
1654412400000,METAR SBRF 050700Z 21005KT 9999 VCSH FEW025 SCT100 23/22 Q1012=,SBRF,2022-06-05 07:00:00
1654416000000,METAR SBRF 050800Z 20006KT 160V220 5000 -RA SCT005 BKN015 OVC022 23/23 Q1013=,SBRF,2022-06-05 08:00:00
1654419600000,METAR SBRF 050900Z 19003KT 150V280 9999 FEW008 BKN017 BKN025 23/23 Q1013=,SBRF,2022-06-05 09:00:00
1654423200000,METAR SBRF 051000Z 21006KT 180V240 9999 FEW010 BKN050 24/23 Q1014=,SBRF,2022-06-05 10:00:00
1654426800000,METAR SBRF 051100Z 21006KT 180V240 9999 FEW012 BKN060 25/23 Q1014=,SBRF,2022-06-05 11:00:00
1654430400000,METAR SBRF 051200Z 20006KT 170V230 9999 SCT019 BKN070 27/24 Q1014=,SBRF,2022-06-05 12:00:00
1654434000000,METAR SBRF 051300Z 18010KT 150V210 9999 FEW019 BKN080 28/22 Q1014=,SBRF,2022-06-05 13:00:00
1654437600000,METAR SBRF 051400Z 18012KT 9999 SCT021 29/23 Q1014=,SBRF,2022-06-05 14:00:00
1654441200000,METAR SBRF 051500Z 17014KT 140V200 9999 BKN023 29/22 Q1013=,SBRF,2022-06-05 15:00:00
1654444800000,METAR SBRF 051600Z 15014KT 9999 FEW025 29/22 Q1013=,SBRF,2022-06-05 16:00:00
1654448400000,METAR SBRF 051700Z 17014KT 9999 SCT023 28/22 Q1012=,SBRF,2022-06-05 17:00:00
1654452000000,METAR SBRF 051800Z 16013KT 9999 SCT023 28/22 Q1012=,SBRF,2022-06-05 18:00:00
1654455600000,METAR SBRF 051900Z 16013KT 9999 FEW023 28/21 Q1012=,SBRF,2022-06-05 19:00:00
1654459200000,METAR SBRF 052000Z 18010KT 9999 FEW023 27/21 Q1012=,SBRF,2022-06-05 20:00:00
1654462800000,METAR SBRF 052100Z 19006KT 9999 FEW025 26/22 Q1013=,SBRF,2022-06-05 21:00:00
1654466400000,METAR SBRF 052200Z 19006KT 9999 FEW025 26/22 Q1013=,SBRF,2022-06-05 22:00:00
1654470000000,METAR SBRF 052300Z 19005KT 9999 FEW025 25/22 Q1014=,SBRF,2022-06-05 23:00:00
1654387200000,METAR SBRJ 050000Z 04005KT 9999 SCT030 BKN070 20/17 Q1023=,SBRJ,2022-06-05 00:00:00
1654390800000,METAR SBRJ 050100Z 05005KT 9999 FEW030 BKN070 20/17 Q1023=,SBRJ,2022-06-05 01:00:00
1654394400000,METAR SBRJ 050200Z 05006KT 9999 FEW040 BKN070 19/17 Q1023=,SBRJ,2022-06-05 02:00:00
1654419000000,SPECI SBRJ 050850Z 05005KT 9999 SCT030 BKN070 19/16 Q1022=,SBRJ,2022-06-05 08:50:00
1654419600000,METAR SBRJ 050900Z 04006KT 9999 SCT030 BKN070 19/16 Q1022=,SBRJ,2022-06-05 09:00:00
1654423200000,METAR SBRJ 051000Z 01005KT 340V040 9999 FEW015 SCT020 BKN036 19/16 Q1022=,SBRJ,2022-06-05 10:00:00
1654426800000,METAR SBRJ 051100Z 03006KT 9999 FEW015 SCT020 BKN036 18/16 Q1023=,SBRJ,2022-06-05 11:00:00
1654430400000,METAR SBRJ 051200Z 35004KT 300V010 9999 FEW020 SCT070 19/17 Q1023=,SBRJ,2022-06-05 12:00:00
1654434000000,METAR SBRJ 051300Z 32004KT 9999 FEW020 SCT070 20/16 Q1023=,SBRJ,2022-06-05 13:00:00
1654437600000,METAR SBRJ 051400Z 34006KT 9999 FEW030 22/17 Q1023=,SBRJ,2022-06-05 14:00:00
1654441200000,METAR SBRJ 051500Z 34004KT 290V010 9999 SCT030 21/16 Q1022=,SBRJ,2022-06-05 15:00:00
1654444800000,METAR SBRJ 051600Z 15005KT 120V210 9999 SCT030 22/16 Q1020=,SBRJ,2022-06-05 16:00:00
1654448400000,METAR SBRJ 051700Z 15008KT 9999 FEW030 23/16 Q1019=,SBRJ,2022-06-05 17:00:00
1654452000000,METAR SBRJ 051800Z 13009KT 9999 FEW030 23/16 Q1019=,SBRJ,2022-06-05 18:00:00
1654455600000,METAR SBRJ 051900Z 14010KT 9999 FEW030 22/16 Q1019=,SBRJ,2022-06-05 19:00:00
1654459200000,METAR SBRJ 052000Z 11011KT 9999 FEW030 22/16 Q1019=,SBRJ,2022-06-05 20:00:00
1654462800000,METAR SBRJ 052100Z 10009KT 9999 FEW040 21/16 Q1019=,SBRJ,2022-06-05 21:00:00
1654466400000,METAR SBRJ 052200Z 08007KT CAVOK 21/15 Q1019=,SBRJ,2022-06-05 22:00:00
1654470000000,METAR SBRJ 052300Z 09010KT CAVOK 20/14 Q1020=,SBRJ,2022-06-05 23:00:00
1654466400000,METAR SBSP 052200Z 20007KT 8000 NSC 16/14 Q1021=,SBSP,2022-06-05 22:00:00
1654387200000,METAR SBSP 050000Z 14007KT 9999 SCT006 BKN009 14/12 Q1024=,SBSP,2022-06-05 00:00:00
1654390800000,METAR SBSP 050100Z 13006KT 9999 SCT008 BKN009 14/12 Q1024=,SBSP,2022-06-05 01:00:00
1654394400000,METAR SBSP 050200Z 12007KT 9999 SCT007 BKN009 14/12 Q1024=,SBSP,2022-06-05 02:00:00
1654394460000,SPECI SBSP 050201Z 12007KT 9999 SCT007 OVC009 14/12 Q1024=,SBSP,2022-06-05 02:01:00
1654396200000,SPECI SBSP 050230Z AUTO 13006KT 9999 SCT008 OVC010 14/12 Q1024=,SBSP,2022-06-05 02:30:00
1654396260000,SPECI SBSP 050231Z AUTO 13006KT 9999 OVC009 14/12 Q1024=,SBSP,2022-06-05 02:31:00
1654397160000,SPECI SBSP 050246Z AUTO 14007KT 9999 OVC010 14/12 Q1024=,SBSP,2022-06-05 02:46:00
1654397220000,SPECI SBSP 050247Z AUTO 14007KT 9999 OVC009 14/12 Q1024=,SBSP,2022-06-05 02:47:00
1654398000000,METAR SBSP 050300Z AUTO 13006KT 9999 OVC009 14/12 Q1024=,SBSP,2022-06-05 03:00:00
1654399500000,SPECI SBSP 050325Z AUTO 13006KT 9999 SCT009 OVC011 14/12 Q1024=,SBSP,2022-06-05 03:25:00
1654399680000,SPECI SBSP 050328Z AUTO 14006KT 9999 OVC009 14/12 Q1024=,SBSP,2022-06-05 03:28:00
1654401600000,METAR SBSP 050400Z AUTO 15007KT 9999 OVC008 14/12 Q1024=,SBSP,2022-06-05 04:00:00
1654402380000,SPECI SBSP 050413Z AUTO 13005KT 100V160 9999 SCT004 OVC010 14/12 Q1024=,SBSP,2022-06-05 04:13:00
1654402980000,SPECI SBSP 050423Z AUTO 15007KT 9999 SCT004 BKN009 OVC011 14/12 Q1024=,SBSP,2022-06-05 04:23:00
1654405200000,METAR SBSP 050500Z AUTO 12005KT 9999 FEW005 BKN007 OVC011 14/12 Q1024=,SBSP,2022-06-05 05:00:00
1654405320000,SPECI SBSP 050502Z AUTO 13006KT 9999 FEW005 BKN007 OVC009 14/12 Q1024=,SBSP,2022-06-05 05:02:00
1654406160000,SPECI SBSP 050516Z AUTO 15007KT 9999 BKN006 BKN013 OVC024 14/12 Q1024=,SBSP,2022-06-05 05:16:00
1654406760000,SPECI SBSP 050526Z AUTO 16006KT 9999 SCT004 BKN006 OVC025 14/12 Q1024=,SBSP,2022-06-05 05:26:00
1654408800000,METAR SBSP 050600Z AUTO 11007KT 9999 SCT003 OVC007 14/12 Q1023=,SBSP,2022-06-05 06:00:00
1654412400000,METAR SBSP 050700Z AUTO 09007KT 050V120 9999 SCT004 BKN008 BKN011 14/12 Q1023=,SBSP,2022-06-05 07:00:00
1654413120000,SPECI SBSP 050712Z AUTO 09007KT 030V120 9999 SCT008 BKN010 13/11 Q1023=,SBSP,2022-06-05 07:12:00
1654414320000,SPECI SBSP 050732Z AUTO 10005KT 060V130 9999 SCT007 OVC009 13/11 Q1023=,SBSP,2022-06-05 07:32:00
1654416000000,METAR SBSP 050800Z AUTO 08005KT 040V130 9999 SCT007 OVC009 13/12 Q1023=,SBSP,2022-06-05 08:00:00
1654418160000,SPECI SBSP 050836Z AUTO 08005KT 040V110 9999 SCT008 OVC010 13/11 Q1023=,SBSP,2022-06-05 08:36:00
1654418820000,SPECI SBSP 050847Z AUTO 08006KT 050V110 9999 OVC009 14/11 Q1023=,SBSP,2022-06-05 08:47:00
1654419600000,METAR SBSP 050900Z 06005KT 020V100 9999 FEW009 BKN011 14/11 Q1023=,SBSP,2022-06-05 09:00:00
1654423200000,METAR SBSP 051000Z 07008KT 040V100 9999 BKN009 13/11 Q1024=,SBSP,2022-06-05 10:00:00
1654426800000,METAR SBSP 051100Z 08007KT 040V110 9999 FEW008 BKN009 13/11 Q1024=,SBSP,2022-06-05 11:00:00
1654430400000,METAR SBSP 051200Z 05009KT 9999 FEW009 BKN011 14/11 Q1025=,SBSP,2022-06-05 12:00:00
1654434000000,METAR SBSP 051300Z 08005KT 030V110 9999 SCT009 SCT013 16/12 Q1024=,SBSP,2022-06-05 13:00:00
1654437600000,METAR SBSP 051400Z 08007KT 030V110 CAVOK 17/12 Q1024=,SBSP,2022-06-05 14:00:00
1654441200000,METAR SBSP 051500Z 07005KT 040V130 CAVOK 19/12 Q1023=,SBSP,2022-06-05 15:00:00
1654444800000,METAR SBSP 051600Z 08005KT CAVOK 21/13 Q1022=,SBSP,2022-06-05 16:00:00
1654448400000,METAR SBSP 051700Z VRB01KT CAVOK 22/13 Q1021=,SBSP,2022-06-05 17:00:00
1654452000000,METAR SBSP 051800Z 32004KT 290V350 CAVOK 22/13 Q1021=,SBSP,2022-06-05 18:00:00
1654455600000,METAR SBSP 051900Z VRB02KT CAVOK 23/12 Q1021=,SBSP,2022-06-05 19:00:00
1654459200000,METAR SBSP 052000Z 09004KT 350V160 CAVOK 21/14 Q1021=,SBSP,2022-06-05 20:00:00
1654462800000,METAR SBSP 052100Z 20007KT 160V240 CAVOK 18/14 Q1021=,SBSP,2022-06-05 21:00:00
1654467540000,SPECI SBSP 052219Z 20006KT 5000 BR FEW002 BKN005 15/14 Q1022=,SBSP,2022-06-05 22:19:00
1654468260000,SPECI SBSP 052231Z 18008KT 140V210 2500 BR FEW002 BKN004 15/14 Q1022=,SBSP,2022-06-05 22:31:00
1654470000000,METAR SBSP 052300Z 15005KT 1500 R17/P2000N R35/P2000N BR SCT002 BKN004 15/14 Q1022=,SBSP,2022-06-05 23:00:00
1654387200000,METAR SBSV 050000Z 16018KT 9999 BKN015 FEW025TCU BKN050 26/23 Q1016=,SBSV,2022-06-05 00:00:00
1654387620000,SPECI SBSV 050007Z 15019G29KT 2000 +RA BKN010 FEW025TCU BKN050 25/23 Q1016=,SBSV,2022-06-05 00:07:00
1654389900000,SPECI SBSV 050045Z 14015KT 5000 -RA SCT010 BKN015 FEW025TCU 25/23 Q1016 RERA=,SBSV,2022-06-05 00:45:00
1654390800000,METAR SBSV 050100Z 15017KT 8000 VCSH SCT010 BKN015 FEW025TCU 26/22 Q1016 RERA=,SBSV,2022-06-05 01:00:00
1654394400000,METAR SBSV 050200Z 15023KT 9999 SCT010 BKN018 FEW025TCU 25/22 Q1016=,SBSV,2022-06-05 02:00:00
1654398000000,METAR SBSV 050300Z 14012KT 9999 BKN018 FEW025TCU BKN060 26/22 Q1015=,SBSV,2022-06-05 03:00:00
1654401600000,METAR SBSV 050400Z 15020G30KT 5000 -RA BR SCT010 OVC018 24/22 Q1015=,SBSV,2022-06-05 04:00:00
1654405200000,METAR SBSV 050500Z 14018G29KT 5000 -SHRA SCT010 OVC018 25/22 Q1015=,SBSV,2022-06-05 05:00:00
1654408800000,METAR SBSV 050600Z 15016G28KT 5000 -SHRA SCT008 OVC015 26/22 Q1014=,SBSV,2022-06-05 06:00:00
1654412400000,METAR SBSV 050700Z 15020G32KT 8000 VCSH SCT008 OVC015 26/21 Q1014=,SBSV,2022-06-05 07:00:00
1654416000000,METAR SBSV 050800Z 16018KT 9999 SCT015 BKN060 26/20 Q1015=,SBSV,2022-06-05 08:00:00
1654419600000,METAR SBSV 050900Z 15021KT 9999 VCSH SCT020 FEW025TCU BKN060 27/20 Q1015=,SBSV,2022-06-05 09:00:00
1654420680000,SPECI SBSV 050918Z 16021G38KT 8000 VCSH SCT020 FEW025TCU BKN060 27/18 Q1015 WS R10=,SBSV,2022-06-05 09:18:00
1654423200000,METAR SBSV 051000Z 16018G29KT 8000 VCSH SCT020 FEW023TCU BKN060 27/18 Q1016 WS R10=,SBSV,2022-06-05 10:00:00
1654426800000,METAR SBSV 051100Z 16021G31KT 9999 VCSH SCT020 FEW023TCU BKN060 27/20 Q1017 WS R10=,SBSV,2022-06-05 11:00:00
1654430400000,METAR SBSV 051200Z 16019KT 9999 SCT020 FEW023TCU BKN053 28/18 Q1018=,SBSV,2022-06-05 12:00:00
1654434000000,METAR SBSV 051300Z 15019G31KT 7000 -RA SCT020 FEW023TCU BKN033 BKN060 26/20 Q1018=,SBSV,2022-06-05 13:00:00
1654437600000,METAR SBSV 051400Z 17015KT 140V210 7000 -RA SCT020 FEW023TCU BKN033 BKN060 26/19 Q1018=,SBSV,2022-06-05 14:00:00
1654441200000,METAR SBSV 051500Z 16018G29KT 9999 SCT020 FEW023TCU BKN060 27/18 Q1017=,SBSV,2022-06-05 15:00:00
1654444800000,METAR SBSV 051600Z 17018KT 9999 SCT020 FEW023TCU BKN070 28/18 Q1017=,SBSV,2022-06-05 16:00:00
1654446720000,SPECI SBSV 051632Z 17021G32KT 9999 VCSH SCT020 FEW023TCU BKN070 27/19 Q1016=,SBSV,2022-06-05 16:32:00
1654448400000,METAR SBSV 051700Z 17017G27KT 8000 VCSH SCT020 FEW023TCU BKN050 BKN070 29/19 Q1016=,SBSV,2022-06-05 17:00:00
1654452000000,METAR SBSV 051800Z 16013KT 9999 VCSH SCT020 FEW023TCU BKN050 BKN070 27/19 Q1016=,SBSV,2022-06-05 18:00:00
1654455600000,METAR SBSV 051900Z 16015KT 9999 SCT020 FEW023TCU BKN050 BKN070 27/17 Q1016=,SBSV,2022-06-05 19:00:00
1654459200000,METAR SBSV 052000Z 16016KT 9999 VCSH SCT020 FEW023TCU BKN050 BKN070 27/18 Q1016=,SBSV,2022-06-05 20:00:00
1654462800000,METAR SBSV 052100Z 17015KT 9999 SCT020 BKN070 27/19 Q1016=,SBSV,2022-06-05 21:00:00
1654466400000,METAR SBSV 052200Z 14011KT 9999 SCT020 BKN070 25/19 Q1017=,SBSV,2022-06-05 22:00:00
1654470000000,METAR SBSV 052300Z 15012KT 9999 SCT020 BKN070 26/20 Q1017=,SBSV,2022-06-05 23:00:00
1654473600000,METAR SBBR 060000Z 12008KT CAVOK 19/13 Q1022=,SBBR,2022-06-06 00:00:00
1654477200000,METAR SBBR 060100Z 11006KT CAVOK 18/12 Q1022=,SBBR,2022-06-06 01:00:00
1654480800000,METAR SBBR 060200Z 10004KT CAVOK 18/12 Q1022=,SBBR,2022-06-06 02:00:00
1654484400000,METAR SBBR 060300Z 11004KT CAVOK 17/12 Q1021=,SBBR,2022-06-06 03:00:00
1654488000000,METAR SBBR 060400Z 12003KT CAVOK 17/12 Q1021=,SBBR,2022-06-06 04:00:00
1654491600000,METAR SBBR 060500Z 25001KT CAVOK 14/12 Q1021=,SBBR,2022-06-06 05:00:00
1654495200000,METAR SBBR 060600Z 03001KT CAVOK 13/11 Q1020=,SBBR,2022-06-06 06:00:00
1654498800000,METAR SBBR 060700Z 09004KT CAVOK 15/12 Q1020=,SBBR,2022-06-06 07:00:00
1654502400000,METAR SBBR 060800Z 12003KT CAVOK 15/11 Q1021=,SBBR,2022-06-06 08:00:00
1654506000000,METAR SBBR 060900Z 11005KT CAVOK 14/11 Q1021=,SBBR,2022-06-06 09:00:00
1654509600000,METAR SBBR 061000Z VRB01KT CAVOK 13/11 Q1021=,SBBR,2022-06-06 10:00:00
1654513200000,METAR SBBR 061100Z 09003KT 060V130 CAVOK 16/11 Q1022=,SBBR,2022-06-06 11:00:00
1654516800000,METAR SBBR 061200Z 08009KT 030V100 CAVOK 18/11 Q1022=,SBBR,2022-06-06 12:00:00
1654520400000,METAR SBBR 061300Z 08010KT 050V110 CAVOK 20/11 Q1022=,SBBR,2022-06-06 13:00:00
1654524000000,METAR SBBR 061400Z 08009KT 040V110 CAVOK 22/11 Q1021=,SBBR,2022-06-06 14:00:00
1654527600000,METAR SBBR 061500Z 08008KT 030V120 CAVOK 23/11 Q1021=,SBBR,2022-06-06 15:00:00
1654531200000,METAR SBBR 061600Z VRB07KT CAVOK 24/11 Q1020=,SBBR,2022-06-06 16:00:00
1654534800000,METAR SBBR 061700Z 11007KT 070V140 CAVOK 25/11 Q1019=,SBBR,2022-06-06 17:00:00
1654538400000,METAR SBBR 061800Z 05007KT 020V110 CAVOK 25/10 Q1018=,SBBR,2022-06-06 18:00:00
1654542000000,METAR SBBR 061900Z 06008KT 030V100 CAVOK 26/10 Q1018=,SBBR,2022-06-06 19:00:00
1654545600000,METAR SBBR 062000Z 05007KT CAVOK 25/10 Q1018=,SBBR,2022-06-06 20:00:00
1654549200000,METAR SBBR 062100Z 08006KT CAVOK 24/11 Q1019=,SBBR,2022-06-06 21:00:00
1654552800000,METAR SBBR 062200Z 12008KT CAVOK 21/12 Q1019=,SBBR,2022-06-06 22:00:00
1654556400000,METAR SBBR 062300Z 10004KT CAVOK 20/12 Q1020=,SBBR,2022-06-06 23:00:00
1654473600000,METAR SBCF 060000Z 09008KT CAVOK 18/10 Q1022=,SBCF,2022-06-06 00:00:00
1654477200000,METAR SBCF 060100Z 10008KT CAVOK 17/11 Q1022=,SBCF,2022-06-06 01:00:00
1654480800000,METAR SBCF 060200Z 14002KT CAVOK 16/11 Q1022=,SBCF,2022-06-06 02:00:00
1654484400000,METAR SBCF 060300Z 12002KT CAVOK 15/11 Q1022=,SBCF,2022-06-06 03:00:00
1654488000000,METAR SBCF 060400Z 20002KT CAVOK 14/11 Q1022=,SBCF,2022-06-06 04:00:00
1654491600000,METAR SBCF 060500Z 11002KT CAVOK 14/11 Q1021=,SBCF,2022-06-06 05:00:00
1654495200000,METAR SBCF 060600Z 11004KT CAVOK 14/11 Q1021=,SBCF,2022-06-06 06:00:00
1654498800000,METAR SBCF 060700Z 12004KT CAVOK 12/10 Q1021=,SBCF,2022-06-06 07:00:00
1654502400000,METAR SBCF 060800Z 12003KT CAVOK 12/10 Q1021=,SBCF,2022-06-06 08:00:00
1654506000000,METAR SBCF 060900Z 12003KT CAVOK 11/10 Q1021=,SBCF,2022-06-06 09:00:00
1654509600000,METAR SBCF 061000Z 13003KT CAVOK 12/10 Q1022=,SBCF,2022-06-06 10:00:00
1654513200000,METAR SBCF 061100Z 13004KT CAVOK 13/10 Q1022=,SBCF,2022-06-06 11:00:00
1654516800000,METAR SBCF 061200Z 11004KT 060V190 CAVOK 16/11 Q1023=,SBCF,2022-06-06 12:00:00
1654520400000,METAR SBCF 061300Z 03009KT 350V060 CAVOK 17/10 Q1022=,SBCF,2022-06-06 13:00:00
1654524000000,METAR SBCF 061400Z 06007KT 010V110 CAVOK 20/10 Q1022=,SBCF,2022-06-06 14:00:00
1654527600000,METAR SBCF 061500Z 09004KT 010V170 CAVOK 21/10 Q1021=,SBCF,2022-06-06 15:00:00
1654531200000,METAR SBCF 061600Z VRB05KT CAVOK 22/09 Q1020=,SBCF,2022-06-06 16:00:00
1654534800000,METAR SBCF 061700Z 09005KT CAVOK 22/07 Q1019=,SBCF,2022-06-06 17:00:00
1654538400000,METAR SBCF 061800Z 07005KT CAVOK 23/08 Q1019=,SBCF,2022-06-06 18:00:00
1654542000000,METAR SBCF 061900Z 05005KT CAVOK 23/09 Q1018=,SBCF,2022-06-06 19:00:00
1654545600000,METAR SBCF 062000Z 06004KT CAVOK 22/09 Q1019=,SBCF,2022-06-06 20:00:00
1654549200000,METAR SBCF 062100Z 10009KT CAVOK 20/10 Q1019=,SBCF,2022-06-06 21:00:00
1654552800000,METAR SBCF 062200Z 10008KT CAVOK 19/10 Q1020=,SBCF,2022-06-06 22:00:00
1654556400000,METAR SBCF 062300Z 09002KT CAVOK 17/10 Q1020=,SBCF,2022-06-06 23:00:00
1654473600000,METAR SBCT 060000Z 09003KT 5000 BR SCT001 OVC003 14/14 Q1022=,SBCT,2022-06-06 00:00:00
1654477200000,METAR SBCT 060100Z 04004KT 4500 BR OVC003 14/14 Q1021=,SBCT,2022-06-06 01:00:00
1654480800000,METAR SBCT 060200Z 02005KT 4500 BR OVC002 14/14 Q1021=,SBCT,2022-06-06 02:00:00
1654484400000,METAR SBCT 060300Z 03006KT 9000 OVC003 14/14 Q1020=,SBCT,2022-06-06 03:00:00
1654488000000,METAR SBCT 060400Z 04004KT 3000 BR OVC002 14/14 Q1020=,SBCT,2022-06-06 04:00:00
1654491600000,METAR SBCT 060500Z 07003KT 3000 0900NE BCFG OVC002 13/13 Q1020=,SBCT,2022-06-06 05:00:00
1654495200000,METAR SBCT 060600Z 05003KT 0900 R15/1300 R33/2000 FG VV002 13/13 Q1019=,SBCT,2022-06-06 06:00:00
1654498800000,METAR SBCT 060700Z 35004KT 0550 R33/0700 R15/1200 FG VV002 13/13 Q1018=,SBCT,2022-06-06 07:00:00
1654502400000,METAR SBCT 060800Z 34003KT 0700 R15/1700 R33/1700 FG VV002 13/13 Q1019=,SBCT,2022-06-06 08:00:00
1654506000000,METAR SBCT 060900Z 36003KT 1200 R15/2000 R33/2000 BCFG VV002 13/13 Q1019=,SBCT,2022-06-06 09:00:00
1654509600000,METAR SBCT 061000Z 02003KT 1200 R33/1800 R15/2000 BCFG BKN001 OVC005 13/13 Q1018=,SBCT,2022-06-06 10:00:00
1654513200000,METAR SBCT 061100Z 33004KT 290V350 1100 R15/1100 R33/1100 BCFG OVC001 13/13 Q1019=,SBCT,2022-06-06 11:00:00
1654515480000,SPECI SBCT 061138Z 31005KT 6000 OVC003 14/14 Q1019=,SBCT,2022-06-06 11:38:00
1654516800000,METAR SBCT 061200Z 31004KT 250V340 8000 OVC003 14/14 Q1019=,SBCT,2022-06-06 12:00:00
1654520400000,METAR SBCT 061300Z 32006KT 9999 OVC006 15/15 Q1019=,SBCT,2022-06-06 13:00:00
1654524000000,METAR SBCT 061400Z 32006KT 290V350 9999 BKN006 18/15 Q1019=,SBCT,2022-06-06 14:00:00
1654524840000,SPECI SBCT 061414Z 32006KT 290V350 9999 FEW006 18/15 Q1018=,SBCT,2022-06-06 14:14:00
1654527600000,METAR SBCT 061500Z 31006KT 270V350 CAVOK 20/15 Q1018=,SBCT,2022-06-06 15:00:00
1654531200000,METAR SBCT 061600Z 31009KT 290V350 CAVOK 22/15 Q1017=,SBCT,2022-06-06 16:00:00
1654534800000,METAR SBCT 061700Z 31012KT CAVOK 21/15 Q1016=,SBCT,2022-06-06 17:00:00
1654538400000,METAR SBCT 061800Z 32011KT 9999 FEW012 22/16 Q1015=,SBCT,2022-06-06 18:00:00
1654542000000,METAR SBCT 061900Z 32007KT 9999 FEW020 SCT090 22/17 Q1015=,SBCT,2022-06-06 19:00:00
1654545600000,METAR SBCT 062000Z 32006KT CAVOK 21/17 Q1016=,SBCT,2022-06-06 20:00:00
1654549200000,METAR SBCT 062100Z 33008KT 9999 FEW015 SCT090 20/16 Q1016=,SBCT,2022-06-06 21:00:00
1654552020000,SPECI SBCT 062147Z 21012KT 9000 VCTS BKN014 BKN020 FEW035CB 19/16 Q1018=,SBCT,2022-06-06 21:47:00
1654552800000,METAR SBCT 062200Z 20013KT 9999 VCTS BKN012 BKN020 FEW035CB 18/15 Q1018=,SBCT,2022-06-06 22:00:00
1654554000000,SPECI SBCT 062220Z 22014KT 190V250 9000 -TSRA BKN012 BKN020 FEW035CB 17/14 Q1018=,SBCT,2022-06-06 22:20:00
1654556400000,METAR SBCT 062300Z 24005KT 190V270 9000 -RA FEW008 BKN012 BKN025 16/15 Q1018 RETS=,SBCT,2022-06-06 23:00:00
1654557600000,SPECI SBCT 062320Z 24005KT 170V270 6000 -TSRA FEW008 BKN012 BKN025 FEW035CB 16/15 Q1018=,SBCT,2022-06-06 23:20:00
1654473600000,METAR SBFL 060000Z 31008KT 6000 RA OVC007 17/17 Q1019=,SBFL,2022-06-06 00:00:00
1654473900000,SPECI SBFL 060005Z 33008KT 4500 RA BKN007 OVC020 17/17 Q1019=,SBFL,2022-06-06 00:05:00
1654477200000,METAR SBFL 060100Z 34008KT 4900 -RA BKN011 OVC040 17/17 Q1019 RERA=,SBFL,2022-06-06 01:00:00
1654480800000,METAR SBFL 060200Z 33007KT 9999 -RA FEW004 BKN014 OVC050 17/17 Q1018=,SBFL,2022-06-06 02:00:00
1654484400000,METAR SBFL 060300Z 32009KT 9999 -RA SCT006 BKN014 OVC050 17/17 Q1018=,SBFL,2022-06-06 03:00:00
1654484940000,SPECI SBFL 060309Z 31009KT 9999 -RA BKN005 OVC050 17/17 Q1018=,SBFL,2022-06-06 03:09:00
1654488000000,METAR SBFL 060400Z 32009KT 9999 -RA BKN005 OVC050 17/17 Q1017=,SBFL,2022-06-06 04:00:00
1654491600000,METAR SBFL 060500Z 31011KT 9999 BKN007 OVC050 17/17 Q1016=,SBFL,2022-06-06 05:00:00
1654495200000,METAR SBFL 060600Z 32009KT 9999 SCT010 OVC060 18/17 Q1015=,SBFL,2022-06-06 06:00:00
1654498800000,METAR SBFL 060700Z 34008KT 9999 FEW030 BKN090 18/17 Q1015=,SBFL,2022-06-06 07:00:00
1654502400000,METAR SBFL 060800Z 30004KT 9999 SCT030 BKN090 18/17 Q1015=,SBFL,2022-06-06 08:00:00
1654506000000,METAR SBFL 060900Z 08004KT 9999 -RA SCT030 BKN090 18/17 Q1015=,SBFL,2022-06-06 09:00:00
1654509600000,METAR SBFL 061000Z 36007KT 9999 FEW006 BKN020 BKN070 18/17 Q1015=,SBFL,2022-06-06 10:00:00
1654513200000,METAR SBFL 061100Z 33005KT 9999 FEW006 BKN020 BKN070 18/17 Q1015=,SBFL,2022-06-06 11:00:00
1654516800000,METAR SBFL 061200Z 29009KT 9999 FEW008 BKN020 BKN070 18/17 Q1015=,SBFL,2022-06-06 12:00:00
1654520400000,METAR SBFL 061300Z 34008KT 9999 FEW010 BKN020 BKN070 19/17 Q1015=,SBFL,2022-06-06 13:00:00
1654524000000,METAR SBFL 061400Z 35008KT 9999 BKN025 BKN070 19/18 Q1015=,SBFL,2022-06-06 14:00:00
1654527600000,METAR SBFL 061500Z 35008KT 9999 BKN025 BKN080 19/17 Q1014=,SBFL,2022-06-06 15:00:00
1654531200000,METAR SBFL 061600Z 36006KT 330V030 9999 BKN025 BKN080 20/17 Q1014=,SBFL,2022-06-06 16:00:00
1654534800000,METAR SBFL 061700Z 18003KT 160V220 9999 VCSH FEW012 BKN030 BKN080 20/17 Q1013=,SBFL,2022-06-06 17:00:00
1654534860000,SPECI SBFL 061701Z 22003KT 4500 -RA FEW012 BKN030 BKN080 20/18 Q1013=,SBFL,2022-06-06 17:01:00
1654535520000,SPECI SBFL 061712Z 19002KT 9999 VCSH FEW012 BKN030 BKN080 20/18 Q1013=,SBFL,2022-06-06 17:12:00
1654538400000,METAR SBFL 061800Z 19004KT 4000 -RA SCT025 SCT030 BKN080 19/18 Q1012=,SBFL,2022-06-06 18:00:00
1654542000000,METAR SBFL 061900Z 10007KT 9999 SCT025 BKN080 19/18 Q1012=,SBFL,2022-06-06 19:00:00
1654545600000,METAR SBFL 062000Z 30004KT 5000 -RA SCT025 BKN080 19/18 Q1014=,SBFL,2022-06-06 20:00:00
1654549200000,METAR SBFL 062100Z 36007KT 7000 -RA SCT025 BKN080 18/18 Q1013=,SBFL,2022-06-06 21:00:00
1654552800000,METAR SBFL 062200Z 34009KT 9000 -RA SCT025 BKN100 18/18 Q1013=,SBFL,2022-06-06 22:00:00
1654556400000,METAR SBFL 062300Z 33006KT 9999 -RA SCT025 BKN100 18/18 Q1013=,SBFL,2022-06-06 23:00:00
1654473600000,METAR SBGL 060000Z 08008KT CAVOK 18/13 Q1020=,SBGL,2022-06-06 00:00:00
1654477200000,METAR SBGL 060100Z 10006KT CAVOK 18/13 Q1020=,SBGL,2022-06-06 01:00:00
1654480800000,METAR SBGL 060200Z 12004KT CAVOK 16/13 Q1020=,SBGL,2022-06-06 02:00:00
1654484400000,METAR SBGL 060300Z 14004KT CAVOK 16/13 Q1019=,SBGL,2022-06-06 03:00:00
1654488000000,METAR SBGL 060400Z 12004KT CAVOK 15/13 Q1019=,SBGL,2022-06-06 04:00:00
1654491600000,METAR SBGL 060500Z 02003KT CAVOK 15/13 Q1019=,SBGL,2022-06-06 05:00:00
1654495200000,METAR SBGL 060600Z 01003KT CAVOK 15/13 Q1018=,SBGL,2022-06-06 06:00:00
1654498800000,METAR SBGL 060700Z 35003KT 8000 NSC 15/13 Q1018=,SBGL,2022-06-06 07:00:00
1654502400000,METAR SBGL 060800Z 04003KT 8000 NSC 14/13 Q1019=,SBGL,2022-06-06 08:00:00
1654506000000,METAR SBGL 060900Z 05002KT CAVOK 13/12 Q1018=,SBGL,2022-06-06 09:00:00
1654509600000,METAR SBGL 061000Z 00000KT CAVOK 14/13 Q1018=,SBGL,2022-06-06 10:00:00
1654513200000,METAR SBGL 061100Z VRB02KT 9999 FEW007 17/15 Q1018=,SBGL,2022-06-06 11:00:00
1654516800000,METAR SBGL 061200Z 13003KT 090V170 CAVOK 19/15 Q1018=,SBGL,2022-06-06 12:00:00
1654520400000,METAR SBGL 061300Z 02005KT 330V050 CAVOK 20/15 Q1017=,SBGL,2022-06-06 13:00:00
1654524000000,METAR SBGL 061400Z VRB04KT CAVOK 21/15 Q1016=,SBGL,2022-06-06 14:00:00
1654527600000,METAR SBGL 061500Z VRB05KT CAVOK 24/16 Q1015=,SBGL,2022-06-06 15:00:00
1654531200000,METAR SBGL 061600Z 11006KT 080V140 CAVOK 25/15 Q1014=,SBGL,2022-06-06 16:00:00
1654534800000,METAR SBGL 061700Z 08008KT CAVOK 26/16 Q1014=,SBGL,2022-06-06 17:00:00
1654538400000,METAR SBGL 061800Z 06007KT 030V100 CAVOK 25/15 Q1013=,SBGL,2022-06-06 18:00:00
1654542000000,METAR SBGL 061900Z 10004KT 060V140 CAVOK 26/13 Q1013=,SBGL,2022-06-06 19:00:00
1654545600000,METAR SBGL 062000Z 10003KT CAVOK 24/15 Q1013=,SBGL,2022-06-06 20:00:00
1654549200000,METAR SBGL 062100Z 00000KT CAVOK 21/16 Q1014=,SBGL,2022-06-06 21:00:00
1654552800000,METAR SBGL 062200Z 09002KT CAVOK 19/16 Q1014=,SBGL,2022-06-06 22:00:00
1654556400000,METAR SBGL 062300Z 33002KT CAVOK 19/16 Q1014=,SBGL,2022-06-06 23:00:00
1654473600000,METAR SBGR 060000Z 05003KT CAVOK 17/14 Q1021=,SBGR,2022-06-06 00:00:00
1654477200000,METAR SBGR 060100Z 12002KT 8000 NSC 15/14 Q1021=,SBGR,2022-06-06 01:00:00
1654480800000,METAR SBGR 060200Z 19001KT 6000 NSC 14/14 Q1021=,SBGR,2022-06-06 02:00:00
1654484400000,METAR SBGR 060300Z 10003KT 6000 NSC 14/13 Q1021=,SBGR,2022-06-06 03:00:00
1654488000000,METAR SBGR 060400Z 12002KT 5000 BR NSC 13/13 Q1020=,SBGR,2022-06-06 04:00:00
1654491600000,METAR SBGR 060500Z 08006KT 5000 BR NSC 13/13 Q1020=,SBGR,2022-06-06 05:00:00
1654495200000,METAR COR SBGR 060600Z 07009KT 1500 R09R/P2000 R09L/P2000 R27L/P2000 R27R/P2000 BR SCT002 13/13 Q1019=,SBGR,2022-06-06 06:00:00
1654496400000,SPECI SBGR 060620Z 07009KT 0900 R09R/P2000 R09L/P2000 R27R/P2000 R27L/P2000 FG OVC002 12/12 Q1019=,SBGR,2022-06-06 06:20:00
1654498800000,METAR SBGR 060700Z 08009KT 3500 BR NSC 13/13 Q1019=,SBGR,2022-06-06 07:00:00
1654502400000,METAR SBGR 060800Z 08007KT 5000 BR NSC 13/12 Q1019=,SBGR,2022-06-06 08:00:00
1654506000000,METAR SBGR 060900Z 08007KT 3000 BR BKN002 13/13 Q1019=,SBGR,2022-06-06 09:00:00
1654507200000,SPECI SBGR 060920Z 07009KT 0900 R09R/P2000 R09L/P2000 R27R/P2000 R27L/P2000 FG OVC002 12/12 Q1019=,SBGR,2022-06-06 09:20:00
1654509600000,METAR SBGR 061000Z 06009KT 0900 R27L/0900D R09R/1000D R27R/1000D R09L/1100D FG OVC002 12/12 Q1019=,SBGR,2022-06-06 10:00:00
1654513200000,METAR SBGR 061100Z 06008KT 0900 R27L/0900N R27R/1100U R09L/1600U R09R/1700U FG OVC002 12/12 Q1020=,SBGR,2022-06-06 11:00:00
1654516800000,METAR SBGR 061200Z 07006KT 0500 R27L/1500N R27R/1700N R09R/P2000 R09L/P2000 FG OVC002 13/13 Q1020=,SBGR,2022-06-06 12:00:00
1654520400000,METAR SBGR 061300Z 05006KT 1000 R09R/P2000 R09L/P2000 R27R/P2000 R27L/P2000 BR OVC003 13/13 Q1020=,SBGR,2022-06-06 13:00:00
1654521420000,SPECI SBGR 061317Z 05007KT 5000 BR BKN005 15/14 Q1020=,SBGR,2022-06-06 13:17:00
1654522620000,SPECI SBGR 061337Z 06006KT 9999 SCT005 16/15 Q1020=,SBGR,2022-06-06 13:37:00
1654524000000,METAR SBGR 061400Z 06006KT CAVOK 16/14 Q1019=,SBGR,2022-06-06 14:00:00
1654527600000,METAR SBGR 061500Z 06005KT CAVOK 20/15 Q1019=,SBGR,2022-06-06 15:00:00
1654531200000,METAR SBGR 061600Z 02003KT CAVOK 23/14 Q1018=,SBGR,2022-06-06 16:00:00
1654534800000,METAR SBGR 061700Z 30009KT CAVOK 25/13 Q1017=,SBGR,2022-06-06 17:00:00
1654538400000,METAR SBGR 061800Z 30011KT CAVOK 24/13 Q1017=,SBGR,2022-06-06 18:00:00
1654542000000,METAR SBGR 061900Z 31007KT CAVOK 24/14 Q1016=,SBGR,2022-06-06 19:00:00
1654545600000,METAR SBGR 062000Z 30006KT CAVOK 23/14 Q1017=,SBGR,2022-06-06 20:00:00
1654549200000,METAR SBGR 062100Z 35003KT CAVOK 22/15 Q1017=,SBGR,2022-06-06 21:00:00
1654552800000,METAR SBGR 062200Z 05003KT CAVOK 19/15 Q1017=,SBGR,2022-06-06 22:00:00
1654556400000,METAR SBGR 062300Z 07004KT CAVOK 18/14 Q1018=,SBGR,2022-06-06 23:00:00
1654473600000,METAR SBKP 060000Z 12006KT CAVOK 18/14 Q1020=,SBKP,2022-06-06 00:00:00
1654477200000,METAR SBKP 060100Z 12008KT CAVOK 18/14 Q1020=,SBKP,2022-06-06 01:00:00
1654480800000,METAR SBKP 060200Z 11008KT CAVOK 18/14 Q1020=,SBKP,2022-06-06 02:00:00
1654484400000,METAR SBKP 060300Z 12009KT CAVOK 17/15 Q1019=,SBKP,2022-06-06 03:00:00
1654488000000,METAR SBKP 060400Z 12008KT CAVOK 16/14 Q1019=,SBKP,2022-06-06 04:00:00
1654491600000,METAR SBKP 060500Z 11007KT CAVOK 16/14 Q1018=,SBKP,2022-06-06 05:00:00
1654495200000,METAR SBKP 060600Z 12006KT CAVOK 16/14 Q1018=,SBKP,2022-06-06 06:00:00
1654498800000,METAR SBKP 060700Z 10005KT CAVOK 15/14 Q1018=,SBKP,2022-06-06 07:00:00
1654502400000,METAR SBKP 060800Z 11004KT CAVOK 15/13 Q1018=,SBKP,2022-06-06 08:00:00
1654506000000,METAR SBKP 060900Z 12006KT CAVOK 14/13 Q1018=,SBKP,2022-06-06 09:00:00
1654509600000,METAR SBKP 061000Z 12006KT 6000 NSC 14/13 Q1018=,SBKP,2022-06-06 10:00:00
1654513200000,METAR SBKP 061100Z 11004KT CAVOK 15/13 Q1019=,SBKP,2022-06-06 11:00:00
1654516800000,METAR SBKP 061200Z 10004KT CAVOK 17/14 Q1019=,SBKP,2022-06-06 12:00:00
1654520400000,METAR SBKP 061300Z 05004KT CAVOK 20/13 Q1019=,SBKP,2022-06-06 13:00:00
1654524000000,METAR SBKP 061400Z 36006KT CAVOK 22/13 Q1019=,SBKP,2022-06-06 14:00:00
1654527600000,METAR SBKP 061500Z 35008KT CAVOK 24/13 Q1018=,SBKP,2022-06-06 15:00:00
1654531200000,METAR SBKP 061600Z 34007KT 280V030 CAVOK 25/13 Q1018=,SBKP,2022-06-06 16:00:00
1654534800000,METAR SBKP 061700Z 32006KT 270V030 CAVOK 25/13 Q1017=,SBKP,2022-06-06 17:00:00
1654538400000,METAR SBKP 061800Z 33007KT 290V030 CAVOK 25/13 Q1016=,SBKP,2022-06-06 18:00:00
1654542000000,METAR SBKP 061900Z 30006KT 270V360 9999 FEW040 25/14 Q1016=,SBKP,2022-06-06 19:00:00
1654545600000,METAR SBKP 062000Z 32005KT 280V350 CAVOK 25/14 Q1016=,SBKP,2022-06-06 20:00:00
1654549200000,METAR SBKP 062100Z 36003KT 8000 NSC 23/14 Q1016=,SBKP,2022-06-06 21:00:00
1654552800000,METAR SBKP 062200Z 02002KT CAVOK 22/15 Q1017=,SBKP,2022-06-06 22:00:00
1654556400000,METAR SBKP 062300Z 10003KT CAVOK 21/14 Q1018=,SBKP,2022-06-06 23:00:00
1654473600000,METAR SBPA 060000Z VRB02KT 6000 FEW009 SCT030 OVC080 17/16 Q1015=,SBPA,2022-06-06 00:00:00
1654477200000,METAR SBPA 060100Z 08003KT 4000 -RA BR FEW014 SCT035 FEW045TCU OVC100 17/16 Q1015=,SBPA,2022-06-06 01:00:00
1654480800000,METAR SBPA 060200Z 10004KT 3500 -RA BR FEW014 FEW045TCU OVC090 17/16 Q1014=,SBPA,2022-06-06 02:00:00
1654484400000,METAR SBPA 060300Z VRB02KT 3500 BR FEW014 FEW045TCU OVC090 16/16 Q1014=,SBPA,2022-06-06 03:00:00
1654488000000,METAR SBPA 060400Z 10004KT 3000 1400S R29///// R11/P2000 BR BCFG FEW001 FEW045TCU OVC090 16/16 Q1013=,SBPA,2022-06-06 04:00:00
1654490700000,SPECI SBPA 060445Z 30005KT 280V340 3000 1400S R29///// R11/P2000 -TSRA BCFG SCT025 FEW040CB OVC090 16/16 Q1014=,SBPA,2022-06-06 04:45:00
1654491600000,METAR SBPA 060500Z 27004KT 210V340 3000 1400S R29///// R11/P2000 TSRA BCFG SCT025 FEW040CB OVC080 16/16 Q1014=,SBPA,2022-06-06 05:00:00
1654495200000,METAR SBPA 060600Z 23006KT 3000 TSRA BR FEW009 FEW040CB OVC080 17/17 Q1014=,SBPA,2022-06-06 06:00:00
1654498800000,METAR SBPA 060700Z VRB01KT 3000 TSRA BR FEW009 FEW040CB OVC070 17/16 Q1014=,SBPA,2022-06-06 07:00:00
1654502400000,METAR SBPA 060800Z 10003KT 3000 TSRA BR FEW009 FEW040CB OVC060 16/16 Q1013=,SBPA,2022-06-06 08:00:00
1654506000000,METAR SBPA 060900Z 05005KT 030V090 3000 RA BR FEW009 FEW040TCU OVC060 17/17 Q1012 RETS=,SBPA,2022-06-06 09:00:00
1654509600000,METAR SBPA 061000Z 01003KT 330V040 4000 -RA BR FEW005 FEW040TCU OVC090 17/17 Q1012 RERA=,SBPA,2022-06-06 10:00:00
1654513200000,METAR SBPA 061100Z 32004KT 4000 -RA BR SCT006 FEW040TCU OVC100 17/17 Q1013=,SBPA,2022-06-06 11:00:00
1654516800000,METAR SBPA 061200Z 36004KT 310V040 6000 -RA SCT004 BKN011 FEW040TCU OVC100 18/17 Q1012=,SBPA,2022-06-06 12:00:00
1654520400000,METAR SBPA 061300Z VRB03KT 4000 -DZ BR SCT009 FEW040TCU OVC100 18/18 Q1013=,SBPA,2022-06-06 13:00:00
1654524000000,METAR SBPA 061400Z 22004KT 150V270 8000 -RA BKN006 FEW035TCU OVC100 18/18 Q1014=,SBPA,2022-06-06 14:00:00
1654527600000,METAR SBPA 061500Z VRB01KT 8000 VCSH BKN011 FEW040TCU OVC100 19/18 Q1013=,SBPA,2022-06-06 15:00:00
1654531200000,METAR SBPA 061600Z 23004KT 190V270 9000 VCSH BKN011 FEW040TCU OVC080 19/18 Q1013=,SBPA,2022-06-06 16:00:00
1654534800000,METAR SBPA 061700Z 28004KT 230V330 9999 SCT011 BKN080 19/18 Q1012=,SBPA,2022-06-06 17:00:00
1654538400000,METAR SBPA 061800Z 23007KT 190V260 9999 SCT009 BKN080 19/18 Q1011=,SBPA,2022-06-06 18:00:00
1654542000000,METAR SBPA 061900Z 21004KT 180V240 8000 SCT007 BKN083 18/17 Q1012=,SBPA,2022-06-06 19:00:00
1654545600000,METAR SBPA 062000Z 15003KT 120V180 8000 BKN007 SCT040 BKN083 17/16 Q1013=,SBPA,2022-06-06 20:00:00
1654549200000,METAR SBPA 062100Z 17005KT 140V200 8000 BKN007 OVC020 17/16 Q1014=,SBPA,2022-06-06 21:00:00
1654551420000,SPECI SBPA 062137Z 17004KT 140V200 3500 -DZ OVC007 16/15 Q1015=,SBPA,2022-06-06 21:37:00
1654552800000,METAR SBPA 062200Z 17003KT 3500 -DZ BKN007 OVC018 16/15 Q1015=,SBPA,2022-06-06 22:00:00
1654553700000,SPECI SBPA 062215Z VRB02KT 8000 BKN007 OVC018 16/15 Q1015=,SBPA,2022-06-06 22:15:00
1654556400000,METAR SBPA 062300Z 19004KT 150V240 8000 SCT007 BKN024 16/15 Q1015=,SBPA,2022-06-06 23:00:00
1654473600000,METAR SBRF 060000Z 22004KT 190V250 9999 FEW025 25/22 Q1014=,SBRF,2022-06-06 00:00:00
1654477200000,METAR SBRF 060100Z 00000KT 9999 FEW023 24/22 Q1014=,SBRF,2022-06-06 01:00:00
1654480800000,METAR SBRF 060200Z 22004KT 170V280 9999 SCT021 24/22 Q1014=,SBRF,2022-06-06 02:00:00
1654484400000,METAR SBRF 060300Z VRB04KT 5000 -RA BR BKN018 BKN033 23/23 Q1013=,SBRF,2022-06-06 03:00:00
1654484700000,SPECI SBRF 060305Z 23004KT 180V260 2000 RA BR SCT010 BKN017 OVC033 23/23 Q1013=,SBRF,2022-06-06 03:05:00
1654486020000,SPECI SBRF 060327Z 22004KT 190V250 9999 VCSH FEW010 BKN017 BKN033 23/23 Q1013 RERA=,SBRF,2022-06-06 03:27:00
1654488000000,METAR SBRF 060400Z 21006KT 180V240 3000 RA BR FEW010 BKN017 BKN033 23/23 Q1013 RERA=,SBRF,2022-06-06 04:00:00
1654489080000,SPECI SBRF 060418Z 23006KT 200V260 9999 VCSH FEW009 SCT017 BKN033 23/23 Q1012 RERA=,SBRF,2022-06-06 04:18:00
1654491600000,METAR SBRF 060500Z 22004KT 190V250 9999 FEW009 SCT017 BKN033 23/23 Q1012 RERA=,SBRF,2022-06-06 05:00:00
1654495200000,METAR SBRF 060600Z 00000KT 9999 FEW012 23/23 Q1012=,SBRF,2022-06-06 06:00:00
1654498800000,METAR SBRF 060700Z VRB02KT 9999 FEW018 23/22 Q1012=,SBRF,2022-06-06 07:00:00
1654502400000,METAR SBRF 060800Z VRB02KT 9999 SCT018 SCT033 23/22 Q1012=,SBRF,2022-06-06 08:00:00
1654506000000,METAR SBRF 060900Z 19006KT 160V220 9999 4000N -RA FEW010 BKN017 BKN033 23/22 Q1012=,SBRF,2022-06-06 09:00:00
1654509600000,METAR SBRF 061000Z 20005KT 9000 VCSH FEW008 BKN017 BKN033 24/23 Q1013=,SBRF,2022-06-06 10:00:00
1654513200000,METAR SBRF 061100Z 20004KT 9999 VCSH FEW009 SCT015 BKN040 25/24 Q1014=,SBRF,2022-06-06 11:00:00
1654516800000,METAR SBRF 061200Z 21007KT 9999 VCSH SCT010 BKN020 BKN040 25/24 Q1014=,SBRF,2022-06-06 12:00:00
1654519440000,SPECI SBRF 061244Z 13013KT 3000 -RA SCT010 BKN015 BKN040 24/23 Q1014=,SBRF,2022-06-06 12:44:00
1654520400000,METAR SBRF 061300Z 14010KT 6000 -RA SCT015 BKN020 BKN050 24/23 Q1014=,SBRF,2022-06-06 13:00:00
1654524000000,METAR SBRF 061400Z 16011KT 3000 -RA BR SCT013 BKN018 BKN040 27/24 Q1013=,SBRF,2022-06-06 14:00:00
1654525380000,SPECI SBRF 061423Z 19009KT 6000 -RA SCT013 BKN018 BKN040 25/24 Q1013=,SBRF,2022-06-06 14:23:00
1654527600000,METAR SBRF 061500Z 15011KT 5000 -RA BR SCT010 BKN015 FEW022TCU BKN040 25/23 Q1012=,SBRF,2022-06-06 15:00:00
1654531200000,METAR SBRF 061600Z 16009KT 9000 VCSH SCT010 BKN018 FEW022TCU BKN040 25/24 Q1012=,SBRF,2022-06-06 16:00:00
1654532280000,SPECI SBRF 061618Z 17010G20KT 3000 -RA BR SCT007 BKN015 FEW022TCU BKN040 25/23 Q1012=,SBRF,2022-06-06 16:18:00
1654534800000,METAR SBRF 061700Z 17008KT 8000 VCSH SCT010 OVC025 25/23 Q1011=,SBRF,2022-06-06 17:00:00
1654535880000,SPECI SBRF 061718Z 14011KT 2500 -RA BR SCT008 OVC010 25/24 Q1012=,SBRF,2022-06-06 17:18:00
1654538400000,METAR SBRF 061800Z 17008KT 140V210 3000 -RA FEW005 BKN009 OVC010 24/24 Q1012=,SBRF,2022-06-06 18:00:00
1654542000000,METAR SBRF 061900Z 17010KT 5000 BR VCSH SCT012 BKN023 OVC050 24/23 Q1011=,SBRF,2022-06-06 19:00:00
1654542900000,SPECI SBRF 061915Z 17009KT 130V200 3000 -RA BR SCT008 OVC010 24/23 Q1012=,SBRF,2022-06-06 19:15:00
1654545600000,METAR SBRF 062000Z 19013KT 8000 VCSH SCT009 BKN025 OVC050 24/23 Q1012=,SBRF,2022-06-06 20:00:00
1654549200000,METAR SBRF 062100Z 21005KT 9999 VCSH SCT010 BKN025 OVC050 24/23 Q1012=,SBRF,2022-06-06 21:00:00
1654550880000,SPECI SBRF 062128Z 15011KT 090V170 3000 -RA BR OVC005 24/23 Q1013=,SBRF,2022-06-06 21:28:00
1654552800000,METAR SBRF 062200Z 19011KT 5000 -RA BR SCT006 BKN015 OVC050 23/23 Q1013=,SBRF,2022-06-06 22:00:00
1654556400000,METAR SBRF 062300Z 18009KT 4000 -RA BKN008 OVC020 23/23 Q1014=,SBRF,2022-06-06 23:00:00
1654534800000,METAR SBRJ 061700Z 20006KT CAVOK 24/16 Q1013=,SBRJ,2022-06-06 17:00:00
1654538400000,METAR SBRJ 061800Z 01004KT CAVOK 25/16 Q1013=,SBRJ,2022-06-06 18:00:00
1654473600000,METAR SBRJ 060000Z 09011KT CAVOK 20/14 Q1020=,SBRJ,2022-06-06 00:00:00
1654477200000,METAR SBRJ 060100Z 07009KT CAVOK 20/15 Q1020=,SBRJ,2022-06-06 01:00:00
1654480800000,METAR SBRJ 060200Z 04005KT 350V070 CAVOK 19/14 Q1019=,SBRJ,2022-06-06 02:00:00
1654505400000,SPECI SBRJ 060850Z 05008KT CAVOK 17/14 Q1017=,SBRJ,2022-06-06 08:50:00
1654506000000,METAR SBRJ 060900Z 04007KT CAVOK 17/14 Q1017=,SBRJ,2022-06-06 09:00:00
1654509600000,METAR SBRJ 061000Z 36005KT CAVOK 17/15 Q1017=,SBRJ,2022-06-06 10:00:00
1654513200000,METAR SBRJ 061100Z 35005KT CAVOK 18/15 Q1018=,SBRJ,2022-06-06 11:00:00
1654516800000,METAR SBRJ 061200Z 33005KT CAVOK 19/16 Q1018=,SBRJ,2022-06-06 12:00:00
1654520400000,METAR SBRJ 061300Z 36007KT CAVOK 20/15 Q1017=,SBRJ,2022-06-06 13:00:00
1654524000000,METAR SBRJ 061400Z 33007KT CAVOK 20/15 Q1016=,SBRJ,2022-06-06 14:00:00
1654527600000,METAR SBRJ 061500Z 32005KT 290V350 CAVOK 22/14 Q1015=,SBRJ,2022-06-06 15:00:00
1654531200000,METAR SBRJ 061600Z 01005KT 330V030 CAVOK 23/16 Q1014=,SBRJ,2022-06-06 16:00:00
1654542000000,METAR SBRJ 061900Z 34003KT CAVOK 25/15 Q1013=,SBRJ,2022-06-06 19:00:00
1654545600000,METAR SBRJ 062000Z 30003KT 260V340 CAVOK 26/14 Q1013=,SBRJ,2022-06-06 20:00:00
1654549200000,METAR SBRJ 062100Z 19006KT CAVOK 23/18 Q1013=,SBRJ,2022-06-06 21:00:00
1654552800000,METAR SBRJ 062200Z 20005KT CAVOK 23/17 Q1014=,SBRJ,2022-06-06 22:00:00
1654556400000,METAR SBRJ 062300Z 19002KT CAVOK 22/17 Q1014=,SBRJ,2022-06-06 23:00:00
1654473600000,METAR SBSP 060000Z 18005KT 150V220 3000 BR SCT002 OVC005 15/14 Q1022=,SBSP,2022-06-06 00:00:00
1654477200000,METAR SBSP 060100Z 15003KT 120V190 3000 BR SCT003 BKN005 14/13 Q1022=,SBSP,2022-06-06 01:00:00
1654480800000,METAR SBSP 060200Z 16004KT 3000 BR BKN004 14/13 Q1022=,SBSP,2022-06-06 02:00:00
1654480860000,SPECI SBSP 060201Z 16004KT 5000 BR BKN003 14/13 Q1021=,SBSP,2022-06-06 02:01:00
1654482420000,SPECI SBSP 060227Z AUTO 14004KT 6000 FEW002 SCT005 13/12 Q1021=,SBSP,2022-06-06 02:27:00
1654484400000,METAR SBSP 060300Z AUTO VRB01KT 6000 NCD 14/13 Q1021=,SBSP,2022-06-06 03:00:00
1654488000000,METAR SBSP 060400Z AUTO 15003KT 6000 NCD 14/13 Q1021=,SBSP,2022-06-06 04:00:00
1654489800000,SPECI SBSP 060430Z AUTO VRB02KT 3800 NCD 14/13 Q1020=,SBSP,2022-06-06 04:30:00
1654490640000,SPECI SBSP 060444Z AUTO VRB02KT 7000 NCD 14/13 Q1020=,SBSP,2022-06-06 04:44:00
1654491600000,METAR SBSP 060500Z AUTO VRB02KT 9000 NCD 14/13 Q1020=,SBSP,2022-06-06 05:00:00
1654495200000,METAR SBSP 060600Z AUTO 05004KT 010V080 CAVOK 14/12 Q1019=,SBSP,2022-06-06 06:00:00
1654498800000,METAR SBSP 060700Z AUTO 05003KT 340V070 CAVOK 14/12 Q1019=,SBSP,2022-06-06 07:00:00
1654502400000,METAR SBSP 060800Z AUTO 05004KT 030V090 CAVOK 14/12 Q1019=,SBSP,2022-06-06 08:00:00
1654506000000,METAR SBSP 060900Z 05004KT CAVOK 13/11 Q1019=,SBSP,2022-06-06 09:00:00
1654509600000,METAR SBSP 061000Z 04003KT 010V070 CAVOK 13/11 Q1019=,SBSP,2022-06-06 10:00:00
1654513200000,METAR SBSP 061100Z 04004KT CAVOK 14/12 Q1020=,SBSP,2022-06-06 11:00:00
1654516800000,METAR SBSP 061200Z 05005KT CAVOK 15/12 Q1020=,SBSP,2022-06-06 12:00:00
1654520400000,METAR SBSP 061300Z 27005KT 360V060 CAVOK 18/13 Q1020=,SBSP,2022-06-06 13:00:00
1654524000000,METAR SBSP 061400Z 22005KT CAVOK 20/13 Q1020=,SBSP,2022-06-06 14:00:00
1654527600000,METAR SBSP 061500Z 06005KT 310V030 CAVOK 21/13 Q1019=,SBSP,2022-06-06 15:00:00
1654531200000,METAR SBSP 061600Z 34010KT CAVOK 23/13 Q1018=,SBSP,2022-06-06 16:00:00
1654534800000,METAR SBSP 061700Z 33009KT 300V360 CAVOK 24/14 Q1018=,SBSP,2022-06-06 17:00:00
1654538400000,METAR SBSP 061800Z 32009KT 260V360 CAVOK 23/13 Q1017=,SBSP,2022-06-06 18:00:00
1654542000000,METAR SBSP 061900Z 33009KT CAVOK 23/13 Q1017=,SBSP,2022-06-06 19:00:00
1654545600000,METAR SBSP 062000Z 31009KT 280V340 CAVOK 23/13 Q1017=,SBSP,2022-06-06 20:00:00
1654549200000,METAR SBSP 062100Z 33006KT CAVOK 21/14 Q1018=,SBSP,2022-06-06 21:00:00
1654552800000,METAR SBSP 062200Z 36003KT CAVOK 20/13 Q1018=,SBSP,2022-06-06 22:00:00
1654556400000,METAR SBSP 062300Z 34006KT CAVOK 20/13 Q1018=,SBSP,2022-06-06 23:00:00
1654473600000,METAR SBSV 060000Z 16018KT 9999 SCT020 BKN070 26/18 Q1017=,SBSV,2022-06-06 00:00:00
1654477200000,METAR SBSV 060100Z 16015KT 9999 SCT025 BKN060 26/18 Q1017=,SBSV,2022-06-06 01:00:00
1654480800000,METAR SBSV 060200Z 15015KT 9999 SCT025 BKN060 26/16 Q1017=,SBSV,2022-06-06 02:00:00
1654484400000,METAR SBSV 060300Z 14015KT 110V190 9999 SCT025 SCT060 26/16 Q1017=,SBSV,2022-06-06 03:00:00
1654488000000,METAR SBSV 060400Z 16014KT 9999 SCT025 SCT060 26/15 Q1016=,SBSV,2022-06-06 04:00:00
1654491600000,METAR SBSV 060500Z 15011KT 9999 FEW025 26/16 Q1016=,SBSV,2022-06-06 05:00:00
1654495200000,METAR SBSV 060600Z 16015KT 9999 FEW025 25/19 Q1016=,SBSV,2022-06-06 06:00:00
1654498800000,METAR SBSV 060700Z 17013KT 9999 SCT025 BKN060 25/18 Q1016=,SBSV,2022-06-06 07:00:00
1654502400000,METAR SBSV 060800Z 19009KT 9999 FEW025 BKN060 24/19 Q1016=,SBSV,2022-06-06 08:00:00
1654506000000,METAR SBSV 060900Z 18008KT 140V210 9999 VCSH BKN020 FEW025TCU BKN060 23/14 Q1016=,SBSV,2022-06-06 09:00:00
1654509600000,METAR SBSV 061000Z 14011KT 9999 VCSH SCT020 FEW025TCU BKN060 26/19 Q1016=,SBSV,2022-06-06 10:00:00
1654513200000,METAR SBSV 061100Z 11010KT 9999 VCSH SCT018 FEW025TCU BKN060 25/21 Q1017=,SBSV,2022-06-06 11:00:00
1654516800000,METAR SBSV 061200Z 15011KT 9999 SCT018 SCT060 27/19 Q1017=,SBSV,2022-06-06 12:00:00
1654520400000,METAR SBSV 061300Z 16014KT 9999 SCT023 27/20 Q1017=,SBSV,2022-06-06 13:00:00
1654524000000,METAR SBSV 061400Z 16013KT 9999 VCSH BKN020 FEW023TCU 27/20 Q1017=,SBSV,2022-06-06 14:00:00
1654527600000,METAR SBSV 061500Z 17013KT 9999 SCT020 FEW023TCU 27/21 Q1016=,SBSV,2022-06-06 15:00:00
1654531200000,METAR SBSV 061600Z 18010KT 9999 SCT020 27/21 Q1015=,SBSV,2022-06-06 16:00:00
1654534800000,METAR SBSV 061700Z 17015KT 5000 -RA BKN015 25/22 Q1015=,SBSV,2022-06-06 17:00:00
1654538400000,METAR SBSV 061800Z 14010KT 8000 VCSH SCT023 FEW026TCU BKN050 25/20 Q1015=,SBSV,2022-06-06 18:00:00
1654540800000,SPECI SBSV 061840Z 13012KT 3000 SHRA BKN010 BKN016 FEW020TCU BKN060 24/21 Q1015=,SBSV,2022-06-06 18:40:00
1654542000000,METAR SBSV 061900Z 09006KT 070V130 5000 -RA SCT013 BKN016 BKN060 23/21 Q1015 RESHRA=,SBSV,2022-06-06 19:00:00
1654545600000,METAR SBSV 062000Z 29003KT 8000 VCSH SCT020 FEW023TCU BKN033 BKN060 24/21 Q1015=,SBSV,2022-06-06 20:00:00
1654549200000,METAR SBSV 062100Z VRB02KT 9999 SCT023 FEW026TCU BKN033 BKN060 24/21 Q1015=,SBSV,2022-06-06 21:00:00
1654552800000,METAR SBSV 062200Z 15007KT 110V240 9000 VCSH SCT023 FEW026TCU BKN033 BKN070 26/20 Q1016=,SBSV,2022-06-06 22:00:00
1654556400000,METAR SBSV 062300Z 14011KT 9999 SCT023 FEW026TCU SCT033 BKN070 26/20 Q1017=,SBSV,2022-06-06 23:00:00
1654560000000,METAR SBBR 070000Z 19004KT CAVOK 19/12 Q1021=,SBBR,2022-06-07 00:00:00
1654563600000,METAR SBBR 070100Z 18005KT 160V220 CAVOK 19/12 Q1021=,SBBR,2022-06-07 01:00:00
1654567200000,METAR SBBR 070200Z 16003KT 120V190 CAVOK 18/11 Q1021=,SBBR,2022-06-07 02:00:00
1654570800000,METAR SBBR 070300Z 00000KT CAVOK 15/11 Q1021=,SBBR,2022-06-07 03:00:00
1654574400000,METAR SBBR 070400Z 30002KT CAVOK 14/10 Q1021=,SBBR,2022-06-07 04:00:00
1654578000000,METAR SBBR 070500Z VRB01KT CAVOK 14/11 Q1020=,SBBR,2022-06-07 05:00:00
1654581600000,METAR SBBR 070600Z 20005KT CAVOK 14/10 Q1020=,SBBR,2022-06-07 06:00:00
1654585200000,METAR SBBR 070700Z 20002KT CAVOK 14/10 Q1020=,SBBR,2022-06-07 07:00:00
1654588800000,METAR SBBR 070800Z 30001KT CAVOK 12/10 Q1020=,SBBR,2022-06-07 08:00:00
1654592400000,METAR SBBR 070900Z 27002KT CAVOK 12/10 Q1020=,SBBR,2022-06-07 09:00:00
1654596000000,METAR SBBR 071000Z VRB01KT CAVOK 13/10 Q1020=,SBBR,2022-06-07 10:00:00
1654599600000,METAR SBBR 071100Z 31002KT CAVOK 15/11 Q1020=,SBBR,2022-06-07 11:00:00
1654603200000,METAR SBBR 071200Z VRB02KT CAVOK 19/10 Q1021=,SBBR,2022-06-07 12:00:00
1654606800000,METAR SBBR 071300Z VRB02KT CAVOK 22/10 Q1021=,SBBR,2022-06-07 13:00:00
1654610400000,METAR SBBR 071400Z VRB04KT CAVOK 24/11 Q1020=,SBBR,2022-06-07 14:00:00
1654614000000,METAR SBBR 071500Z 12003KT 080V170 CAVOK 25/10 Q1019=,SBBR,2022-06-07 15:00:00
1654617600000,METAR SBBR 071600Z VRB04KT CAVOK 26/11 Q1018=,SBBR,2022-06-07 16:00:00
1654621200000,METAR SBBR 071700Z 30004KT CAVOK 28/11 Q1017=,SBBR,2022-06-07 17:00:00
1654624800000,METAR SBBR 071800Z VRB04KT CAVOK 28/10 Q1016=,SBBR,2022-06-07 18:00:00
1654628400000,METAR SBBR 071900Z 26006KT 180V320 CAVOK 27/10 Q1017=,SBBR,2022-06-07 19:00:00
1654632000000,METAR SBBR 072000Z 24005KT 200V270 CAVOK 27/10 Q1016=,SBBR,2022-06-07 20:00:00
1654635600000,METAR SBBR 072100Z 23004KT 200V260 CAVOK 25/10 Q1017=,SBBR,2022-06-07 21:00:00
1654639200000,METAR SBBR 072200Z 18004KT CAVOK 23/11 Q1018=,SBBR,2022-06-07 22:00:00
1654642800000,METAR SBBR 072300Z VRB02KT CAVOK 22/11 Q1018=,SBBR,2022-06-07 23:00:00
1654560000000,METAR SBCF 070000Z 14003KT CAVOK 17/10 Q1021=,SBCF,2022-06-07 00:00:00
1654563600000,METAR SBCF 070100Z 00000KT CAVOK 16/10 Q1021=,SBCF,2022-06-07 01:00:00
1654567200000,METAR SBCF 070200Z 14002KT CAVOK 14/10 Q1021=,SBCF,2022-06-07 02:00:00
1654570800000,METAR SBCF 070300Z 11003KT CAVOK 15/10 Q1020=,SBCF,2022-06-07 03:00:00
1654574400000,METAR SBCF 070400Z 13002KT CAVOK 14/10 Q1020=,SBCF,2022-06-07 04:00:00
1654578000000,METAR SBCF 070500Z 16002KT CAVOK 13/10 Q1019=,SBCF,2022-06-07 05:00:00
1654581600000,METAR SBCF 070600Z 00000KT CAVOK 12/09 Q1018=,SBCF,2022-06-07 06:00:00
1654585200000,METAR SBCF 070700Z 14002KT CAVOK 12/09 Q1018=,SBCF,2022-06-07 07:00:00
1654588800000,METAR COR SBCF 070800Z 30002KT CAVOK 12/09 Q1018=,SBCF,2022-06-07 08:00:00
1654592400000,METAR SBCF 070900Z 16002KT CAVOK 11/09 Q1019=,SBCF,2022-06-07 09:00:00
1654596000000,METAR SBCF 071000Z 22002KT CAVOK 10/09 Q1019=,SBCF,2022-06-07 10:00:00
1654599600000,METAR SBCF 071100Z 16002KT CAVOK 12/10 Q1020=,SBCF,2022-06-07 11:00:00
1654603200000,METAR SBCF 071200Z 16002KT CAVOK 15/11 Q1020=,SBCF,2022-06-07 12:00:00
1654606800000,METAR SBCF 071300Z 13002KT CAVOK 19/12 Q1020=,SBCF,2022-06-07 13:00:00
1654610400000,METAR SBCF 071400Z 32004KT CAVOK 20/11 Q1019=,SBCF,2022-06-07 14:00:00
1654614000000,METAR SBCF 071500Z 29003KT CAVOK 22/11 Q1018=,SBCF,2022-06-07 15:00:00
1654617600000,METAR SBCF 071600Z 30004KT CAVOK 24/11 Q1017=,SBCF,2022-06-07 16:00:00
1654621200000,METAR SBCF 071700Z 25005KT 180V310 CAVOK 25/10 Q1016=,SBCF,2022-06-07 17:00:00
1654624800000,METAR SBCF 071800Z 24006KT 180V270 CAVOK 25/11 Q1016=,SBCF,2022-06-07 18:00:00
1654628400000,METAR SBCF 071900Z 20004KT 170V240 CAVOK 25/11 Q1016=,SBCF,2022-06-07 19:00:00
1654632000000,METAR SBCF 072000Z 25003KT 200V270 CAVOK 24/11 Q1016=,SBCF,2022-06-07 20:00:00
1654635600000,METAR SBCF 072100Z VRB02KT CAVOK 22/11 Q1016=,SBCF,2022-06-07 21:00:00
1654639200000,METAR SBCF 072200Z 32003KT CAVOK 21/11 Q1017=,SBCF,2022-06-07 22:00:00
1654642800000,METAR SBCF 072300Z 32003KT CAVOK 21/10 Q1017=,SBCF,2022-06-07 23:00:00
1654560000000,METAR SBCT 070000Z 36003KT 310V050 9000 -RA BKN008 BKN025 16/15 Q1018 RETS=,SBCT,2022-06-07 00:00:00
1654563600000,METAR SBCT 070100Z 33002KT 9999 SCT010 BKN100 16/15 Q1018=,SBCT,2022-06-07 01:00:00
1654567200000,METAR SBCT 070200Z 04003KT 8000 SCT005 BKN100 15/15 Q1018=,SBCT,2022-06-07 02:00:00
1654570800000,METAR SBCT 070300Z 03002KT 4000 BR BCFG BKN004 BKN100 15/15 Q1018=,SBCT,2022-06-07 03:00:00
1654574400000,METAR SBCT 070400Z 01005KT 4000 BR BCFG BKN003 15/15 Q1017=,SBCT,2022-06-07 04:00:00
1654578000000,METAR SBCT 070500Z 00000KT 3000 BR BCFG FEW001 BKN002 14/14 Q1017=,SBCT,2022-06-07 05:00:00
1654581600000,METAR SBCT 070600Z 07005KT 0800 R33/1000 R15/1000 FG BKN001 14/14 Q1015=,SBCT,2022-06-07 06:00:00
1654585200000,METAR SBCT 070700Z 05003KT 4000 BR BKN005 BKN025 14/14 Q1015=,SBCT,2022-06-07 07:00:00
1654588800000,METAR SBCT 070800Z 03004KT 8000 -RA BKN013 BKN025 BKN083 14/14 Q1014=,SBCT,2022-06-07 08:00:00
1654592400000,METAR SBCT 070900Z 05003KT 8000 -RA SCT010 BKN083 14/14 Q1015=,SBCT,2022-06-07 09:00:00
1654596000000,METAR SBCT 071000Z 22008KT 4000 RA BKN006 BKN020 OVC083 14/14 Q1017=,SBCT,2022-06-07 10:00:00
1654599600000,METAR SBCT 071100Z 16008KT 3500 RA BKN005 OVC040 14/14 Q1016=,SBCT,2022-06-07 11:00:00
1654603200000,METAR SBCT 071200Z 06006KT 5000 -RA BKN007 OVC050 14/14 Q1017 RERA=,SBCT,2022-06-07 12:00:00
1654606800000,METAR SBCT 071300Z 06006KT 5000 -RA BKN007 OVC040 15/15 Q1017=,SBCT,2022-06-07 13:00:00
1654610400000,METAR COR SBCT 071400Z 05005KT 4000 -RA BKN007 OVC040 15/15 Q1016=,SBCT,2022-06-07 14:00:00
1654614000000,METAR SBCT 071500Z 06005KT 020V090 4000 -RA BKN005 OVC010 15/15 Q1016=,SBCT,2022-06-07 15:00:00
1654617600000,METAR SBCT 071600Z 05006KT 010V070 5000 -RADZ OVC005 16/16 Q1015=,SBCT,2022-06-07 16:00:00
1654621200000,METAR SBCT 071700Z 02005KT 340V040 7000 -RA BKN006 OVC011 16/16 Q1014=,SBCT,2022-06-07 17:00:00
1654624800000,METAR SBCT 071800Z 02004KT 350V060 9999 -RA OVC010 16/16 Q1014=,SBCT,2022-06-07 18:00:00
1654628400000,METAR SBCT 071900Z 02005KT 9999 OVC011 16/15 Q1014=,SBCT,2022-06-07 19:00:00
1654632000000,METAR SBCT 072000Z 01004KT 330V070 9999 OVC009 16/16 Q1014=,SBCT,2022-06-07 20:00:00
1654635600000,METAR SBCT 072100Z 12007KT 9999 OVC005 14/14 Q1014=,SBCT,2022-06-07 21:00:00
1654639200000,METAR SBCT 072200Z 10006KT 9999 OVC005 14/14 Q1015=,SBCT,2022-06-07 22:00:00
1654642800000,METAR SBCT 072300Z 10007KT 9999 OVC008 14/14 Q1016=,SBCT,2022-06-07 23:00:00
1654560000000,METAR SBFL 070000Z 34008KT 9999 FEW025 BKN050 BKN100 18/18 Q1014=,SBFL,2022-06-07 00:00:00
1654562280000,SPECI SBFL 070038Z 26004KT 9999 BKN009 BKN025 BKN070 18/18 Q1014=,SBFL,2022-06-07 00:38:00
1654563600000,METAR SBFL 070100Z VRB02KT 9999 BKN008 BKN025 BKN070 18/18 Q1014=,SBFL,2022-06-07 01:00:00
1654567200000,METAR SBFL 070200Z 15006KT 070V220 9999 SCT012 BKN025 BKN070 19/16 Q1014=,SBFL,2022-06-07 02:00:00
1654570800000,METAR SBFL 070300Z 24009KT 210V270 9999 SCT012 BKN025 BKN070 18/17 Q1014=,SBFL,2022-06-07 03:00:00
1654574400000,METAR SBFL 070400Z 14027KT 9999 SCT012 BKN025 BKN070 20/16 Q1013=,SBFL,2022-06-07 04:00:00
1654578000000,METAR SBFL 070500Z 19008KT 9999 SCT012 SCT025 BKN070 19/16 Q1013=,SBFL,2022-06-07 05:00:00
1654581600000,METAR SBFL 070600Z 17010KT 9999 SCT012 SCT025 BKN070 19/16 Q1012=,SBFL,2022-06-07 06:00:00
1654585200000,METAR SBFL 070700Z 03002KT 9999 FEW015 SCT025 BKN080 18/16 Q1012=,SBFL,2022-06-07 07:00:00
1654588800000,METAR SBFL 070800Z 02006KT 9999 SCT025 BKN080 17/16 Q1012=,SBFL,2022-06-07 08:00:00
1654592400000,METAR SBFL 070900Z 22006KT 9999 FEW009 SCT020 BKN080 17/16 Q1013=,SBFL,2022-06-07 09:00:00
1654596000000,METAR SBFL 071000Z 34002KT 9999 -DZ FEW006 SCT020 BKN080 17/16 Q1014=,SBFL,2022-06-07 10:00:00
1654599600000,METAR SBFL 071100Z 00000KT 6000 -RA SCT020 OVC080 17/16 Q1014=,SBFL,2022-06-07 11:00:00
1654603200000,METAR SBFL 071200Z 13006KT 9999 -RA SCT020 OVC080 17/17 Q1014=,SBFL,2022-06-07 12:00:00
1654606800000,METAR SBFL 071300Z 13004KT 9999 SCT013 OVC080 18/17 Q1014=,SBFL,2022-06-07 13:00:00
1654608300000,SPECI SBFL 071325Z 24004KT 9999 -RA BKN008 OVC080 18/17 Q1014=,SBFL,2022-06-07 13:25:00
1654610400000,METAR SBFL 071400Z 20006KT 9999 BKN012 OVC100 18/17 Q1014=,SBFL,2022-06-07 14:00:00
1654614000000,METAR SBFL 071500Z 23006KT 9000 -RA BKN012 OVC100 18/17 Q1014=,SBFL,2022-06-07 15:00:00
1654617600000,METAR SBFL 071600Z 22005KT 9999 -RA BKN012 OVC100 18/17 Q1014=,SBFL,2022-06-07 16:00:00
1654621200000,METAR SBFL 071700Z 18005KT 9999 -RA BKN012 OVC100 19/16 Q1013=,SBFL,2022-06-07 17:00:00
1654624800000,METAR SBFL 071800Z 18004KT 140V220 9999 BKN014 BKN030 OVC100 19/17 Q1013=,SBFL,2022-06-07 18:00:00
1654628400000,METAR SBFL 071900Z 20008KT 9999 BKN014 BKN025 OVC100 18/16 Q1013=,SBFL,2022-06-07 19:00:00
1654632000000,METAR SBFL 072000Z 20009KT 9999 BKN013 BKN023 18/16 Q1013=,SBFL,2022-06-07 20:00:00
1654635600000,METAR SBFL 072100Z 20007KT 9999 BKN012 17/16 Q1014=,SBFL,2022-06-07 21:00:00
1654639200000,METAR SBFL 072200Z 21008KT 180V240 9999 BKN014 17/16 Q1014=,SBFL,2022-06-07 22:00:00
1654642800000,METAR SBFL 072300Z 19008KT 9999 BKN014 17/16 Q1014=,SBFL,2022-06-07 23:00:00
1654560000000,METAR SBGL 070000Z 35002KT CAVOK 19/16 Q1015=,SBGL,2022-06-07 00:00:00
1654563600000,METAR SBGL 070100Z 30003KT CAVOK 19/17 Q1015=,SBGL,2022-06-07 01:00:00
1654567200000,METAR SBGL 070200Z 32003KT CAVOK 18/16 Q1015=,SBGL,2022-06-07 02:00:00
1654570800000,METAR SBGL 070300Z 35003KT CAVOK 19/17 Q1014=,SBGL,2022-06-07 03:00:00
1654574400000,METAR SBGL 070400Z 33003KT CAVOK 18/16 Q1014=,SBGL,2022-06-07 04:00:00
1654578000000,METAR SBGL 070500Z 32002KT CAVOK 18/16 Q1013=,SBGL,2022-06-07 05:00:00
1654581600000,METAR SBGL 070600Z 36002KT CAVOK 17/15 Q1012=,SBGL,2022-06-07 06:00:00
1654585200000,METAR SBGL 070700Z 01002KT CAVOK 17/15 Q1012=,SBGL,2022-06-07 07:00:00
1654588800000,METAR SBGL 070800Z 02002KT CAVOK 16/15 Q1011=,SBGL,2022-06-07 08:00:00
1654592400000,METAR SBGL 070900Z 34003KT CAVOK 17/15 Q1012=,SBGL,2022-06-07 09:00:00
1654596000000,METAR SBGL 071000Z 36003KT CAVOK 17/15 Q1013=,SBGL,2022-06-07 10:00:00
1654599600000,METAR SBGL 071100Z 36004KT CAVOK 18/15 Q1013=,SBGL,2022-06-07 11:00:00
1654603200000,METAR SBGL 071200Z 36004KT CAVOK 20/15 Q1013=,SBGL,2022-06-07 12:00:00
1654606800000,METAR SBGL 071300Z 06003KT CAVOK 24/16 Q1013=,SBGL,2022-06-07 13:00:00
1654610400000,METAR SBGL 071400Z 35003KT CAVOK 26/16 Q1012=,SBGL,2022-06-07 14:00:00
1654614000000,METAR SBGL 071500Z 34004KT CAVOK 27/15 Q1012=,SBGL,2022-06-07 15:00:00
1654617600000,METAR SBGL 071600Z 03004KT CAVOK 28/17 Q1011=,SBGL,2022-06-07 16:00:00
1654621200000,METAR SBGL 071700Z 09002KT CAVOK 27/18 Q1010=,SBGL,2022-06-07 17:00:00
1654624800000,METAR SBGL 071800Z 15006KT CAVOK 26/18 Q1010=,SBGL,2022-06-07 18:00:00
1654628400000,METAR SBGL 071900Z 13008KT CAVOK 25/19 Q1011=,SBGL,2022-06-07 19:00:00
1654632000000,METAR SBGL 072000Z 28006KT 9999 FEW033 SCT100 23/19 Q1011=,SBGL,2022-06-07 20:00:00
1654635600000,METAR SBGL 072100Z 23007KT 9999 FEW033 SCT100 23/19 Q1012=,SBGL,2022-06-07 21:00:00
1654639200000,METAR SBGL 072200Z 23005KT 9999 FEW033 SCT100 22/18 Q1013=,SBGL,2022-06-07 22:00:00
1654642800000,METAR SBGL 072300Z 25004KT 9999 FEW030 SCT100 22/19 Q1014=,SBGL,2022-06-07 23:00:00
1654560000000,METAR SBGR 070000Z 06005KT CAVOK 18/14 Q1018=,SBGR,2022-06-07 00:00:00
1654563600000,METAR SBGR 070100Z 00000KT CAVOK 16/14 Q1018=,SBGR,2022-06-07 01:00:00
1654567200000,METAR SBGR 070200Z 06003KT CAVOK 17/14 Q1018=,SBGR,2022-06-07 02:00:00
1654570800000,METAR SBGR 070300Z 23002KT CAVOK 16/14 Q1018=,SBGR,2022-06-07 03:00:00
1654574400000,METAR SBGR 070400Z 08004KT 030V120 CAVOK 17/14 Q1017=,SBGR,2022-06-07 04:00:00
1654578000000,METAR SBGR 070500Z 13004KT 020V170 CAVOK 16/14 Q1017=,SBGR,2022-06-07 05:00:00
1654581600000,METAR SBGR 070600Z 07004KT CAVOK 14/13 Q1016=,SBGR,2022-06-07 06:00:00
1654585200000,METAR SBGR 070700Z 08005KT CAVOK 14/13 Q1016=,SBGR,2022-06-07 07:00:00
1654588800000,METAR SBGR 070800Z 07005KT CAVOK 15/13 Q1016=,SBGR,2022-06-07 08:00:00
1654592400000,METAR SBGR 070900Z 00000KT CAVOK 14/13 Q1016=,SBGR,2022-06-07 09:00:00
1654596000000,METAR SBGR 071000Z 08005KT 8000 NSC 13/13 Q1016=,SBGR,2022-06-07 10:00:00
1654599600000,METAR SBGR 071100Z 07007KT 8000 NSC 16/14 Q1017=,SBGR,2022-06-07 11:00:00
1654603200000,METAR SBGR 071200Z 08006KT CAVOK 19/14 Q1017=,SBGR,2022-06-07 12:00:00
1654606800000,METAR SBGR 071300Z 05006KT 360V080 CAVOK 22/14 Q1017=,SBGR,2022-06-07 13:00:00
1654610400000,METAR SBGR 071400Z 36009KT CAVOK 24/14 Q1016=,SBGR,2022-06-07 14:00:00
1654614000000,METAR COR SBGR 071500Z 14008KT 9999 FEW045 20/16 Q1014=,SBGR,2022-06-07 15:00:00
1654617600000,METAR SBGR 071600Z 28008KT CAVOK 25/13 Q1015=,SBGR,2022-06-07 16:00:00
1654621200000,METAR SBGR 071700Z 27006KT 9999 SCT045 BKN100 25/13 Q1014=,SBGR,2022-06-07 17:00:00
1654624800000,METAR SBGR 071800Z 14008KT 9999 FEW045 20/17 Q1014=,SBGR,2022-06-07 18:00:00
1654628400000,METAR SBGR 071900Z 16005KT 6000 BKN018 20/16 Q1015=,SBGR,2022-06-07 19:00:00
1654632000000,METAR SBGR 072000Z 15007KT 7000 FEW010 OVC017 19/16 Q1014=,SBGR,2022-06-07 20:00:00
1654635600000,METAR SBGR 072100Z 12006KT 9999 BKN010 OVC020 19/17 Q1015=,SBGR,2022-06-07 21:00:00
1654639200000,METAR SBGR 072200Z 12007KT 9000 -RA SCT011 OVC020 18/17 Q1015=,SBGR,2022-06-07 22:00:00
1654640400000,SPECI SBGR 072220Z 19005KT 9000 -RA BKN009 OVC020 18/17 Q1016=,SBGR,2022-06-07 22:20:00
1654642800000,METAR SBGR 072300Z 10005KT 9999 -RA BKN009 OVC020 18/17 Q1016=,SBGR,2022-06-07 23:00:00
1654560000000,METAR SBKP 070000Z 07004KT CAVOK 20/14 Q1018=,SBKP,2022-06-07 00:00:00
1654563600000,METAR SBKP 070100Z 00000KT CAVOK 20/14 Q1018=,SBKP,2022-06-07 01:00:00
1654567200000,METAR SBKP 070200Z 00000KT CAVOK 20/14 Q1018=,SBKP,2022-06-07 02:00:00
1654570800000,METAR SBKP 070300Z 07005KT CAVOK 18/14 Q1017=,SBKP,2022-06-07 03:00:00
1654574400000,METAR SBKP 070400Z 08005KT CAVOK 18/14 Q1017=,SBKP,2022-06-07 04:00:00
1654578000000,METAR SBKP 070500Z 08003KT CAVOK 17/13 Q1016=,SBKP,2022-06-07 05:00:00
1654581600000,METAR SBKP 070600Z 09003KT CAVOK 17/13 Q1016=,SBKP,2022-06-07 06:00:00
1654585200000,METAR SBKP 070700Z 08005KT CAVOK 17/13 Q1015=,SBKP,2022-06-07 07:00:00
1654588800000,METAR SBKP 070800Z 11004KT CAVOK 16/13 Q1015=,SBKP,2022-06-07 08:00:00
1654592400000,METAR SBKP 070900Z 10004KT CAVOK 15/13 Q1015=,SBKP,2022-06-07 09:00:00
1654596000000,METAR SBKP 071000Z 09005KT CAVOK 15/12 Q1015=,SBKP,2022-06-07 10:00:00
1654599600000,METAR SBKP 071100Z 09004KT CAVOK 17/13 Q1016=,SBKP,2022-06-07 11:00:00
1654603200000,METAR SBKP 071200Z 06003KT CAVOK 19/14 Q1016=,SBKP,2022-06-07 12:00:00
1654606800000,METAR SBKP 071300Z 01006KT CAVOK 22/13 Q1017=,SBKP,2022-06-07 13:00:00
1654610400000,METAR SBKP 071400Z 02012KT CAVOK 23/13 Q1016=,SBKP,2022-06-07 14:00:00
1654614000000,METAR SBKP 071500Z 35012KT CAVOK 24/13 Q1015=,SBKP,2022-06-07 15:00:00
1654617600000,METAR SBKP 071600Z 33012KT CAVOK 25/13 Q1015=,SBKP,2022-06-07 16:00:00
1654621200000,METAR SBKP 071700Z 36009KT 310V030 CAVOK 26/12 Q1014=,SBKP,2022-06-07 17:00:00
1654624800000,METAR SBKP 071800Z 34007KT 300V030 CAVOK 26/12 Q1013=,SBKP,2022-06-07 18:00:00
1654628400000,METAR SBKP 071900Z 31006KT CAVOK 26/12 Q1013=,SBKP,2022-06-07 19:00:00
1654632000000,METAR SBKP 072000Z 22006KT CAVOK 24/15 Q1013=,SBKP,2022-06-07 20:00:00
1654635600000,METAR SBKP 072100Z 20005KT 140V220 9999 FEW045 BKN100 23/15 Q1013=,SBKP,2022-06-07 21:00:00
1654639200000,METAR SBKP 072200Z 19007KT 9999 FEW045 BKN100 22/15 Q1013=,SBKP,2022-06-07 22:00:00
1654642800000,METAR SBKP 072300Z 12003KT 9999 FEW045 BKN070 21/16 Q1015=,SBKP,2022-06-07 23:00:00
1654560000000,METAR SBPA 070000Z 15004KT 8000 VCSH BKN008 OVC030 16/15 Q1016=,SBPA,2022-06-07 00:00:00
1654563600000,METAR SBPA 070100Z 16007KT 8000 VCSH BKN006 OVC030 16/15 Q1015=,SBPA,2022-06-07 01:00:00
1654567200000,METAR SBPA 070200Z 15005KT 120V180 8000 OVC006 15/15 Q1015=,SBPA,2022-06-07 02:00:00
1654570800000,METAR SBPA 070300Z 15006KT 120V180 8000 OVC005 15/15 Q1015=,SBPA,2022-06-07 03:00:00
1654574400000,METAR SBPA 070400Z 19005KT 160V220 8000 OVC005 15/15 Q1015=,SBPA,2022-06-07 04:00:00
1654578000000,METAR SBPA 070500Z 14003KT 110V180 8000 OVC005 15/15 Q1015=,SBPA,2022-06-07 05:00:00
1654581600000,METAR SBPA 070600Z 20004KT 160V230 6000 -DZ OVC006 15/14 Q1015=,SBPA,2022-06-07 06:00:00
1654585200000,METAR SBPA 070700Z 15004KT 120V180 8000 -DZ OVC006 15/14 Q1015=,SBPA,2022-06-07 07:00:00
1654588800000,METAR SBPA 070800Z VRB02KT 8000 OVC006 15/14 Q1015=,SBPA,2022-06-07 08:00:00
1654592400000,METAR SBPA 070900Z 20001KT 7000 -DZ OVC006 15/14 Q1015=,SBPA,2022-06-07 09:00:00
1654596000000,METAR SBPA 071000Z 15005KT 110V180 8000 BKN004 OVC024 15/14 Q1015=,SBPA,2022-06-07 10:00:00
1654599600000,METAR SBPA 071100Z 15008KT 110V170 8000 OVC004 14/14 Q1015=,SBPA,2022-06-07 11:00:00
1654603200000,METAR SBPA 071200Z 15005KT 110V180 8000 OVC004 15/14 Q1016=,SBPA,2022-06-07 12:00:00
1654606800000,METAR SBPA 071300Z 15005KT 8000 OVC006 15/14 Q1016=,SBPA,2022-06-07 13:00:00
1654610400000,METAR SBPA 071400Z 18005KT 140V210 8000 OVC006 15/15 Q1017=,SBPA,2022-06-07 14:00:00
1654614000000,METAR SBPA 071500Z VRB02KT 9999 OVC007 16/15 Q1016=,SBPA,2022-06-07 15:00:00
1654615620000,SPECI SBPA 071527Z 14004KT 9999 OVC010 17/15 Q1015=,SBPA,2022-06-07 15:27:00
1654617600000,METAR SBPA 071600Z 12004KT 080V150 9999 BKN011 OVC020 18/15 Q1015=,SBPA,2022-06-07 16:00:00
1654621200000,METAR SBPA 071700Z 08009KT 9999 BKN013 BKN021 18/15 Q1014=,SBPA,2022-06-07 17:00:00
1654624800000,METAR SBPA 071800Z 09007KT 9999 BKN021 18/14 Q1014=,SBPA,2022-06-07 18:00:00
1654628400000,METAR SBPA 071900Z 12005KT 9999 BKN019 BKN030 19/15 Q1014=,SBPA,2022-06-07 19:00:00
1654632000000,METAR SBPA 072000Z 11005KT 9999 BKN030 18/16 Q1014=,SBPA,2022-06-07 20:00:00
1654635600000,METAR SBPA 072100Z 14005KT 9999 BKN033 18/15 Q1014=,SBPA,2022-06-07 21:00:00
1654639200000,METAR SBPA 072200Z 17006KT 9999 FEW040 16/15 Q1015=,SBPA,2022-06-07 22:00:00
1654642800000,METAR SBPA 072300Z 17006KT 9999 SCT033 BKN060 16/15 Q1016=,SBPA,2022-06-07 23:00:00
1654560000000,METAR SBRF 070000Z 20006KT 180V240 3000 -RA BKN006 BKN020 OVC025 23/23 Q1014=,SBRF,2022-06-07 00:00:00
1654563600000,METAR SBRF 070100Z 22006KT 3000 -RA BR BKN007 BKN018 OVC025 23/23 Q1014=,SBRF,2022-06-07 01:00:00
1654567200000,METAR SBRF 070200Z 20006KT 3000 -RA BR BKN005 OVC016 23/23 Q1014=,SBRF,2022-06-07 02:00:00
1654570800000,METAR SBRF 070300Z 21007KT 3000 -RA BR SCT004 BKN010 OVC030 23/23 Q1013=,SBRF,2022-06-07 03:00:00
1654574400000,METAR SBRF 070400Z 21010KT 3000 -RA BR SCT005 BKN010 OVC030 23/22 Q1012=,SBRF,2022-06-07 04:00:00
1654578000000,METAR SBRF 070500Z 20005KT 3000 RA BR SCT005 BKN010 OVC030 23/23 Q1012=,SBRF,2022-06-07 05:00:00
1654581600000,METAR SBRF 070600Z 21006KT 3000 -RA BR BKN006 OVC010 23/23 Q1012 RERA=,SBRF,2022-06-07 06:00:00
1654585200000,METAR SBRF 070700Z 13006KT 2000 RA BR BKN004 OVC018 23/22 Q1012=,SBRF,2022-06-07 07:00:00
1654588800000,METAR SBRF 070800Z 30002KT 4000 -RA BR SCT004 BKN008 OVC040 22/22 Q1012 RERA=,SBRF,2022-06-07 08:00:00
1654592400000,METAR SBRF 070900Z 26003KT 4000 -RA BR SCT006 BKN015 OVC030 23/23 Q1012=,SBRF,2022-06-07 09:00:00
1654596000000,METAR SBRF 071000Z 24004KT 5000 -RA BR BKN007 OVC015 23/23 Q1013=,SBRF,2022-06-07 10:00:00
1654597500000,SPECI SBRF 071025Z 29005KT 250V330 3000 -RA BKN008 OVC015 23/23 Q1013=,SBRF,2022-06-07 10:25:00
1654599600000,METAR SBRF 071100Z 22002KT 3000 -RA BR FEW005 BKN008 OVC015 23/23 Q1014=,SBRF,2022-06-07 11:00:00
1654603200000,METAR SBRF 071200Z 27004KT 5000 BR FEW005 SCT008 BKN015 24/23 Q1014=,SBRF,2022-06-07 12:00:00
1654604040000,SPECI SBRF 071214Z 27003KT 2000 -RA BR SCT005 BKN008 OVC015 23/23 Q1015=,SBRF,2022-06-07 12:14:00
1654606800000,METAR SBRF 071300Z 27005KT 4000 -RA BR SCT005 BKN015 OVC050 24/23 Q1014=,SBRF,2022-06-07 13:00:00
1654608060000,SPECI SBRF 071321Z 27005KT 9999 VCSH BKN025 BKN050 24/23 Q1014=,SBRF,2022-06-07 13:21:00
1654610400000,METAR SBRF 071400Z 28006KT 230V330 9999 BKN025 BKN100 25/24 Q1014=,SBRF,2022-06-07 14:00:00
1654614000000,METAR SBRF 071500Z 26005KT 190V320 9999 SCT010 BKN025 25/23 Q1013=,SBRF,2022-06-07 15:00:00
1654617600000,METAR SBRF 071600Z 25001KT 9999 SCT017 BKN050 27/23 Q1012=,SBRF,2022-06-07 16:00:00
1654621200000,METAR SBRF 071700Z 00000KT 9999 4000E -SHRA SCT017 BKN023 BKN070 27/23 Q1011=,SBRF,2022-06-07 17:00:00
1654624800000,METAR SBRF 071800Z VRB02KT 9999 FEW023 FEW025TCU BKN070 27/23 Q1011=,SBRF,2022-06-07 18:00:00
1654628400000,METAR SBRF 071900Z 21004KT 180V240 9999 FEW023 SCT070 26/23 Q1011=,SBRF,2022-06-07 19:00:00
1654632000000,METAR SBRF 072000Z 19004KT 160V220 9999 FEW023 26/22 Q1012=,SBRF,2022-06-07 20:00:00
1654635600000,METAR SBRF 072100Z 18004KT 9999 FEW021 25/23 Q1012=,SBRF,2022-06-07 21:00:00
1654639200000,METAR SBRF 072200Z 00000KT 9999 FEW021 24/24 Q1012=,SBRF,2022-06-07 22:00:00
1654642800000,METAR SBRF 072300Z 18004KT 140V240 9999 FEW021 SCT090 24/24 Q1013=,SBRF,2022-06-07 23:00:00
1654560000000,METAR SBRJ 070000Z VRB01KT CAVOK 22/17 Q1014=,SBRJ,2022-06-07 00:00:00
1654563600000,METAR SBRJ 070100Z 00000KT CAVOK 21/19 Q1014=,SBRJ,2022-06-07 01:00:00
1654567200000,METAR SBRJ 070200Z 33004KT CAVOK 22/17 Q1014=,SBRJ,2022-06-07 02:00:00
1654591800000,SPECI SBRJ 070850Z 36009KT CAVOK 20/18 Q1011=,SBRJ,2022-06-07 08:50:00
1654592400000,METAR SBRJ 070900Z 35009KT CAVOK 20/18 Q1011=,SBRJ,2022-06-07 09:00:00
1654596000000,METAR SBRJ 071000Z 33007KT CAVOK 20/17 Q1012=,SBRJ,2022-06-07 10:00:00
1654599600000,METAR SBRJ 071100Z 35008KT CAVOK 20/17 Q1012=,SBRJ,2022-06-07 11:00:00
1654603200000,METAR SBRJ 071200Z 34007KT CAVOK 21/17 Q1013=,SBRJ,2022-06-07 12:00:00
1654606800000,METAR SBRJ 071300Z 01005KT CAVOK 21/18 Q1013=,SBRJ,2022-06-07 13:00:00
1654610400000,METAR SBRJ 071400Z 01005KT CAVOK 22/17 Q1012=,SBRJ,2022-06-07 14:00:00
1654614000000,METAR SBRJ 071500Z 03004KT CAVOK 24/17 Q1011=,SBRJ,2022-06-07 15:00:00
1654617600000,METAR SBRJ 071600Z 03003KT CAVOK 25/18 Q1010=,SBRJ,2022-06-07 16:00:00
1654621200000,METAR SBRJ 071700Z 14002KT CAVOK 25/17 Q1010=,SBRJ,2022-06-07 17:00:00
1654624800000,METAR SBRJ 071800Z 15009KT CAVOK 24/19 Q1010=,SBRJ,2022-06-07 18:00:00
1654628400000,METAR SBRJ 071900Z 17013KT CAVOK 24/18 Q1010=,SBRJ,2022-06-07 19:00:00
1654632000000,METAR SBRJ 072000Z 18015KT 9999 FEW010 23/20 Q1011=,SBRJ,2022-06-07 20:00:00
1654635600000,METAR SBRJ 072100Z 19014KT 9999 FEW010 23/19 Q1012=,SBRJ,2022-06-07 21:00:00
1654639200000,METAR SBRJ 072200Z 19010KT 9999 FEW010 23/20 Q1013=,SBRJ,2022-06-07 22:00:00
1654642800000,METAR SBRJ 072300Z 19006KT 160V220 CAVOK 23/20 Q1013=,SBRJ,2022-06-07 23:00:00
1654560000000,METAR SBSP 070000Z 32005KT 280V340 CAVOK 20/13 Q1019=,SBSP,2022-06-07 00:00:00
1654563600000,METAR SBSP 070100Z 34006KT CAVOK 19/14 Q1019=,SBSP,2022-06-07 01:00:00
1654567200000,METAR SBSP 070200Z 34006KT CAVOK 19/13 Q1019=,SBSP,2022-06-07 02:00:00
1654567260000,SPECI SBSP 070201Z 34006KT CAVOK 19/13 Q1018=,SBSP,2022-06-07 02:01:00
1654570800000,METAR SBSP 070300Z AUTO 33005KT 300V360 CAVOK 19/13 Q1018=,SBSP,2022-06-07 03:00:00
1654574400000,METAR SBSP 070400Z AUTO 20003KT CAVOK 18/13 Q1018=,SBSP,2022-06-07 04:00:00
1654578000000,METAR SBSP 070500Z AUTO VRB02KT CAVOK 17/13 Q1017=,SBSP,2022-06-07 05:00:00
1654581600000,METAR SBSP 070600Z AUTO 34004KT CAVOK 17/13 Q1016=,SBSP,2022-06-07 06:00:00
1654585200000,METAR SBSP 070700Z AUTO 00000KT CAVOK 16/12 Q1016=,SBSP,2022-06-07 07:00:00
1654588800000,METAR SBSP 070800Z AUTO VRB02KT CAVOK 15/12 Q1016=,SBSP,2022-06-07 08:00:00
1654592400000,METAR SBSP 070900Z 33002KT CAVOK 16/12 Q1016=,SBSP,2022-06-07 09:00:00
1654596000000,METAR SBSP 071000Z 06002KT CAVOK 16/12 Q1017=,SBSP,2022-06-07 10:00:00
1654599600000,METAR SBSP 071100Z 32003KT 260V020 CAVOK 18/13 Q1017=,SBSP,2022-06-07 11:00:00
1654603200000,METAR SBSP 071200Z VRB02KT CAVOK 19/13 Q1017=,SBSP,2022-06-07 12:00:00
1654606800000,METAR SBSP 071300Z 35006KT CAVOK 20/13 Q1017=,SBSP,2022-06-07 13:00:00
1654610400000,METAR SBSP 071400Z 01007KT 320V040 CAVOK 23/12 Q1017=,SBSP,2022-06-07 14:00:00
1654614000000,METAR SBSP 071500Z 30008KT CAVOK 23/13 Q1017=,SBSP,2022-06-07 15:00:00
1654617600000,METAR COR SBSP 071600Z 18013KT 9999 BKN043 23/13 Q1016=,SBSP,2022-06-07 16:00:00
1654621200000,METAR SBSP 071700Z 17009KT 9999 SCT015 BKN040 BKN080 20/16 Q1016=,SBSP,2022-06-07 17:00:00
1654624800000,METAR SBSP 071800Z 18010KT 9999 SCT010 BKN014 BKN080 19/15 Q1015=,SBSP,2022-06-07 18:00:00
1654628400000,METAR SBSP 071900Z 15008KT 9999 SCT008 BKN012 BKN080 18/15 Q1015=,SBSP,2022-06-07 19:00:00
1654630080000,SPECI SBSP 071928Z 13008KT 9999 BKN005 BKN010 17/15 Q1015=,SBSP,2022-06-07 19:28:00
1654632000000,METAR SBSP 072000Z 13007KT 8000 BKN005 BKN010 BKN012 17/15 Q1015=,SBSP,2022-06-07 20:00:00
1654633740000,SPECI SBSP 072029Z 13007KT 8000 BKN005 OVC009 17/15 Q1016=,SBSP,2022-06-07 20:29:00
1654635600000,METAR SBSP 072100Z 16008KT 8000 SCT005 BKN007 OVC012 17/15 Q1016=,SBSP,2022-06-07 21:00:00
1654637280000,SPECI SBSP 072128Z 13007KT 8000 -RA SCT004 OVC006 16/15 Q1016=,SBSP,2022-06-07 21:28:00
1654639200000,METAR SBSP 072200Z 21006KT 160V260 9000 -RA SCT004 BKN006 16/15 Q1017=,SBSP,2022-06-07 22:00:00
1654642800000,METAR SBSP 072300Z 17009KT 9000 BKN005 BKN020 16/15 Q1017=,SBSP,2022-06-07 23:00:00
1654644780000,SPECI COR SBSP 072333Z 10005KT 9000 RA SCT003 BKN020 16/15 Q1016=,SBSP,2022-06-07 23:33:00
1654560000000,METAR SBSV 070000Z 15011KT 9999 SCT023 BKN070 26/20 Q1016=,SBSV,2022-06-07 00:00:00
1654563600000,METAR SBSV 070100Z 16010KT 9999 SCT023 BKN070 26/20 Q1016=,SBSV,2022-06-07 01:00:00
1654567200000,METAR SBSV 070200Z 16010KT 9999 SCT023 BKN070 26/20 Q1016=,SBSV,2022-06-07 02:00:00
1654570800000,METAR SBSV 070300Z 15009KT 9999 SCT023 26/21 Q1015=,SBSV,2022-06-07 03:00:00
1654574400000,METAR SBSV 070400Z 16010KT 9999 SCT023 26/21 Q1015=,SBSV,2022-06-07 04:00:00
1654578000000,METAR SBSV 070500Z 15009KT 9999 SCT023 26/20 Q1015=,SBSV,2022-06-07 05:00:00
1654581600000,METAR SBSV 070600Z 17007KT 9999 SCT023 26/20 Q1014=,SBSV,2022-06-07 06:00:00
1654585200000,METAR SBSV 070700Z 17007KT 9999 SCT020 24/21 Q1014=,SBSV,2022-06-07 07:00:00
1654588800000,METAR SBSV 070800Z 13007KT 9999 SCT020 25/20 Q1014=,SBSV,2022-06-07 08:00:00
1654592400000,METAR SBSV 070900Z 13006KT 9999 BKN020 FEW023TCU BKN070 25/21 Q1015=,SBSV,2022-06-07 09:00:00
1654596000000,METAR SBSV 071000Z 14007KT 9999 SCT023 FEW025TCU 26/20 Q1015=,SBSV,2022-06-07 10:00:00
1654599600000,METAR SBSV 071100Z 15007KT 120V180 9999 FEW025 27/20 Q1016=,SBSV,2022-06-07 11:00:00
1654603200000,METAR SBSV 071200Z 14006KT 100V190 9999 FEW025 27/20 Q1016=,SBSV,2022-06-07 12:00:00
1654606800000,METAR SBSV 071300Z 20005KT 9999 3000NE SHRA BKN015 FEW023TCU BKN060 25/21 Q1016=,SBSV,2022-06-07 13:00:00
1654610400000,METAR COR SBSV 071400Z 20008KT 160V230 9999 SCT015 FEW025TCU BKN050 27/21 Q1014 RESHRA=,SBSV,2022-06-07 14:00:00
1654614000000,METAR SBSV 071500Z 21009KT 180V240 9999 VCSH SCT015 FEW025TCU BKN060 27/22 Q1015=,SBSV,2022-06-07 15:00:00
1654617600000,METAR SBSV 071600Z 21009KT 180V240 9999 SCT017 FEW025TCU SCT060 27/22 Q1014=,SBSV,2022-06-07 16:00:00
1654621200000,METAR SBSV 071700Z 21009KT 9999 SCT017 FEW025TCU SCT050 27/21 Q1013=,SBSV,2022-06-07 17:00:00
1654624800000,METAR SBSV 071800Z 21008KT 9999 SCT023 FEW026TCU 27/21 Q1013=,SBSV,2022-06-07 18:00:00
1654628400000,METAR SBSV 071900Z 20008KT 160V230 9999 SCT023 27/21 Q1013=,SBSV,2022-06-07 19:00:00
1654632000000,METAR SBSV 072000Z 20006KT 9999 SCT023 26/21 Q1013=,SBSV,2022-06-07 20:00:00
1654635600000,METAR SBSV 072100Z 22004KT 180V260 9999 FEW023 25/21 Q1013=,SBSV,2022-06-07 21:00:00
1654639200000,METAR SBSV 072200Z 22004KT CAVOK 25/21 Q1014=,SBSV,2022-06-07 22:00:00
1654642800000,METAR SBSV 072300Z 21003KT CAVOK 25/21 Q1014=,SBSV,2022-06-07 23:00:00
1654646400000,METAR SBBR 080000Z 25002KT CAVOK 20/11 Q1018=,SBBR,2022-06-08 00:00:00
1654650000000,METAR SBBR 080100Z VRB02KT CAVOK 18/11 Q1019=,SBBR,2022-06-08 01:00:00
1654653600000,METAR SBBR 080200Z VRB02KT CAVOK 17/11 Q1019=,SBBR,2022-06-08 02:00:00
1654657200000,METAR SBBR 080300Z 00000KT CAVOK 16/11 Q1019=,SBBR,2022-06-08 03:00:00
1654660800000,METAR SBBR 080400Z 27001KT CAVOK 15/11 Q1019=,SBBR,2022-06-08 04:00:00
1654664400000,METAR SBBR 080500Z 30001KT CAVOK 14/10 Q1019=,SBBR,2022-06-08 05:00:00
1654668000000,METAR SBBR 080600Z 00000KT CAVOK 13/10 Q1018=,SBBR,2022-06-08 06:00:00
1654671600000,METAR SBBR 080700Z 00000KT CAVOK 14/10 Q1018=,SBBR,2022-06-08 07:00:00
1654675200000,METAR SBBR 080800Z 24001KT CAVOK 12/10 Q1019=,SBBR,2022-06-08 08:00:00
1654678800000,METAR SBBR 080900Z 06002KT CAVOK 13/10 Q1019=,SBBR,2022-06-08 09:00:00
1654682400000,METAR SBBR 081000Z 00000KT CAVOK 13/10 Q1020=,SBBR,2022-06-08 10:00:00
1654686000000,METAR SBBR 081100Z 00000KT CAVOK 16/11 Q1020=,SBBR,2022-06-08 11:00:00
1654689600000,METAR SBBR 081200Z 04002KT CAVOK 20/12 Q1021=,SBBR,2022-06-08 12:00:00
1654693200000,METAR SBBR 081300Z 05001KT CAVOK 24/13 Q1021=,SBBR,2022-06-08 13:00:00
1654696800000,METAR SBBR 081400Z 06003KT CAVOK 26/10 Q1020=,SBBR,2022-06-08 14:00:00
1654700400000,METAR SBBR 081500Z 22004KT 9999 FEW030 27/10 Q1019=,SBBR,2022-06-08 15:00:00
1654704000000,METAR SBBR 081600Z 18003KT 9999 FEW035 28/10 Q1018=,SBBR,2022-06-08 16:00:00
1654707600000,METAR SBBR 081700Z 12008KT 060V160 9999 FEW040 28/10 Q1017=,SBBR,2022-06-08 17:00:00
1654711200000,METAR SBBR 081800Z 18005KT 100V240 9999 FEW040 27/10 Q1016=,SBBR,2022-06-08 18:00:00
1654714800000,METAR SBBR 081900Z 13007KT 090V160 9999 FEW040 28/09 Q1016=,SBBR,2022-06-08 19:00:00
1654718400000,METAR SBBR 082000Z 12006KT 9999 FEW040 27/10 Q1016=,SBBR,2022-06-08 20:00:00
1654722000000,METAR SBBR 082100Z 12007KT CAVOK 25/10 Q1017=,SBBR,2022-06-08 21:00:00
1654725600000,METAR SBBR 082200Z 11006KT CAVOK 24/10 Q1017=,SBBR,2022-06-08 22:00:00
1654729200000,METAR SBBR 082300Z 22001KT CAVOK 22/10 Q1018=,SBBR,2022-06-08 23:00:00
1654646400000,METAR SBCF 080000Z 00000KT CAVOK 19/11 Q1017=,SBCF,2022-06-08 00:00:00
1654650000000,METAR SBCF 080100Z 15003KT CAVOK 17/12 Q1018=,SBCF,2022-06-08 01:00:00
1654653600000,METAR SBCF 080200Z 19002KT CAVOK 15/11 Q1018=,SBCF,2022-06-08 02:00:00
1654657200000,METAR SBCF 080300Z 00000KT CAVOK 15/11 Q1018=,SBCF,2022-06-08 03:00:00
1654660800000,METAR SBCF 080400Z 12002KT CAVOK 14/11 Q1017=,SBCF,2022-06-08 04:00:00
1654664400000,METAR SBCF 080500Z 00000KT CAVOK 13/11 Q1017=,SBCF,2022-06-08 05:00:00
1654668000000,METAR SBCF 080600Z 07002KT CAVOK 13/11 Q1017=,SBCF,2022-06-08 06:00:00
1654671600000,METAR SBCF 080700Z 09002KT CAVOK 12/11 Q1017=,SBCF,2022-06-08 07:00:00
1654675200000,METAR SBCF 080800Z 14002KT CAVOK 11/10 Q1017=,SBCF,2022-06-08 08:00:00
1654678800000,METAR SBCF 080900Z 13002KT 9999 MIFG NSC 12/11 Q1018=,SBCF,2022-06-08 09:00:00
1654682400000,METAR SBCF 081000Z 11002KT CAVOK 12/11 Q1018=,SBCF,2022-06-08 10:00:00
1654686000000,METAR SBCF 081100Z 15002KT CAVOK 13/11 Q1019=,SBCF,2022-06-08 11:00:00
1654689600000,METAR SBCF 081200Z 18002KT CAVOK 16/12 Q1019=,SBCF,2022-06-08 12:00:00
1654693200000,METAR SBCF 081300Z 16003KT CAVOK 19/12 Q1020=,SBCF,2022-06-08 13:00:00
1654696800000,METAR SBCF 081400Z 20003KT CAVOK 23/12 Q1019=,SBCF,2022-06-08 14:00:00
1654700400000,METAR SBCF 081500Z 21004KT CAVOK 25/11 Q1018=,SBCF,2022-06-08 15:00:00
1654704000000,METAR COR SBCF 081600Z 23004KT CAVOK 26/11 Q1017=,SBCF,2022-06-08 16:00:00
1654707600000,METAR SBCF 081700Z 17004KT CAVOK 26/12 Q1016=,SBCF,2022-06-08 17:00:00
1654711200000,METAR SBCF 081800Z 21005KT CAVOK 27/12 Q1015=,SBCF,2022-06-08 18:00:00
1654714800000,METAR SBCF 081900Z 20008KT CAVOK 26/12 Q1016=,SBCF,2022-06-08 19:00:00
1654718400000,METAR SBCF 082000Z 23002KT CAVOK 24/12 Q1016=,SBCF,2022-06-08 20:00:00
1654722000000,METAR SBCF 082100Z 22004KT CAVOK 24/12 Q1016=,SBCF,2022-06-08 21:00:00
1654725600000,METAR SBCF 082200Z 20002KT CAVOK 22/12 Q1017=,SBCF,2022-06-08 22:00:00
1654729200000,METAR SBCF 082300Z 18003KT CAVOK 21/13 Q1017=,SBCF,2022-06-08 23:00:00
1654646400000,METAR SBCT 080000Z 14009KT 7000 OVC003 14/14 Q1016=,SBCT,2022-06-08 00:00:00
1654650000000,METAR SBCT 080100Z 12005KT 9999 OVC003 14/14 Q1016=,SBCT,2022-06-08 01:00:00
1654653600000,METAR SBCT 080200Z 13007KT 9999 BKN004 OVC009 14/14 Q1016=,SBCT,2022-06-08 02:00:00
1654655580000,SPECI SBCT 080233Z 12004KT 8000 3000SE BCFG BKN002 OVC005 13/13 Q1016=,SBCT,2022-06-08 02:33:00
1654657200000,METAR SBCT 080300Z 10003KT 070V130 5000 2000SE -DZ BCFG BKN002 OVC005 13/13 Q1016=,SBCT,2022-06-08 03:00:00
1654660800000,METAR SBCT 080400Z 08004KT 9999 BKN002 BKN010 13/13 Q1016=,SBCT,2022-06-08 04:00:00
1654664400000,METAR SBCT 080500Z 10003KT 9999 BKN004 OVC011 13/13 Q1016=,SBCT,2022-06-08 05:00:00
1654668000000,METAR SBCT 080600Z 09003KT 050V130 9999 BKN003 OVC007 13/13 Q1016=,SBCT,2022-06-08 06:00:00
1654671600000,METAR SBCT 080700Z 09003KT 9999 SCT002 BKN003 OVC006 13/13 Q1016=,SBCT,2022-06-08 07:00:00
1654675200000,METAR SBCT 080800Z VRB01KT 9000 BKN002 OVC005 13/13 Q1017=,SBCT,2022-06-08 08:00:00
1654678800000,METAR SBCT 080900Z 11003KT 9999 BKN003 OVC005 13/13 Q1017=,SBCT,2022-06-08 09:00:00
1654682400000,METAR SBCT 081000Z 12003KT 090V150 6000 BKN002 OVC005 13/13 Q1018=,SBCT,2022-06-08 10:00:00
1654686000000,METAR SBCT 081100Z 12004KT 9999 BKN003 OVC005 13/13 Q1019=,SBCT,2022-06-08 11:00:00
1654689600000,METAR SBCT 081200Z 11005KT 9999 BKN005 OVC012 14/14 Q1019=,SBCT,2022-06-08 12:00:00
1654693200000,METAR SBCT 081300Z 12005KT 9999 OVC006 15/14 Q1020=,SBCT,2022-06-08 13:00:00
1654696800000,METAR SBCT 081400Z 13006KT 9999 BKN008 BKN014 15/14 Q1020=,SBCT,2022-06-08 14:00:00
1654700400000,METAR SBCT 081500Z 12007KT 9999 BKN010 BKN020 16/14 Q1019=,SBCT,2022-06-08 15:00:00
1654704000000,METAR SBCT 081600Z 13006KT 9999 BKN010 BKN025 16/14 Q1018=,SBCT,2022-06-08 16:00:00
1654707600000,METAR SBCT 081700Z 14007KT 9999 BKN013 BKN030 17/14 Q1018=,SBCT,2022-06-08 17:00:00
1654711200000,METAR SBCT 081800Z 11007KT 9999 SCT014 BKN025 BKN070 18/13 Q1017=,SBCT,2022-06-08 18:00:00
1654714800000,METAR SBCT 081900Z 14009KT 9999 SCT014 BKN060 16/14 Q1017=,SBCT,2022-06-08 19:00:00
1654718400000,METAR SBCT 082000Z 12010KT 9999 SCT013 BKN050 15/13 Q1017=,SBCT,2022-06-08 20:00:00
1654721100000,SPECI SBCT 082045Z 14009KT 5000 BR BKN006 BKN016 14/14 Q1018=,SBCT,2022-06-08 20:45:00
1654722000000,METAR SBCT 082100Z 14008KT 5000 BR BKN006 OVC013 14/14 Q1018=,SBCT,2022-06-08 21:00:00
1654725600000,METAR SBCT 082200Z 13006KT 8000 BKN005 OVC020 14/14 Q1019=,SBCT,2022-06-08 22:00:00
1654729200000,METAR SBCT 082300Z 12007KT 9000 BKN005 OVC018 13/13 Q1020=,SBCT,2022-06-08 23:00:00
1654646400000,METAR SBFL 080000Z 20009KT 9999 SCT014 OVC030 17/16 Q1014=,SBFL,2022-06-08 00:00:00
1654650000000,METAR SBFL 080100Z 17007KT 9999 SCT014 OVC030 18/16 Q1015=,SBFL,2022-06-08 01:00:00
1654653600000,METAR SBFL 080200Z 20010KT 9999 SCT014 OVC030 17/16 Q1015=,SBFL,2022-06-08 02:00:00
1654657200000,METAR SBFL 080300Z 20010KT 9999 SCT008 OVC030 17/16 Q1015=,SBFL,2022-06-08 03:00:00
1654660800000,METAR SBFL 080400Z 20009KT 6000 SCT008 OVC030 17/16 Q1015=,SBFL,2022-06-08 04:00:00
1654664400000,METAR SBFL 080500Z 20010KT 9999 SCT008 OVC030 17/16 Q1015=,SBFL,2022-06-08 05:00:00
1654668000000,METAR SBFL 080600Z 19009KT 9999 SCT008 OVC030 17/16 Q1015=,SBFL,2022-06-08 06:00:00
1654671600000,METAR SBFL 080700Z 20011KT 9999 SCT008 BKN030 17/16 Q1015=,SBFL,2022-06-08 07:00:00
1654675200000,METAR SBFL 080800Z 20010KT 9999 SCT008 BKN030 17/16 Q1015=,SBFL,2022-06-08 08:00:00
1654678800000,METAR SBFL 080900Z 20006KT 9999 SCT008 BKN023 17/15 Q1016=,SBFL,2022-06-08 09:00:00
1654682400000,METAR SBFL 081000Z 21004KT 9999 BKN030 17/15 Q1016=,SBFL,2022-06-08 10:00:00
1654686000000,METAR SBFL 081100Z 19004KT 160V220 9999 BKN036 BKN070 18/16 Q1017=,SBFL,2022-06-08 11:00:00
1654689600000,METAR SBFL 081200Z 19005KT 9999 BKN043 SCT070 19/15 Q1017=,SBFL,2022-06-08 12:00:00
1654693200000,METAR SBFL 081300Z 19007KT 160V220 9999 BKN043 SCT070 20/16 Q1018=,SBFL,2022-06-08 13:00:00
1654696800000,METAR SBFL 081400Z 20008KT 9999 FEW033 SCT070 20/15 Q1018=,SBFL,2022-06-08 14:00:00
1654700400000,METAR SBFL 081500Z 17007KT 130V200 9999 SCT026 21/16 Q1017=,SBFL,2022-06-08 15:00:00
1654704000000,METAR SBFL 081600Z 14009KT 9999 SCT026 BKN044 21/15 Q1016=,SBFL,2022-06-08 16:00:00
1654707600000,METAR SBFL 081700Z 13009KT 100V160 9999 FEW026 SCT050 21/15 Q1016=,SBFL,2022-06-08 17:00:00
1654711200000,METAR SBFL 081800Z 10010KT 9999 FEW026 SCT050 20/15 Q1016=,SBFL,2022-06-08 18:00:00
1654714800000,METAR SBFL 081900Z 14005KT 9999 FEW026 SCT050 20/15 Q1016=,SBFL,2022-06-08 19:00:00
1654718400000,METAR SBFL 082000Z 19003KT 9999 BKN040 SCT070 19/16 Q1016=,SBFL,2022-06-08 20:00:00
1654722000000,METAR SBFL 082100Z 20004KT 9999 BKN040 SCT070 18/16 Q1017=,SBFL,2022-06-08 21:00:00
1654725600000,METAR SBFL 082200Z 07002KT 9999 BKN040 SCT070 18/16 Q1017=,SBFL,2022-06-08 22:00:00
1654729200000,METAR SBFL 082300Z 00000KT 9999 BKN040 SCT070 17/15 Q1017=,SBFL,2022-06-08 23:00:00
1654646400000,METAR SBGL 080000Z 26004KT 9999 FEW030 BKN100 22/19 Q1014=,SBGL,2022-06-08 00:00:00
1654650000000,METAR SBGL 080100Z 06003KT 9999 FEW025 OVC040 21/19 Q1014=,SBGL,2022-06-08 01:00:00
1654653600000,METAR SBGL 080200Z 09003KT 9999 FEW025 BKN040 21/19 Q1014=,SBGL,2022-06-08 02:00:00
1654657200000,METAR SBGL 080300Z 08002KT 9999 FEW020 BKN040 20/18 Q1013=,SBGL,2022-06-08 03:00:00
1654660800000,METAR SBGL 080400Z 07002KT 9999 FEW020 SCT040 19/18 Q1013=,SBGL,2022-06-08 04:00:00
1654664400000,METAR SBGL 080500Z 04004KT 9999 FEW020 SCT040 19/17 Q1013=,SBGL,2022-06-08 05:00:00
1654668000000,METAR SBGL 080600Z 35004KT 9999 FEW020 SCT040 18/17 Q1012=,SBGL,2022-06-08 06:00:00
1654671600000,METAR SBGL 080700Z 32002KT 9999 FEW015 BKN040 18/16 Q1012=,SBGL,2022-06-08 07:00:00
1654675200000,METAR SBGL 080800Z 01003KT 8000 FEW015 BKN040 17/16 Q1012=,SBGL,2022-06-08 08:00:00
1654678800000,METAR SBGL 080900Z 00000KT 6000 FEW015 BKN040 19/18 Q1013=,SBGL,2022-06-08 09:00:00
1654682400000,METAR SBGL 081000Z 06003KT 4000 BR FEW010 BKN050 20/19 Q1013=,SBGL,2022-06-08 10:00:00
1654686000000,METAR SBGL 081100Z 05005KT 4000 BR FEW008 BKN050 20/19 Q1013=,SBGL,2022-06-08 11:00:00
1654689600000,METAR SBGL 081200Z 05003KT 5000 BR FEW008 BKN100 22/20 Q1014=,SBGL,2022-06-08 12:00:00
1654693200000,METAR SBGL 081300Z 22002KT 6000 FEW010 BKN100 23/19 Q1014=,SBGL,2022-06-08 13:00:00
1654696800000,METAR SBGL 081400Z 33002KT 7000 FEW010 BKN100 25/20 Q1013=,SBGL,2022-06-08 14:00:00
1654700400000,METAR SBGL 081500Z 03003KT 7000 FEW010 BKN100 25/20 Q1013=,SBGL,2022-06-08 15:00:00
1654704000000,METAR SBGL 081600Z 25008KT 8000 FEW010 BKN100 27/18 Q1013=,SBGL,2022-06-08 16:00:00
1654707600000,METAR SBGL 081700Z 21012KT 8000 FEW015 BKN100 26/19 Q1012=,SBGL,2022-06-08 17:00:00
1654711200000,METAR SBGL 081800Z 21013KT 9999 FEW015 BKN100 25/18 Q1013=,SBGL,2022-06-08 18:00:00
1654714800000,METAR SBGL 081900Z 22014KT 9999 FEW015 SCT050 BKN100 24/18 Q1013=,SBGL,2022-06-08 19:00:00
1654718400000,METAR SBGL 082000Z 22012KT 6000 -RA FEW012 SCT040 BKN100 22/19 Q1014=,SBGL,2022-06-08 20:00:00
1654722000000,METAR SBGL 082100Z 23008KT 8000 FEW012 SCT030 BKN040 22/19 Q1014=,SBGL,2022-06-08 21:00:00
1654725600000,METAR SBGL 082200Z 25006KT 9999 FEW012 SCT030 BKN040 23/19 Q1015=,SBGL,2022-06-08 22:00:00
1654729200000,METAR SBGL 082300Z 26008KT 9999 SCT020 BKN050 22/19 Q1015=,SBGL,2022-06-08 23:00:00
1654646400000,METAR SBGR 080000Z 05002KT 6000 -RA BKN009 OVC020 17/17 Q1017=,SBGR,2022-06-08 00:00:00
1654650000000,METAR SBGR 080100Z 05007KT 9999 -RA BKN009 OVC070 17/17 Q1016=,SBGR,2022-06-08 01:00:00
1654653600000,METAR SBGR 080200Z 07004KT 8000 -RA BKN008 OVC070 17/17 Q1016=,SBGR,2022-06-08 02:00:00
1654657200000,METAR SBGR 080300Z 08003KT 8000 -RA BKN008 OVC070 17/17 Q1016=,SBGR,2022-06-08 03:00:00
1654660800000,METAR SBGR 080400Z 10004KT 6000 -RA BKN008 BKN080 17/17 Q1016 RERA=,SBGR,2022-06-08 04:00:00
1654664400000,METAR SBGR 080500Z 08006KT 5000 2000E -RA BR SCT002 BKN008 BKN080 16/16 Q1016=,SBGR,2022-06-08 05:00:00
1654668000000,METAR SBGR 080600Z 12003KT 5000 2000E -RA BR FEW003 BKN007 BKN080 16/16 Q1015=,SBGR,2022-06-08 06:00:00
1654671600000,METAR SBGR 080700Z 05006KT 5000 2000E -RA BR FEW003 BKN006 16/16 Q1015=,SBGR,2022-06-08 07:00:00
1654674300000,SPECI SBGR 080745Z 11003KT 2000 BCFG BKN004 16/16 Q1015=,SBGR,2022-06-08 07:45:00
1654675200000,METAR SBGR 080800Z 14002KT 2000 BCFG BKN002 16/16 Q1015=,SBGR,2022-06-08 08:00:00
1654678800000,METAR SBGR 080900Z 26001KT 2000 BCFG BKN004 16/16 Q1016=,SBGR,2022-06-08 09:00:00
1654682400000,METAR SBGR 081000Z 36002KT 2000 BCFG OVC005 16/16 Q1017=,SBGR,2022-06-08 10:00:00
1654686000000,METAR SBGR 081100Z 18002KT 2000 BCFG OVC004 16/16 Q1018=,SBGR,2022-06-08 11:00:00
1654689600000,METAR SBGR 081200Z VRB02KT 2500 BR OVC005 17/17 Q1018=,SBGR,2022-06-08 12:00:00
1654693200000,METAR SBGR 081300Z 04002KT 3000 BR SCT005 OVC007 18/17 Q1018=,SBGR,2022-06-08 13:00:00
1654696800000,METAR SBGR 081400Z VRB02KT 3000 -DZ BR BKN009 BKN011 18/17 Q1018=,SBGR,2022-06-08 14:00:00
1654700400000,METAR SBGR 081500Z 20003KT 150V260 3000 -DZ BKN008 OVC011 18/17 Q1018=,SBGR,2022-06-08 15:00:00
1654704000000,METAR SBGR 081600Z 17003KT 3000 BR OVC007 17/17 Q1017=,SBGR,2022-06-08 16:00:00
1654707600000,METAR COR SBGR 081700Z 18003KT 3000 BR OVC007 17/17 Q1017=,SBGR,2022-06-08 17:00:00
1654711200000,METAR SBGR 081800Z 14004KT 6000 OVC007 17/17 Q1016=,SBGR,2022-06-08 18:00:00
1654714800000,METAR SBGR 081900Z 19002KT 6000 BKN009 BKN013 18/17 Q1016=,SBGR,2022-06-08 19:00:00
1654718400000,METAR SBGR 082000Z 14004KT 110V180 9000 OVC011 17/16 Q1017=,SBGR,2022-06-08 20:00:00
1654722000000,METAR SBGR 082100Z 16005KT 9000 OVC009 17/16 Q1017=,SBGR,2022-06-08 21:00:00
1654725600000,METAR SBGR 082200Z 12004KT 090V170 9999 BKN009 BKN020 16/15 Q1018=,SBGR,2022-06-08 22:00:00
1654729200000,METAR SBGR 082300Z 13003KT 070V170 9000 OVC009 16/15 Q1018=,SBGR,2022-06-08 23:00:00
1654646400000,METAR SBKP 080000Z 19010KT 9999 VCSH FEW045 BKN070 20/16 Q1015=,SBKP,2022-06-08 00:00:00
1654650000000,METAR SBKP 080100Z 11008KT 9999 VCSH FEW040 BKN070 20/16 Q1014=,SBKP,2022-06-08 01:00:00
1654650600000,SPECI SBKP 080110Z 22013KT 3000 RA BR FEW040 FEW045TCU BKN070 19/17 Q1016=,SBKP,2022-06-08 01:10:00
1654651500000,SPECI SBKP 080125Z 24004KT 4000 -RA BR FEW040 FEW045TCU OVC070 19/17 Q1016 RERA=,SBKP,2022-06-08 01:25:00
1654653600000,METAR SBKP 080200Z 10004KT 9999 -RA FEW040 BKN070 18/17 Q1016 RERA=,SBKP,2022-06-08 02:00:00
1654657200000,METAR SBKP 080300Z 10004KT 8000 FEW007 SCT040 BKN100 18/17 Q1015=,SBKP,2022-06-08 03:00:00
1654660800000,METAR SBKP 080400Z 11006KT 8000 FEW040 17/17 Q1015=,SBKP,2022-06-08 04:00:00
1654664400000,METAR SBKP 080500Z 12005KT 8000 SCT045 SCT070 17/16 Q1015=,SBKP,2022-06-08 05:00:00
1654668000000,METAR SBKP 080600Z 12007KT 7000 FEW045 17/16 Q1015=,SBKP,2022-06-08 06:00:00
1654671600000,METAR SBKP 080700Z 11007KT 5000 BR FEW045 BKN083 17/16 Q1014=,SBKP,2022-06-08 07:00:00
1654675200000,METAR SBKP 080800Z 11003KT 5000 BR FEW045 SCT083 17/16 Q1015=,SBKP,2022-06-08 08:00:00
1654678800000,METAR SBKP 080900Z 08002KT 5000 BR NSC 17/16 Q1015=,SBKP,2022-06-08 09:00:00
1654682400000,METAR SBKP 081000Z 17004KT 5000 2400S BR NSC 17/16 Q1016=,SBKP,2022-06-08 10:00:00
1654686000000,METAR SBKP 081100Z 19003KT 4000 BR FEW040 BKN090 18/16 Q1017=,SBKP,2022-06-08 11:00:00
1654689600000,METAR SBKP 081200Z 21003KT 4500 BR FEW006 BKN090 19/16 Q1018=,SBKP,2022-06-08 12:00:00
1654693200000,METAR SBKP 081300Z 00000KT 4500 BR FEW007 BKN090 19/17 Q1018=,SBKP,2022-06-08 13:00:00
1654696800000,METAR SBKP 081400Z 00000KT 6000 FEW007 SCT040 20/17 Q1018=,SBKP,2022-06-08 14:00:00
1654700400000,METAR SBKP 081500Z VRB02KT 6000 SCT025 BKN080 22/17 Q1017=,SBKP,2022-06-08 15:00:00
1654704000000,METAR SBKP 081600Z VRB03KT 7000 SCT035 BKN080 22/17 Q1016=,SBKP,2022-06-08 16:00:00
1654707600000,METAR SBKP 081700Z VRB04KT 6000 SCT035 BKN080 23/17 Q1015=,SBKP,2022-06-08 17:00:00
1654711200000,METAR SBKP 081800Z 26005KT 190V310 7000 FEW040 BKN080 23/16 Q1015=,SBKP,2022-06-08 18:00:00
1654714800000,METAR SBKP 081900Z 22007KT 6000 SCT045 BKN080 22/17 Q1015=,SBKP,2022-06-08 19:00:00
1654718400000,METAR SBKP 082000Z 22006KT 160V240 6000 SCT045 BKN080 22/17 Q1015=,SBKP,2022-06-08 20:00:00
1654722000000,METAR SBKP 082100Z 18007KT 5000 BR FEW017 21/17 Q1016=,SBKP,2022-06-08 21:00:00
1654725600000,METAR SBKP 082200Z 13008KT 6000 FEW020 SCT055 19/17 Q1016=,SBKP,2022-06-08 22:00:00
1654729200000,METAR SBKP 082300Z 14009KT 6000 SCT020 SCT055 19/16 Q1017=,SBKP,2022-06-08 23:00:00
1654646400000,METAR SBPA 080000Z 16004KT 120V180 9999 SCT033 BKN060 16/14 Q1016=,SBPA,2022-06-08 00:00:00
1654650000000,METAR SBPA 080100Z 12008KT 9999 FEW033 BKN060 17/14 Q1016=,SBPA,2022-06-08 01:00:00
1654653600000,METAR SBPA 080200Z 03004KT 9999 FEW030 BKN050 16/14 Q1016=,SBPA,2022-06-08 02:00:00
1654657200000,METAR SBPA 080300Z 07004KT 9999 FEW030 BKN066 15/14 Q1016=,SBPA,2022-06-08 03:00:00
1654660800000,METAR SBPA 080400Z 07004KT 9999 FEW030 SCT050 14/14 Q1016=,SBPA,2022-06-08 04:00:00
1654664400000,METAR SBPA 080500Z 07003KT 6000 FEW005 13/13 Q1016=,SBPA,2022-06-08 05:00:00
1654666200000,SPECI SBPA 080530Z 05003KT 0700 R29///// R11/P2000 FG BKN002 13/13 Q1016=,SBPA,2022-06-08 05:30:00
1654667040000,SPECI SBPA 080544Z VRB02KT 3000 0700W R29///// R11/P2000 PRFG SCT008 12/12 Q1015=,SBPA,2022-06-08 05:44:00
1654668000000,METAR SBPA 080600Z 11003KT 3000 0700E R29///// R11/P2000 PRFG SCT008 13/12 Q1015=,SBPA,2022-06-08 06:00:00
1654671600000,METAR SBPA 080700Z 29002KT 5000 2000W BR FEW008 12/12 Q1016=,SBPA,2022-06-08 07:00:00
1654672200000,SPECI SBPA 080710Z 31001KT 2300 BR PRFG SCT008 11/11 Q1016=,SBPA,2022-06-08 07:10:00
1654673760000,SPECI SBPA 080736Z 30002KT 0100 R29///// R11/0450 FG VV002 12/12 Q1016=,SBPA,2022-06-08 07:36:00
1654675200000,METAR SBPA 080800Z VRB02KT 0050 R29///// R11/0500 FG VV002 12/12 Q1016=,SBPA,2022-06-08 08:00:00
1654678800000,METAR SBPA 080900Z 09003KT 0300 R29///// R11/0750 FG VV002 12/12 Q1016=,SBPA,2022-06-08 09:00:00
1654682400000,METAR SBPA 081000Z 00000KT 0300 R29///// R11/0800 FG VV002 12/12 Q1017=,SBPA,2022-06-08 10:00:00
1654686000000,METAR SBPA 081100Z 05003KT 0400 R29///// R11/1500 FG VV002 13/13 Q1018=,SBPA,2022-06-08 11:00:00
1654689600000,METAR SBPA 081200Z 08002KT 0400 R29///// R11/1300 FG VV002 12/12 Q1018=,SBPA,2022-06-08 12:00:00
1654693200000,METAR SBPA 081300Z VRB01KT 2000 BR OVC002 13/13 Q1018=,SBPA,2022-06-08 13:00:00
1654696800000,METAR SBPA 081400Z VRB02KT 2500 BR OVC003 14/14 Q1018=,SBPA,2022-06-08 14:00:00
1654700400000,METAR SBPA 081500Z VRB02KT 5000 BR SCT004 BKN015 15/15 Q1018=,SBPA,2022-06-08 15:00:00
1654704000000,METAR SBPA 081600Z VRB02KT 9999 FEW030 19/15 Q1017=,SBPA,2022-06-08 16:00:00
1654707600000,METAR SBPA 081700Z 27004KT 240V310 9999 FEW015 19/15 Q1016=,SBPA,2022-06-08 17:00:00
1654711200000,METAR SBPA 081800Z 27004KT 230V310 9999 FEW020 19/15 Q1015=,SBPA,2022-06-08 18:00:00
1654714800000,METAR SBPA 081900Z 27005KT 240V300 9999 FEW015 19/16 Q1015=,SBPA,2022-06-08 19:00:00
1654718400000,METAR SBPA 082000Z 29005KT 9999 FEW015 18/15 Q1015=,SBPA,2022-06-08 20:00:00
1654722000000,METAR SBPA 082100Z VRB02KT 9999 FEW015 16/15 Q1016=,SBPA,2022-06-08 21:00:00
1654725600000,METAR SBPA 082200Z VRB01KT CAVOK 15/14 Q1016=,SBPA,2022-06-08 22:00:00
1654729200000,METAR SBPA 082300Z 12002KT CAVOK 16/15 Q1016=,SBPA,2022-06-08 23:00:00
1654646400000,METAR SBRF 080000Z VRB02KT 9999 FEW025 24/23 Q1013=,SBRF,2022-06-08 00:00:00
1654650000000,METAR SBRF 080100Z 20001KT 9999 SCT025 24/23 Q1013=,SBRF,2022-06-08 01:00:00
1654653600000,METAR SBRF 080200Z 21002KT 9999 SCT023 24/23 Q1013=,SBRF,2022-06-08 02:00:00
1654657200000,METAR SBRF 080300Z 00000KT 9999 FEW025 23/23 Q1013=,SBRF,2022-06-08 03:00:00
1654660800000,METAR SBRF 080400Z 23003KT 9999 FEW025 23/23 Q1012=,SBRF,2022-06-08 04:00:00
1654664400000,METAR SBRF 080500Z 20003KT 160V250 9999 SCT023 SCT090 23/22 Q1012=,SBRF,2022-06-08 05:00:00
1654668000000,METAR SBRF 080600Z VRB02KT 9999 SCT025 BKN100 23/22 Q1012=,SBRF,2022-06-08 06:00:00
1654671600000,METAR SBRF 080700Z VRB02KT 9999 FEW025 OVC100 23/23 Q1012=,SBRF,2022-06-08 07:00:00
1654675200000,METAR SBRF 080800Z 00000KT 9999 FEW025 SCT100 23/22 Q1012=,SBRF,2022-06-08 08:00:00
1654678800000,METAR SBRF 080900Z VRB02KT 9999 FEW025 23/22 Q1012=,SBRF,2022-06-08 09:00:00
1654682400000,METAR SBRF 081000Z 00000KT CAVOK 25/23 Q1013=,SBRF,2022-06-08 10:00:00
1654686000000,METAR SBRF 081100Z 19004KT 9999 FEW023 26/23 Q1014=,SBRF,2022-06-08 11:00:00
1654689600000,METAR SBRF 081200Z 18005KT 9999 SCT020 27/23 Q1014=,SBRF,2022-06-08 12:00:00
1654693200000,METAR SBRF 081300Z 15006KT 9999 SCT020 28/22 Q1014=,SBRF,2022-06-08 13:00:00
1654696800000,METAR SBRF 081400Z 15008KT 9999 SCT023 29/23 Q1014=,SBRF,2022-06-08 14:00:00
1654700400000,METAR SBRF 081500Z 15009KT 9999 SCT023 28/23 Q1013=,SBRF,2022-06-08 15:00:00
1654704000000,METAR SBRF 081600Z 15010KT 120V180 9999 SCT023 29/23 Q1012=,SBRF,2022-06-08 16:00:00
1654707600000,METAR SBRF 081700Z 14009KT 110V180 9999 FEW025 29/23 Q1011=,SBRF,2022-06-08 17:00:00
1654711200000,METAR SBRF 081800Z 14010KT 9999 FEW025 28/23 Q1011=,SBRF,2022-06-08 18:00:00
1654714800000,METAR SBRF 081900Z 15010KT 9999 SCT020 FEW023TCU 28/24 Q1012=,SBRF,2022-06-08 19:00:00
1654718400000,METAR SBRF 082000Z VRB07KT 9999 SCT020 FEW023TCU 27/24 Q1012=,SBRF,2022-06-08 20:00:00
1654722000000,METAR SBRF 082100Z 15008KT 9999 SCT018 27/24 Q1013=,SBRF,2022-06-08 21:00:00
1654725600000,METAR SBRF 082200Z 16008KT 9999 SCT018 26/24 Q1013=,SBRF,2022-06-08 22:00:00
1654729200000,METAR SBRF 082300Z 15008KT 8000 -RA BKN015 FEW023TCU 26/24 Q1013=,SBRF,2022-06-08 23:00:00
1654646400000,METAR SBRJ 080000Z VRB02KT CAVOK 22/19 Q1013=,SBRJ,2022-06-08 00:00:00
1654650000000,METAR SBRJ 080100Z VRB03KT 9999 SCT040 23/20 Q1013=,SBRJ,2022-06-08 01:00:00
1654653600000,METAR SBRJ 080200Z 32003KT 9999 SCT040 22/20 Q1013=,SBRJ,2022-06-08 02:00:00
1654678200000,SPECI SBRJ 080850Z 04007KT 5000 BR BKN010 OVC040 21/20 Q1012=,SBRJ,2022-06-08 08:50:00
1654678800000,METAR SBRJ 080900Z 05006KT 5000 BR BKN010 OVC040 21/20 Q1012=,SBRJ,2022-06-08 09:00:00
1654682400000,METAR SBRJ 081000Z 02006KT 6000 SCT010 SCT040 BKN100 21/20 Q1012=,SBRJ,2022-06-08 10:00:00
1654686000000,METAR SBRJ 081100Z 03008KT 5000 BR FEW007 SCT040 BKN100 21/20 Q1013=,SBRJ,2022-06-08 11:00:00
1654689600000,METAR SBRJ 081200Z 36005KT 5000 BR FEW007 SCT040 BKN100 22/20 Q1013=,SBRJ,2022-06-08 12:00:00
1654693200000,METAR SBRJ 081300Z 36004KT 6000 FEW040 BKN090 22/20 Q1014=,SBRJ,2022-06-08 13:00:00
1654696800000,METAR SBRJ 081400Z 06002KT 6000 FEW040 BKN090 23/20 Q1013=,SBRJ,2022-06-08 14:00:00
1654700400000,METAR SBRJ 081500Z 15004KT 7000 FEW040 BKN090 25/21 Q1013=,SBRJ,2022-06-08 15:00:00
1654704000000,METAR SBRJ 081600Z 18012KT 8000 FEW018 SCT040 BKN090 24/20 Q1013=,SBRJ,2022-06-08 16:00:00
1654707600000,METAR SBRJ 081700Z 19012KT 8000 FEW018 SCT040 BKN090 25/20 Q1012=,SBRJ,2022-06-08 17:00:00
1654711200000,METAR SBRJ 081800Z 19012KT 8000 FEW018 BKN080 24/20 Q1012=,SBRJ,2022-06-08 18:00:00
1654714800000,METAR SBRJ 081900Z 20011KT 9999 FEW018 BKN090 24/19 Q1013=,SBRJ,2022-06-08 19:00:00
1654718400000,METAR SBRJ 082000Z 20009KT 9999 FEW018 SCT050 BKN090 24/19 Q1013=,SBRJ,2022-06-08 20:00:00
1654722000000,METAR SBRJ 082100Z 20006KT 9999 FEW018 SCT030 BKN100 24/19 Q1013=,SBRJ,2022-06-08 21:00:00
1654725600000,METAR SBRJ 082200Z 06002KT 9999 FEW018 BKN040 23/19 Q1014=,SBRJ,2022-06-08 22:00:00
1654729200000,METAR SBRJ 082300Z 18005KT 9999 FEW015 BKN050 23/19 Q1014=,SBRJ,2022-06-08 23:00:00
1654646400000,METAR SBSP 080000Z 07004KT 040V100 9000 RA SCT005 BKN030 16/15 Q1017=,SBSP,2022-06-08 00:00:00
1654647300000,SPECI SBSP 080015Z 06004KT 9000 -RA SCT005 BKN030 16/15 Q1016 RERA=,SBSP,2022-06-08 00:15:00
1654650000000,METAR SBSP 080100Z 06003KT 030V090 9000 BKN005 BKN030 16/15 Q1017 RERA=,SBSP,2022-06-08 01:00:00
1654650600000,SPECI SBSP 080110Z 05003KT 020V090 9999 FEW003 16/15 Q1016=,SBSP,2022-06-08 01:10:00
1654652220000,SPECI SBSP 080137Z 23003KT 9000 RA BKN004 BKN030 16/15 Q1017=,SBSP,2022-06-08 01:37:00
1654653600000,METAR SBSP 080200Z 12003KT 070V200 7000 -RA BKN004 BKN030 16/15 Q1017 RERA=,SBSP,2022-06-08 02:00:00
1654657200000,METAR SBSP 080300Z AUTO 08003KT 060V120 8000 RA FEW003 BKN036 OVC041 16/15 Q1016=,SBSP,2022-06-08 03:00:00
1654657800000,SPECI SBSP 080310Z AUTO 05004KT 010V080 9999 FEW003 BKN041 17/16 Q1016=,SBSP,2022-06-08 03:10:00
1654660800000,METAR SBSP 080400Z AUTO 05003KT 020V090 9999 BKN041 16/15 Q1016=,SBSP,2022-06-08 04:00:00
1654662480000,SPECI SBSP 080428Z AUTO 05003KT 9999 FEW004 BKN006 16/15 Q1016=,SBSP,2022-06-08 04:28:00
1654663380000,SPECI SBSP 080443Z AUTO 04003KT 9000 -DZ FEW004 SCT006 16/15 Q1016=,SBSP,2022-06-08 04:43:00
1654663680000,SPECI SBSP 080448Z AUTO 03004KT 360V060 9000 BKN005 16/15 Q1016=,SBSP,2022-06-08 04:48:00
1654664400000,METAR SBSP 080500Z AUTO 03004KT 350V070 9000 BKN005 16/15 Q1016=,SBSP,2022-06-08 05:00:00
1654666140000,SPECI SBSP 080529Z AUTO VRB02KT 8000 BKN004 16/15 Q1016=,SBSP,2022-06-08 05:29:00
1654668000000,METAR SBSP 080600Z AUTO 05002KT 7000 BKN004 BKN045 16/15 Q1016=,SBSP,2022-06-08 06:00:00
1654668120000,SPECI SBSP 080602Z AUTO 05002KT 7000 SCT004 BKN041 16/15 Q1016=,SBSP,2022-06-08 06:02:00
1654671600000,METAR SBSP 080700Z AUTO VRB02KT 6000 FEW005 16/15 Q1015=,SBSP,2022-06-08 07:00:00
1654672500000,SPECI SBSP 080715Z AUTO VRB01KT 6000 BKN005 16/15 Q1016=,SBSP,2022-06-08 07:15:00
1654675200000,METAR SBSP 080800Z AUTO VRB02KT 9999 SCT004 OVC007 16/15 Q1016=,SBSP,2022-06-08 08:00:00
1654675980000,SPECI SBSP 080813Z AUTO 11002KT 8000 BKN006 OVC008 16/15 Q1016=,SBSP,2022-06-08 08:13:00
1654676820000,SPECI SBSP 080827Z AUTO VRB02KT 8000 SCT005 OVC007 16/15 Q1016=,SBSP,2022-06-08 08:27:00
1654678800000,METAR SBSP 080900Z VRB02KT 3000 BR OVC006 16/15 Q1016=,SBSP,2022-06-08 09:00:00
1654682400000,METAR SBSP 081000Z VRB02KT 3000 BR OVC006 17/16 Q1017=,SBSP,2022-06-08 10:00:00
1654686000000,METAR SBSP 081100Z 23005KT 5000 BR SCT005 BKN007 16/15 Q1018=,SBSP,2022-06-08 11:00:00
1654689600000,METAR SBSP 081200Z 18004KT 150V220 5000 BR SCT005 BKN007 16/15 Q1019=,SBSP,2022-06-08 12:00:00
1654693200000,METAR SBSP 081300Z 20006KT 5000 BR OVC006 17/15 Q1019=,SBSP,2022-06-08 13:00:00
1654696800000,METAR SBSP 081400Z 20007KT 7000 OVC008 17/15 Q1019=,SBSP,2022-06-08 14:00:00
1654700400000,METAR SBSP 081500Z 20004KT 140V270 7000 OVC006 17/15 Q1019=,SBSP,2022-06-08 15:00:00
1654704000000,METAR SBSP 081600Z 16005KT 7000 OVC007 16/15 Q1018=,SBSP,2022-06-08 16:00:00
1654707600000,METAR SBSP 081700Z 19004KT 130V230 8000 FEW007 OVC009 17/15 Q1017=,SBSP,2022-06-08 17:00:00
1654711200000,METAR SBSP 081800Z 14006KT 8000 SCT007 OVC009 17/15 Q1017=,SBSP,2022-06-08 18:00:00
1654714800000,METAR SBSP 081900Z 15007KT 9999 SCT007 OVC008 16/15 Q1017=,SBSP,2022-06-08 19:00:00
1654718400000,METAR SBSP 082000Z 15006KT 9999 FEW004 OVC007 16/15 Q1017=,SBSP,2022-06-08 20:00:00
1654722000000,METAR SBSP 082100Z 15007KT 9999 SCT004 OVC007 16/14 Q1018=,SBSP,2022-06-08 21:00:00
1654725600000,METAR SBSP 082200Z 14007KT 9999 SCT004 OVC005 15/14 Q1018=,SBSP,2022-06-08 22:00:00
1654729200000,METAR SBSP 082300Z 17005KT 9999 SCT005 OVC007 15/14 Q1019=,SBSP,2022-06-08 23:00:00
1654675200000,METAR SBSV 080800Z 27002KT 8000 FEW015 21/19 Q1014=,SBSV,2022-06-08 08:00:00
1654646400000,METAR SBSV 080000Z 25002KT CAVOK 24/21 Q1014=,SBSV,2022-06-08 00:00:00
1654650000000,METAR SBSV 080100Z 00000KT CAVOK 23/21 Q1015=,SBSV,2022-06-08 01:00:00
1654653600000,METAR SBSV 080200Z 00000KT CAVOK 23/21 Q1015=,SBSV,2022-06-08 02:00:00
1654657200000,METAR SBSV 080300Z 00000KT CAVOK 22/20 Q1014=,SBSV,2022-06-08 03:00:00
1654660800000,METAR SBSV 080400Z 26002KT CAVOK 22/20 Q1014=,SBSV,2022-06-08 04:00:00
1654664400000,METAR SBSV 080500Z 00000KT CAVOK 22/20 Q1013=,SBSV,2022-06-08 05:00:00
1654668000000,METAR SBSV 080600Z 27003KT CAVOK 21/19 Q1013=,SBSV,2022-06-08 06:00:00
1654671600000,METAR SBSV 080700Z 26003KT 8000 NSC 21/19 Q1013=,SBSV,2022-06-08 07:00:00
1654678800000,METAR SBSV 080900Z 26003KT 9999 FEW020 21/19 Q1014=,SBSV,2022-06-08 09:00:00
1654682400000,METAR SBSV 081000Z 25003KT 9999 FEW020 22/20 Q1015=,SBSV,2022-06-08 10:00:00
1654686000000,METAR SBSV 081100Z 24005KT 9999 FEW020 25/23 Q1016=,SBSV,2022-06-08 11:00:00
1654689600000,METAR SBSV 081200Z 20004KT 160V270 9999 SCT020 27/22 Q1016=,SBSV,2022-06-08 12:00:00
1654693200000,METAR SBSV 081300Z 22006KT 180V250 9999 SCT020 27/21 Q1016=,SBSV,2022-06-08 13:00:00
1654696800000,METAR SBSV 081400Z 19006KT 140V220 9999 FEW023 28/21 Q1016=,SBSV,2022-06-08 14:00:00
1654700400000,METAR SBSV 081500Z 17007KT 120V210 9999 FEW023 28/21 Q1015=,SBSV,2022-06-08 15:00:00
1654704000000,METAR SBSV 081600Z 15007KT 120V200 9999 FEW023 28/20 Q1014=,SBSV,2022-06-08 16:00:00
1654707600000,METAR SBSV 081700Z 19007KT 140V250 9999 FEW020 28/22 Q1013=,SBSV,2022-06-08 17:00:00
1654711200000,METAR SBSV 081800Z 15007KT 9999 FEW020 27/22 Q1013=,SBSV,2022-06-08 18:00:00
1654714800000,METAR SBSV 081900Z 12005KT 9999 FEW020 27/20 Q1013=,SBSV,2022-06-08 19:00:00
1654718400000,METAR SBSV 082000Z 10006KT CAVOK 27/20 Q1013=,SBSV,2022-06-08 20:00:00
1654722000000,METAR SBSV 082100Z 09004KT CAVOK 26/20 Q1013=,SBSV,2022-06-08 21:00:00
1654725600000,METAR SBSV 082200Z 11005KT CAVOK 26/20 Q1014=,SBSV,2022-06-08 22:00:00
1654729200000,METAR SBSV 082300Z 10005KT CAVOK 26/20 Q1014=,SBSV,2022-06-08 23:00:00
1654732800000,METAR SBBR 090000Z 06002KT CAVOK 20/11 Q1019=,SBBR,2022-06-09 00:00:00
1654736400000,METAR SBBR 090100Z 19003KT CAVOK 21/10 Q1019=,SBBR,2022-06-09 01:00:00
1654740000000,METAR SBBR 090200Z 32002KT CAVOK 17/11 Q1019=,SBBR,2022-06-09 02:00:00
1654743600000,METAR SBBR 090300Z 21004KT CAVOK 18/10 Q1019=,SBBR,2022-06-09 03:00:00
1654747200000,METAR SBBR 090400Z VRB02KT CAVOK 16/10 Q1019=,SBBR,2022-06-09 04:00:00
1654750800000,METAR SBBR 090500Z 26002KT CAVOK 15/10 Q1019=,SBBR,2022-06-09 05:00:00
1654754400000,METAR SBBR 090600Z 22003KT CAVOK 15/11 Q1018=,SBBR,2022-06-09 06:00:00
1654758000000,METAR SBBR 090700Z 19001KT CAVOK 15/11 Q1018=,SBBR,2022-06-09 07:00:00
1654761600000,METAR SBBR 090800Z VRB01KT CAVOK 13/10 Q1018=,SBBR,2022-06-09 08:00:00
1654765200000,METAR SBBR 090900Z VRB01KT CAVOK 14/10 Q1018=,SBBR,2022-06-09 09:00:00
1654768800000,METAR SBBR 091000Z VRB01KT CAVOK 13/10 Q1019=,SBBR,2022-06-09 10:00:00
1654772400000,METAR SBBR 091100Z VRB01KT CAVOK 16/11 Q1020=,SBBR,2022-06-09 11:00:00
1654776000000,METAR SBBR 091200Z VRB01KT CAVOK 20/12 Q1021=,SBBR,2022-06-09 12:00:00
1654779600000,METAR SBBR 091300Z 05005KT 020V090 CAVOK 24/11 Q1021=,SBBR,2022-06-09 13:00:00
1654783200000,METAR SBBR 091400Z 06008KT 030V100 CAVOK 26/08 Q1020=,SBBR,2022-06-09 14:00:00
1654786800000,METAR SBBR 091500Z 08006KT CAVOK 27/08 Q1019=,SBBR,2022-06-09 15:00:00
1654790400000,METAR SBBR 091600Z 08007KT CAVOK 28/09 Q1018=,SBBR,2022-06-09 16:00:00
1654794000000,METAR SBBR 091700Z 06005KT CAVOK 28/10 Q1018=,SBBR,2022-06-09 17:00:00
1654797600000,METAR SBBR 091800Z 09003KT 9999 FEW045 28/10 Q1018=,SBBR,2022-06-09 18:00:00
1654801200000,METAR SBBR 091900Z 09001KT 9999 FEW045 29/10 Q1018=,SBBR,2022-06-09 19:00:00
1654804800000,METAR SBBR 092000Z 10005KT 9999 FEW045 28/10 Q1018=,SBBR,2022-06-09 20:00:00
1654808400000,METAR SBBR 092100Z 35003KT 9999 FEW045 SCT080 26/10 Q1019=,SBBR,2022-06-09 21:00:00
1654812000000,METAR SBBR 092200Z 07007KT 9999 FEW045 SCT080 25/10 Q1019=,SBBR,2022-06-09 22:00:00
1654815600000,METAR SBBR 092300Z 05004KT 9999 FEW045 SCT080 24/10 Q1020=,SBBR,2022-06-09 23:00:00
1654732800000,METAR SBCF 090000Z 23003KT CAVOK 21/13 Q1018=,SBCF,2022-06-09 00:00:00
1654736400000,METAR SBCF 090100Z 17002KT CAVOK 20/13 Q1018=,SBCF,2022-06-09 01:00:00
1654740000000,METAR SBCF 090200Z VRB01KT CAVOK 19/13 Q1018=,SBCF,2022-06-09 02:00:00
1654743600000,METAR SBCF 090300Z VRB01KT CAVOK 18/13 Q1018=,SBCF,2022-06-09 03:00:00
1654747200000,METAR SBCF 090400Z 13002KT CAVOK 19/13 Q1018=,SBCF,2022-06-09 04:00:00
1654750800000,METAR SBCF 090500Z 19003KT CAVOK 16/13 Q1017=,SBCF,2022-06-09 05:00:00
1654754400000,METAR SBCF 090600Z 06002KT CAVOK 17/13 Q1017=,SBCF,2022-06-09 06:00:00
1654758000000,METAR SBCF 090700Z 16002KT CAVOK 16/13 Q1017=,SBCF,2022-06-09 07:00:00
1654761600000,METAR SBCF 090800Z 10002KT CAVOK 16/13 Q1017=,SBCF,2022-06-09 08:00:00
1654765200000,METAR SBCF 090900Z 11002KT CAVOK 16/13 Q1018=,SBCF,2022-06-09 09:00:00
1654768800000,METAR SBCF 091000Z 17003KT CAVOK 15/13 Q1019=,SBCF,2022-06-09 10:00:00
1654772400000,METAR SBCF 091100Z 12002KT CAVOK 17/14 Q1019=,SBCF,2022-06-09 11:00:00
1654776000000,METAR SBCF 091200Z 15003KT CAVOK 18/14 Q1020=,SBCF,2022-06-09 12:00:00
1654779600000,METAR SBCF 091300Z 13002KT CAVOK 20/14 Q1020=,SBCF,2022-06-09 13:00:00
1654783200000,METAR SBCF 091400Z 19005KT CAVOK 23/14 Q1020=,SBCF,2022-06-09 14:00:00
1654786800000,METAR SBCF 091500Z 21002KT CAVOK 25/13 Q1019=,SBCF,2022-06-09 15:00:00
1654790400000,METAR SBCF 091600Z 17003KT CAVOK 25/14 Q1018=,SBCF,2022-06-09 16:00:00
1654794000000,METAR SBCF 091700Z 15004KT CAVOK 26/13 Q1018=,SBCF,2022-06-09 17:00:00
1654797600000,METAR SBCF 091800Z 13007KT 9999 FEW040 26/14 Q1018=,SBCF,2022-06-09 18:00:00
1654801200000,METAR SBCF 091900Z 13006KT 9999 FEW036 SCT100 25/14 Q1018=,SBCF,2022-06-09 19:00:00
1654804800000,METAR SBCF 092000Z 12005KT 9999 FEW036 SCT100 24/14 Q1018=,SBCF,2022-06-09 20:00:00
1654808400000,METAR SBCF 092100Z 11009KT CAVOK 24/13 Q1019=,SBCF,2022-06-09 21:00:00
1654812000000,METAR SBCF 092200Z 09009KT CAVOK 23/14 Q1019=,SBCF,2022-06-09 22:00:00
1654815600000,METAR SBCF 092300Z 07006KT CAVOK 22/14 Q1019=,SBCF,2022-06-09 23:00:00
1654747200000,METAR SBCT 090400Z 12003KT 9999 OVC004 12/12 Q1019=,SBCT,2022-06-09 04:00:00
1654732800000,METAR SBCT 090000Z 11005KT 090V150 9999 BKN005 BKN012 BKN050 13/13 Q1020=,SBCT,2022-06-09 00:00:00
1654736400000,METAR SBCT 090100Z 13007KT 9999 OVC005 13/13 Q1019=,SBCT,2022-06-09 01:00:00
1654740000000,METAR SBCT 090200Z 13004KT 9999 BKN004 OVC030 12/12 Q1020=,SBCT,2022-06-09 02:00:00
1654743600000,METAR SBCT 090300Z 11004KT 9999 OVC004 13/13 Q1020=,SBCT,2022-06-09 03:00:00
1654750800000,METAR SBCT 090500Z 14006KT 9999 OVC003 11/11 Q1019=,SBCT,2022-06-09 05:00:00
1654754400000,METAR SBCT 090600Z 14003KT 9999 OVC003 12/12 Q1019=,SBCT,2022-06-09 06:00:00
1654758000000,METAR SBCT 090700Z 14002KT 9999 OVC002 13/13 Q1019=,SBCT,2022-06-09 07:00:00
1654761600000,METAR SBCT 090800Z 21003KT 8000 OVC003 13/13 Q1019=,SBCT,2022-06-09 08:00:00
1654765200000,METAR SBCT 090900Z 25003KT 6000 OVC002 13/13 Q1019=,SBCT,2022-06-09 09:00:00
1654768800000,METAR SBCT 091000Z VRB02KT 7000 OVC003 13/13 Q1019=,SBCT,2022-06-09 10:00:00
1654772400000,METAR SBCT 091100Z 23002KT 2500 BR OVC002 13/13 Q1020=,SBCT,2022-06-09 11:00:00
1654776000000,METAR SBCT 091200Z 18003KT 3000 -DZ OVC003 14/14 Q1021=,SBCT,2022-06-09 12:00:00
1654779600000,METAR SBCT 091300Z 11005KT 9999 OVC008 15/15 Q1021=,SBCT,2022-06-09 13:00:00
1654783200000,METAR SBCT 091400Z 10003KT 9999 OVC010 15/15 Q1021=,SBCT,2022-06-09 14:00:00
1654786800000,METAR SBCT 091500Z 14005KT 9999 BKN010 OVC025 17/14 Q1020=,SBCT,2022-06-09 15:00:00
1654790400000,METAR SBCT 091600Z 13006KT 9999 BKN012 OVC030 17/14 Q1020=,SBCT,2022-06-09 16:00:00
1654794000000,METAR SBCT 091700Z 07007KT 9999 BKN014 BKN030 19/14 Q1019=,SBCT,2022-06-09 17:00:00
1654797600000,METAR SBCT 091800Z 06008KT 9999 BKN014 BKN023 17/14 Q1018=,SBCT,2022-06-09 18:00:00
1654801200000,METAR SBCT 091900Z 07007KT 9999 BKN013 BKN033 17/14 Q1018=,SBCT,2022-06-09 19:00:00
1654804800000,METAR SBCT 092000Z 13003KT 9999 SCT013 BKN043 BKN083 16/14 Q1019=,SBCT,2022-06-09 20:00:00
1654808400000,METAR SBCT 092100Z 19004KT 9999 -RA SCT013 OVC083 15/15 Q1019=,SBCT,2022-06-09 21:00:00
1654812000000,METAR SBCT 092200Z 14003KT 9999 -RA SCT010 BKN045 OVC083 14/14 Q1020=,SBCT,2022-06-09 22:00:00
1654815600000,METAR SBCT 092300Z 17005KT 9999 -RA SCT007 SCT040 OVC083 15/15 Q1020=,SBCT,2022-06-09 23:00:00
1654732800000,METAR SBFL 090000Z 00000KT 9999 BKN040 16/15 Q1018=,SBFL,2022-06-09 00:00:00
1654736400000,METAR SBFL 090100Z 30004KT 9999 SCT040 16/15 Q1018=,SBFL,2022-06-09 01:00:00
1654740000000,METAR SBFL 090200Z VRB02KT 9999 SCT030 16/15 Q1018=,SBFL,2022-06-09 02:00:00
1654743600000,METAR SBFL 090300Z 31003KT 9999 SCT026 16/15 Q1018=,SBFL,2022-06-09 03:00:00
1654747200000,METAR SBFL 090400Z 32003KT 9999 SCT026 15/15 Q1018=,SBFL,2022-06-09 04:00:00
1654750800000,METAR SBFL 090500Z 29005KT 9999 SCT026 16/15 Q1018=,SBFL,2022-06-09 05:00:00
1654754400000,METAR SBFL 090600Z 28004KT 9999 BKN026 16/15 Q1018=,SBFL,2022-06-09 06:00:00
1654758000000,METAR SBFL 090700Z 27002KT 9999 BKN026 16/16 Q1017=,SBFL,2022-06-09 07:00:00
1654761600000,METAR SBFL 090800Z VRB02KT 9999 BKN023 16/15 Q1017=,SBFL,2022-06-09 08:00:00
1654765200000,METAR SBFL 090900Z 27003KT 240V300 9999 BKN023 16/15 Q1017=,SBFL,2022-06-09 09:00:00
1654768800000,METAR SBFL 091000Z 34003KT 7000 -DZ BKN010 OVC023 16/15 Q1018=,SBFL,2022-06-09 10:00:00
1654772400000,METAR SBFL 091100Z 29004KT 3500 -RA SCT004 BKN012 OVC030 16/16 Q1019=,SBFL,2022-06-09 11:00:00
1654776000000,METAR SBFL 091200Z 27002KT 8000 FEW005 BKN014 OVC030 17/16 Q1019=,SBFL,2022-06-09 12:00:00
1654779600000,METAR SBFL 091300Z 28004KT 9000 FEW007 BKN014 OVC030 18/17 Q1020=,SBFL,2022-06-09 13:00:00
1654783200000,METAR SBFL 091400Z 29003KT 9999 FEW007 BKN014 OVC030 18/17 Q1019=,SBFL,2022-06-09 14:00:00
1654784880000,SPECI SBFL 091428Z 28003KT 9999 SCT014 OVC043 19/17 Q1019=,SBFL,2022-06-09 14:28:00
1654786800000,METAR SBFL 091500Z 30002KT 9999 SCT025 OVC040 19/17 Q1019=,SBFL,2022-06-09 15:00:00
1654790400000,METAR SBFL 091600Z 28004KT 9999 SCT025 OVC040 19/17 Q1018=,SBFL,2022-06-09 16:00:00
1654794000000,METAR SBFL 091700Z 15004KT 9999 SCT030 OVC045 21/17 Q1017=,SBFL,2022-06-09 17:00:00
1654797600000,METAR SBFL 091800Z 13005KT 9999 SCT025 OVC040 21/16 Q1017=,SBFL,2022-06-09 18:00:00
1654801200000,METAR SBFL 091900Z 12004KT 9999 SCT030 BKN040 OVC090 21/16 Q1017=,SBFL,2022-06-09 19:00:00
1654804800000,METAR SBFL 092000Z 22003KT 9999 SCT030 BKN040 OVC090 20/17 Q1017=,SBFL,2022-06-09 20:00:00
1654808400000,METAR SBFL 092100Z 20003KT 9999 FEW030 OVC045 19/17 Q1017=,SBFL,2022-06-09 21:00:00
1654812000000,METAR SBFL 092200Z 35002KT 9999 FEW030 OVC045 19/17 Q1017=,SBFL,2022-06-09 22:00:00
1654815600000,METAR SBFL 092300Z 30001KT 9999 FEW030 SCT045 OVC090 18/17 Q1017=,SBFL,2022-06-09 23:00:00
1654732800000,METAR SBGL 090000Z 26007KT 9999 FEW020 BKN050 22/19 Q1016=,SBGL,2022-06-09 00:00:00
1654736400000,METAR SBGL 090100Z 28005KT 9999 FEW040 BKN050 22/19 Q1016=,SBGL,2022-06-09 01:00:00
1654740000000,METAR SBGL 090200Z 28004KT 9999 FEW040 BKN050 22/19 Q1016=,SBGL,2022-06-09 02:00:00
1654743600000,METAR SBGL 090300Z 29004KT 9999 FEW040 BKN050 21/19 Q1015=,SBGL,2022-06-09 03:00:00
1654747200000,METAR SBGL 090400Z 29004KT 9999 FEW040 BKN050 22/20 Q1015=,SBGL,2022-06-09 04:00:00
1654750800000,METAR SBGL 090500Z 27004KT 9999 BKN023 BKN050 21/19 Q1015=,SBGL,2022-06-09 05:00:00
1654754400000,METAR SBGL 090600Z 29005KT 8000 BKN023 BKN050 21/19 Q1015=,SBGL,2022-06-09 06:00:00
1654758000000,METAR SBGL 090700Z 30005KT 7000 BKN023 BKN050 21/19 Q1014=,SBGL,2022-06-09 07:00:00
1654761600000,METAR SBGL 090800Z 32005KT 7000 BKN023 BKN050 21/19 Q1014=,SBGL,2022-06-09 08:00:00
1654765200000,METAR SBGL 090900Z 30002KT 9000 BKN033 BKN050 21/19 Q1016=,SBGL,2022-06-09 09:00:00
1654768800000,METAR SBGL 091000Z 29003KT 8000 SCT013 BKN023 BKN050 21/19 Q1016=,SBGL,2022-06-09 10:00:00
1654772400000,METAR SBGL 091100Z 31002KT 8000 FEW012 BKN014 BKN040 21/20 Q1017=,SBGL,2022-06-09 11:00:00
1654776000000,METAR SBGL 091200Z 34003KT 7000 BKN012 OVC030 22/20 Q1018=,SBGL,2022-06-09 12:00:00
1654779600000,METAR SBGL 091300Z 00000KT 8000 BKN012 OVC035 23/20 Q1018=,SBGL,2022-06-09 13:00:00
1654783200000,METAR SBGL 091400Z 28002KT 8000 SCT013 OVC035 25/19 Q1017=,SBGL,2022-06-09 14:00:00
1654786800000,METAR SBGL 091500Z 13006KT 9000 SCT016 BKN040 23/20 Q1017=,SBGL,2022-06-09 15:00:00
1654790400000,METAR SBGL 091600Z 12007KT 9000 SCT016 OVC040 24/19 Q1016=,SBGL,2022-06-09 16:00:00
1654794000000,METAR SBGL 091700Z 11008KT 9999 SCT018 BKN050 24/19 Q1016=,SBGL,2022-06-09 17:00:00
1654797600000,METAR SBGL 091800Z 11009KT 9999 SCT018 BKN050 24/19 Q1016=,SBGL,2022-06-09 18:00:00
1654801200000,METAR SBGL 091900Z 12008KT 9999 SCT020 BKN050 23/19 Q1016=,SBGL,2022-06-09 19:00:00
1654804800000,METAR SBGL 092000Z 12008KT 9999 SCT018 BKN040 22/19 Q1016=,SBGL,2022-06-09 20:00:00
1654808400000,METAR SBGL 092100Z 11007KT 9999 BKN018 OVC035 22/19 Q1016=,SBGL,2022-06-09 21:00:00
1654812000000,METAR SBGL 092200Z 13008KT 9999 BKN018 OVC030 22/19 Q1016=,SBGL,2022-06-09 22:00:00
1654815600000,METAR SBGL 092300Z 13004KT 9999 FEW008 SCT026 OVC040 22/18 Q1017=,SBGL,2022-06-09 23:00:00
1654732800000,METAR SBGR 090000Z 13002KT 9999 OVC010 16/15 Q1019=,SBGR,2022-06-09 00:00:00
1654736400000,METAR SBGR 090100Z 12003KT 100V170 9999 OVC009 16/15 Q1019=,SBGR,2022-06-09 01:00:00
1654740000000,METAR SBGR 090200Z 13003KT 9999 BKN009 BKN023 16/15 Q1019=,SBGR,2022-06-09 02:00:00
1654743600000,METAR SBGR 090300Z 12002KT 9999 BKN009 16/15 Q1019=,SBGR,2022-06-09 03:00:00
1654747200000,METAR SBGR 090400Z 11002KT 9999 BKN009 16/15 Q1018=,SBGR,2022-06-09 04:00:00
1654750800000,METAR SBGR 090500Z 15002KT 9999 BKN008 16/15 Q1018=,SBGR,2022-06-09 05:00:00
1654754400000,METAR SBGR 090600Z 17002KT 7000 BKN008 BKN017 15/15 Q1018=,SBGR,2022-06-09 06:00:00
1654758000000,METAR SBGR 090700Z 00000KT 7000 BKN009 OVC017 15/15 Q1018=,SBGR,2022-06-09 07:00:00
1654761600000,METAR SBGR 090800Z 00000KT 5000 BR BKN009 OVC017 16/15 Q1018=,SBGR,2022-06-09 08:00:00
1654765200000,METAR SBGR 090900Z 05004KT 4500 BR SCT009 OVC017 16/15 Q1018=,SBGR,2022-06-09 09:00:00
1654768800000,METAR SBGR 091000Z 18002KT 3500 BR SCT008 OVC019 16/15 Q1018=,SBGR,2022-06-09 10:00:00
1654772400000,METAR SBGR 091100Z 13002KT 4000 BR SCT009 OVC017 17/15 Q1019=,SBGR,2022-06-09 11:00:00
1654776000000,METAR SBGR 091200Z 06005KT 5000 BR BKN011 OVC017 17/15 Q1020=,SBGR,2022-06-09 12:00:00
1654779600000,METAR SBGR 091300Z 08005KT 7000 SCT009 OVC011 17/16 Q1020=,SBGR,2022-06-09 13:00:00
1654783200000,METAR SBGR 091400Z 07005KT 9000 SCT009 OVC011 18/16 Q1020=,SBGR,2022-06-09 14:00:00
1654786800000,METAR SBGR 091500Z 08007KT 9999 OVC013 18/16 Q1020=,SBGR,2022-06-09 15:00:00
1654790400000,METAR SBGR 091600Z 06005KT 9999 BKN013 BKN017 19/16 Q1019=,SBGR,2022-06-09 16:00:00
1654794000000,METAR SBGR 091700Z 07003KT 9999 OVC015 20/16 Q1018=,SBGR,2022-06-09 17:00:00
1654797600000,METAR SBGR 091800Z 07007KT 9999 BKN015 BKN019 20/16 Q1018=,SBGR,2022-06-09 18:00:00
1654801200000,METAR SBGR 091900Z 07005KT 9999 BKN015 BKN019 20/17 Q1018=,SBGR,2022-06-09 19:00:00
1654804800000,METAR SBGR 092000Z 06006KT 9000 BKN015 OVC070 19/17 Q1018=,SBGR,2022-06-09 20:00:00
1654808400000,METAR SBGR 092100Z 08005KT 9000 BKN019 BKN070 18/17 Q1018=,SBGR,2022-06-09 21:00:00
1654812000000,METAR SBGR 092200Z 07005KT 9999 SCT040 BKN080 18/17 Q1018=,SBGR,2022-06-09 22:00:00
1654814640000,SPECI SBGR 092244Z 08005KT 4000 RA BR FEW013 BKN030 OVC070 18/17 Q1019=,SBGR,2022-06-09 22:44:00
1654815600000,METAR SBGR 092300Z 09004KT 5000 -RA BR FEW013 BKN030 BKN070 18/17 Q1019 RERA=,SBGR,2022-06-09 23:00:00
1654732800000,METAR SBKP 090000Z 12006KT 5000 BR NSC 18/16 Q1017=,SBKP,2022-06-09 00:00:00
1654736400000,METAR SBKP 090100Z 12007KT 5000 BR SCT035 18/16 Q1018=,SBKP,2022-06-09 01:00:00
1654740000000,METAR SBKP 090200Z 13009KT 7000 BKN033 18/16 Q1018=,SBKP,2022-06-09 02:00:00
1654743600000,METAR SBKP 090300Z 13009KT 8000 SCT040 17/15 Q1017=,SBKP,2022-06-09 03:00:00
1654747200000,METAR SBKP 090400Z 13006KT 8000 SCT035 17/15 Q1017=,SBKP,2022-06-09 04:00:00
1654750800000,METAR SBKP 090500Z 14007KT 8000 FEW035 17/15 Q1017=,SBKP,2022-06-09 05:00:00
1654754400000,METAR SBKP 090600Z 16004KT 8000 NSC 17/15 Q1017=,SBKP,2022-06-09 06:00:00
1654758000000,METAR SBKP 090700Z 14006KT 7000 FEW045 16/15 Q1017=,SBKP,2022-06-09 07:00:00
1654761600000,METAR SBKP 090800Z 14009KT 7000 SCT030 17/15 Q1017=,SBKP,2022-06-09 08:00:00
1654765200000,METAR SBKP 090900Z 15007KT 7000 BKN045 17/15 Q1017=,SBKP,2022-06-09 09:00:00
1654768800000,METAR SBKP 091000Z 15006KT 4000 BR BKN030 17/15 Q1018=,SBKP,2022-06-09 10:00:00
1654772400000,METAR SBKP 091100Z 13006KT 3000 BR SCT030 SCT070 OVC100 17/15 Q1018=,SBKP,2022-06-09 11:00:00
1654776000000,METAR SBKP 091200Z 12007KT 3500 BR SCT015 SCT030 OVC100 18/15 Q1019=,SBKP,2022-06-09 12:00:00
1654777800000,SPECI SBKP 091230Z 12005KT 6000 SCT013 BKN040 OVC100 19/15 Q1019=,SBKP,2022-06-09 12:30:00
1654779600000,METAR SBKP 091300Z 12004KT 4000 BR BKN013 BKN040 OVC100 19/15 Q1020=,SBKP,2022-06-09 13:00:00
1654783200000,METAR SBKP 091400Z 12004KT 6000 SCT013 BKN040 OVC100 20/15 Q1019=,SBKP,2022-06-09 14:00:00
1654786800000,METAR SBKP 091500Z 02004KT 8000 FEW010 SCT050 21/17 Q1019=,SBKP,2022-06-09 15:00:00
1654790400000,METAR SBKP 091600Z 02003KT 8000 SCT015 SCT036 22/17 Q1018=,SBKP,2022-06-09 16:00:00
1654794000000,METAR SBKP 091700Z 35002KT 8000 SCT020 BKN050 23/17 Q1018=,SBKP,2022-06-09 17:00:00
1654797600000,METAR SBKP 091800Z 21003KT 9000 FEW020 BKN060 22/17 Q1017=,SBKP,2022-06-09 18:00:00
1654801200000,METAR SBKP 091900Z 27004KT 200V320 8000 FEW020 BKN070 22/17 Q1017=,SBKP,2022-06-09 19:00:00
1654804800000,METAR SBKP 092000Z 26004KT 8000 SCT020 BKN100 22/17 Q1017=,SBKP,2022-06-09 20:00:00
1654808400000,METAR SBKP 092100Z 32002KT 8000 BKN020 SCT100 21/17 Q1017=,SBKP,2022-06-09 21:00:00
1654812000000,METAR SBKP 092200Z 33003KT 6000 SCT035 BKN080 20/18 Q1018=,SBKP,2022-06-09 22:00:00
1654815600000,METAR SBKP 092300Z 01003KT 6000 FEW035 BKN070 20/17 Q1018=,SBKP,2022-06-09 23:00:00
1654732800000,METAR SBPA 090000Z 00000KT CAVOK 15/15 Q1017=,SBPA,2022-06-09 00:00:00
1654736400000,METAR SBPA 090100Z 28003KT CAVOK 14/14 Q1017=,SBPA,2022-06-09 01:00:00
1654740000000,METAR SBPA 090200Z VRB02KT 7000 NSC 14/13 Q1017=,SBPA,2022-06-09 02:00:00
1654743600000,METAR SBPA 090300Z 00000KT 7000 NSC 12/12 Q1017=,SBPA,2022-06-09 03:00:00
1654744800000,SPECI SBPA 090320Z 00000KT 3000 BR FEW002 12/12 Q1017=,SBPA,2022-06-09 03:20:00
1654747200000,METAR SBPA 090400Z 00000KT 2500 BR SCT002 BKN025 12/12 Q1017=,SBPA,2022-06-09 04:00:00
1654749060000,SPECI SBPA 090431Z VRB02KT 2000 BR BKN002 BKN020 12/12 Q1017=,SBPA,2022-06-09 04:31:00
1654750800000,METAR SBPA 090500Z VRB02KT 2300 BR BKN002 BKN025 13/12 Q1017=,SBPA,2022-06-09 05:00:00
1654754400000,METAR SBPA 090600Z 00000KT 2000 BR BCFG OVC002 13/13 Q1017=,SBPA,2022-06-09 06:00:00
1654754940000,SPECI SBPA 090609Z 00000KT 0300 R29///// R11/0400 FG VV002 13/13 Q1017=,SBPA,2022-06-09 06:09:00
1654758000000,METAR SBPA 090700Z 01004KT 0300 R29///// R11/0500 FG VV002 13/13 Q1017=,SBPA,2022-06-09 07:00:00
1654761600000,METAR SBPA 090800Z 25001KT 0200 R29///// R11/0600 FG VV002 13/13 Q1017=,SBPA,2022-06-09 08:00:00
1654763160000,SPECI SBPA 090826Z 22002KT 0200 R29///// R11/0500 FG VV002 13/13 Q1017=,SBPA,2022-06-09 08:26:00
1654765200000,METAR SBPA 090900Z 00000KT 0250 R29///// R11/0550 FG VV002 13/13 Q1017=,SBPA,2022-06-09 09:00:00
1654768800000,METAR SBPA 091000Z 00000KT 0400 R29///// R11/0600 FG VV002 13/13 Q1017=,SBPA,2022-06-09 10:00:00
1654772400000,METAR SBPA 091100Z 33003KT 0250 R29///// R11/0600N FG VV002 13/13 Q1018=,SBPA,2022-06-09 11:00:00
1654776000000,METAR SBPA 091200Z 00000KT 0500 R29///// R11/1300U FG VV002 13/13 Q1019=,SBPA,2022-06-09 12:00:00
1654779600000,METAR SBPA 091300Z 33003KT 310V040 0500 R29///// R11/1000N FG FEW001 OVC002 14/14 Q1019=,SBPA,2022-06-09 13:00:00
1654783200000,METAR SBPA 091400Z VRB01KT 1100 R29///// R11/1600U BR FEW001 BKN002 15/15 Q1019=,SBPA,2022-06-09 14:00:00
1654784400000,SPECI SBPA 091420Z VRB02KT 1800 R29///// R11/P2000U BR FEW001 BKN003 BKN005 15/15 Q1018=,SBPA,2022-06-09 14:20:00
1654786800000,METAR COR SBPA 091500Z 06003KT 010V090 2600 BR FEW002 BKN003 BKN005 16/16 Q1018=,SBPA,2022-06-09 15:00:00
1654789200000,SPECI SBPA 091540Z 06004KT 020V090 3200 BR SCT005 19/16 Q1017=,SBPA,2022-06-09 15:40:00
1654790400000,METAR SBPA 091600Z 07003KT 020V120 6000 FEW005 19/16 Q1017=,SBPA,2022-06-09 16:00:00
1654794000000,METAR SBPA 091700Z 27003KT 230V320 7000 FEW005 20/16 Q1016=,SBPA,2022-06-09 17:00:00
1654797600000,METAR SBPA 091800Z VRB02KT 8000 NSC 21/16 Q1016=,SBPA,2022-06-09 18:00:00
1654801200000,METAR SBPA 091900Z VRB03KT CAVOK 20/16 Q1016=,SBPA,2022-06-09 19:00:00
1654804800000,METAR SBPA 092000Z 07005KT CAVOK 20/16 Q1016=,SBPA,2022-06-09 20:00:00
1654808400000,METAR SBPA 092100Z VRB02KT CAVOK 18/16 Q1016=,SBPA,2022-06-09 21:00:00
1654812000000,METAR SBPA 092200Z 27003KT CAVOK 16/15 Q1016=,SBPA,2022-06-09 22:00:00
1654815600000,METAR SBPA 092300Z VRB02KT 9000 NSC 15/14 Q1016=,SBPA,2022-06-09 23:00:00
1654732800000,METAR SBRF 090000Z 14007KT 9999 SCT018 26/24 Q1014=,SBRF,2022-06-09 00:00:00
1654736400000,METAR SBRF 090100Z 13007KT 9999 SCT018 27/24 Q1014=,SBRF,2022-06-09 01:00:00
1654740000000,METAR SBRF 090200Z 13007KT 9999 SCT018 26/24 Q1013=,SBRF,2022-06-09 02:00:00
1654743600000,METAR SBRF 090300Z 14003KT 100V170 9999 SCT020 26/24 Q1013=,SBRF,2022-06-09 03:00:00
1654747200000,METAR SBRF 090400Z 23005KT 9999 BKN020 25/24 Q1012=,SBRF,2022-06-09 04:00:00
1654750800000,METAR SBRF 090500Z 17005KT 140V220 5000 -RA BR FEW008 BKN012 BKN060 24/24 Q1012=,SBRF,2022-06-09 05:00:00
1654754400000,METAR SBRF 090600Z 22003KT 170V290 9999 VCSH FEW012 BKN020 BKN050 24/23 Q1012=,SBRF,2022-06-09 06:00:00
1654758000000,METAR SBRF 090700Z 21003KT 170V260 9999 SCT020 BKN050 24/23 Q1012=,SBRF,2022-06-09 07:00:00
1654761600000,METAR SBRF 090800Z 22002KT 9999 SCT020 SCT050 24/23 Q1013=,SBRF,2022-06-09 08:00:00
1654765200000,METAR SBRF 090900Z 24001KT 9999 BKN018 BKN060 24/23 Q1013=,SBRF,2022-06-09 09:00:00
1654768800000,METAR SBRF 091000Z 22003KT 9999 SCT020 25/23 Q1014=,SBRF,2022-06-09 10:00:00
1654772400000,METAR SBRF 091100Z 20006KT 9999 SCT018 FEW020TCU 26/24 Q1015=,SBRF,2022-06-09 11:00:00
1654776000000,METAR SBRF 091200Z 20006KT 8000 VCSH FEW013 BKN018 FEW020TCU 26/24 Q1015=,SBRF,2022-06-09 12:00:00
1654779600000,METAR SBRF 091300Z 19006KT 9999 FEW013 SCT019 FEW020TCU 28/23 Q1015=,SBRF,2022-06-09 13:00:00
1654783200000,METAR SBRF 091400Z 16012KT 9999 SCT020 FEW023TCU 29/23 Q1014=,SBRF,2022-06-09 14:00:00
1654786800000,METAR SBRF 091500Z 15011KT 9999 SCT020 FEW023TCU 28/22 Q1014=,SBRF,2022-06-09 15:00:00
1654790400000,METAR SBRF 091600Z 16011KT 9999 SCT020 FEW023TCU 29/24 Q1013=,SBRF,2022-06-09 16:00:00
1654794000000,METAR SBRF 091700Z 15012KT 9999 SCT020 28/23 Q1012=,SBRF,2022-06-09 17:00:00
1654797600000,METAR SBRF 091800Z 14011KT 110V180 9999 SCT025 SCT100 28/23 Q1012=,SBRF,2022-06-09 18:00:00
1654801200000,METAR SBRF 091900Z 16011KT 9999 SCT025 SCT100 28/23 Q1012=,SBRF,2022-06-09 19:00:00
1654804800000,METAR SBRF 092000Z 15009KT 9999 FEW020 SCT100 28/23 Q1013=,SBRF,2022-06-09 20:00:00
1654808400000,METAR SBRF 092100Z 16010KT 9999 FEW020 SCT050 27/23 Q1013=,SBRF,2022-06-09 21:00:00
1654812000000,METAR SBRF 092200Z 15008KT 9999 FEW025 26/23 Q1014=,SBRF,2022-06-09 22:00:00
1654815600000,METAR SBRF 092300Z 15009KT 9999 FEW020 27/23 Q1014=,SBRF,2022-06-09 23:00:00
1654732800000,METAR SBRJ 090000Z 05003KT 9999 FEW015 BKN040 23/20 Q1015=,SBRJ,2022-06-09 00:00:00
1654736400000,METAR SBRJ 090100Z 04005KT 9999 FEW020 BKN040 23/21 Q1015=,SBRJ,2022-06-09 01:00:00
1654740000000,METAR SBRJ 090200Z 04004KT 9999 FEW020 SCT050 BKN100 23/20 Q1015=,SBRJ,2022-06-09 02:00:00
1654764600000,SPECI SBRJ 090850Z VRB02KT 9999 SCT025 BKN050 22/20 Q1015=,SBRJ,2022-06-09 08:50:00
1654765200000,METAR SBRJ 090900Z VRB02KT 9999 SCT025 BKN050 22/20 Q1015=,SBRJ,2022-06-09 09:00:00
1654768800000,METAR SBRJ 091000Z 16003KT 9999 FEW010 SCT025 BKN040 22/20 Q1016=,SBRJ,2022-06-09 10:00:00
1654771200000,SPECI SBRJ 091040Z 03005KT 010V080 6000 BKN012 BKN025 OVC040 22/21 Q1016=,SBRJ,2022-06-09 10:40:00
1654772400000,METAR SBRJ 091100Z 02005KT 6000 -RA BKN012 BKN023 OVC040 22/21 Q1016=,SBRJ,2022-06-09 11:00:00
1654776000000,METAR SBRJ 091200Z 01004KT 7000 BKN012 BKN025 OVC060 22/21 Q1017=,SBRJ,2022-06-09 12:00:00
1654779600000,METAR SBRJ 091300Z 03003KT 9000 BKN012 BKN025 OVC060 22/20 Q1017=,SBRJ,2022-06-09 13:00:00
1654783200000,METAR SBRJ 091400Z VRB02KT 9999 BKN012 BKN025 OVC060 23/20 Q1017=,SBRJ,2022-06-09 14:00:00
1654786800000,METAR SBRJ 091500Z 18007KT 9999 BKN012 BKN025 BKN060 23/20 Q1017=,SBRJ,2022-06-09 15:00:00
1654788660000,SPECI SBRJ 091531Z 16007KT 9999 SCT012 BKN025 BKN050 24/20 Q1016=,SBRJ,2022-06-09 15:31:00
1654790400000,METAR SBRJ 091600Z 16008KT 9999 SCT013 SCT025 BKN050 23/20 Q1016=,SBRJ,2022-06-09 16:00:00
1654794000000,METAR SBRJ 091700Z 15009KT 9999 FEW013 SCT025 BKN050 23/20 Q1016=,SBRJ,2022-06-09 17:00:00
1654797600000,METAR SBRJ 091800Z 16009KT 9999 FEW013 SCT025 BKN050 23/20 Q1015=,SBRJ,2022-06-09 18:00:00
1654801200000,METAR SBRJ 091900Z 16010KT 9999 FEW013 SCT025 BKN050 23/20 Q1015=,SBRJ,2022-06-09 19:00:00
1654804800000,METAR SBRJ 092000Z 17008KT 9999 FEW013 SCT025 BKN050 22/20 Q1016=,SBRJ,2022-06-09 20:00:00
1654808400000,METAR SBRJ 092100Z 16008KT 9999 SCT025 BKN050 22/20 Q1016=,SBRJ,2022-06-09 21:00:00
1654812000000,METAR SBRJ 092200Z 16006KT 9999 SCT025 OVC040 23/19 Q1016=,SBRJ,2022-06-09 22:00:00
1654815600000,METAR SBRJ 092300Z 17005KT 9999 SCT025 OVC040 22/19 Q1016=,SBRJ,2022-06-09 23:00:00
1654732800000,METAR SBSP 090000Z 15005KT 9999 OVC007 15/14 Q1019=,SBSP,2022-06-09 00:00:00
1654736400000,METAR SBSP 090100Z 14004KT 9999 SCT005 OVC007 15/14 Q1019=,SBSP,2022-06-09 01:00:00
1654740000000,METAR SBSP 090200Z 14005KT 9999 SCT005 OVC007 15/14 Q1019=,SBSP,2022-06-09 02:00:00
1654740060000,SPECI SBSP 090201Z 13004KT 100V160 9999 OVC008 15/14 Q1019=,SBSP,2022-06-09 02:01:00
1654743600000,METAR SBSP 090300Z AUTO 18004KT 9999 OVC007 15/13 Q1019=,SBSP,2022-06-09 03:00:00
1654743720000,SPECI SBSP 090302Z AUTO 18004KT 150V210 9999 BKN006 OVC010 15/14 Q1019=,SBSP,2022-06-09 03:02:00
1654746000000,SPECI SBSP 090340Z AUTO 16003KT 9999 BKN007 OVC017 15/14 Q1019=,SBSP,2022-06-09 03:40:00
1654747200000,METAR SBSP 090400Z AUTO 17003KT 9999 SCT005 BKN007 OVC016 15/14 Q1019=,SBSP,2022-06-09 04:00:00
1654750800000,METAR SBSP 090500Z AUTO 23002KT 9999 OVC006 15/13 Q1018=,SBSP,2022-06-09 05:00:00
1654751340000,SPECI SBSP 090509Z AUTO 24003KT 9999 SCT006 OVC015 15/13 Q1018=,SBSP,2022-06-09 05:09:00
1654753140000,SPECI SBSP 090539Z AUTO 24004KT 9999 SCT004 BKN006 OVC016 15/13 Q1018=,SBSP,2022-06-09 05:39:00
1654754400000,METAR SBSP 090600Z AUTO 22003KT 160V260 9999 SCT003 BKN006 OVC016 15/13 Q1018=,SBSP,2022-06-09 06:00:00
1654757520000,SPECI SBSP 090652Z AUTO 22004KT 190V250 9999 OVC004 14/13 Q1018=,SBSP,2022-06-09 06:52:00
1654758000000,METAR SBSP 090700Z AUTO 23004KT 190V250 9999 SCT003 OVC005 14/13 Q1018=,SBSP,2022-06-09 07:00:00
1654758600000,SPECI SBSP 090710Z AUTO 22005KT 9999 SCT002 OVC004 14/13 Q1018=,SBSP,2022-06-09 07:10:00
1654761600000,METAR SBSP 090800Z AUTO 18004KT 9999 SCT002 OVC004 14/13 Q1018=,SBSP,2022-06-09 08:00:00
1654761960000,SPECI SBSP 090806Z AUTO 17003KT 120V210 9999 SCT002 OVC005 14/13 Q1018=,SBSP,2022-06-09 08:06:00
1654765200000,METAR SBSP 090900Z 22005KT 4000 BR SCT002 OVC004 14/13 Q1019=,SBSP,2022-06-09 09:00:00
1654766220000,SPECI SBSP 090917Z 26004KT 170V300 2000 BR SCT001 OVC004 14/13 Q1019=,SBSP,2022-06-09 09:17:00
1654767000000,SPECI COR SBSP 090930Z 24005KT 200V290 0800 R17/P2000N R35/P2000 FG SCT001 OVC004 14/13 Q1019=,SBSP,2022-06-09 09:30:00
1654767960000,SPECI SBSP 090946Z 23003KT 160V290 2000 BR SCT001 OVC003 14/13 Q1019=,SBSP,2022-06-09 09:46:00
1654768800000,METAR SBSP 091000Z 22003KT 3000 BR SCT001 OVC003 14/13 Q1019=,SBSP,2022-06-09 10:00:00
1654769820000,SPECI SBSP 091017Z VRB02KT 5000 BR SCT002 BKN005 BKN015 14/13 Q1020=,SBSP,2022-06-09 10:17:00
1654770900000,SPECI SBSP 091035Z 15003KT 6000 FEW002 BKN015 BKN065 14/13 Q1020=,SBSP,2022-06-09 10:35:00
1654772400000,METAR SBSP 091100Z VRB02KT 6000 FEW002 BKN015 BKN065 14/13 Q1020=,SBSP,2022-06-09 11:00:00
1654776000000,METAR SBSP 091200Z 15004KT 8000 BKN015 BKN065 16/14 Q1021=,SBSP,2022-06-09 12:00:00
1654779600000,METAR SBSP 091300Z VRB02KT 8000 BKN015 SCT065 17/14 Q1021=,SBSP,2022-06-09 13:00:00
1654783200000,METAR SBSP 091400Z 06004KT 020V140 6000 OVC013 17/14 Q1021=,SBSP,2022-06-09 14:00:00
1654786800000,METAR SBSP 091500Z 06003KT 010V150 6000 OVC014 18/15 Q1020=,SBSP,2022-06-09 15:00:00
1654790400000,METAR SBSP 091600Z 05004KT 010V130 5000 HZ BKN015 19/15 Q1019=,SBSP,2022-06-09 16:00:00
1654794000000,METAR SBSP 091700Z 07004KT 030V110 7000 BKN015 19/15 Q1019=,SBSP,2022-06-09 17:00:00
1654797600000,METAR SBSP 091800Z 08003KT 020V120 6000 BKN019 BKN066 19/15 Q1019=,SBSP,2022-06-09 18:00:00
1654801200000,METAR SBSP 091900Z 09003KT 050V120 6000 FEW019 SCT100 19/15 Q1019=,SBSP,2022-06-09 19:00:00
1654804800000,METAR SBSP 092000Z 07005KT 040V100 6000 FEW017 BKN040 19/15 Q1019=,SBSP,2022-06-09 20:00:00
1654808400000,METAR SBSP 092100Z 08006KT 050V110 7000 NSC 18/15 Q1019=,SBSP,2022-06-09 21:00:00
1654809960000,SPECI SBSP 092126Z 07004KT 040V110 4000 -RA BR BKN036 OVC100 18/15 Q1019=,SBSP,2022-06-09 21:26:00
1654812000000,METAR SBSP 092200Z 09003KT 030V160 5000 -RA BR FEW013 BKN030 BKN100 18/16 Q1019=,SBSP,2022-06-09 22:00:00
1654815600000,METAR SBSP 092300Z 10003KT 070V130 3000 -RA BR FEW008 BKN023 OVC030 17/16 Q1019=,SBSP,2022-06-09 23:00:00
1654817100000,SPECI SBSP 092325Z VRB02KT 3000 -RA BR BKN006 OVC030 17/16 Q1020=,SBSP,2022-06-09 23:25:00
1654817580000,SPECI SBSP 092333Z 05003KT 020V090 1500 R17/P2000N R35/P2000N RA BR FEW004 BKN006 OVC023 17/16 Q1020=,SBSP,2022-06-09 23:33:00
1654732800000,METAR SBSV 090000Z 05003KT CAVOK 24/21 Q1015=,SBSV,2022-06-09 00:00:00
1654736400000,METAR SBSV 090100Z 00000KT CAVOK 23/21 Q1015=,SBSV,2022-06-09 01:00:00
1654740000000,METAR SBSV 090200Z 35002KT CAVOK 23/21 Q1015=,SBSV,2022-06-09 02:00:00
1654743600000,METAR SBSV 090300Z VRB02KT CAVOK 22/20 Q1015=,SBSV,2022-06-09 03:00:00
1654747200000,METAR SBSV 090400Z 28002KT CAVOK 22/20 Q1014=,SBSV,2022-06-09 04:00:00
1654750800000,METAR SBSV 090500Z 26002KT CAVOK 22/20 Q1014=,SBSV,2022-06-09 05:00:00
1654754400000,METAR COR SBSV 090600Z 26002KT CAVOK 21/19 Q1013=,SBSV,2022-06-09 06:00:00
1654758000000,METAR SBSV 090700Z 26002KT 9999 FEW023 21/20 Q1014=,SBSV,2022-06-09 07:00:00
1654761600000,METAR SBSV 090800Z 25002KT 9999 SCT023 22/20 Q1014=,SBSV,2022-06-09 08:00:00
1654765200000,METAR SBSV 090900Z 26003KT 230V300 9999 SCT023 22/20 Q1015=,SBSV,2022-06-09 09:00:00
1654768800000,METAR SBSV 091000Z 28002KT 9999 SCT023 22/21 Q1015=,SBSV,2022-06-09 10:00:00
1654772400000,METAR SBSV 091100Z 26003KT 9999 SCT023 26/23 Q1016=,SBSV,2022-06-09 11:00:00
1654776000000,METAR SBSV 091200Z 20004KT 9999 SCT023 27/23 Q1017=,SBSV,2022-06-09 12:00:00
1654779600000,METAR SBSV 091300Z 20007KT 9999 SCT023 28/23 Q1017=,SBSV,2022-06-09 13:00:00
1654783200000,METAR SBSV 091400Z 17007KT 9999 SCT023 29/23 Q1016=,SBSV,2022-06-09 14:00:00
1654786800000,METAR SBSV 091500Z 17007KT 9999 SCT023 29/23 Q1016=,SBSV,2022-06-09 15:00:00
1654790400000,METAR SBSV 091600Z 19007KT 9999 SCT017 28/23 Q1015=,SBSV,2022-06-09 16:00:00
1654794000000,METAR SBSV 091700Z 18006KT 9999 SCT017 29/23 Q1014=,SBSV,2022-06-09 17:00:00
1654797600000,METAR SBSV 091800Z 15008KT 9999 SCT020 SCT060 28/22 Q1014=,SBSV,2022-06-09 18:00:00
1654801200000,METAR SBSV 091900Z 15007KT 120V180 9999 SCT020 FEW023TCU SCT060 28/22 Q1014=,SBSV,2022-06-09 19:00:00
1654804800000,METAR SBSV 092000Z 12008KT 100V190 9999 SCT023 FEW025TCU SCT060 28/22 Q1015=,SBSV,2022-06-09 20:00:00
1654808400000,METAR SBSV 092100Z 13005KT 9999 SCT023 FEW025TCU SCT100 27/22 Q1015=,SBSV,2022-06-09 21:00:00
1654812000000,METAR SBSV 092200Z 11005KT 9999 FEW023 SCT060 27/22 Q1015=,SBSV,2022-06-09 22:00:00
1654815600000,METAR SBSV 092300Z 09006KT 9999 FEW023 SCT100 27/22 Q1016=,SBSV,2022-06-09 23:00:00
1654819200000,METAR SBBR 100000Z 32002KT 9999 FEW045 SCT080 21/11 Q1020=,SBBR,2022-06-10 00:00:00
1654822800000,METAR SBBR 100100Z 26002KT 9999 FEW045 SCT080 21/10 Q1020=,SBBR,2022-06-10 01:00:00
1654826400000,METAR SBBR 100200Z 07003KT 9999 FEW045 SCT080 18/11 Q1020=,SBBR,2022-06-10 02:00:00
1654830000000,METAR SBBR 100300Z 24003KT CAVOK 19/11 Q1020=,SBBR,2022-06-10 03:00:00
1654833600000,METAR SBBR 100400Z 17004KT CAVOK 17/11 Q1020=,SBBR,2022-06-10 04:00:00
1654837200000,METAR SBBR 100500Z VRB02KT CAVOK 15/11 Q1019=,SBBR,2022-06-10 05:00:00
1654840800000,METAR SBBR 100600Z 24003KT CAVOK 16/10 Q1019=,SBBR,2022-06-10 06:00:00
1654844400000,METAR SBBR 100700Z 26001KT CAVOK 15/10 Q1019=,SBBR,2022-06-10 07:00:00
1654848000000,METAR SBBR 100800Z 27002KT CAVOK 14/10 Q1019=,SBBR,2022-06-10 08:00:00
1654851600000,METAR SBBR 100900Z 09001KT CAVOK 13/10 Q1020=,SBBR,2022-06-10 09:00:00
1654855200000,METAR SBBR 101000Z VRB02KT CAVOK 13/10 Q1020=,SBBR,2022-06-10 10:00:00
1654858800000,METAR SBBR 101100Z 36001KT CAVOK 16/11 Q1021=,SBBR,2022-06-10 11:00:00
1654862400000,METAR SBBR 101200Z 28002KT CAVOK 20/12 Q1021=,SBBR,2022-06-10 12:00:00
1654866000000,METAR SBBR 101300Z 24002KT CAVOK 24/11 Q1021=,SBBR,2022-06-10 13:00:00
1654869600000,METAR SBBR 101400Z VRB03KT 9999 FEW040 SCT100 26/11 Q1021=,SBBR,2022-06-10 14:00:00
1654873200000,METAR SBBR 101500Z 29006KT 240V030 9999 FEW045 27/11 Q1020=,SBBR,2022-06-10 15:00:00
1654876800000,METAR SBBR 101600Z 27005KT 200V350 9999 FEW045 28/11 Q1019=,SBBR,2022-06-10 16:00:00
1654880400000,METAR SBBR 101700Z 29007KT 250V060 9999 FEW045 SCT070 28/10 Q1018=,SBBR,2022-06-10 17:00:00
1654884000000,METAR SBBR 101800Z 30007KT 9999 FEW045 SCT070 27/11 Q1018=,SBBR,2022-06-10 18:00:00
1654887600000,METAR SBBR 101900Z 24008KT 9999 FEW045 SCT070 27/12 Q1018=,SBBR,2022-06-10 19:00:00
1654891200000,METAR SBBR 102000Z 24007KT 9999 SCT045 SCT080 26/11 Q1018=,SBBR,2022-06-10 20:00:00
1654894800000,METAR SBBR 102100Z 25005KT 9999 SCT035 BKN080 25/12 Q1019=,SBBR,2022-06-10 21:00:00
1654898400000,METAR SBBR 102200Z 24007KT 9999 SCT035 BKN080 24/12 Q1019=,SBBR,2022-06-10 22:00:00
1654902000000,METAR SBBR 102300Z 22004KT 9999 SCT035 BKN080 23/13 Q1020=,SBBR,2022-06-10 23:00:00
1654819200000,METAR SBCF 100000Z 16002KT CAVOK 20/14 Q1020=,SBCF,2022-06-10 00:00:00
1654822800000,METAR SBCF 100100Z 10006KT CAVOK 21/14 Q1020=,SBCF,2022-06-10 01:00:00
1654826400000,METAR SBCF 100200Z 15003KT CAVOK 19/14 Q1020=,SBCF,2022-06-10 02:00:00
1654830000000,METAR SBCF 100300Z 12003KT CAVOK 19/14 Q1019=,SBCF,2022-06-10 03:00:00
1654833600000,METAR SBCF 100400Z 11002KT CAVOK 19/13 Q1019=,SBCF,2022-06-10 04:00:00
1654837200000,METAR SBCF 100500Z 05005KT CAVOK 18/13 Q1018=,SBCF,2022-06-10 05:00:00
1654840800000,METAR SBCF 100600Z 17002KT CAVOK 17/13 Q1018=,SBCF,2022-06-10 06:00:00
1654844400000,METAR SBCF 100700Z 10002KT CAVOK 17/13 Q1018=,SBCF,2022-06-10 07:00:00
1654848000000,METAR SBCF 100800Z 21002KT CAVOK 16/13 Q1018=,SBCF,2022-06-10 08:00:00
1654851600000,METAR SBCF 100900Z 15002KT 9999 FEW025 BKN100 17/13 Q1019=,SBCF,2022-06-10 09:00:00
1654855200000,METAR SBCF 101000Z 13002KT CAVOK 17/13 Q1019=,SBCF,2022-06-10 10:00:00
1654858800000,METAR SBCF 101100Z 06004KT CAVOK 19/13 Q1020=,SBCF,2022-06-10 11:00:00
1654862400000,METAR SBCF 101200Z 04008KT CAVOK 20/13 Q1020=,SBCF,2022-06-10 12:00:00
1654866000000,METAR SBCF 101300Z 04004KT CAVOK 23/13 Q1019=,SBCF,2022-06-10 13:00:00
1654869600000,METAR SBCF 101400Z 33007KT CAVOK 25/13 Q1019=,SBCF,2022-06-10 14:00:00
1654873200000,METAR SBCF 101500Z 32006KT CAVOK 26/13 Q1018=,SBCF,2022-06-10 15:00:00
1654876800000,METAR SBCF 101600Z 30006KT CAVOK 27/13 Q1017=,SBCF,2022-06-10 16:00:00
1654880400000,METAR SBCF 101700Z 24007KT 9999 FEW030 BKN090 27/13 Q1016=,SBCF,2022-06-10 17:00:00
1654884000000,METAR SBCF 101800Z 22008KT 9999 FEW030 SCT080 28/14 Q1016=,SBCF,2022-06-10 18:00:00
1654887600000,METAR SBCF 101900Z 24006KT 9999 FEW030 SCT080 26/13 Q1016=,SBCF,2022-06-10 19:00:00
1654891200000,METAR SBCF 102000Z 24005KT CAVOK 25/12 Q1017=,SBCF,2022-06-10 20:00:00
1654894800000,METAR SBCF 102100Z 24002KT CAVOK 23/13 Q1017=,SBCF,2022-06-10 21:00:00
1654898400000,METAR SBCF 102200Z 32002KT CAVOK 23/12 Q1017=,SBCF,2022-06-10 22:00:00
1654902000000,METAR SBCF 102300Z 26002KT CAVOK 22/13 Q1018=,SBCF,2022-06-10 23:00:00
1654819200000,METAR SBCT 100000Z 16006KT 9999 -RA FEW005 OVC100 14/13 Q1020=,SBCT,2022-06-10 00:00:00
1654822800000,METAR SBCT 100100Z 05006KT 9999 FEW005 BKN100 13/13 Q1018=,SBCT,2022-06-10 01:00:00
1654826400000,METAR SBCT 100200Z 20007KT 7000 -RA BKN006 BKN080 14/13 Q1019=,SBCT,2022-06-10 02:00:00
1654830000000,METAR SBCT 100300Z 27004KT 9000 -RA BKN009 BKN100 13/13 Q1019=,SBCT,2022-06-10 03:00:00
1654833600000,METAR SBCT 100400Z 25009KT 9000 -RA BKN008 BKN100 14/14 Q1018=,SBCT,2022-06-10 04:00:00
1654837200000,METAR SBCT 100500Z 22004KT 9999 BKN010 BKN100 13/13 Q1017=,SBCT,2022-06-10 05:00:00
1654840800000,METAR SBCT 100600Z 24004KT 9999 BKN010 BKN100 13/13 Q1017=,SBCT,2022-06-10 06:00:00
1654844400000,METAR SBCT 100700Z 24004KT 6000 SCT008 12/12 Q1017=,SBCT,2022-06-10 07:00:00
1654848000000,METAR SBCT 100800Z 25006KT 2500 BCFG OVC006 12/12 Q1017=,SBCT,2022-06-10 08:00:00
1654851600000,METAR SBCT 100900Z 28005KT 230V330 5000 BR BKN003 12/12 Q1017=,SBCT,2022-06-10 09:00:00
1654855200000,METAR SBCT 101000Z 30005KT 3000 BR BKN003 OVC010 12/12 Q1018=,SBCT,2022-06-10 10:00:00
1654858800000,METAR SBCT 101100Z 27004KT 6000 BKN009 OVC011 13/13 Q1019=,SBCT,2022-06-10 11:00:00
1654862400000,METAR SBCT 101200Z 27005KT 240V340 9999 BKN011 OVC017 14/14 Q1019=,SBCT,2022-06-10 12:00:00
1654866000000,METAR SBCT 101300Z 25008KT 9000 BKN009 OVC017 14/13 Q1020=,SBCT,2022-06-10 13:00:00
1654869600000,METAR SBCT 101400Z 26008KT 9999 SCT009 BKN013 BKN020 15/13 Q1019=,SBCT,2022-06-10 14:00:00
1654873200000,METAR SBCT 101500Z 26008KT 240V320 9999 BKN013 BKN020 16/13 Q1019=,SBCT,2022-06-10 15:00:00
1654876800000,METAR SBCT 101600Z 24011KT 210V270 9999 BKN013 BKN020 16/12 Q1018=,SBCT,2022-06-10 16:00:00
1654880400000,METAR SBCT 101700Z 25010KT 170V290 9999 BKN013 BKN020 16/12 Q1018=,SBCT,2022-06-10 17:00:00
1654884000000,METAR SBCT 101800Z 25010KT 9999 SCT013 BKN020 16/11 Q1018=,SBCT,2022-06-10 18:00:00
1654887600000,METAR SBCT 101900Z 25007KT 9999 BKN030 16/12 Q1018=,SBCT,2022-06-10 19:00:00
1654891200000,METAR SBCT 102000Z 24006KT 9999 OVC025 15/12 Q1019=,SBCT,2022-06-10 20:00:00
1654894800000,METAR SBCT 102100Z 28003KT 9999 SCT020 BKN040 15/12 Q1019=,SBCT,2022-06-10 21:00:00
1654898400000,METAR SBCT 102200Z 28004KT 9999 FEW009 SCT040 14/12 Q1020=,SBCT,2022-06-10 22:00:00
1654902000000,METAR SBCT 102300Z 24007KT 9999 FEW007 13/10 Q1021=,SBCT,2022-06-10 23:00:00
1654819200000,METAR SBFL 100000Z 26004KT 9999 FEW030 SCT045 OVC090 18/17 Q1017=,SBFL,2022-06-10 00:00:00
1654822800000,METAR COR SBFL 100100Z 30001KT 9999 FEW030 BKN090 17/17 Q1013=,SBFL,2022-06-10 01:00:00
1654826400000,METAR SBFL 100200Z 11002KT 9999 -RA FEW025 SCT045 OVC090 18/17 Q1016=,SBFL,2022-06-10 02:00:00
1654830000000,METAR SBFL 100300Z 26003KT 9999 FEW025 SCT045 OVC090 18/17 Q1015=,SBFL,2022-06-10 03:00:00
1654833600000,METAR SBFL 100400Z 36002KT 9999 -RA FEW025 SCT045 OVC090 18/17 Q1015=,SBFL,2022-06-10 04:00:00
1654837200000,METAR SBFL 100500Z 26002KT 9999 FEW025 SCT045 OVC090 18/17 Q1014=,SBFL,2022-06-10 05:00:00
1654840800000,METAR SBFL 100600Z 36003KT 9999 FEW025 SCT045 OVC090 17/17 Q1014=,SBFL,2022-06-10 06:00:00
1654844400000,METAR SBFL 100700Z 24004KT 9999 FEW025 SCT045 OVC090 18/17 Q1014=,SBFL,2022-06-10 07:00:00
1654848000000,METAR SBFL 100800Z 30002KT 9999 FEW025 SCT045 OVC090 17/17 Q1013=,SBFL,2022-06-10 08:00:00
1654851600000,METAR SBFL 100900Z 29001KT 9999 FEW025 BKN090 17/17 Q1013=,SBFL,2022-06-10 09:00:00
1654855200000,METAR SBFL 101000Z 27002KT 9999 FEW045 BKN090 17/16 Q1014=,SBFL,2022-06-10 10:00:00
1654858800000,METAR SBFL 101100Z 24002KT CAVOK 17/16 Q1014=,SBFL,2022-06-10 11:00:00
1654862400000,METAR SBFL 101200Z 30003KT CAVOK 18/17 Q1014=,SBFL,2022-06-10 12:00:00
1654866000000,METAR SBFL 101300Z 29002KT CAVOK 19/17 Q1015=,SBFL,2022-06-10 13:00:00
1654869600000,METAR SBFL 101400Z 29003KT CAVOK 20/16 Q1015=,SBFL,2022-06-10 14:00:00
1654873200000,METAR SBFL 101500Z 10004KT 9999 FEW020 21/16 Q1015=,SBFL,2022-06-10 15:00:00
1654876800000,METAR SBFL 101600Z 14011KT 9999 SCT020 BKN035 20/16 Q1014=,SBFL,2022-06-10 16:00:00
1654880400000,METAR SBFL 101700Z 16006KT 9999 SCT020 BKN035 20/16 Q1014=,SBFL,2022-06-10 17:00:00
1654884000000,METAR SBFL 101800Z 19011KT 9999 SCT030 SCT070 19/15 Q1014=,SBFL,2022-06-10 18:00:00
1654887600000,METAR SBFL 101900Z 18013KT 150V210 9999 SCT025 SCT070 18/14 Q1015=,SBFL,2022-06-10 19:00:00
1654891200000,METAR SBFL 102000Z 18013G23KT 9999 SCT020 SCT070 17/13 Q1016=,SBFL,2022-06-10 20:00:00
1654894800000,METAR SBFL 102100Z 17011KT 140V210 9999 BKN020 SCT070 16/12 Q1017=,SBFL,2022-06-10 21:00:00
1654898400000,METAR COR SBFL 102200Z 15010KT 9999 SCT020 SCT080 15/12 Q1018=,SBFL,2022-06-10 22:00:00
1654902000000,METAR SBFL 102300Z 18012KT 150V220 9999 BKN025 15/11 Q1018 WS R14=,SBFL,2022-06-10 23:00:00
1654819200000,METAR SBGL 100000Z 12002KT 9999 FEW008 SCT026 BKN040 22/18 Q1017=,SBGL,2022-06-10 00:00:00
1654822800000,METAR SBGL 100100Z 12003KT 9999 FEW026 BKN050 21/18 Q1016=,SBGL,2022-06-10 01:00:00
1654826400000,METAR SBGL 100200Z 07002KT 9999 SCT023 BKN050 21/18 Q1016=,SBGL,2022-06-10 02:00:00
1654830000000,METAR SBGL 100300Z 07002KT 9999 BKN024 21/18 Q1016=,SBGL,2022-06-10 03:00:00
1654833600000,METAR SBGL 100400Z 11003KT 9999 SCT024 BKN100 21/18 Q1016=,SBGL,2022-06-10 04:00:00
1654837200000,METAR SBGL 100500Z 10004KT 9999 FEW024 SCT100 21/18 Q1016=,SBGL,2022-06-10 05:00:00
1654840800000,METAR SBGL 100600Z 00000KT 9999 FEW007 BKN100 21/19 Q1014=,SBGL,2022-06-10 06:00:00
1654844400000,METAR COR SBGL 100700Z 12002KT 9999 FEW007 BKN100 21/19 Q1014=,SBGL,2022-06-10 07:00:00
1654848000000,METAR SBGL 100800Z 13001KT 9999 FEW007 BKN100 20/19 Q1013=,SBGL,2022-06-10 08:00:00
1654851600000,METAR SBGL 100900Z 13002KT 9999 FEW007 OVC100 20/19 Q1013=,SBGL,2022-06-10 09:00:00
1654855200000,METAR SBGL 101000Z 00000KT 9999 FEW007 BKN100 21/20 Q1014=,SBGL,2022-06-10 10:00:00
1654858800000,METAR SBGL 101100Z VRB02KT 7000 FEW006 BKN100 21/20 Q1014=,SBGL,2022-06-10 11:00:00
1654862400000,METAR SBGL 101200Z 07003KT 030V120 7000 FEW006 BKN100 22/20 Q1014=,SBGL,2022-06-10 12:00:00
1654866000000,METAR SBGL 101300Z VRB02KT 6000 FEW004 BKN100 22/20 Q1014=,SBGL,2022-06-10 13:00:00
1654869600000,METAR SBGL 101400Z 33006KT 300V360 6000 FEW005 BKN100 23/20 Q1013=,SBGL,2022-06-10 14:00:00
1654873200000,METAR SBGL 101500Z 02003KT 340V060 6000 FEW010 BKN100 24/20 Q1011=,SBGL,2022-06-10 15:00:00
1654876800000,METAR SBGL 101600Z VRB03KT 5000 BR FEW010 SCT070 BKN100 24/21 Q1011=,SBGL,2022-06-10 16:00:00
1654880400000,METAR SBGL 101700Z 25006KT 220V280 9999 FEW010 BKN100 25/20 Q1010=,SBGL,2022-06-10 17:00:00
1654884000000,METAR SBGL 101800Z 25016KT 9999 FEW015 BKN095 26/19 Q1011=,SBGL,2022-06-10 18:00:00
1654887600000,METAR SBGL 101900Z 22016KT 9999 FEW015 BKN100 24/19 Q1012=,SBGL,2022-06-10 19:00:00
1654891200000,METAR SBGL 102000Z 22017KT 9999 FEW015 SCT090 23/19 Q1013=,SBGL,2022-06-10 20:00:00
1654894800000,METAR SBGL 102100Z 22013KT 9999 SCT016 BKN045 BKN100 22/19 Q1014=,SBGL,2022-06-10 21:00:00
1654898400000,METAR SBGL 102200Z 21019KT 9999 SCT015 BKN030 BKN040 21/17 Q1015=,SBGL,2022-06-10 22:00:00
1654902000000,METAR SBGL 102300Z 25010KT 5000 -RA BR SCT010 BKN030 OVC040 20/18 Q1016=,SBGL,2022-06-10 23:00:00
1654819200000,METAR SBGR 100000Z 08005KT 5000 -RA BR FEW013 SCT025 BKN070 18/17 Q1019=,SBGR,2022-06-10 00:00:00
1654822800000,METAR SBGR 100100Z 09005KT 7000 -RA FEW009 BKN023 OVC080 18/17 Q1019=,SBGR,2022-06-10 01:00:00
1654826400000,METAR SBGR 100200Z 07005KT 7000 FEW007 BKN023 BKN070 17/17 Q1019=,SBGR,2022-06-10 02:00:00
1654830000000,METAR SBGR 100300Z 08006KT 8000 FEW005 BKN050 17/17 Q1018=,SBGR,2022-06-10 03:00:00
1654833600000,METAR SBGR 100400Z 36004KT 9999 FEW020 BKN050 BKN080 18/17 Q1018=,SBGR,2022-06-10 04:00:00
1654837200000,METAR SBGR 100500Z 31005KT 5000 -RA BR NSC 18/17 Q1017=,SBGR,2022-06-10 05:00:00
1654840800000,METAR SBGR 100600Z 01005KT 9999 -RA SCT025 BKN030 OVC100 18/17 Q1017=,SBGR,2022-06-10 06:00:00
1654842600000,SPECI SBGR 100630Z 29005KT 3500 RA BR OVC030 17/17 Q1017=,SBGR,2022-06-10 06:30:00
1654844400000,METAR SBGR 100700Z 32002KT 4500 RA BR BKN040 OVC100 17/17 Q1017=,SBGR,2022-06-10 07:00:00
1654848000000,METAR SBGR 100800Z 30003KT 270V330 9999 -RA FEW010 SCT015 BKN040 17/17 Q1017 RERA=,SBGR,2022-06-10 08:00:00
1654851600000,METAR SBGR 100900Z 31005KT 8000 -RA BKN017 OVC025 18/17 Q1017=,SBGR,2022-06-10 09:00:00
1654855200000,METAR SBGR 101000Z 36009KT 9999 SCT011 18/16 Q1016=,SBGR,2022-06-10 10:00:00
1654858800000,METAR SBGR 101100Z 33008KT 290V020 9999 SCT013 BKN080 18/16 Q1017=,SBGR,2022-06-10 11:00:00
1654862400000,METAR SBGR 101200Z 29009KT 9999 SCT015 BKN090 19/17 Q1018=,SBGR,2022-06-10 12:00:00
1654866000000,METAR SBGR 101300Z 31009KT 9999 SCT020 BKN090 20/17 Q1018=,SBGR,2022-06-10 13:00:00
1654869600000,METAR SBGR 101400Z 30010KT 9999 BKN017 BKN090 20/17 Q1018=,SBGR,2022-06-10 14:00:00
1654873200000,METAR SBGR 101500Z 30013KT 9999 SCT020 BKN090 20/16 Q1017=,SBGR,2022-06-10 15:00:00
1654876800000,METAR SBGR 101600Z 29010KT 9999 BKN020 BKN090 19/17 Q1017=,SBGR,2022-06-10 16:00:00
1654880400000,METAR SBGR 101700Z 29013KT 9999 BKN025 SCT080 22/16 Q1016=,SBGR,2022-06-10 17:00:00
1654884000000,METAR SBGR 101800Z 27013KT 9999 SCT030 SCT100 21/15 Q1016=,SBGR,2022-06-10 18:00:00
1654887600000,METAR SBGR 101900Z 25011KT 9999 SCT030 SCT050 21/14 Q1017=,SBGR,2022-06-10 19:00:00
1654891200000,METAR SBGR 102000Z 28009KT 9999 BKN030 BKN100 20/15 Q1017=,SBGR,2022-06-10 20:00:00
1654894800000,METAR SBGR 102100Z 23005KT 9999 BKN045 BKN100 19/14 Q1018=,SBGR,2022-06-10 21:00:00
1654898400000,METAR SBGR 102200Z 17005KT 9999 BKN030 BKN100 18/16 Q1018=,SBGR,2022-06-10 22:00:00
1654902000000,METAR SBGR 102300Z 16003KT 9999 SCT013 BKN040 18/16 Q1019=,SBGR,2022-06-10 23:00:00
1654819200000,METAR SBKP 100000Z 03003KT 5000 BR SCT045 BKN090 20/18 Q1018=,SBKP,2022-06-10 00:00:00
1654822800000,METAR SBKP 100100Z 03005KT 5000 BR SCT045 BKN090 20/18 Q1018=,SBKP,2022-06-10 01:00:00
1654826400000,METAR SBKP 100200Z 01008KT 4000 -RA BR BKN040 OVC090 19/18 Q1018=,SBKP,2022-06-10 02:00:00
1654827420000,SPECI SBKP 100217Z 01007KT 2500 RA BR SCT009 BKN040 OVC100 19/18 Q1018=,SBKP,2022-06-10 02:17:00
1654828680000,SPECI SBKP 100238Z 01007KT 4000 -RA BR SCT006 BKN040 OVC100 18/17 Q1018 RERA=,SBKP,2022-06-10 02:38:00
1654830000000,METAR SBKP 100300Z 01006KT 5000 -RA BR FEW005 BKN040 OVC100 18/17 Q1018 RERA=,SBKP,2022-06-10 03:00:00
1654830480000,SPECI SBKP 100308Z 02005KT 3000 -RA BR SCT009 BKN045 OVC100 18/17 Q1018=,SBKP,2022-06-10 03:08:00
1654833600000,METAR SBKP 100400Z 03005KT 2000 -RA BR SCT005 BKN040 OVC100 18/18 Q1017=,SBKP,2022-06-10 04:00:00
1654837200000,METAR SBKP 100500Z 33003KT 290V360 1800 R15/P2000 R33/P2000 -RA BR FEW005 OVC030 18/18 Q1017=,SBKP,2022-06-10 05:00:00
1654838700000,SPECI SBKP 100525Z 29004KT 1400 R15/P2000 R33/P2000 -RA BR BKN002 OVC020 18/18 Q1017=,SBKP,2022-06-10 05:25:00
1654839900000,SPECI SBKP 100545Z 27008KT 1200 R15/P2000 R33/P2000 +RA BR BKN002 BKN007 OVC020 18/17 Q1017=,SBKP,2022-06-10 05:45:00
1654840800000,METAR SBKP 100600Z 28009KT 1200 R15/P2000 R33/P2000 +RA BR BKN002 BKN006 OVC018 18/17 Q1017=,SBKP,2022-06-10 06:00:00
1654841400000,SPECI SBKP 100610Z 34005KT 2000 -RA BR SCT002 BKN025 OVC100 18/17 Q1017 RERA=,SBKP,2022-06-10 06:10:00
1654844400000,METAR SBKP 100700Z 02006KT 4000 -RA BR SCT003 BKN035 OVC100 18/17 Q1016 RERA=,SBKP,2022-06-10 07:00:00
1654848000000,METAR SBKP 100800Z 36006KT 280V030 2500 RA BR BKN004 BKN025 18/17 Q1017=,SBKP,2022-06-10 08:00:00
1654849620000,SPECI SBKP 100827Z 24004KT 210V330 7000 -RA FEW004 BKN040 OVC100 17/16 Q1017 RERA=,SBKP,2022-06-10 08:27:00
1654851600000,METAR SBKP 100900Z 04007KT 9999 -RA FEW004 BKN060 BKN080 17/16 Q1016 RERA=,SBKP,2022-06-10 09:00:00
1654855200000,METAR SBKP 101000Z 35003KT 320V020 9999 FEW010 SCT060 BKN080 17/16 Q1017=,SBKP,2022-06-10 10:00:00
1654858800000,METAR SBKP 101100Z 02007KT 5000 -RA BR SCT008 BKN050 OVC080 18/17 Q1017=,SBKP,2022-06-10 11:00:00
1654859280000,SPECI SBKP 101108Z 29004KT 3000 -RA BR BKN005 BKN050 OVC080 18/17 Q1018=,SBKP,2022-06-10 11:08:00
1654862400000,METAR SBKP 101200Z 33002KT 3000 BR BKN007 SCT050 BKN080 18/17 Q1018=,SBKP,2022-06-10 12:00:00
1654866000000,METAR SBKP 101300Z 32004KT 3000 BR BKN007 SCT050 BKN080 18/17 Q1019=,SBKP,2022-06-10 13:00:00
1654869600000,METAR SBKP 101400Z 31007KT 4000 BR SCT007 SCT036 BKN066 19/17 Q1019=,SBKP,2022-06-10 14:00:00
1654873200000,METAR SBKP 101500Z 27007KT 5000 BR BKN010 SCT050 19/17 Q1018=,SBKP,2022-06-10 15:00:00
1654876800000,METAR SBKP 101600Z 28009KT 9999 BKN015 FEW040TCU BKN080 20/17 Q1017=,SBKP,2022-06-10 16:00:00
1654880400000,METAR SBKP 101700Z 26011KT 9999 BKN020 FEW040TCU SCT060 22/16 Q1016=,SBKP,2022-06-10 17:00:00
1654884000000,METAR SBKP 101800Z 24012KT 9999 SCT020 FEW040TCU 21/16 Q1016=,SBKP,2022-06-10 18:00:00
1654887600000,METAR SBKP 101900Z 24009KT 9999 SCT026 FEW040TCU SCT100 22/15 Q1016=,SBKP,2022-06-10 19:00:00
1654891200000,METAR SBKP 102000Z 21007KT 9999 SCT030 SCT100 21/15 Q1017=,SBKP,2022-06-10 20:00:00
1654894800000,METAR SBKP 102100Z 22005KT 9999 FEW030 20/15 Q1017=,SBKP,2022-06-10 21:00:00
1654898400000,METAR SBKP 102200Z 20005KT 9999 SCT030 19/15 Q1018=,SBKP,2022-06-10 22:00:00
1654902000000,METAR SBKP 102300Z 23007KT CAVOK 19/15 Q1019=,SBKP,2022-06-10 23:00:00
1654819200000,METAR SBPA 100000Z 00000KT 5000 BR NSC 15/14 Q1016=,SBPA,2022-06-10 00:00:00
1654822800000,METAR SBPA 100100Z 27002KT 5000 BR NSC 14/14 Q1016=,SBPA,2022-06-10 01:00:00
1654826400000,METAR SBPA 100200Z VRB01KT 2000 BR NSC 13/13 Q1016=,SBPA,2022-06-10 02:00:00
1654828680000,SPECI SBPA 100238Z VRB02KT 0500 R29///// R11/1400D FG NSC 14/14 Q1016=,SBPA,2022-06-10 02:38:00
1654830000000,METAR SBPA 100300Z 31003KT 270V350 0050 R29///// R11/0175D FG NSC 14/13 Q1016=,SBPA,2022-06-10 03:00:00
1654832700000,SPECI SBPA 100345Z 31004KT 0150 R29///// R11/0450N FG VV001 14/14 Q1017=,SBPA,2022-06-10 03:45:00
1654833600000,METAR SBPA 100400Z 31006KT 0150 R29///// R11/0500D FG VV001 14/14 Q1017=,SBPA,2022-06-10 04:00:00
1654834800000,SPECI SBPA 100420Z 27005KT 1500 R29///// R11/1800U BR PRFG VV001 14/14 Q1017=,SBPA,2022-06-10 04:20:00
1654837200000,METAR SBPA 100500Z 30003KT 1500 R29///// R11/P2000 BR PRFG BKN002 14/14 Q1016=,SBPA,2022-06-10 05:00:00
1654840800000,METAR SBPA 100600Z 31003KT 1500 R29///// R11/P2000 BR PRFG BKN003 15/15 Q1016=,SBPA,2022-06-10 06:00:00
1654844400000,METAR SBPA 100700Z 28003KT 1500 R29///// R11/P2000 BR PRFG OVC003 15/15 Q1017=,SBPA,2022-06-10 07:00:00
1654848000000,METAR SBPA 100800Z 26005KT 3000 BR OVC003 15/15 Q1015=,SBPA,2022-06-10 08:00:00
1654851600000,METAR SBPA 100900Z 25007KT 220V280 5000 BR BKN003 16/16 Q1016=,SBPA,2022-06-10 09:00:00
1654855200000,METAR SBPA 101000Z 29007KT 5000 BR BKN004 16/15 Q1017=,SBPA,2022-06-10 10:00:00
1654858800000,METAR SBPA 101100Z 28008KT 5000 BR BKN006 16/15 Q1018=,SBPA,2022-06-10 11:00:00
1654862400000,METAR SBPA 101200Z 28007KT 240V310 8000 BKN007 BKN017 16/15 Q1019=,SBPA,2022-06-10 12:00:00
1654866000000,METAR SBPA 101300Z 27008KT 9999 BKN009 BKN025 16/15 Q1019=,SBPA,2022-06-10 13:00:00
1654869600000,METAR SBPA 101400Z 19011KT 170V250 9999 VCSH BKN009 BKN025 14/12 Q1020 WS R29=,SBPA,2022-06-10 14:00:00
1654873200000,METAR SBPA 101500Z 20008KT 170V240 9999 BKN008 BKN022 13/12 Q1020=,SBPA,2022-06-10 15:00:00
1654875660000,SPECI SBPA 101541Z 22010KT 180V250 9999 BKN017 BKN027 14/11 Q1019=,SBPA,2022-06-10 15:41:00
1654876800000,METAR SBPA 101600Z 22010KT 190V260 9999 BKN018 BKN025 14/11 Q1019=,SBPA,2022-06-10 16:00:00
1654880400000,METAR SBPA 101700Z 23010KT 200V260 9999 BKN018 BKN033 16/09 Q1018=,SBPA,2022-06-10 17:00:00
1654884000000,METAR SBPA 101800Z 24010KT 9999 SCT020 BKN036 16/08 Q1019=,SBPA,2022-06-10 18:00:00
1654887600000,METAR SBPA 101900Z 23007KT 190V270 9999 VCSH SCT030 BKN040 15/08 Q1019=,SBPA,2022-06-10 19:00:00
1654891200000,METAR SBPA 102000Z 26013KT 9999 VCSH BKN045 15/06 Q1020=,SBPA,2022-06-10 20:00:00
1654894800000,METAR SBPA 102100Z 27009KT 9999 SCT045 13/06 Q1020=,SBPA,2022-06-10 21:00:00
1654898400000,METAR SBPA 102200Z 29007KT 9999 SCT048 12/07 Q1021=,SBPA,2022-06-10 22:00:00
1654902000000,METAR SBPA 102300Z 26007KT 9999 FEW049 11/06 Q1022=,SBPA,2022-06-10 23:00:00
1654819200000,METAR SBRF 100000Z 17008KT 9999 BKN020 26/23 Q1014=,SBRF,2022-06-10 00:00:00
1654822800000,METAR SBRF 100100Z 22004KT 9999 SCT020 26/23 Q1015=,SBRF,2022-06-10 01:00:00
1654825440000,SPECI SBRF 100144Z 17006KT 130V210 5000 RA BR SCT018 24/23 Q1014=,SBRF,2022-06-10 01:44:00
1654826400000,METAR SBRF 100200Z 18006KT 130V210 8000 -RA BKN018 24/23 Q1014 RERA=,SBRF,2022-06-10 02:00:00
1654828200000,SPECI SBRF 100230Z 15012KT 3000 RA BR FEW008 SCT011 BKN015 24/23 Q1014=,SBRF,2022-06-10 02:30:00
1654830000000,METAR SBRF 100300Z 17006KT 9000 -RA FEW008 BKN018 24/24 Q1014 RERA=,SBRF,2022-06-10 03:00:00
1654833600000,METAR SBRF 100400Z 24003KT 9999 FEW008 BKN018 BKN050 24/23 Q1014=,SBRF,2022-06-10 04:00:00
1654837200000,METAR SBRF 100500Z 23004KT 9999 FEW008 BKN018 BKN050 24/23 Q1013=,SBRF,2022-06-10 05:00:00
1654840800000,METAR SBRF 100600Z 23004KT 5000 -RA BR FEW008 BKN018 BKN050 24/23 Q1013=,SBRF,2022-06-10 06:00:00
1654844400000,METAR SBRF 100700Z 23005KT 5000 -RA BR SCT008 BKN015 BKN040 24/23 Q1013=,SBRF,2022-06-10 07:00:00
1654848000000,METAR SBRF 100800Z 22004KT 8000 -RA SCT008 BKN015 BKN040 24/23 Q1013=,SBRF,2022-06-10 08:00:00
1654851600000,METAR SBRF 100900Z 21004KT 9000 VCSH SCT008 BKN015 BKN040 24/23 Q1013=,SBRF,2022-06-10 09:00:00
1654855200000,METAR SBRF 101000Z 21005KT 9000 VCSH SCT008 BKN018 BKN040 24/23 Q1014=,SBRF,2022-06-10 10:00:00
1654858800000,METAR SBRF 101100Z 20005KT 9999 FEW013 SCT018 BKN050 25/23 Q1014=,SBRF,2022-06-10 11:00:00
1654862400000,METAR SBRF 101200Z 18004KT 8000 VCSH FEW013 SCT015 BKN050 26/23 Q1015=,SBRF,2022-06-10 12:00:00
1654866000000,METAR SBRF 101300Z 17003KT 9999 SCT018 FEW020TCU BKN060 27/23 Q1014=,SBRF,2022-06-10 13:00:00
1654869600000,METAR SBRF 101400Z 16007KT 9999 SCT018 FEW020TCU SCT060 28/24 Q1014=,SBRF,2022-06-10 14:00:00
1654873200000,METAR SBRF 101500Z 15007KT 9999 SCT018 FEW020TCU SCT060 28/23 Q1013=,SBRF,2022-06-10 15:00:00
1654876800000,METAR SBRF 101600Z 13008KT 9999 SCT022 FEW025TCU 28/23 Q1012=,SBRF,2022-06-10 16:00:00
1654880400000,METAR SBRF 101700Z 12006KT 9999 SCT022 FEW025TCU 29/23 Q1011=,SBRF,2022-06-10 17:00:00
1654884000000,METAR SBRF 101800Z 13006KT 9999 FEW023 28/22 Q1011=,SBRF,2022-06-10 18:00:00
1654887600000,METAR SBRF 101900Z 12005KT 9999 FEW023 28/22 Q1011=,SBRF,2022-06-10 19:00:00
1654891200000,METAR SBRF 102000Z 11004KT 030V180 9999 FEW023 27/23 Q1011=,SBRF,2022-06-10 20:00:00
1654894800000,METAR SBRF 102100Z 14004KT 9999 FEW023 27/23 Q1012=,SBRF,2022-06-10 21:00:00
1654898400000,METAR COR SBRF 102200Z 14004KT CAVOK 26/23 Q1013=,SBRF,2022-06-10 22:00:00
1654902000000,METAR SBRF 102300Z 15003KT CAVOK 26/23 Q1013=,SBRF,2022-06-10 23:00:00
1654819200000,METAR SBRJ 100000Z 14005KT 9999 FEW025 OVC040 22/20 Q1016=,SBRJ,2022-06-10 00:00:00
1654822800000,METAR SBRJ 100100Z 18005KT 9999 FEW025 OVC040 22/20 Q1016=,SBRJ,2022-06-10 01:00:00
1654826400000,METAR SBRJ 100200Z 16005KT 9999 FEW025 OVC040 22/20 Q1016=,SBRJ,2022-06-10 02:00:00
1654851000000,SPECI SBRJ 100850Z 02004KT 9999 SCT010 BKN015 BKN100 21/20 Q1013=,SBRJ,2022-06-10 08:50:00
1654851600000,METAR SBRJ 100900Z 02004KT 9999 SCT010 BKN015 BKN100 21/20 Q1013=,SBRJ,2022-06-10 09:00:00
1654855200000,METAR SBRJ 101000Z 02003KT 300V040 9999 FEW015 BKN100 21/20 Q1013=,SBRJ,2022-06-10 10:00:00
1654858800000,METAR SBRJ 101100Z 01006KT 9999 FEW015 BKN100 22/20 Q1014=,SBRJ,2022-06-10 11:00:00
1654862400000,METAR SBRJ 101200Z 02007KT 9999 FEW010 SCT020 BKN100 22/21 Q1014=,SBRJ,2022-06-10 12:00:00
1654866000000,METAR SBRJ 101300Z 35008KT 9999 FEW010 SCT015 BKN100 22/21 Q1013=,SBRJ,2022-06-10 13:00:00
1654869600000,METAR SBRJ 101400Z 33009KT 9999 FEW015 BKN100 23/21 Q1012=,SBRJ,2022-06-10 14:00:00
1654873200000,METAR SBRJ 101500Z 35008KT 9999 FEW015 BKN100 23/21 Q1011=,SBRJ,2022-06-10 15:00:00
1654876800000,METAR SBRJ 101600Z 31007KT 280V340 6000 FEW015 SCT026 BKN100 24/21 Q1010=,SBRJ,2022-06-10 16:00:00
1654880400000,METAR SBRJ 101700Z 27007KT 230V300 9999 FEW020 BKN080 27/19 Q1010=,SBRJ,2022-06-10 17:00:00
1654884000000,METAR SBRJ 101800Z 26008KT 230V300 9999 FEW020 BKN080 27/19 Q1010=,SBRJ,2022-06-10 18:00:00
1654887600000,METAR SBRJ 101900Z 20011KT 9999 FEW020 BKN090 25/20 Q1011=,SBRJ,2022-06-10 19:00:00
1654891200000,METAR SBRJ 102000Z 20015KT 9999 FEW012 SCT020 BKN090 23/20 Q1012=,SBRJ,2022-06-10 20:00:00
1654894800000,METAR SBRJ 102100Z 22013KT 9999 SCT012 SCT020 BKN050 23/19 Q1014=,SBRJ,2022-06-10 21:00:00
1654895400000,SPECI SBRJ 102110Z 22011KT 180V260 9000 -RA BKN012 BKN020 OVC050 23/19 Q1014=,SBRJ,2022-06-10 21:10:00
1654898400000,METAR SBRJ 102200Z 20016KT 170V230 9999 -RA BKN012 BKN020 OVC050 21/18 Q1015 WS R20=,SBRJ,2022-06-10 22:00:00
1654899600000,SPECI COR SBRJ 102220Z 22010KT 170V270 6000 RA BKN012 BKN020 OVC040 20/18 Q1015 WS R20=,SBRJ,2022-06-10 22:20:00
1654900500000,SPECI SBRJ 102235Z VRB02KT 7000 -RA BKN015 BKN025 OVC040 20/18 Q1015 RERA WS R20=,SBRJ,2022-06-10 22:35:00
1654902000000,METAR SBRJ 102300Z VRB03KT 9999 -RA SCT015 BKN025 OVC040 20/18 Q1015 RERA=,SBRJ,2022-06-10 23:00:00
1654819200000,METAR SBSP 100000Z 06003KT 340V090 2000 -RA BR FEW002 BKN005 OVC019 17/16 Q1020 RERA=,SBSP,2022-06-10 00:00:00
1654820340000,SPECI SBSP 100019Z 05004KT 3000 -RA BR SCT007 BKN026 17/16 Q1019=,SBSP,2022-06-10 00:19:00
1654822800000,METAR SBSP 100100Z 05004KT 5000 BR FEW007 BKN017 17/16 Q1019=,SBSP,2022-06-10 01:00:00
1654826400000,METAR SBSP 100200Z 04003KT 010V080 6000 FEW006 BKN050 17/16 Q1019=,SBSP,2022-06-10 02:00:00
1654827240000,SPECI SBSP 100214Z AUTO 05003KT 9000 FEW006 BKN012 17/16 Q1019=,SBSP,2022-06-10 02:14:00
1654828740000,SPECI SBSP 100239Z AUTO 04003KT 9000 SCT012 17/16 Q1018=,SBSP,2022-06-10 02:39:00
1654830000000,METAR SBSP 100300Z AUTO 04003KT 9000 FEW012 17/16 Q1018=,SBSP,2022-06-10 03:00:00
1654831740000,SPECI SBSP 100329Z AUTO 04003KT 340V090 4200 -RA FEW012 SCT014 BKN043 17/16 Q1018=,SBSP,2022-06-10 03:29:00
1654832040000,SPECI SBSP 100334Z AUTO 06003KT 340V100 6000 -RA BKN013 BKN041 17/16 Q1018=,SBSP,2022-06-10 03:34:00
1654833420000,SPECI SBSP 100357Z AUTO VRB06KT 9000 -RA FEW005 BKN010 OVC012 17/16 Q1018=,SBSP,2022-06-10 03:57:00
1654833600000,METAR SBSP 100400Z AUTO VRB06KT 9000 -RA FEW005 BKN010 OVC012 17/16 Q1018=,SBSP,2022-06-10 04:00:00
1654833660000,SPECI SBSP 100401Z AUTO VRB05KT 9999 -RA BKN005 BKN011 OVC023 17/16 Q1018=,SBSP,2022-06-10 04:01:00
1654834200000,SPECI SBSP 100410Z AUTO 35006KT 9000 BKN004 BKN022 OVC029 17/16 Q1018=,SBSP,2022-06-10 04:10:00
1654834860000,SPECI SBSP 100421Z AUTO 35007KT 9999 SCT006 BKN009 OVC019 17/16 Q1018=,SBSP,2022-06-10 04:21:00
1654835640000,SPECI SBSP 100434Z AUTO 34008KT 9999 SCT009 BKN019 OVC030 17/16 Q1018=,SBSP,2022-06-10 04:34:00
1654836120000,SPECI SBSP 100442Z AUTO 34009KT 9999 BKN009 BKN030 17/16 Q1018=,SBSP,2022-06-10 04:42:00
1654837140000,SPECI SBSP 100459Z AUTO 35008KT 8000 -RA BKN006 BKN008 OVC030 17/16 Q1017=,SBSP,2022-06-10 04:59:00
1654837200000,METAR SBSP 100500Z AUTO 35008KT 8000 -RA BKN006 BKN008 OVC030 17/16 Q1017=,SBSP,2022-06-10 05:00:00
1654838040000,SPECI SBSP 100514Z AUTO 34006KT 9999 -RA BKN006 OVC033 17/16 Q1017=,SBSP,2022-06-10 05:14:00
1654840800000,METAR SBSP 100600Z AUTO 01005KT 9999 -RA BKN006 BKN046 17/16 Q1017=,SBSP,2022-06-10 06:00:00
1654841520000,SPECI SBSP 100612Z AUTO 35005KT 9999 -RA FEW005 SCT008 17/16 Q1017=,SBSP,2022-06-10 06:12:00
1654843380000,SPECI SBSP 100643Z AUTO 35006KT 9999 -RA SCT007 BKN014 17/16 Q1017=,SBSP,2022-06-10 06:43:00
1654843860000,SPECI SBSP 100651Z AUTO 35006KT 8000 -RA BKN006 BKN013 OVC015 17/16 Q1017=,SBSP,2022-06-10 06:51:00
1654844400000,METAR SBSP 100700Z AUTO 35007KT 9000 -RA BKN006 BKN013 OVC015 17/16 Q1017=,SBSP,2022-06-10 07:00:00
1654845180000,SPECI SBSP 100713Z AUTO 36007KT 9999 BKN005 BKN008 OVC025 17/16 Q1017=,SBSP,2022-06-10 07:13:00
1654846200000,SPECI SBSP 100730Z AUTO 32008KT 270V360 9999 -RA SCT004 BKN007 OVC020 17/16 Q1017=,SBSP,2022-06-10 07:30:00
1654846620000,SPECI SBSP 100737Z AUTO 28006KT 230V320 9000 -RA BKN004 OVC020 17/16 Q1017=,SBSP,2022-06-10 07:37:00
1654846680000,SPECI SBSP 100738Z AUTO 28006KT 230V320 4100 -RA BKN004 OVC020 17/16 Q1017=,SBSP,2022-06-10 07:38:00
1654846920000,SPECI SBSP 100742Z AUTO 28005KT 230V320 4800 RA BKN004 BKN011 OVC019 17/16 Q1017=,SBSP,2022-06-10 07:42:00
1654847160000,SPECI SBSP 100746Z AUTO 29005KT 230V320 6000 RA BKN003 BKN009 OVC019 17/16 Q1017=,SBSP,2022-06-10 07:46:00
1654847940000,SPECI SBSP 100759Z AUTO 29005KT 230V320 4500 -RA BKN004 OVC007 17/16 Q1017 RERA=,SBSP,2022-06-10 07:59:00
1654848000000,METAR SBSP 100800Z AUTO 29005KT 230V320 4500 -RA BKN004 OVC007 17/16 Q1017 RERA=,SBSP,2022-06-10 08:00:00
1654848300000,SPECI SBSP 100805Z AUTO 25006KT 210V300 7000 -RA BKN003 BKN005 OVC007 16/15 Q1017=,SBSP,2022-06-10 08:05:00
1654848780000,SPECI SBSP 100813Z AUTO 23006KT 200V260 4600 -RA BKN004 BKN011 16/15 Q1017=,SBSP,2022-06-10 08:13:00
1654849440000,SPECI SBSP 100824Z AUTO 25004KT 220V280 9999 -RA BKN004 OVC010 15/14 Q1017=,SBSP,2022-06-10 08:24:00
1654849500000,SPECI SBSP 100825Z AUTO 25004KT 220V330 9999 -RA SCT004 SCT006 OVC010 15/14 Q1017=,SBSP,2022-06-10 08:25:00
1654849620000,SPECI SBSP 100827Z AUTO VRB04KT 9999 -RA SCT004 BKN009 OVC011 15/14 Q1017=,SBSP,2022-06-10 08:27:00
1654851600000,METAR SBSP 100900Z 03004KT 9000 -RA FEW005 OVC006 16/15 Q1017=,SBSP,2022-06-10 09:00:00
1654852260000,SPECI SBSP 100911Z 02010KT 9000 -RA FEW005 SCT006 BKN046 16/15 Q1016=,SBSP,2022-06-10 09:11:00
1654855200000,METAR SBSP 101000Z 35004KT 9999 SCT009 BKN046 17/16 Q1017=,SBSP,2022-06-10 10:00:00
1654858800000,METAR SBSP 101100Z 32008KT 9999 BKN008 17/16 Q1018=,SBSP,2022-06-10 11:00:00
1654862400000,METAR SBSP 101200Z 32009KT 290V360 9999 SCT009 BKN026 18/16 Q1019=,SBSP,2022-06-10 12:00:00
1654866000000,METAR SBSP 101300Z 32013KT 9999 FEW015 BKN017 19/16 Q1019=,SBSP,2022-06-10 13:00:00
1654869600000,METAR SBSP 101400Z 31010KT 260V330 9999 FEW015 BKN017 20/16 Q1019=,SBSP,2022-06-10 14:00:00
1654873200000,METAR SBSP 101500Z 30009KT 260V330 9999 BKN019 19/15 Q1018=,SBSP,2022-06-10 15:00:00
1654876800000,METAR SBSP 101600Z 27011KT 240V310 9999 BKN021 20/14 Q1018=,SBSP,2022-06-10 16:00:00
1654880400000,METAR SBSP 101700Z 28010KT 240V320 9999 FEW026 SCT043 20/14 Q1017=,SBSP,2022-06-10 17:00:00
1654884000000,METAR SBSP 101800Z 30008KT 270V330 9999 SCT026 BKN040 20/09 Q1017=,SBSP,2022-06-10 18:00:00
1654887600000,METAR SBSP 101900Z 26007KT 200V310 9999 FEW033 BKN050 20/13 Q1018=,SBSP,2022-06-10 19:00:00
1654891200000,METAR SBSP 102000Z 27007KT 230V300 9999 BKN030 BKN050 19/14 Q1019=,SBSP,2022-06-10 20:00:00
1654894800000,METAR SBSP 102100Z 23005KT 9999 FEW023 BKN043 19/14 Q1019=,SBSP,2022-06-10 21:00:00
1654898400000,METAR SBSP 102200Z 18007KT 9999 SCT011 BKN015 17/15 Q1019=,SBSP,2022-06-10 22:00:00
1654902000000,METAR SBSP 102300Z 22008KT 9999 FEW008 OVC017 17/14 Q1020=,SBSP,2022-06-10 23:00:00
1654903500000,SPECI SBSP 102325Z 18009KT 9999 FEW009 BKN011 OVC017 16/13 Q1020=,SBSP,2022-06-10 23:25:00
1654819200000,METAR COR SBSV 100000Z 10011KT 9999 FEW023 SCT100 27/22 Q1014=,SBSV,2022-06-10 00:00:00
1654822800000,METAR SBSV 100100Z 09008KT 9999 SCT023 SCT100 27/22 Q1016=,SBSV,2022-06-10 01:00:00
1654826400000,METAR SBSV 100200Z 09008KT 9999 SCT023 SCT100 27/22 Q1016=,SBSV,2022-06-10 02:00:00
1654830000000,METAR SBSV 100300Z 09009KT 9999 SCT023 SCT100 27/22 Q1016=,SBSV,2022-06-10 03:00:00
1654833600000,METAR SBSV 100400Z 10008KT 9999 SCT023 SCT100 27/27 Q1015=,SBSV,2022-06-10 04:00:00
1654837200000,METAR SBSV 100500Z 10008KT 9999 SCT023 SCT100 27/22 Q1015=,SBSV,2022-06-10 05:00:00
1654840800000,METAR SBSV 100600Z 10011KT 9999 SCT023 SCT100 27/22 Q1014=,SBSV,2022-06-10 06:00:00
1654844400000,METAR SBSV 100700Z 08007KT 9999 FEW023 SCT100 27/22 Q1014=,SBSV,2022-06-10 07:00:00
1654848000000,METAR SBSV 100800Z 14009KT 9999 FEW023 BKN100 26/22 Q1015=,SBSV,2022-06-10 08:00:00
1654851600000,METAR SBSV 100900Z 08009KT 9999 FEW020 FEW023TCU BKN060 26/22 Q1015=,SBSV,2022-06-10 09:00:00
1654855200000,METAR SBSV 101000Z 08005KT 9999 SCT020 FEW023TCU BKN060 26/22 Q1016=,SBSV,2022-06-10 10:00:00
1654858800000,METAR SBSV 101100Z 25003KT 8000 VCSH BKN020 FEW023TCU BKN060 26/22 Q1016=,SBSV,2022-06-10 11:00:00
1654862400000,METAR SBSV 101200Z 33004KT 9999 SCT020 FEW023TCU BKN070 26/23 Q1017=,SBSV,2022-06-10 12:00:00
1654866000000,METAR SBSV 101300Z 09006KT 9999 SCT020 FEW023TCU SCT070 28/22 Q1016=,SBSV,2022-06-10 13:00:00
1654869600000,METAR SBSV 101400Z 10007KT 9999 SCT020 FEW023TCU 29/23 Q1016=,SBSV,2022-06-10 14:00:00
1654873200000,METAR SBSV 101500Z 12005KT 8000 VCSH BKN018 FEW023TCU 28/23 Q1015=,SBSV,2022-06-10 15:00:00
1654876800000,METAR SBSV 101600Z 09009KT 9999 BKN020 FEW023TCU 29/23 Q1014=,SBSV,2022-06-10 16:00:00
1654880400000,METAR SBSV 101700Z 10010KT 9999 VCSH BKN020 FEW023TCU 29/22 Q1013=,SBSV,2022-06-10 17:00:00
1654884000000,METAR SBSV 101800Z 10011KT 8000 VCSH SCT020 FEW023TCU SCT040 27/22 Q1013=,SBSV,2022-06-10 18:00:00
1654887600000,METAR SBSV 101900Z 15008KT 9000 VCSH SCT023 FEW026TCU BKN070 27/23 Q1013=,SBSV,2022-06-10 19:00:00
1654891200000,METAR SBSV 102000Z 14007KT 9999 VCSH SCT023 FEW026TCU BKN070 27/22 Q1013=,SBSV,2022-06-10 20:00:00
1654894800000,METAR SBSV 102100Z 11004KT 9999 VCSH SCT023 FEW026TCU BKN033 BKN060 27/21 Q1014=,SBSV,2022-06-10 21:00:00
1654898400000,METAR SBSV 102200Z VRB02KT 9999 VCSH SCT023 FEW026TCU BKN046 BKN060 26/23 Q1014=,SBSV,2022-06-10 22:00:00
1654902000000,METAR SBSV 102300Z VRB02KT 9999 SCT023 FEW026TCU BKN040 BKN060 26/22 Q1015=,SBSV,2022-06-10 23:00:00
1654905600000,METAR SBBR 110000Z 23009KT 9999 SCT035 BKN080 22/14 Q1021=,SBBR,2022-06-11 00:00:00
1654909200000,METAR SBBR 110100Z 24006KT 9999 FEW040 SCT080 20/15 Q1021=,SBBR,2022-06-11 01:00:00
1654912800000,METAR SBBR 110200Z 21002KT CAVOK 19/15 Q1020=,SBBR,2022-06-11 02:00:00
1654916400000,METAR SBBR 110300Z VRB02KT CAVOK 19/15 Q1020=,SBBR,2022-06-11 03:00:00
1654920000000,METAR SBBR 110400Z VRB02KT CAVOK 18/15 Q1020=,SBBR,2022-06-11 04:00:00
1654923600000,METAR SBBR 110500Z 20002KT CAVOK 18/15 Q1020=,SBBR,2022-06-11 05:00:00
1654927200000,METAR SBBR 110600Z 21003KT CAVOK 17/14 Q1019=,SBBR,2022-06-11 06:00:00
1654930800000,METAR SBBR 110700Z 23005KT 200V260 CAVOK 17/14 Q1019=,SBBR,2022-06-11 07:00:00
1654934400000,METAR SBBR 110800Z 23003KT 190V290 CAVOK 16/14 Q1019=,SBBR,2022-06-11 08:00:00
1654938000000,METAR SBBR 110900Z 23003KT 190V260 9999 BCFG FEW009 16/14 Q1019=,SBBR,2022-06-11 09:00:00
1654941600000,METAR SBBR 111000Z VRB01KT 9999 BCFG FEW008 16/14 Q1020=,SBBR,2022-06-11 10:00:00
1654945200000,METAR SBBR 111100Z 17003KT 130V220 9999 BKN008 17/14 Q1021=,SBBR,2022-06-11 11:00:00
1654948800000,METAR SBBR 111200Z 16006KT 120V210 9999 BKN008 17/15 Q1021=,SBBR,2022-06-11 12:00:00
1654950300000,SPECI SBBR 111225Z 18004KT 140V230 9999 SCT009 18/15 Q1021=,SBBR,2022-06-11 12:25:00
1654952400000,METAR SBBR 111300Z 16006KT 120V200 9999 FEW009 20/15 Q1021=,SBBR,2022-06-11 13:00:00
1654956000000,METAR SBBR 111400Z 17006KT 130V230 9999 FEW015 22/15 Q1021=,SBBR,2022-06-11 14:00:00
1654959600000,METAR SBBR 111500Z 16007KT 120V200 9999 FEW030 23/15 Q1021=,SBBR,2022-06-11 15:00:00
1654963200000,METAR SBBR 111600Z 16007KT 100V210 9999 SCT035 24/14 Q1020=,SBBR,2022-06-11 16:00:00
1654966800000,METAR SBBR 111700Z 16008KT 130V190 9999 BKN035 25/15 Q1019=,SBBR,2022-06-11 17:00:00
1654970400000,METAR SBBR 111800Z 17007KT 130V200 9999 SCT040 25/15 Q1018=,SBBR,2022-06-11 18:00:00
1654974000000,METAR SBBR 111900Z 17008KT 140V220 9999 SCT040 25/15 Q1018=,SBBR,2022-06-11 19:00:00
1654977600000,METAR SBBR 112000Z 17007KT 140V200 9999 SCT045 24/14 Q1018=,SBBR,2022-06-11 20:00:00
1654981200000,METAR SBBR 112100Z 21006KT 9999 SCT045 22/15 Q1019=,SBBR,2022-06-11 21:00:00
1654984800000,METAR SBBR 112200Z 22004KT 9999 FEW045 21/15 Q1019=,SBBR,2022-06-11 22:00:00
1654988400000,METAR SBBR 112300Z 20004KT 9999 FEW040 20/15 Q1020=,SBBR,2022-06-11 23:00:00
1654905600000,METAR SBCF 110000Z 00000KT CAVOK 20/14 Q1018=,SBCF,2022-06-11 00:00:00
1654909200000,METAR SBCF 110100Z 20002KT CAVOK 19/13 Q1018=,SBCF,2022-06-11 01:00:00
1654912800000,METAR SBCF 110200Z 17001KT CAVOK 19/13 Q1018=,SBCF,2022-06-11 02:00:00
1654916400000,METAR SBCF 110300Z 17002KT CAVOK 17/13 Q1018=,SBCF,2022-06-11 03:00:00
1654920000000,METAR SBCF 110400Z 17005KT CAVOK 18/13 Q1018=,SBCF,2022-06-11 04:00:00
1654923600000,METAR SBCF 110500Z 19004KT CAVOK 19/13 Q1018=,SBCF,2022-06-11 05:00:00
1654927200000,METAR SBCF 110600Z 17004KT CAVOK 18/14 Q1017=,SBCF,2022-06-11 06:00:00
1654930800000,METAR SBCF 110700Z 10002KT CAVOK 18/13 Q1017=,SBCF,2022-06-11 07:00:00
1654934400000,METAR SBCF 110800Z 11003KT CAVOK 18/14 Q1017=,SBCF,2022-06-11 08:00:00
1654938000000,METAR SBCF 110900Z 10003KT CAVOK 17/14 Q1017=,SBCF,2022-06-11 09:00:00
1654941600000,METAR SBCF 111000Z 22002KT CAVOK 16/14 Q1018=,SBCF,2022-06-11 10:00:00
1654945200000,METAR SBCF 111100Z VRB02KT CAVOK 18/15 Q1019=,SBCF,2022-06-11 11:00:00
1654948800000,METAR SBCF 111200Z VRB02KT CAVOK 19/15 Q1019=,SBCF,2022-06-11 12:00:00
1654952400000,METAR SBCF 111300Z 16004KT CAVOK 21/15 Q1019=,SBCF,2022-06-11 13:00:00
1654956000000,METAR SBCF 111400Z 08004KT 020V190 9999 FEW035 BKN100 23/16 Q1019=,SBCF,2022-06-11 14:00:00
1654959600000,METAR SBCF 111500Z VRB04KT 9999 FEW035 25/15 Q1018=,SBCF,2022-06-11 15:00:00
1654963200000,METAR SBCF 111600Z VRB05KT 9999 FEW035 26/14 Q1017=,SBCF,2022-06-11 16:00:00
1654966800000,METAR SBCF 111700Z 26006KT 9999 FEW040 27/14 Q1016=,SBCF,2022-06-11 17:00:00
1654970400000,METAR SBCF 111800Z 25006KT 9999 FEW040 FEW045TCU 26/14 Q1016=,SBCF,2022-06-11 18:00:00
1654974000000,METAR SBCF 111900Z 23007KT 9999 FEW040 FEW045TCU BKN100 25/14 Q1016=,SBCF,2022-06-11 19:00:00
1654977600000,METAR SBCF 112000Z 23005KT 9999 FEW040 FEW045TCU BKN100 24/15 Q1017=,SBCF,2022-06-11 20:00:00
1654981200000,METAR SBCF 112100Z 21004KT 9999 FEW040 FEW045TCU BKN100 23/15 Q1017=,SBCF,2022-06-11 21:00:00
1654984800000,METAR SBCF 112200Z 25003KT 9999 FEW040 BKN100 22/15 Q1018=,SBCF,2022-06-11 22:00:00
1654988400000,METAR SBCF 112300Z 20004KT 9999 FEW040 BKN100 21/15 Q1018=,SBCF,2022-06-11 23:00:00
1654905600000,METAR SBCT 110000Z 24006KT 9999 FEW009 12/10 Q1021=,SBCT,2022-06-11 00:00:00
1654909200000,METAR SBCT 110100Z 24003KT CAVOK 11/10 Q1021=,SBCT,2022-06-11 01:00:00
1654912800000,METAR SBCT 110200Z 22003KT CAVOK 11/09 Q1021=,SBCT,2022-06-11 02:00:00
1654916400000,METAR SBCT 110300Z 24004KT CAVOK 10/09 Q1021=,SBCT,2022-06-11 03:00:00
1654920000000,METAR SBCT 110400Z 24005KT CAVOK 10/08 Q1021=,SBCT,2022-06-11 04:00:00
1654923600000,METAR SBCT 110500Z 25003KT CAVOK 09/07 Q1020=,SBCT,2022-06-11 05:00:00
1654927200000,METAR SBCT 110600Z 24005KT CAVOK 08/07 Q1020=,SBCT,2022-06-11 06:00:00
1654930800000,METAR SBCT 110700Z 22002KT CAVOK 07/06 Q1020=,SBCT,2022-06-11 07:00:00
1654934400000,METAR SBCT 110800Z 25004KT CAVOK 07/06 Q1020=,SBCT,2022-06-11 08:00:00
1654938000000,METAR SBCT 110900Z 30003KT CAVOK 07/06 Q1020=,SBCT,2022-06-11 09:00:00
1654941600000,METAR SBCT 111000Z 26003KT CAVOK 06/06 Q1021=,SBCT,2022-06-11 10:00:00
1654945200000,METAR SBCT 111100Z 26004KT CAVOK 06/05 Q1022=,SBCT,2022-06-11 11:00:00
1654948800000,METAR SBCT 111200Z 26007KT 9999 FEW007 06/04 Q1023=,SBCT,2022-06-11 12:00:00
1654952400000,METAR SBCT 111300Z 29005KT 9999 FEW007 08/04 Q1023=,SBCT,2022-06-11 13:00:00
1654956000000,METAR SBCT 111400Z 27007KT CAVOK 10/02 Q1022=,SBCT,2022-06-11 14:00:00
1654959600000,METAR SBCT 111500Z 28008KT CAVOK 11/00 Q1022=,SBCT,2022-06-11 15:00:00
1654963200000,METAR SBCT 111600Z 25007KT CAVOK 12/01 Q1020=,SBCT,2022-06-11 16:00:00
1654966800000,METAR SBCT 111700Z 25009KT CAVOK 13/M03 Q1020=,SBCT,2022-06-11 17:00:00
1654970400000,METAR SBCT 111800Z 26008G18KT 230V290 CAVOK 12/M02 Q1019=,SBCT,2022-06-11 18:00:00
1654972500000,SPECI SBCT 111835Z 25007KT CAVOK 12/M01 Q1019=,SBCT,2022-06-11 18:35:00
1654974000000,METAR SBCT 111900Z 26009KT CAVOK 12/M01 Q1019=,SBCT,2022-06-11 19:00:00
1654977600000,METAR SBCT 112000Z 28009KT CAVOK 10/00 Q1020=,SBCT,2022-06-11 20:00:00
1654981200000,METAR SBCT 112100Z 28006KT CAVOK 09/00 Q1020=,SBCT,2022-06-11 21:00:00
1654984800000,METAR SBCT 112200Z 28004KT 220V360 CAVOK 08/01 Q1021=,SBCT,2022-06-11 22:00:00
1654988400000,METAR SBCT 112300Z 31003KT CAVOK 08/01 Q1020=,SBCT,2022-06-11 23:00:00
1654905600000,METAR SBFL 110000Z 19011KT 9999 SCT025 14/11 Q1019 WS R14=,SBFL,2022-06-11 00:00:00
1654909200000,METAR SBFL 110100Z 19011KT 9999 FEW025 14/10 Q1019=,SBFL,2022-06-11 01:00:00
1654912800000,METAR SBFL 110200Z 18011KT 9999 FEW025 14/09 Q1019=,SBFL,2022-06-11 02:00:00
1654916400000,METAR SBFL 110300Z 19009KT 9999 FEW025 13/08 Q1019=,SBFL,2022-06-11 03:00:00
1654920000000,METAR SBFL 110400Z 18008KT CAVOK 13/08 Q1019=,SBFL,2022-06-11 04:00:00
1654923600000,METAR SBFL 110500Z 20010KT CAVOK 12/08 Q1019=,SBFL,2022-06-11 05:00:00
1654927200000,METAR SBFL 110600Z 19009KT CAVOK 12/06 Q1019=,SBFL,2022-06-11 06:00:00
1654930800000,METAR SBFL 110700Z 20007KT CAVOK 12/06 Q1018=,SBFL,2022-06-11 07:00:00
1654934400000,METAR SBFL 110800Z 20005KT CAVOK 11/06 Q1018=,SBFL,2022-06-11 08:00:00
1654938000000,METAR SBFL 110900Z 19004KT CAVOK 09/05 Q1018=,SBFL,2022-06-11 09:00:00
1654941600000,METAR SBFL 111000Z 07002KT CAVOK 09/05 Q1019=,SBFL,2022-06-11 10:00:00
1654945200000,METAR SBFL 111100Z VRB01KT CAVOK 08/06 Q1020=,SBFL,2022-06-11 11:00:00
1654948800000,METAR SBFL 111200Z 19001KT CAVOK 11/08 Q1021=,SBFL,2022-06-11 12:00:00
1654952400000,METAR SBFL 111300Z 28004KT 260V320 CAVOK 13/05 Q1021=,SBFL,2022-06-11 13:00:00
1654956000000,METAR SBFL 111400Z 29005KT CAVOK 14/04 Q1020=,SBFL,2022-06-11 14:00:00
1654959600000,METAR SBFL 111500Z 31006KT CAVOK 15/06 Q1019=,SBFL,2022-06-11 15:00:00
1654963200000,METAR SBFL 111600Z 33009KT CAVOK 16/08 Q1018=,SBFL,2022-06-11 16:00:00
1654966800000,METAR SBFL 111700Z 35009KT CAVOK 16/04 Q1017=,SBFL,2022-06-11 17:00:00
1654970400000,METAR SBFL 111800Z 02003KT CAVOK 17/06 Q1016=,SBFL,2022-06-11 18:00:00
1654974000000,METAR SBFL 111900Z 19001KT CAVOK 17/06 Q1016=,SBFL,2022-06-11 19:00:00
1654977600000,METAR SBFL 112000Z 15006KT CAVOK 16/07 Q1016=,SBFL,2022-06-11 20:00:00
1654981200000,METAR SBFL 112100Z 17004KT CAVOK 12/08 Q1017=,SBFL,2022-06-11 21:00:00
1654984800000,METAR SBFL 112200Z 17002KT CAVOK 11/08 Q1017=,SBFL,2022-06-11 22:00:00
1654988400000,METAR SBFL 112300Z 14002KT CAVOK 11/08 Q1017=,SBFL,2022-06-11 23:00:00
1654905600000,METAR SBGL 110000Z 25007KT 6000 -RA SCT010 OVC030 20/18 Q1016=,SBGL,2022-06-11 00:00:00
1654908000000,SPECI SBGL 110040Z 31005KT 3500 -RA BR SCT010 OVC020 20/19 Q1017=,SBGL,2022-06-11 00:40:00
1654909200000,METAR SBGL 110100Z 32003KT 3500 -RA BR FEW008 BKN012 OVC020 20/19 Q1017=,SBGL,2022-06-11 01:00:00
1654912800000,METAR SBGL 110200Z 30005KT 6000 FEW006 BKN015 OVC025 20/19 Q1017=,SBGL,2022-06-11 02:00:00
1654916400000,METAR SBGL 110300Z 32005KT 8000 FEW007 BKN015 OVC040 20/19 Q1016=,SBGL,2022-06-11 03:00:00
1654920000000,METAR SBGL 110400Z 29005KT 8000 FEW007 SCT015 OVC040 20/19 Q1017=,SBGL,2022-06-11 04:00:00
1654923600000,METAR SBGL 110500Z 28004KT 9999 SCT015 OVC040 20/18 Q1016=,SBGL,2022-06-11 05:00:00
1654927200000,METAR SBGL 110600Z 27003KT 8000 SCT015 OVC040 19/17 Q1016=,SBGL,2022-06-11 06:00:00
1654930800000,METAR SBGL 110700Z 29004KT 8000 FEW005 SCT015 OVC040 18/17 Q1016=,SBGL,2022-06-11 07:00:00
1654934400000,METAR SBGL 110800Z 24004KT 7000 FEW005 SCT015 OVC040 18/17 Q1015=,SBGL,2022-06-11 08:00:00
1654938000000,METAR SBGL 110900Z 28005KT 8000 SCT015 OVC040 19/17 Q1016=,SBGL,2022-06-11 09:00:00
1654941600000,METAR SBGL 111000Z 27006KT 8000 SCT015 OVC040 19/17 Q1016=,SBGL,2022-06-11 10:00:00
1654945200000,METAR SBGL 111100Z 32005KT 9999 FEW015 BKN030 OVC050 19/18 Q1017=,SBGL,2022-06-11 11:00:00
1654948800000,METAR SBGL 111200Z 30007KT 8000 FEW006 SCT010 OVC030 19/18 Q1018=,SBGL,2022-06-11 12:00:00
1654952400000,METAR SBGL 111300Z 32006KT 6000 FEW012 OVC030 19/18 Q1018=,SBGL,2022-06-11 13:00:00
1654954740000,SPECI SBGL 111339Z 32007KT 8000 FEW008 BKN014 OVC040 19/18 Q1018=,SBGL,2022-06-11 13:39:00
1654956000000,METAR SBGL 111400Z 32007KT 8000 SCT010 OVC040 20/18 Q1018=,SBGL,2022-06-11 14:00:00
1654959600000,METAR SBGL 111500Z 28006KT 9999 4000SW BKN011 OVC017 20/17 Q1018=,SBGL,2022-06-11 15:00:00
1654963200000,METAR SBGL 111600Z 29006KT 9999 SCT015 OVC035 20/18 Q1017=,SBGL,2022-06-11 16:00:00
1654966800000,METAR SBGL 111700Z 29006KT 250V310 9999 SCT015 OVC030 20/17 Q1016=,SBGL,2022-06-11 17:00:00
1654968540000,SPECI SBGL 111729Z 22010KT 8000 -RA BKN011 OVC035 20/17 Q1016=,SBGL,2022-06-11 17:29:00
1654970400000,METAR SBGL 111800Z 21006KT 9999 BKN010 OVC025 20/17 Q1016=,SBGL,2022-06-11 18:00:00
1654974000000,METAR SBGL 111900Z 34003KT 290V020 9999 BKN010 OVC025 19/17 Q1016=,SBGL,2022-06-11 19:00:00
1654975320000,SPECI SBGL 111922Z 24003KT 9999 FEW010 BKN019 OVC035 19/17 Q1016=,SBGL,2022-06-11 19:22:00
1654977600000,METAR SBGL 112000Z VRB02KT 9999 SCT010 OVC025 19/17 Q1016=,SBGL,2022-06-11 20:00:00
1654981200000,METAR SBGL 112100Z 19003KT 9999 SCT012 OVC025 19/17 Q1016=,SBGL,2022-06-11 21:00:00
1654984800000,METAR SBGL 112200Z 27004KT 250V310 9999 SCT015 OVC025 19/17 Q1017=,SBGL,2022-06-11 22:00:00
1654988400000,METAR SBGL 112300Z 22004KT 9999 SCT016 OVC025 19/17 Q1017=,SBGL,2022-06-11 23:00:00
1654905600000,METAR SBGR 110000Z 17007KT 9999 SCT015 BKN025 17/15 Q1019=,SBGR,2022-06-11 00:00:00
1654909200000,METAR SBGR 110100Z 17007KT 9999 BKN011 BKN020 16/14 Q1019=,SBGR,2022-06-11 01:00:00
1654912800000,METAR SBGR 110200Z 17007KT 9999 OVC011 16/14 Q1020=,SBGR,2022-06-11 02:00:00
1654916400000,METAR SBGR 110300Z 18005KT 9999 OVC011 16/13 Q1020=,SBGR,2022-06-11 03:00:00
1654920000000,METAR SBGR 110400Z 18003KT 9999 SCT013 BKN017 15/13 Q1020=,SBGR,2022-06-11 04:00:00
1654923600000,METAR SBGR 110500Z 13003KT 9999 SCT013 BKN015 BKN023 15/14 Q1019=,SBGR,2022-06-11 05:00:00
1654927200000,METAR SBGR 110600Z 14004KT 9999 OVC013 15/13 Q1019=,SBGR,2022-06-11 06:00:00
1654930800000,METAR SBGR 110700Z 15004KT 9999 BKN015 15/13 Q1019=,SBGR,2022-06-11 07:00:00
1654934400000,METAR SBGR 110800Z 13003KT 9999 SCT013 15/13 Q1019=,SBGR,2022-06-11 08:00:00
1654938000000,METAR SBGR 110900Z 14002KT 9999 SCT013 BKN017 14/13 Q1019=,SBGR,2022-06-11 09:00:00
1654941600000,METAR SBGR 111000Z 13002KT 9999 BKN013 OVC017 15/13 Q1020=,SBGR,2022-06-11 10:00:00
1654945200000,METAR SBGR 111100Z 13002KT 9999 OVC019 15/13 Q1021=,SBGR,2022-06-11 11:00:00
1654948800000,METAR SBGR 111200Z 06005KT 8000 OVC013 16/13 Q1021=,SBGR,2022-06-11 12:00:00
1654952400000,METAR SBGR 111300Z 13004KT 7000 FEW007 OVC009 16/14 Q1021=,SBGR,2022-06-11 13:00:00
1654954200000,SPECI SBGR 111330Z 17005KT 4000 -DZ BR BKN007 OVC009 15/14 Q1021=,SBGR,2022-06-11 13:30:00
1654956000000,METAR SBGR 111400Z 17005KT 9999 -DZ SCT007 OVC011 15/14 Q1021=,SBGR,2022-06-11 14:00:00
1654959600000,METAR SBGR 111500Z 17004KT 9999 OVC015 16/13 Q1021=,SBGR,2022-06-11 15:00:00
1654963200000,METAR SBGR 111600Z 13004KT 9999 BKN015 OVC020 16/13 Q1019=,SBGR,2022-06-11 16:00:00
1654966800000,METAR SBGR 111700Z 15004KT 9999 BKN019 OVC025 17/13 Q1019=,SBGR,2022-06-11 17:00:00
1654970400000,METAR SBGR 111800Z 11002KT 9999 BKN019 17/13 Q1018=,SBGR,2022-06-11 18:00:00
1654974000000,METAR SBGR 111900Z 17002KT 9999 SCT021 17/13 Q1018=,SBGR,2022-06-11 19:00:00
1654977600000,METAR SBGR 112000Z 18002KT 9999 FEW020 17/13 Q1018=,SBGR,2022-06-11 20:00:00
1654981200000,METAR SBGR 112100Z 16002KT 9999 FEW020 14/14 Q1018=,SBGR,2022-06-11 21:00:00
1654984800000,METAR SBGR 112200Z 09002KT 8000 FEW026 14/13 Q1019=,SBGR,2022-06-11 22:00:00
1654988400000,METAR SBGR 112300Z 13002KT 7000 FEW009 14/13 Q1019=,SBGR,2022-06-11 23:00:00
1654989240000,SPECI SBGR 112314Z 14002KT 7000 OVC011 14/13 Q1019=,SBGR,2022-06-11 23:14:00
1654990260000,SPECI SBGR 112331Z 19002KT 7000 OVC009 14/13 Q1020=,SBGR,2022-06-11 23:31:00
1654905600000,METAR SBKP 110000Z 20004KT 9999 FEW030 18/15 Q1019=,SBKP,2022-06-11 00:00:00
1654909200000,METAR SBKP 110100Z 21008KT 9999 FEW030 17/14 Q1018=,SBKP,2022-06-11 01:00:00
1654912800000,METAR SBKP 110200Z 19006KT 9999 FEW030 17/14 Q1019=,SBKP,2022-06-11 02:00:00
1654916400000,METAR SBKP 110300Z 19005KT 9999 BKN035 17/14 Q1019=,SBKP,2022-06-11 03:00:00
1654920000000,METAR SBKP 110400Z 16004KT 9999 BKN040 16/14 Q1018=,SBKP,2022-06-11 04:00:00
1654923600000,METAR SBKP 110500Z 18005KT 9999 SCT030 BKN045 16/14 Q1018=,SBKP,2022-06-11 05:00:00
1654927200000,METAR SBKP 110600Z 19005KT 9999 SCT030 BKN045 16/14 Q1018=,SBKP,2022-06-11 06:00:00
1654930800000,METAR SBKP 110700Z 12008KT 9999 SCT030 BKN045 16/13 Q1018=,SBKP,2022-06-11 07:00:00
1654934400000,METAR SBKP 110800Z 13008KT 9999 SCT030 15/13 Q1018=,SBKP,2022-06-11 08:00:00
1654938000000,METAR SBKP 110900Z 13007KT CAVOK 15/13 Q1018=,SBKP,2022-06-11 09:00:00
1654941600000,METAR SBKP 111000Z 12007KT 9999 FEW030 15/13 Q1019=,SBKP,2022-06-11 10:00:00
1654945200000,METAR SBKP 111100Z 15005KT 7000 NSC 16/13 Q1020=,SBKP,2022-06-11 11:00:00
1654948800000,METAR SBKP 111200Z 14009KT 7000 NSC 16/13 Q1020=,SBKP,2022-06-11 12:00:00
1654952400000,METAR SBKP 111300Z 14009KT 9999 FEW020 18/13 Q1020=,SBKP,2022-06-11 13:00:00
1654956000000,METAR SBKP 111400Z 14007KT 9999 SCT023 19/13 Q1020=,SBKP,2022-06-11 14:00:00
1654959600000,METAR SBKP 111500Z 16006KT 9999 SCT023 19/13 Q1020=,SBKP,2022-06-11 15:00:00
1654963200000,METAR SBKP 111600Z 14004KT 9999 SCT030 20/13 Q1019=,SBKP,2022-06-11 16:00:00
1654966800000,METAR SBKP 111700Z 18005KT 9999 SCT040 20/13 Q1018=,SBKP,2022-06-11 17:00:00
1654970400000,METAR SBKP 111800Z 24007KT 210V280 9999 SCT040 20/13 Q1017=,SBKP,2022-06-11 18:00:00
1654974000000,METAR SBKP 111900Z 26008KT 9999 FEW040 20/13 Q1017=,SBKP,2022-06-11 19:00:00
1654977600000,METAR SBKP 112000Z 28006KT CAVOK 19/13 Q1018=,SBKP,2022-06-11 20:00:00
1654981200000,METAR SBKP 112100Z 26004KT CAVOK 18/13 Q1018=,SBKP,2022-06-11 21:00:00
1654984800000,METAR SBKP 112200Z 24007KT CAVOK 17/13 Q1019=,SBKP,2022-06-11 22:00:00
1654988400000,METAR SBKP 112300Z 24007KT CAVOK 17/12 Q1019=,SBKP,2022-06-11 23:00:00
1654905600000,METAR SBPA 110000Z 26008KT CAVOK 10/05 Q1022=,SBPA,2022-06-11 00:00:00
1654909200000,METAR SBPA 110100Z 27009KT CAVOK 09/04 Q1023=,SBPA,2022-06-11 01:00:00
1654912800000,METAR SBPA 110200Z 26008KT CAVOK 08/03 Q1023=,SBPA,2022-06-11 02:00:00
1654916400000,METAR SBPA 110300Z 27008KT CAVOK 07/03 Q1023=,SBPA,2022-06-11 03:00:00
1654920000000,METAR SBPA 110400Z 28009KT CAVOK 07/03 Q1023=,SBPA,2022-06-11 04:00:00
1654923600000,METAR SBPA 110500Z 28009KT CAVOK 06/03 Q1023=,SBPA,2022-06-11 05:00:00
1654927200000,METAR SBPA 110600Z 28010KT CAVOK 06/03 Q1023=,SBPA,2022-06-11 06:00:00
1654930800000,METAR SBPA 110700Z 30011KT CAVOK 06/03 Q1023=,SBPA,2022-06-11 07:00:00
1654934400000,METAR SBPA 110800Z 29011KT CAVOK 06/03 Q1022=,SBPA,2022-06-11 08:00:00
1654938000000,METAR SBPA 110900Z 30009KT CAVOK 06/03 Q1022=,SBPA,2022-06-11 09:00:00
1654941600000,METAR SBPA 111000Z 31008KT CAVOK 05/03 Q1023=,SBPA,2022-06-11 10:00:00
1654945200000,METAR SBPA 111100Z 31010KT CAVOK 05/02 Q1023=,SBPA,2022-06-11 11:00:00
1654948800000,METAR SBPA 111200Z 30010KT CAVOK 07/02 Q1024=,SBPA,2022-06-11 12:00:00
1654952400000,METAR SBPA 111300Z 29017KT CAVOK 08/00 Q1023=,SBPA,2022-06-11 13:00:00
1654956000000,METAR SBPA 111400Z 29015KT CAVOK 09/01 Q1023=,SBPA,2022-06-11 14:00:00
1654959600000,METAR COR SBPA 111500Z 29017KT CAVOK 10/01 Q1022=,SBPA,2022-06-11 15:00:00
1654963200000,METAR SBPA 111600Z 29019KT CAVOK 11/01 Q1021=,SBPA,2022-06-11 16:00:00
1654966800000,METAR SBPA 111700Z 29019KT CAVOK 12/02 Q1020=,SBPA,2022-06-11 17:00:00
1654970400000,METAR SBPA 111800Z 28018KT CAVOK 12/09 Q1020=,SBPA,2022-06-11 18:00:00
1654974000000,METAR SBPA 111900Z 29018KT CAVOK 12/07 Q1019=,SBPA,2022-06-11 19:00:00
1654977600000,METAR SBPA 112000Z 29014KT CAVOK 12/01 Q1019=,SBPA,2022-06-11 20:00:00
1654981200000,METAR SBPA 112100Z 29009KT CAVOK 10/02 Q1020=,SBPA,2022-06-11 21:00:00
1654984800000,METAR SBPA 112200Z 30010KT CAVOK 10/02 Q1020=,SBPA,2022-06-11 22:00:00
1654988400000,METAR SBPA 112300Z 29010KT CAVOK 09/03 Q1021=,SBPA,2022-06-11 23:00:00
1654905600000,METAR SBRF 110000Z 18004KT 9999 FEW023 26/23 Q1013=,SBRF,2022-06-11 00:00:00
1654909200000,METAR SBRF 110100Z 15003KT 9999 SCT016 BKN060 26/24 Q1013=,SBRF,2022-06-11 01:00:00
1654912800000,METAR SBRF 110200Z 20004KT 9999 FEW016 BKN050 25/24 Q1013=,SBRF,2022-06-11 02:00:00
1654916400000,METAR SBRF 110300Z VRB02KT 9999 BKN025 BKN050 25/24 Q1013=,SBRF,2022-06-11 03:00:00
1654920000000,METAR SBRF 110400Z VRB03KT 4000 -RA SCT012 BKN017 BKN050 24/23 Q1012=,SBRF,2022-06-11 04:00:00
1654923600000,METAR SBRF 110500Z 07008KT 3000 -RA BR BKN005 BKN015 24/24 Q1012=,SBRF,2022-06-11 05:00:00
1654923960000,SPECI SBRF 110506Z VRB03KT 2000 -TSRA BKN005 BKN015 FEW017CB 24/24 Q1012=,SBRF,2022-06-11 05:06:00
1654925580000,SPECI SBRF 110533Z 23003KT 190V260 5000 -RA BKN010 BKN015 BKN050 24/24 Q1012 RETS=,SBRF,2022-06-11 05:33:00
1654927200000,METAR SBRF 110600Z 23003KT 200V260 5000 BR SCT012 BKN015 BKN050 23/23 Q1012=,SBRF,2022-06-11 06:00:00
1654930800000,METAR SBRF 110700Z 21005KT 180V260 9999 VCSH SCT017 BKN025 BKN100 24/23 Q1012=,SBRF,2022-06-11 07:00:00
1654934400000,METAR SBRF 110800Z 19005KT 4000 -RA BR SCT006 BKN025 OVC050 23/23 Q1013=,SBRF,2022-06-11 08:00:00
1654938000000,METAR SBRF 110900Z 24004KT 200V270 2500 -RA BR BKN010 BKN025 OVC050 23/23 Q1013=,SBRF,2022-06-11 09:00:00
1654941600000,METAR SBRF 111000Z 22005KT 190V260 5000 -RA FEW012 BKN025 BKN050 24/23 Q1014=,SBRF,2022-06-11 10:00:00
1654945200000,METAR SBRF 111100Z 25005KT 9999 FEW005 SCT025 BKN070 25/23 Q1014=,SBRF,2022-06-11 11:00:00
1654947840000,SPECI SBRF 111144Z 18002KT 3000 -RA BR SCT007 BKN016 OVC040 25/23 Q1015=,SBRF,2022-06-11 11:44:00
1654948800000,METAR SBRF 111200Z VRB02KT 3000 -RA BR SCT007 BKN016 OVC040 25/24 Q1015=,SBRF,2022-06-11 12:00:00
1654952400000,METAR SBRF 111300Z 27003KT 3000 RA BR SCT005 BKN013 OVC040 24/24 Q1015=,SBRF,2022-06-11 13:00:00
1654956000000,METAR SBRF 111400Z VRB02KT 4000 -RA BR SCT004 BKN010 OVC020 24/23 Q1015 RERA=,SBRF,2022-06-11 14:00:00
1654959600000,METAR SBRF 111500Z 24004KT 5000 -RA BR SCT010 SCT020 OVC060 24/23 Q1014=,SBRF,2022-06-11 15:00:00
1654963200000,METAR SBRF 111600Z 22003KT 9000 VCSH FEW006 SCT016 OVC050 24/24 Q1013=,SBRF,2022-06-11 16:00:00
1654966800000,METAR SBRF 111700Z 22003KT 5000 -RA BR SCT007 BKN019 BKN040 24/24 Q1013=,SBRF,2022-06-11 17:00:00
1654970400000,METAR SBRF 111800Z VRB02KT 5000 -RA BR SCT007 BKN020 BKN050 24/23 Q1012=,SBRF,2022-06-11 18:00:00
1654974000000,METAR SBRF 111900Z VRB01KT 9999 FEW006 SCT020 BKN090 24/23 Q1012=,SBRF,2022-06-11 19:00:00
1654977600000,METAR SBRF 112000Z 00000KT 9999 FEW006 SCT020 BKN070 24/23 Q1013=,SBRF,2022-06-11 20:00:00
1654981200000,METAR SBRF 112100Z 20004KT 170V250 9999 FEW006 SCT020 BKN070 24/23 Q1013=,SBRF,2022-06-11 21:00:00
1654984800000,METAR SBRF 112200Z 14005KT 9999 FEW006 SCT020 BKN090 24/23 Q1013=,SBRF,2022-06-11 22:00:00
1654988400000,METAR SBRF 112300Z VRB02KT 9999 FEW020 BKN090 23/23 Q1013=,SBRF,2022-06-11 23:00:00
1654905600000,METAR SBRJ 110000Z 21009KT 180V240 9999 -RA SCT015 BKN025 OVC040 21/18 Q1015=,SBRJ,2022-06-11 00:00:00
1654907220000,SPECI SBRJ 110027Z 22006KT 180V280 4500 -RA BR BKN015 BKN025 OVC040 21/19 Q1016=,SBRJ,2022-06-11 00:27:00
1654907760000,SPECI SBRJ 110036Z 34004KT 250V040 4500 RA BR BKN015 BKN025 OVC040 21/19 Q1016=,SBRJ,2022-06-11 00:36:00
1654909200000,METAR SBRJ 110100Z 35004KT 280V020 5000 -RA BR BKN012 BKN025 OVC040 20/19 Q1016 RERA=,SBRJ,2022-06-11 01:00:00
1654912800000,METAR SBRJ 110200Z VRB02KT 7000 -RA BKN013 BKN025 OVC040 20/19 Q1016=,SBRJ,2022-06-11 02:00:00
1654937400000,SPECI SBRJ 110850Z VRB02KT 5000 -RA BR BKN012 OVC040 20/18 Q1016=,SBRJ,2022-06-11 08:50:00
1654938000000,METAR SBRJ 110900Z 00000KT 5000 -RA BR BKN012 OVC040 20/18 Q1016=,SBRJ,2022-06-11 09:00:00
1654941600000,METAR SBRJ 111000Z 15003KT 120V190 5000 -RA BR BKN012 OVC040 20/18 Q1016=,SBRJ,2022-06-11 10:00:00
1654945200000,METAR SBRJ 111100Z 33005KT 7000 FEW012 BKN015 OVC040 20/18 Q1017=,SBRJ,2022-06-11 11:00:00
1654948800000,METAR SBRJ 111200Z 31007KT 7000 -RA FEW008 BKN010 OVC040 20/18 Q1017=,SBRJ,2022-06-11 12:00:00
1654952400000,METAR SBRJ 111300Z 26003KT 190V300 7000 -RA FEW008 BKN010 OVC040 20/17 Q1018=,SBRJ,2022-06-11 13:00:00
1654953300000,SPECI SBRJ 111315Z VRB03KT 7000 -RA FEW008 BKN015 OVC040 20/18 Q1018=,SBRJ,2022-06-11 13:15:00
1654956000000,METAR SBRJ 111400Z 32007KT 280V360 7000 FEW008 BKN015 OVC040 20/18 Q1018=,SBRJ,2022-06-11 14:00:00
1654957200000,SPECI SBRJ 111420Z VRB05KT 4000 -RA BR FEW007 BKN010 OVC040 20/18 Q1018=,SBRJ,2022-06-11 14:20:00
1654959600000,METAR SBRJ 111500Z 19010KT 4000 -RA BR FEW007 BKN010 OVC040 19/18 Q1017=,SBRJ,2022-06-11 15:00:00
1654963200000,METAR SBRJ 111600Z 34003KT 240V040 7000 BKN013 OVC040 20/18 Q1017=,SBRJ,2022-06-11 16:00:00
1654966800000,METAR SBRJ 111700Z 18008KT 4000 -RA BR FEW007 BKN010 OVC040 19/18 Q1016=,SBRJ,2022-06-11 17:00:00
1654970400000,METAR SBRJ 111800Z 18008KT 4500 -RA BR FEW008 BKN010 OVC040 19/18 Q1016=,SBRJ,2022-06-11 18:00:00
1654974000000,METAR SBRJ 111900Z 16005KT 6000 BKN010 OVC040 19/17 Q1016=,SBRJ,2022-06-11 19:00:00
1654977600000,METAR SBRJ 112000Z 20006KT 7000 SCT010 BKN013 OVC025 19/17 Q1016=,SBRJ,2022-06-11 20:00:00
1654981200000,METAR SBRJ 112100Z 18006KT 160V220 9999 FEW010 BKN013 OVC025 19/17 Q1016=,SBRJ,2022-06-11 21:00:00
1654984800000,METAR SBRJ 112200Z 19008KT 9999 BKN010 OVC020 19/17 Q1016=,SBRJ,2022-06-11 22:00:00
1654988400000,METAR SBRJ 112300Z 19007KT 9999 BKN010 OVC020 18/17 Q1017=,SBRJ,2022-06-11 23:00:00
1654905600000,METAR SBSP 110000Z 19010KT 9999 FEW007 BKN011 OVC015 16/14 Q1020=,SBSP,2022-06-11 00:00:00
1654909200000,METAR SBSP 110100Z 18008KT 9999 SCT006 OVC009 15/13 Q1021=,SBSP,2022-06-11 01:00:00
1654912800000,METAR SBSP 110200Z 17007KT 9999 BKN006 OVC009 15/13 Q1021=,SBSP,2022-06-11 02:00:00
1654912860000,SPECI SBSP 110201Z 17008KT 9999 BKN006 OVC008 15/13 Q1020=,SBSP,2022-06-11 02:01:00
1654913700000,SPECI SBSP 110215Z AUTO 17009KT 9999 OVC008 15/13 Q1020=,SBSP,2022-06-11 02:15:00
1654916100000,SPECI SBSP 110255Z AUTO 17008KT 9999 SCT009 BKN011 OVC019 14/12 Q1020=,SBSP,2022-06-11 02:55:00
1654916220000,SPECI SBSP 110257Z AUTO 17008KT 9999 BKN009 BKN015 OVC019 14/12 Q1020=,SBSP,2022-06-11 02:57:00
1654916400000,METAR SBSP 110300Z AUTO 17008KT 9999 BKN009 BKN015 OVC019 14/12 Q1020=,SBSP,2022-06-11 03:00:00
1654917240000,SPECI SBSP 110314Z AUTO 17009KT 9999 FEW009 BKN012 OVC018 14/12 Q1020=,SBSP,2022-06-11 03:14:00
1654917840000,SPECI SBSP 110324Z AUTO 18009KT 9999 FEW009 SCT012 OVC018 14/12 Q1020=,SBSP,2022-06-11 03:24:00
1654919520000,SPECI SBSP 110352Z AUTO 17007KT 9999 SCT009 BKN013 OVC033 14/12 Q1020=,SBSP,2022-06-11 03:52:00
1654920000000,METAR SBSP 110400Z AUTO 17007KT 9999 FEW010 BKN013 OVC033 14/12 Q1020=,SBSP,2022-06-11 04:00:00
1654921320000,SPECI SBSP 110422Z AUTO 17006KT 9999 SCT009 BKN015 OVC035 14/12 Q1020=,SBSP,2022-06-11 04:22:00
1654922280000,SPECI SBSP 110438Z AUTO 18007KT 9999 SCT009 BKN012 OVC015 14/12 Q1020=,SBSP,2022-06-11 04:38:00
1654923600000,METAR SBSP 110500Z AUTO 18006KT 9999 SCT009 BKN013 OVC019 14/12 Q1020=,SBSP,2022-06-11 05:00:00
1654926420000,SPECI SBSP 110547Z AUTO 17007KT 9999 FEW007 BKN017 BKN022 14/12 Q1019=,SBSP,2022-06-11 05:47:00
1654926480000,SPECI SBSP 110548Z AUTO 17007KT 140V200 9999 FEW007 BKN009 BKN022 14/12 Q1019=,SBSP,2022-06-11 05:48:00
1654927140000,SPECI SBSP 110559Z AUTO 15007KT 9999 FEW007 BKN010 BKN027 14/12 Q1019=,SBSP,2022-06-11 05:59:00
1654927200000,METAR SBSP 110600Z AUTO 15007KT 9999 FEW007 BKN010 BKN027 14/12 Q1019=,SBSP,2022-06-11 06:00:00
1654928100000,SPECI SBSP 110615Z AUTO 15006KT 9999 FEW007 SCT010 OVC026 14/12 Q1019=,SBSP,2022-06-11 06:15:00
1654929960000,SPECI SBSP 110646Z AUTO 15005KT 9999 FEW006 BKN008 BKN024 14/12 Q1019=,SBSP,2022-06-11 06:46:00
1654930800000,METAR SBSP 110700Z AUTO 15004KT 120V180 9999 FEW006 SCT008 BKN010 14/12 Q1019=,SBSP,2022-06-11 07:00:00
1654932720000,SPECI SBSP 110732Z AUTO 15003KT 120V190 9999 BKN008 BKN013 14/12 Q1019=,SBSP,2022-06-11 07:32:00
1654933860000,SPECI SBSP 110751Z AUTO 15005KT 9999 SCT009 BKN012 14/12 Q1019=,SBSP,2022-06-11 07:51:00
1654934400000,METAR SBSP 110800Z AUTO 15004KT 9999 SCT009 BKN012 14/12 Q1019=,SBSP,2022-06-11 08:00:00
1654934460000,SPECI SBSP 110801Z AUTO 16003KT 9999 BKN010 BKN012 14/12 Q1019=,SBSP,2022-06-11 08:01:00
1654934520000,SPECI SBSP 110802Z AUTO 16004KT 9999 BKN009 BKN012 14/12 Q1019=,SBSP,2022-06-11 08:02:00
1654935540000,SPECI SBSP 110819Z AUTO 15004KT 9999 SCT008 BKN012 14/12 Q1019=,SBSP,2022-06-11 08:19:00
1654938000000,METAR SBSP 110900Z 15005KT 9999 FEW009 BKN011 14/12 Q1020=,SBSP,2022-06-11 09:00:00
1654941600000,METAR SBSP 111000Z 15006KT 3000 BR SCT004 BKN009 OVC019 14/12 Q1020=,SBSP,2022-06-11 10:00:00
1654942740000,SPECI SBSP 111019Z 16005KT 4000 -DZ BR BKN003 OVC009 14/12 Q1021=,SBSP,2022-06-11 10:19:00
1654945200000,METAR SBSP 111100Z 15005KT 5000 BR BKN006 OVC011 14/13 Q1021=,SBSP,2022-06-11 11:00:00
1654948800000,METAR SBSP 111200Z 16009KT 4000 -DZ BR BKN005 OVC007 14/12 Q1022=,SBSP,2022-06-11 12:00:00
1654950900000,SPECI SBSP 111235Z 17009KT 6000 BKN005 OVC009 13/12 Q1022=,SBSP,2022-06-11 12:35:00
1654952400000,METAR SBSP 111300Z 16007KT 9000 BKN007 OVC009 14/13 Q1022=,SBSP,2022-06-11 13:00:00
1654956000000,METAR SBSP 111400Z 18008KT 150V210 8000 SCT006 OVC009 14/12 Q1022=,SBSP,2022-06-11 14:00:00
1654959600000,METAR SBSP 111500Z 16005KT 130V200 9999 SCT007 OVC011 14/12 Q1021=,SBSP,2022-06-11 15:00:00
1654963200000,METAR SBSP 111600Z 18006KT 140V210 9999 FEW007 OVC009 14/12 Q1020=,SBSP,2022-06-11 16:00:00
1654966800000,METAR SBSP 111700Z 15004KT 9999 FEW013 OVC015 15/12 Q1019=,SBSP,2022-06-11 17:00:00
1654970400000,METAR SBSP 111800Z VRB02KT 9999 FEW013 BKN017 15/12 Q1019=,SBSP,2022-06-11 18:00:00
1654974000000,METAR SBSP 111900Z VRB02KT 9999 SCT015 SCT019 17/12 Q1018=,SBSP,2022-06-11 19:00:00
1654977600000,METAR SBSP 112000Z 21003KT 160V290 9999 SCT026 16/12 Q1019=,SBSP,2022-06-11 20:00:00
1654981200000,METAR SBSP 112100Z 14002KT CAVOK 14/12 Q1019=,SBSP,2022-06-11 21:00:00
1654984800000,METAR SBSP 112200Z 16006KT 9999 FEW006 BKN033 14/12 Q1019=,SBSP,2022-06-11 22:00:00
1654987380000,SPECI SBSP 112243Z 19007KT 7000 SCT001 BKN005 13/12 Q1020=,SBSP,2022-06-11 22:43:00
1654987980000,SPECI SBSP 112253Z 18007KT 3500 BR SCT001 BKN005 13/12 Q1020=,SBSP,2022-06-11 22:53:00
1654988400000,METAR SBSP 112300Z 19007KT 2500 BR SCT001 BKN005 13/12 Q1020=,SBSP,2022-06-11 23:00:00
1654905600000,METAR SBSV 110000Z 20005KT 160V230 9999 SCT023 BKN030 BKN060 26/23 Q1015=,SBSV,2022-06-11 00:00:00
1654909200000,METAR SBSV 110100Z 35005KT 8000 VCSH SCT015 BKN030 25/23 Q1015=,SBSV,2022-06-11 01:00:00
1654912800000,METAR SBSV 110200Z 00000KT 9999 BKN015 BKN070 25/24 Q1015=,SBSV,2022-06-11 02:00:00
1654916400000,METAR SBSV 110300Z 29004KT 9999 BKN020 BKN070 25/24 Q1014=,SBSV,2022-06-11 03:00:00
1654920000000,METAR SBSV 110400Z 10007KT 9999 SCT020 BKN070 26/23 Q1014=,SBSV,2022-06-11 04:00:00
1654923600000,METAR SBSV 110500Z 11004KT 9999 SCT020 BKN070 26/22 Q1014=,SBSV,2022-06-11 05:00:00
1654927200000,METAR SBSV 110600Z 12004KT 9999 SCT020 BKN070 27/22 Q1013=,SBSV,2022-06-11 06:00:00
1654930800000,METAR SBSV 110700Z 12003KT 9999 SCT023 27/21 Q1013=,SBSV,2022-06-11 07:00:00
1654934400000,METAR SBSV 110800Z 27002KT 9999 SCT023 24/22 Q1014=,SBSV,2022-06-11 08:00:00
1654938000000,METAR SBSV 110900Z 27001KT 9999 FEW023 24/23 Q1014=,SBSV,2022-06-11 09:00:00
1654941600000,METAR SBSV 111000Z 25001KT 9999 FEW023 25/23 Q1014=,SBSV,2022-06-11 10:00:00
1654945200000,METAR SBSV 111100Z VRB02KT 9999 FEW023 SCT100 27/23 Q1015=,SBSV,2022-06-11 11:00:00
1654948800000,METAR SBSV 111200Z 10003KT 9999 SCT023 FEW026TCU SCT100 28/22 Q1015=,SBSV,2022-06-11 12:00:00
1654952400000,METAR SBSV 111300Z 14005KT 060V180 9999 SCT023 FEW026TCU SCT100 29/22 Q1015=,SBSV,2022-06-11 13:00:00
1654956000000,METAR SBSV 111400Z 15006KT 110V220 9999 SCT023 29/23 Q1015=,SBSV,2022-06-11 14:00:00
1654959600000,METAR SBSV 111500Z 16009KT 9999 SCT023 29/24 Q1014=,SBSV,2022-06-11 15:00:00
1654963200000,METAR SBSV 111600Z 13008KT 9999 SCT023 29/23 Q1013=,SBSV,2022-06-11 16:00:00
1654966800000,METAR SBSV 111700Z 12007KT 9999 SCT023 29/22 Q1012=,SBSV,2022-06-11 17:00:00
1654970400000,METAR SBSV 111800Z 13007KT 9999 SCT023 29/23 Q1012=,SBSV,2022-06-11 18:00:00
1654974000000,METAR SBSV 111900Z 14006KT 9999 FEW023 28/23 Q1012=,SBSV,2022-06-11 19:00:00
1654977600000,METAR SBSV 112000Z 12006KT CAVOK 28/22 Q1012=,SBSV,2022-06-11 20:00:00
1654981200000,METAR SBSV 112100Z 13006KT 9999 FEW020 27/22 Q1013=,SBSV,2022-06-11 21:00:00
1654984800000,METAR SBSV 112200Z 13006KT 9999 FEW020 27/22 Q1014=,SBSV,2022-06-11 22:00:00
1654988400000,METAR SBSV 112300Z 13008KT 9999 FEW020 27/22 Q1014=,SBSV,2022-06-11 23:00:00
1654992000000,METAR SBBR 120000Z 21005KT 190V250 9999 FEW040 20/15 Q1020=,SBBR,2022-06-12 00:00:00
1654995600000,METAR SBBR 120100Z VRB01KT 9999 FEW040 19/14 Q1020=,SBBR,2022-06-12 01:00:00
1654999200000,METAR SBBR 120200Z 30002KT 9999 SCT040 18/14 Q1020=,SBBR,2022-06-12 02:00:00
1655002800000,METAR SBBR 120300Z 28002KT 9999 FEW045 SCT090 18/14 Q1020=,SBBR,2022-06-12 03:00:00
1655006400000,METAR SBBR 120400Z 29001KT CAVOK 17/14 Q1020=,SBBR,2022-06-12 04:00:00
1655010000000,METAR SBBR 120500Z 20002KT CAVOK 18/14 Q1020=,SBBR,2022-06-12 05:00:00
1655013600000,METAR SBBR 120600Z 00000KT CAVOK 16/14 Q1019=,SBBR,2022-06-12 06:00:00
1655017200000,METAR SBBR 120700Z 20003KT CAVOK 17/14 Q1019=,SBBR,2022-06-12 07:00:00
1655020800000,METAR SBBR 120800Z 22004KT CAVOK 16/15 Q1020=,SBBR,2022-06-12 08:00:00
1655024400000,METAR SBBR 120900Z 21004KT CAVOK 16/15 Q1020=,SBBR,2022-06-12 09:00:00
1655028000000,METAR SBBR 121000Z 23003KT 9999 FEW003 BKN100 16/14 Q1021=,SBBR,2022-06-12 10:00:00
1655031600000,METAR SBBR 121100Z 21003KT 180V240 9999 FEW003 BKN100 17/15 Q1021=,SBBR,2022-06-12 11:00:00
1655033460000,SPECI SBBR 121131Z 18004KT 140V230 9999 BKN009 SCT100 18/15 Q1022=,SBBR,2022-06-12 11:31:00
1655035200000,METAR SBBR 121200Z 19004KT 070V240 9999 BKN009 SCT100 19/15 Q1022=,SBBR,2022-06-12 12:00:00
1655036220000,SPECI SBBR 121217Z 16004KT 110V270 9999 FEW010 SCT100 19/15 Q1022=,SBBR,2022-06-12 12:17:00
1655038800000,METAR SBBR 121300Z 15003KT 070V210 9999 FEW010 SCT100 21/15 Q1022=,SBBR,2022-06-12 13:00:00
1655042400000,METAR SBBR 121400Z VRB03KT 9999 FEW010 SCT100 24/15 Q1021=,SBBR,2022-06-12 14:00:00
1655046000000,METAR SBBR 121500Z 03005KT 9999 FEW025 SCT100 25/12 Q1021=,SBBR,2022-06-12 15:00:00
1655049600000,METAR SBBR 121600Z 12004KT 070V200 9999 FEW040 SCT100 27/13 Q1019=,SBBR,2022-06-12 16:00:00
1655053200000,METAR SBBR 121700Z 20005KT 160V250 9999 SCT045 BKN090 26/15 Q1019=,SBBR,2022-06-12 17:00:00
1655056800000,METAR SBBR 121800Z 21004KT 150V250 9999 SCT045 BKN100 26/16 Q1018=,SBBR,2022-06-12 18:00:00
1655060400000,METAR SBBR 121900Z 18006KT 9999 BKN045 BKN100 24/15 Q1018=,SBBR,2022-06-12 19:00:00
1655064000000,METAR SBBR 122000Z 19010KT 9999 BKN045 BKN100 24/15 Q1019=,SBBR,2022-06-12 20:00:00
1655067600000,METAR SBBR 122100Z 18006KT 150V210 9999 BKN045 BKN100 23/15 Q1020=,SBBR,2022-06-12 21:00:00
1655071200000,METAR SBBR 122200Z 21005KT 9999 SCT045 SCT100 22/15 Q1020=,SBBR,2022-06-12 22:00:00
1655074800000,METAR SBBR 122300Z 22004KT 180V260 9999 SCT045 SCT100 21/15 Q1021=,SBBR,2022-06-12 23:00:00
1654992000000,METAR SBCF 120000Z 19004KT 140V230 9999 BKN048 22/15 Q1018=,SBCF,2022-06-12 00:00:00
1654995600000,METAR SBCF 120100Z 10005KT 9999 FEW048 BKN100 21/15 Q1018=,SBCF,2022-06-12 01:00:00
1654999200000,METAR SBCF 120200Z 16003KT 130V200 9999 FEW048 BKN100 19/15 Q1018=,SBCF,2022-06-12 02:00:00
1655002800000,METAR SBCF 120300Z 12004KT 9999 FEW030 BKN100 19/16 Q1018=,SBCF,2022-06-12 03:00:00
1655006400000,METAR SBCF 120400Z 16003KT 9999 SCT040 BKN100 18/16 Q1018=,SBCF,2022-06-12 04:00:00
1655010000000,METAR SBCF 120500Z 20003KT 9999 BKN045 BKN100 18/16 Q1018=,SBCF,2022-06-12 05:00:00
1655013600000,METAR SBCF 120600Z 17002KT 9999 BKN040 BKN100 18/16 Q1017=,SBCF,2022-06-12 06:00:00
1655017200000,METAR SBCF 120700Z 17002KT 9999 BKN040 BKN090 18/15 Q1017=,SBCF,2022-06-12 07:00:00
1655020800000,METAR SBCF 120800Z 12003KT 9999 SCT040 BKN080 18/16 Q1018=,SBCF,2022-06-12 08:00:00
1655024400000,METAR SBCF 120900Z 00000KT 9000 SCT036 BKN090 17/16 Q1018=,SBCF,2022-06-12 09:00:00
1655028000000,METAR SBCF 121000Z 16003KT 9000 SCT040 BKN090 17/15 Q1018=,SBCF,2022-06-12 10:00:00
1655031600000,METAR SBCF 121100Z 18003KT 9000 SCT040 BKN090 17/16 Q1019=,SBCF,2022-06-12 11:00:00
1655035200000,METAR SBCF 121200Z 18004KT 9999 FEW040 SCT100 20/16 Q1020=,SBCF,2022-06-12 12:00:00
1655038800000,METAR SBCF 121300Z 18003KT 9999 FEW040 SCT100 22/15 Q1020=,SBCF,2022-06-12 13:00:00
1655042400000,METAR SBCF 121400Z 23005KT 9999 SCT040 SCT100 23/15 Q1020=,SBCF,2022-06-12 14:00:00
1655046000000,METAR SBCF 121500Z 20006KT 9999 SCT040 SCT100 23/15 Q1019=,SBCF,2022-06-12 15:00:00
1655049600000,METAR SBCF 121600Z 22007KT 9999 SCT040 SCT100 25/16 Q1018=,SBCF,2022-06-12 16:00:00
1655053200000,METAR SBCF 121700Z 24010KT 9999 BKN040 BKN100 25/15 Q1017=,SBCF,2022-06-12 17:00:00
1655056800000,METAR SBCF 121800Z 23010KT 9999 BKN040 BKN100 24/14 Q1017=,SBCF,2022-06-12 18:00:00
1655060400000,METAR SBCF 121900Z 21010KT 9999 FEW040 BKN100 23/13 Q1017=,SBCF,2022-06-12 19:00:00
1655064000000,METAR SBCF 122000Z 21006KT 9999 FEW040 BKN100 22/13 Q1018=,SBCF,2022-06-12 20:00:00
1655067600000,METAR SBCF 122100Z 19005KT 9999 FEW040 BKN100 21/14 Q1018=,SBCF,2022-06-12 21:00:00
1655071200000,METAR SBCF 122200Z 21004KT CAVOK 21/13 Q1019=,SBCF,2022-06-12 22:00:00
1655074800000,METAR SBCF 122300Z 19002KT CAVOK 20/14 Q1019=,SBCF,2022-06-12 23:00:00
1654992000000,METAR SBCT 120000Z 32004KT 240V350 CAVOK 07/02 Q1021=,SBCT,2022-06-12 00:00:00
1654995600000,METAR SBCT 120100Z 30002KT CAVOK 07/02 Q1021=,SBCT,2022-06-12 01:00:00
1654999200000,METAR SBCT 120200Z 27003KT CAVOK 06/03 Q1021=,SBCT,2022-06-12 02:00:00
1655002800000,METAR SBCT 120300Z 26005KT CAVOK 05/02 Q1020=,SBCT,2022-06-12 03:00:00
1655006400000,METAR SBCT 120400Z 25005KT CAVOK 05/02 Q1020=,SBCT,2022-06-12 04:00:00
1655010000000,METAR SBCT 120500Z 25006KT CAVOK 05/M02 Q1020=,SBCT,2022-06-12 05:00:00
1655013600000,METAR SBCT 120600Z 25008KT CAVOK 04/M02 Q1020=,SBCT,2022-06-12 06:00:00
1655017200000,METAR SBCT 120700Z 25005KT CAVOK 04/M03 Q1020=,SBCT,2022-06-12 07:00:00
1655020800000,METAR SBCT 120800Z 23006KT CAVOK 03/M03 Q1020=,SBCT,2022-06-12 08:00:00
1655024400000,METAR SBCT 120900Z 25004KT CAVOK 03/M03 Q1020=,SBCT,2022-06-12 09:00:00
1655028000000,METAR SBCT 121000Z 24003KT CAVOK 02/M02 Q1021=,SBCT,2022-06-12 10:00:00
1655031600000,METAR SBCT 121100Z 25007KT CAVOK 03/M02 Q1022=,SBCT,2022-06-12 11:00:00
1655035200000,METAR SBCT 121200Z 26008KT 180V310 CAVOK 05/M03 Q1022=,SBCT,2022-06-12 12:00:00
1655038800000,METAR SBCT 121300Z 24008KT CAVOK 07/M02 Q1022=,SBCT,2022-06-12 13:00:00
1655042400000,METAR SBCT 121400Z 24013KT CAVOK 09/M05 Q1022=,SBCT,2022-06-12 14:00:00
1655046000000,METAR SBCT 121500Z 23014KT 200V270 CAVOK 12/M06 Q1022=,SBCT,2022-06-12 15:00:00
1655049600000,METAR SBCT 121600Z 25012KT CAVOK 12/M05 Q1021=,SBCT,2022-06-12 16:00:00
1655053200000,METAR SBCT 121700Z 23011KT CAVOK 13/M03 Q1020=,SBCT,2022-06-12 17:00:00
1655056800000,METAR SBCT 121800Z 23010KT CAVOK 14/M03 Q1019=,SBCT,2022-06-12 18:00:00
1655060400000,METAR SBCT 121900Z 24006KT 210V270 CAVOK 14/M02 Q1020=,SBCT,2022-06-12 19:00:00
1655064000000,METAR SBCT 122000Z 24007KT CAVOK 13/M02 Q1020=,SBCT,2022-06-12 20:00:00
1655067600000,METAR SBCT 122100Z 22005KT CAVOK 10/M01 Q1021=,SBCT,2022-06-12 21:00:00
1655071200000,METAR SBCT 122200Z 23005KT CAVOK 10/M01 Q1022=,SBCT,2022-06-12 22:00:00
1655074800000,METAR SBCT 122300Z VRB02KT CAVOK 10/M01 Q1022=,SBCT,2022-06-12 23:00:00
1654992000000,METAR SBFL 120000Z 35002KT CAVOK 10/09 Q1018=,SBFL,2022-06-12 00:00:00
1654995600000,METAR SBFL 120100Z 25006KT CAVOK 11/10 Q1018=,SBFL,2022-06-12 01:00:00
1654999200000,METAR SBFL 120200Z 26006KT CAVOK 12/09 Q1018=,SBFL,2022-06-12 02:00:00
1655002800000,METAR SBFL 120300Z 25003KT CAVOK 10/07 Q1017=,SBFL,2022-06-12 03:00:00
1655006400000,METAR SBFL 120400Z 32001KT CAVOK 08/06 Q1017=,SBFL,2022-06-12 04:00:00
1655010000000,METAR SBFL 120500Z 29003KT CAVOK 08/05 Q1017=,SBFL,2022-06-12 05:00:00
1655013600000,METAR SBFL 120600Z 23001KT CAVOK 07/05 Q1017=,SBFL,2022-06-12 06:00:00
1655017200000,METAR SBFL 120700Z 29003KT CAVOK 06/04 Q1017=,SBFL,2022-06-12 07:00:00
1655020800000,METAR SBFL 120800Z 27004KT CAVOK 06/03 Q1016=,SBFL,2022-06-12 08:00:00
1655024400000,METAR SBFL 120900Z 32005KT CAVOK 08/01 Q1016=,SBFL,2022-06-12 09:00:00
1655028000000,METAR SBFL 121000Z 30002KT CAVOK 08/01 Q1017=,SBFL,2022-06-12 10:00:00
1655031600000,METAR SBFL 121100Z 27002KT CAVOK 07/04 Q1018=,SBFL,2022-06-12 11:00:00
1655035200000,METAR SBFL 121200Z 27005KT CAVOK 11/02 Q1019=,SBFL,2022-06-12 12:00:00
1655038800000,METAR SBFL 121300Z 31006KT CAVOK 13/01 Q1019=,SBFL,2022-06-12 13:00:00
1655042400000,METAR SBFL 121400Z 35005KT CAVOK 15/01 Q1019=,SBFL,2022-06-12 14:00:00
1655046000000,METAR SBFL 121500Z 30004KT CAVOK 17/03 Q1018=,SBFL,2022-06-12 15:00:00
1655049600000,METAR SBFL 121600Z 35004KT CAVOK 18/02 Q1017=,SBFL,2022-06-12 16:00:00
1655053200000,METAR SBFL 121700Z 02002KT CAVOK 19/02 Q1017=,SBFL,2022-06-12 17:00:00
1655056800000,METAR SBFL 121800Z 12011KT CAVOK 18/05 Q1017=,SBFL,2022-06-12 18:00:00
1655060400000,METAR SBFL 121900Z 10010KT CAVOK 18/05 Q1017=,SBFL,2022-06-12 19:00:00
1655064000000,METAR SBFL 122000Z 16003KT CAVOK 17/05 Q1017=,SBFL,2022-06-12 20:00:00
1655067600000,METAR SBFL 122100Z 12003KT 100V210 CAVOK 15/07 Q1018=,SBFL,2022-06-12 21:00:00
1655071200000,METAR SBFL 122200Z 12002KT CAVOK 12/08 Q1019=,SBFL,2022-06-12 22:00:00
1655074800000,METAR SBFL 122300Z 20001KT CAVOK 12/08 Q1020=,SBFL,2022-06-12 23:00:00
1654992000000,METAR SBGL 120000Z 22004KT 5000 -RA BR BKN011 OVC020 19/16 Q1017=,SBGL,2022-06-12 00:00:00
1654995600000,METAR SBGL 120100Z 24005KT 4000 -RA BR BKN008 OVC020 18/17 Q1017=,SBGL,2022-06-12 01:00:00
1654999200000,METAR SBGL 120200Z 24004KT 5000 BR BKN012 OVC030 18/16 Q1017=,SBGL,2022-06-12 02:00:00
1655002800000,METAR SBGL 120300Z 26005KT 6000 BKN012 OVC030 18/17 Q1017=,SBGL,2022-06-12 03:00:00
1655006400000,METAR SBGL 120400Z 28005KT 7000 BKN015 OVC040 18/17 Q1017=,SBGL,2022-06-12 04:00:00
1655010000000,METAR SBGL 120500Z 31004KT 8000 BKN018 OVC040 18/16 Q1016=,SBGL,2022-06-12 05:00:00
1655013600000,METAR SBGL 120600Z 29004KT 8000 FEW004 SCT018 OVC040 18/17 Q1016=,SBGL,2022-06-12 06:00:00
1655017200000,METAR SBGL 120700Z 30004KT 8000 SCT006 BKN020 OVC040 18/16 Q1015=,SBGL,2022-06-12 07:00:00
1655020800000,METAR SBGL 120800Z 25003KT 8000 BKN016 OVC030 18/17 Q1015=,SBGL,2022-06-12 08:00:00
1655024400000,METAR SBGL 120900Z 29003KT 8000 BKN015 OVC030 18/17 Q1016=,SBGL,2022-06-12 09:00:00
1655028000000,METAR SBGL 121000Z 29004KT 7000 BKN013 OVC030 18/17 Q1017=,SBGL,2022-06-12 10:00:00
1655029200000,SPECI SBGL 121020Z 26005KT 7000 BKN023 OVC030 18/17 Q1017=,SBGL,2022-06-12 10:20:00
1655031600000,METAR SBGL 121100Z 29006KT 7000 BKN023 OVC030 19/17 Q1018=,SBGL,2022-06-12 11:00:00
1655035200000,METAR SBGL 121200Z 30007KT 8000 BKN023 OVC030 19/17 Q1018=,SBGL,2022-06-12 12:00:00
1655038800000,METAR SBGL 121300Z 29005KT 8000 SCT008 BKN023 OVC030 20/17 Q1018=,SBGL,2022-06-12 13:00:00
1655042400000,METAR SBGL 121400Z 33008KT 7000 SCT013 BKN023 OVC030 20/17 Q1018=,SBGL,2022-06-12 14:00:00
1655046000000,METAR SBGL 121500Z 29005KT 7000 SCT015 BKN019 OVC030 21/17 Q1017=,SBGL,2022-06-12 15:00:00
1655049600000,METAR SBGL 121600Z 19008KT 8000 BKN019 OVC030 21/16 Q1016=,SBGL,2022-06-12 16:00:00
1655053200000,METAR SBGL 121700Z 19012KT 9000 BKN026 OVC050 22/15 Q1015=,SBGL,2022-06-12 17:00:00
1655056800000,METAR SBGL 121800Z 22011KT 9999 FEW026 BKN050 22/15 Q1015=,SBGL,2022-06-12 18:00:00
1655060400000,METAR SBGL 121900Z 21010KT 9999 FEW026 BKN040 21/15 Q1016=,SBGL,2022-06-12 19:00:00
1655064000000,METAR SBGL 122000Z 21013KT 9999 FEW026 BKN040 20/14 Q1016=,SBGL,2022-06-12 20:00:00
1655067600000,METAR SBGL 122100Z 22015KT 9999 FEW026 BKN036 20/13 Q1017=,SBGL,2022-06-12 21:00:00
1655071200000,METAR SBGL 122200Z 25012KT 9999 FEW026 BKN036 19/12 Q1018=,SBGL,2022-06-12 22:00:00
1655074800000,METAR SBGL 122300Z 23010KT 9999 BKN040 19/13 Q1019=,SBGL,2022-06-12 23:00:00
1654992000000,METAR SBGR 120000Z 16004KT 4000 BR OVC007 14/13 Q1020=,SBGR,2022-06-12 00:00:00
1654995600000,METAR SBGR 120100Z 17002KT 4000 BR OVC007 14/13 Q1020=,SBGR,2022-06-12 01:00:00
1654999200000,METAR SBGR 120200Z 11001KT 4000 BR OVC008 14/13 Q1019=,SBGR,2022-06-12 02:00:00
1655002800000,METAR SBGR 120300Z 13001KT 4000 BR OVC008 13/13 Q1019=,SBGR,2022-06-12 03:00:00
1655006400000,METAR SBGR 120400Z 06001KT 3000 BR BKN007 BKN016 14/13 Q1019=,SBGR,2022-06-12 04:00:00
1655010000000,METAR SBGR 120500Z 29003KT 4000 BR BKN013 13/13 Q1019=,SBGR,2022-06-12 05:00:00
1655012160000,SPECI SBGR 120536Z 25001KT 5000 BR FEW018 12/12 Q1018=,SBGR,2022-06-12 05:36:00
1655013600000,METAR SBGR 120600Z 28003KT 9000 FEW018 12/11 Q1018=,SBGR,2022-06-12 06:00:00
1655017200000,METAR SBGR 120700Z 25002KT CAVOK 11/11 Q1018=,SBGR,2022-06-12 07:00:00
1655020800000,METAR SBGR 120800Z 30003KT CAVOK 12/11 Q1018=,SBGR,2022-06-12 08:00:00
1655024400000,METAR SBGR 120900Z 00000KT CAVOK 10/10 Q1019=,SBGR,2022-06-12 09:00:00
1655028000000,METAR SBGR 121000Z 00000KT 9999 SCT020 10/10 Q1020=,SBGR,2022-06-12 10:00:00
1655031600000,METAR SBGR 121100Z 30004KT 9999 FEW015 11/10 Q1021=,SBGR,2022-06-12 11:00:00
1655035200000,METAR SBGR 121200Z 29005KT CAVOK 12/09 Q1021=,SBGR,2022-06-12 12:00:00
1655038800000,METAR SBGR 121300Z 29006KT CAVOK 15/05 Q1021=,SBGR,2022-06-12 13:00:00
1655042400000,METAR SBGR 121400Z 27006KT CAVOK 16/02 Q1021=,SBGR,2022-06-12 14:00:00
1655046000000,METAR SBGR 121500Z 26005KT CAVOK 18/00 Q1020=,SBGR,2022-06-12 15:00:00
1655049600000,METAR SBGR 121600Z 24008KT CAVOK 18/01 Q1019=,SBGR,2022-06-12 16:00:00
1655053200000,METAR SBGR 121700Z 28008KT CAVOK 18/02 Q1019=,SBGR,2022-06-12 17:00:00
1655056800000,METAR SBGR 121800Z 30008KT CAVOK 19/M00 Q1018=,SBGR,2022-06-12 18:00:00
1655060400000,METAR SBGR 121900Z 28010KT CAVOK 18/01 Q1018=,SBGR,2022-06-12 19:00:00
1655064000000,METAR SBGR 122000Z 27008KT CAVOK 17/02 Q1019=,SBGR,2022-06-12 20:00:00
1655067600000,METAR SBGR 122100Z 30007KT CAVOK 16/03 Q1019=,SBGR,2022-06-12 21:00:00
1655071200000,METAR SBGR 122200Z 17004KT CAVOK 13/05 Q1020=,SBGR,2022-06-12 22:00:00
1655074800000,METAR SBGR 122300Z 14003KT CAVOK 11/06 Q1022=,SBGR,2022-06-12 23:00:00
1654992000000,METAR SBKP 120000Z 24004KT CAVOK 16/12 Q1019=,SBKP,2022-06-12 00:00:00
1654995600000,METAR SBKP 120100Z 22005KT CAVOK 15/11 Q1019=,SBKP,2022-06-12 01:00:00
1654999200000,METAR SBKP 120200Z 22004KT 9999 FEW030 16/11 Q1019=,SBKP,2022-06-12 02:00:00
1655002800000,METAR SBKP 120300Z 19003KT 140V230 CAVOK 15/11 Q1019=,SBKP,2022-06-12 03:00:00
1655006400000,METAR SBKP 120400Z 32002KT CAVOK 14/11 Q1019=,SBKP,2022-06-12 04:00:00
1655010000000,METAR SBKP 120500Z 32001KT CAVOK 13/12 Q1019=,SBKP,2022-06-12 05:00:00
1655013600000,METAR SBKP 120600Z 29002KT CAVOK 12/11 Q1018=,SBKP,2022-06-12 06:00:00
1655017200000,METAR SBKP 120700Z 29003KT CAVOK 12/11 Q1018=,SBKP,2022-06-12 07:00:00
1655020800000,METAR SBKP 120800Z VRB03KT CAVOK 12/11 Q1018=,SBKP,2022-06-12 08:00:00
1655024400000,METAR SBKP 120900Z 23003KT 170V260 3000 0500SW R15/P2000 R33/P2000 BR PRFG SCT001 SCT003 11/11 Q1019=,SBKP,2022-06-12 09:00:00
1655024700000,SPECI SBKP 120905Z 22005KT 160V240 0500 R15/P2000 R33/P2000 FG BKN001 OVC003 11/10 Q1019=,SBKP,2022-06-12 09:05:00
1655026740000,SPECI SBKP 120939Z 20005KT 160V220 0200 R33/0450N R15/0600D FG VV001 10/10 Q1020=,SBKP,2022-06-12 09:39:00
1655028000000,METAR SBKP 121000Z 21004KT 0900 R15/P2000 R33/P2000 FG BKN001 10/10 Q1020=,SBKP,2022-06-12 10:00:00
1655028600000,SPECI SBKP 121010Z 22003KT 130V280 2500 BR BKN002 10/09 Q1020=,SBKP,2022-06-12 10:10:00
1655030400000,SPECI SBKP 121040Z 28001KT 3500 BR FEW002 BKN004 10/09 Q1021=,SBKP,2022-06-12 10:40:00
1655031600000,METAR SBKP 121100Z 29002KT 3500 BR FEW002 BKN004 10/09 Q1021=,SBKP,2022-06-12 11:00:00
1655032500000,SPECI SBKP 121115Z 32002KT 3500 BR FEW003 SCT004 10/09 Q1021=,SBKP,2022-06-12 11:15:00
1655035200000,METAR SBKP 121200Z 35002KT 3500 BR SCT004 11/09 Q1021=,SBKP,2022-06-12 12:00:00
1655036520000,SPECI SBKP 121222Z 34003KT 8000 FEW006 12/09 Q1022=,SBKP,2022-06-12 12:22:00
1655038800000,METAR SBKP 121300Z 32002KT CAVOK 13/08 Q1022=,SBKP,2022-06-12 13:00:00
1655042400000,METAR SBKP 121400Z 33005KT CAVOK 14/08 Q1021=,SBKP,2022-06-12 14:00:00
1655046000000,METAR SBKP 121500Z 30004KT 220V360 CAVOK 15/06 Q1021=,SBKP,2022-06-12 15:00:00
1655049600000,METAR SBKP 121600Z 31006KT 220V360 CAVOK 17/04 Q1020=,SBKP,2022-06-12 16:00:00
1655053200000,METAR SBKP 121700Z VRB06KT CAVOK 18/04 Q1019=,SBKP,2022-06-12 17:00:00
1655056800000,METAR SBKP 121800Z 24005KT 170V310 CAVOK 18/03 Q1019=,SBKP,2022-06-12 18:00:00
1655060400000,METAR SBKP 121900Z 29006KT CAVOK 18/01 Q1019=,SBKP,2022-06-12 19:00:00
1655064000000,METAR SBKP 122000Z 32006KT CAVOK 17/01 Q1019=,SBKP,2022-06-12 20:00:00
1655067600000,METAR SBKP 122100Z 24006KT CAVOK 17/03 Q1020=,SBKP,2022-06-12 21:00:00
1655071200000,METAR SBKP 122200Z 32003KT CAVOK 15/02 Q1020=,SBKP,2022-06-12 22:00:00
1655074800000,METAR SBKP 122300Z 25003KT CAVOK 16/01 Q1021=,SBKP,2022-06-12 23:00:00
1654992000000,METAR SBPA 120000Z 29009KT CAVOK 09/03 Q1021=,SBPA,2022-06-12 00:00:00
1654995600000,METAR SBPA 120100Z 29009KT CAVOK 08/03 Q1021=,SBPA,2022-06-12 01:00:00
1654999200000,METAR SBPA 120200Z 29008KT CAVOK 08/03 Q1021=,SBPA,2022-06-12 02:00:00
1655002800000,METAR SBPA 120300Z 29010KT CAVOK 08/03 Q1021=,SBPA,2022-06-12 03:00:00
1655006400000,METAR SBPA 120400Z 30006KT CAVOK 07/03 Q1021=,SBPA,2022-06-12 04:00:00
1655010000000,METAR SBPA 120500Z 30007KT CAVOK 06/02 Q1021=,SBPA,2022-06-12 05:00:00
1655013600000,METAR SBPA 120600Z 30005KT 210V320 CAVOK 06/02 Q1021=,SBPA,2022-06-12 06:00:00
1655017200000,METAR SBPA 120700Z 28009KT CAVOK 06/03 Q1020=,SBPA,2022-06-12 07:00:00
1655020800000,METAR SBPA 120800Z 28009KT CAVOK 06/03 Q1020=,SBPA,2022-06-12 08:00:00
1655024400000,METAR SBPA 120900Z 28009KT CAVOK 06/03 Q1021=,SBPA,2022-06-12 09:00:00
1655028000000,METAR SBPA 121000Z 28008KT CAVOK 06/03 Q1021=,SBPA,2022-06-12 10:00:00
1655031600000,METAR SBPA 121100Z 28011KT CAVOK 07/03 Q1022=,SBPA,2022-06-12 11:00:00
1655035200000,METAR SBPA 121200Z 28015KT CAVOK 08/03 Q1022=,SBPA,2022-06-12 12:00:00
1655038800000,METAR SBPA 121300Z 28015KT CAVOK 09/03 Q1023=,SBPA,2022-06-12 13:00:00
1655042400000,METAR SBPA 121400Z 28018KT CAVOK 11/03 Q1023=,SBPA,2022-06-12 14:00:00
1655046000000,METAR SBPA 121500Z 29016KT CAVOK 12/03 Q1022 WS R29=,SBPA,2022-06-12 15:00:00
1655049600000,METAR SBPA 121600Z 29014KT CAVOK 14/04 Q1022=,SBPA,2022-06-12 16:00:00
1655053200000,METAR SBPA 121700Z 29014KT CAVOK 14/03 Q1021=,SBPA,2022-06-12 17:00:00
1655056800000,METAR SBPA 121800Z 29015KT CAVOK 15/04 Q1021=,SBPA,2022-06-12 18:00:00
1655060400000,METAR SBPA 121900Z 29013KT CAVOK 15/04 Q1021=,SBPA,2022-06-12 19:00:00
1655064000000,METAR SBPA 122000Z 28011KT 9999 FEW040 14/05 Q1021=,SBPA,2022-06-12 20:00:00
1655067600000,METAR SBPA 122100Z 28008KT 9999 SCT040 13/06 Q1022=,SBPA,2022-06-12 21:00:00
1655071200000,METAR SBPA 122200Z 31003KT 9999 SCT040 12/06 Q1023=,SBPA,2022-06-12 22:00:00
1655074800000,METAR SBPA 122300Z VRB02KT 9999 SCT035 11/06 Q1023=,SBPA,2022-06-12 23:00:00
1654992000000,METAR SBRF 120000Z VRB01KT CAVOK 24/23 Q1014=,SBRF,2022-06-12 00:00:00
1654995600000,METAR SBRF 120100Z 00000KT CAVOK 24/23 Q1014=,SBRF,2022-06-12 01:00:00
1654999200000,METAR SBRF 120200Z 16001KT CAVOK 24/23 Q1014=,SBRF,2022-06-12 02:00:00
1655002800000,METAR SBRF 120300Z 26002KT CAVOK 23/23 Q1014=,SBRF,2022-06-12 03:00:00
1655006400000,METAR SBRF 120400Z 17003KT CAVOK 23/23 Q1013=,SBRF,2022-06-12 04:00:00
1655010000000,METAR SBRF 120500Z 25001KT CAVOK 23/23 Q1013=,SBRF,2022-06-12 05:00:00
1655013600000,METAR SBRF 120600Z 29002KT CAVOK 23/23 Q1013=,SBRF,2022-06-12 06:00:00
1655017200000,METAR SBRF 120700Z 31003KT CAVOK 22/22 Q1013=,SBRF,2022-06-12 07:00:00
1655020800000,METAR SBRF 120800Z 27001KT CAVOK 22/22 Q1013=,SBRF,2022-06-12 08:00:00
1655024400000,METAR SBRF 120900Z 00000KT 9999 BKN025 22/22 Q1014=,SBRF,2022-06-12 09:00:00
1655028000000,METAR SBRF 121000Z 31002KT 9999 FEW025 BKN040 23/23 Q1015=,SBRF,2022-06-12 10:00:00
1655031600000,METAR SBRF 121100Z VRB02KT 9999 FEW025 SCT040 25/23 Q1016=,SBRF,2022-06-12 11:00:00
1655035200000,METAR SBRF 121200Z 21005KT 170V290 9999 FEW025 27/23 Q1016=,SBRF,2022-06-12 12:00:00
1655038800000,METAR SBRF 121300Z 21003KT 150V320 9999 FEW025 29/21 Q1016=,SBRF,2022-06-12 13:00:00
1655042400000,METAR SBRF 121400Z 14006KT 100V180 9999 SCT025 29/23 Q1015=,SBRF,2022-06-12 14:00:00
1655046000000,METAR SBRF 121500Z 13008KT 9999 SCT025 29/23 Q1014=,SBRF,2022-06-12 15:00:00
1655049600000,METAR SBRF 121600Z 13008KT 090V160 9999 FEW025 29/22 Q1014=,SBRF,2022-06-12 16:00:00
1655053200000,METAR SBRF 121700Z 13007KT 090V160 9999 FEW025 29/22 Q1013=,SBRF,2022-06-12 17:00:00
1655056800000,METAR SBRF 121800Z 14008KT CAVOK 28/23 Q1012=,SBRF,2022-06-12 18:00:00
1655060400000,METAR SBRF 121900Z 13007KT CAVOK 28/23 Q1013=,SBRF,2022-06-12 19:00:00
1655064000000,METAR SBRF 122000Z 12005KT 080V140 CAVOK 27/23 Q1013=,SBRF,2022-06-12 20:00:00
1655067600000,METAR SBRF 122100Z 14005KT CAVOK 27/22 Q1013=,SBRF,2022-06-12 21:00:00
1655071200000,METAR SBRF 122200Z 14006KT CAVOK 26/23 Q1014=,SBRF,2022-06-12 22:00:00
1655074800000,METAR SBRF 122300Z 14006KT 9999 FEW020 26/23 Q1014=,SBRF,2022-06-12 23:00:00
1654992000000,METAR SBRJ 120000Z 20009KT 9999 FEW008 BKN010 OVC025 18/17 Q1017=,SBRJ,2022-06-12 00:00:00
1654995600000,METAR SBRJ 120100Z 19009KT 5000 -RADZ BR FEW008 BKN010 OVC025 19/17 Q1017=,SBRJ,2022-06-12 01:00:00
1654999200000,METAR SBRJ 120200Z 20006KT 9999 FEW010 BKN015 OVC025 19/17 Q1017=,SBRJ,2022-06-12 02:00:00
1655023800000,SPECI SBRJ 120850Z 00000KT 8000 BKN018 OVC040 19/17 Q1015=,SBRJ,2022-06-12 08:50:00
1655024400000,METAR SBRJ 120900Z 00000KT 8000 FEW018 OVC040 19/17 Q1015=,SBRJ,2022-06-12 09:00:00
1655028000000,METAR SBRJ 121000Z 26003KT 220V290 7000 FEW012 SCT018 OVC040 19/17 Q1016=,SBRJ,2022-06-12 10:00:00
1655031600000,METAR SBRJ 121100Z 20003KT 190V350 7000 FEW010 BKN018 OVC030 20/17 Q1017=,SBRJ,2022-06-12 11:00:00
1655035200000,METAR SBRJ 121200Z 31003KT 7000 FEW010 BKN018 OVC030 20/17 Q1017=,SBRJ,2022-06-12 12:00:00
1655038800000,METAR SBRJ 121300Z 32005KT 270V350 8000 FEW010 SCT018 BKN030 20/17 Q1017=,SBRJ,2022-06-12 13:00:00
1655041200000,SPECI SBRJ 121340Z 34006KT 8000 BKN012 BKN018 BKN030 21/18 Q1017=,SBRJ,2022-06-12 13:40:00
1655042400000,METAR SBRJ 121400Z 34006KT 310V010 8000 BKN012 BKN018 BKN030 21/18 Q1017=,SBRJ,2022-06-12 14:00:00
1655046000000,METAR SBRJ 121500Z 17006KT 8000 BKN013 BKN018 OVC030 21/17 Q1016=,SBRJ,2022-06-12 15:00:00
1655049600000,METAR SBRJ 121600Z 20011KT 8000 SCT015 BKN020 OVC030 20/16 Q1016=,SBRJ,2022-06-12 16:00:00
1655053200000,METAR SBRJ 121700Z 20012KT 8000 FEW015 BKN020 BKN030 21/16 Q1015=,SBRJ,2022-06-12 17:00:00
1655056800000,METAR SBRJ 121800Z 20012KT 9999 FEW020 BKN030 21/16 Q1015=,SBRJ,2022-06-12 18:00:00
1655060400000,METAR SBRJ 121900Z 20013KT 9999 FEW020 BKN030 20/15 Q1015=,SBRJ,2022-06-12 19:00:00
1655064000000,METAR SBRJ 122000Z 20012KT 170V240 9999 SCT020 BKN040 20/15 Q1016=,SBRJ,2022-06-12 20:00:00
1655067600000,METAR SBRJ 122100Z 22010KT 190V260 9999 SCT020 BKN040 19/14 Q1017=,SBRJ,2022-06-12 21:00:00
1655071200000,METAR SBRJ 122200Z 23009KT 180V280 9999 SCT020 BKN050 20/13 Q1017=,SBRJ,2022-06-12 22:00:00
1655074800000,METAR SBRJ 122300Z 22011KT 190V250 9999 FEW020 OVC045 19/14 Q1018=,SBRJ,2022-06-12 23:00:00
1654992000000,METAR SBSP 120000Z 17003KT 7000 FEW002 BKN005 13/12 Q1020=,SBSP,2022-06-12 00:00:00
1654995600000,METAR SBSP 120100Z 20005KT 9999 FEW005 BKN008 13/12 Q1020=,SBSP,2022-06-12 01:00:00
1654999200000,SPECI SBSP 120200Z 18004KT 9999 BKN007 13/11 Q1020=,SBSP,2022-06-12 02:00:00
1654999200000,METAR SBSP 120200Z 20004KT 9999 FEW006 BKN009 13/11 Q1020=,SBSP,2022-06-12 02:00:00
1655002800000,METAR SBSP 120300Z AUTO VRB02KT 9999 FEW009 BKN012 BKN016 13/11 Q1019=,SBSP,2022-06-12 03:00:00
1655003460000,SPECI SBSP 120311Z AUTO 26003KT 230V300 9999 SCT010 BKN012 BKN014 13/11 Q1019=,SBSP,2022-06-12 03:11:00
1655004660000,SPECI SBSP 120331Z AUTO 24003KT 200V330 9999 BKN010 BKN015 13/11 Q1019=,SBSP,2022-06-12 03:31:00
1655005260000,SPECI SBSP 120341Z AUTO VRB02KT 9999 SCT010 BKN015 13/11 Q1019=,SBSP,2022-06-12 03:41:00
1655005680000,SPECI SBSP 120348Z AUTO VRB02KT 9999 BKN010 BKN015 13/11 Q1019=,SBSP,2022-06-12 03:48:00
1655006400000,METAR SBSP 120400Z AUTO VRB02KT 9999 SCT010 BKN012 13/11 Q1019=,SBSP,2022-06-12 04:00:00
1655009400000,SPECI SBSP 120450Z AUTO 32005KT 290V350 9999 SCT011 12/10 Q1019=,SBSP,2022-06-12 04:50:00
1655010000000,METAR SBSP 120500Z AUTO 32005KT 9999 SCT011 12/10 Q1019=,SBSP,2022-06-12 05:00:00
1655013600000,METAR SBSP 120600Z AUTO 31004KT CAVOK 12/10 Q1018=,SBSP,2022-06-12 06:00:00
1655017200000,METAR SBSP 120700Z AUTO 32004KT CAVOK 11/10 Q1018=,SBSP,2022-06-12 07:00:00
1655020800000,METAR SBSP 120800Z AUTO 25004KT 220V300 9999 FEW004 11/10 Q1019=,SBSP,2022-06-12 08:00:00
1655024400000,METAR SBSP 120900Z 26004KT 220V290 9999 FEW004 10/07 Q1020=,SBSP,2022-06-12 09:00:00
1655028000000,METAR SBSP 121000Z 30004KT 9999 FEW004 10/07 Q1020=,SBSP,2022-06-12 10:00:00
1655031600000,METAR SBSP 121100Z 28004KT CAVOK 10/04 Q1021=,SBSP,2022-06-12 11:00:00
1655035200000,METAR SBSP 121200Z VRB02KT CAVOK 11/06 Q1022=,SBSP,2022-06-12 12:00:00
1655038800000,METAR SBSP 121300Z VRB03KT CAVOK 13/03 Q1022=,SBSP,2022-06-12 13:00:00
1655042400000,METAR SBSP 121400Z VRB03KT CAVOK 14/00 Q1021=,SBSP,2022-06-12 14:00:00
1655046000000,METAR SBSP 121500Z 27004KT 200V320 CAVOK 16/M01 Q1021=,SBSP,2022-06-12 15:00:00
1655049600000,METAR SBSP 121600Z 22007KT 180V250 CAVOK 16/00 Q1020=,SBSP,2022-06-12 16:00:00
1655053200000,METAR SBSP 121700Z VRB03KT CAVOK 16/01 Q1019=,SBSP,2022-06-12 17:00:00
1655056800000,METAR SBSP 121800Z 33007KT 290V360 CAVOK 17/02 Q1019=,SBSP,2022-06-12 18:00:00
1655060400000,METAR SBSP 121900Z 33008KT CAVOK 17/05 Q1019=,SBSP,2022-06-12 19:00:00
1655064000000,METAR SBSP 122000Z 24005KT 150V310 CAVOK 17/05 Q1020=,SBSP,2022-06-12 20:00:00
1655067600000,METAR SBSP 122100Z 18008KT 150V210 CAVOK 13/04 Q1020=,SBSP,2022-06-12 21:00:00
1655071200000,METAR SBSP 122200Z 18007KT 160V220 CAVOK 12/06 Q1021=,SBSP,2022-06-12 22:00:00
1655074800000,METAR SBSP 122300Z 19006KT 160V230 CAVOK 11/07 Q1022=,SBSP,2022-06-12 23:00:00
1654992000000,METAR SBSV 120000Z 12010KT CAVOK 27/21 Q1015=,SBSV,2022-06-12 00:00:00
1654995600000,METAR SBSV 120100Z 11008KT CAVOK 27/21 Q1015=,SBSV,2022-06-12 01:00:00
1654999200000,METAR SBSV 120200Z 09009KT CAVOK 27/22 Q1015=,SBSV,2022-06-12 02:00:00
1655002800000,METAR SBSV 120300Z 10007KT CAVOK 27/22 Q1015=,SBSV,2022-06-12 03:00:00
1655006400000,METAR SBSV 120400Z 11005KT 9999 FEW023 BKN100 27/22 Q1014=,SBSV,2022-06-12 04:00:00
1655010000000,METAR SBSV 120500Z 12004KT 9999 FEW023 SCT100 27/22 Q1014=,SBSV,2022-06-12 05:00:00
1655013600000,METAR SBSV 120600Z 14004KT 9999 FEW023 SCT100 27/22 Q1014=,SBSV,2022-06-12 06:00:00
1655017200000,METAR SBSV 120700Z 14004KT 9999 SCT023 SCT100 27/22 Q1014=,SBSV,2022-06-12 07:00:00
1655020800000,METAR SBSV 120800Z 15005KT 9999 SCT023 SCT070 27/22 Q1014=,SBSV,2022-06-12 08:00:00
1655024400000,METAR SBSV 120900Z 14005KT 9999 SCT023 SCT044 27/22 Q1014=,SBSV,2022-06-12 09:00:00
1655028000000,METAR SBSV 121000Z 13007KT 9999 SCT023 FEW025TCU BKN050 27/22 Q1015=,SBSV,2022-06-12 10:00:00
1655031600000,METAR SBSV 121100Z 13006KT 090V160 9999 SCT020 FEW023TCU BKN060 28/21 Q1016=,SBSV,2022-06-12 11:00:00
1655035200000,METAR SBSV 121200Z 12007KT 090V150 9999 SCT020 FEW023TCU BKN080 28/22 Q1016=,SBSV,2022-06-12 12:00:00
1655038800000,METAR SBSV 121300Z 13008KT 100V160 9999 SCT020 FEW023TCU BKN100 28/21 Q1017=,SBSV,2022-06-12 13:00:00
1655042400000,METAR SBSV 121400Z 13008KT 090V170 9999 FEW023 BKN100 29/21 Q1016=,SBSV,2022-06-12 14:00:00
1655046000000,METAR SBSV 121500Z 13007KT 090V160 9999 FEW020 BKN100 29/22 Q1016=,SBSV,2022-06-12 15:00:00
1655049600000,METAR SBSV 121600Z 10007KT 060V150 9999 FEW023 BKN100 29/22 Q1015=,SBSV,2022-06-12 16:00:00
1655053200000,METAR SBSV 121700Z 11006KT 070V150 9999 FEW023 SCT100 29/22 Q1014=,SBSV,2022-06-12 17:00:00
1655056800000,METAR SBSV 121800Z 12005KT 9999 FEW023 SCT100 28/22 Q1013=,SBSV,2022-06-12 18:00:00
1655060400000,METAR SBSV 121900Z 12005KT 9999 FEW023 SCT100 28/22 Q1013=,SBSV,2022-06-12 19:00:00
1655064000000,METAR SBSV 122000Z 13005KT 9999 FEW023 SCT100 28/22 Q1014=,SBSV,2022-06-12 20:00:00
1655067600000,METAR SBSV 122100Z 12004KT 100V170 9999 FEW023 27/22 Q1014=,SBSV,2022-06-12 21:00:00
1655071200000,METAR SBSV 122200Z 13004KT 090V180 9999 FEW023 27/22 Q1015=,SBSV,2022-06-12 22:00:00
1655074800000,METAR SBSV 122300Z 14005KT CAVOK 27/22 Q1015=,SBSV,2022-06-12 23:00:00
1655078400000,METAR SBBR 130000Z 20007KT 9999 FEW045 20/15 Q1022=,SBBR,2022-06-13 00:00:00
1655082000000,METAR SBBR 130100Z 20006KT 9999 FEW045 19/15 Q1022=,SBBR,2022-06-13 01:00:00
1655085600000,METAR SBBR 130200Z 21004KT 9999 FEW045 SCT070 18/14 Q1022=,SBBR,2022-06-13 02:00:00
1655089200000,METAR SBBR 130300Z 15004KT 110V190 9999 FEW045 SCT070 18/14 Q1022=,SBBR,2022-06-13 03:00:00
1655092800000,METAR SBBR 130400Z 23003KT 170V260 9999 FEW045 SCT070 17/14 Q1022=,SBBR,2022-06-13 04:00:00
1655096400000,METAR SBBR 130500Z VRB02KT 9999 FEW045 SCT070 16/13 Q1021=,SBBR,2022-06-13 05:00:00
1655100000000,METAR SBBR 130600Z 23003KT 9999 FEW045 SCT070 16/13 Q1017=,SBBR,2022-06-13 06:00:00
1655103600000,METAR SBBR 130700Z VRB02KT 9999 FEW045 SCT070 16/13 Q1020=,SBBR,2022-06-13 07:00:00
1655107200000,METAR SBBR 130800Z 20003KT 9999 FEW045 SCT070 15/13 Q1021=,SBBR,2022-06-13 08:00:00
1655110800000,METAR SBBR 130900Z VRB01KT 9999 FEW045 SCT070 16/13 Q1021=,SBBR,2022-06-13 09:00:00
1655114400000,METAR SBBR 131000Z VRB01KT 9999 FEW045 BKN070 16/13 Q1021=,SBBR,2022-06-13 10:00:00
1655118000000,METAR SBBR 131100Z VRB02KT 9999 FEW045 SCT080 16/12 Q1022=,SBBR,2022-06-13 11:00:00
1655121600000,METAR SBBR 131200Z 19004KT 140V250 9999 FEW045 SCT090 19/12 Q1022=,SBBR,2022-06-13 12:00:00
1655125200000,METAR SBBR 131300Z VRB03KT 9999 FEW045 22/12 Q1022=,SBBR,2022-06-13 13:00:00
1655128800000,METAR SBBR 131400Z 02005KT 330V070 CAVOK 23/13 Q1022=,SBBR,2022-06-13 14:00:00
1655132400000,METAR SBBR 131500Z VRB07KT CAVOK 24/13 Q1021=,SBBR,2022-06-13 15:00:00
1655136000000,METAR SBBR 131600Z 04007KT 340V100 9999 FEW045 25/13 Q1021=,SBBR,2022-06-13 16:00:00
1655139600000,METAR SBBR 131700Z VRB04KT 9999 FEW045 26/14 Q1020=,SBBR,2022-06-13 17:00:00
1655143200000,METAR SBBR 131800Z 01003KT 260V070 9999 SCT040 27/13 Q1019=,SBBR,2022-06-13 18:00:00
1655146800000,METAR SBBR 131900Z VRB04KT 9999 FEW030 SCT080 26/13 Q1019=,SBBR,2022-06-13 19:00:00
1655150400000,METAR SBBR 132000Z 14003KT 9999 FEW030 SCT100 25/13 Q1020=,SBBR,2022-06-13 20:00:00
1655154000000,METAR SBBR 132100Z 21004KT 150V300 9999 FEW030 FEW035TCU BKN100 25/13 Q1020=,SBBR,2022-06-13 21:00:00
1655157600000,METAR SBBR 132200Z 27005KT 9999 FEW030 SCT100 22/15 Q1021=,SBBR,2022-06-13 22:00:00
1655161200000,METAR SBBR 132300Z 25001KT 9999 FEW030 SCT080 22/14 Q1021=,SBBR,2022-06-13 23:00:00
1655078400000,METAR SBCF 130000Z 18003KT CAVOK 19/13 Q1020=,SBCF,2022-06-13 00:00:00
1655082000000,METAR SBCF 130100Z 22003KT CAVOK 19/12 Q1021=,SBCF,2022-06-13 01:00:00
1655085600000,METAR SBCF 130200Z 19003KT CAVOK 18/11 Q1020=,SBCF,2022-06-13 02:00:00
1655089200000,METAR SBCF 130300Z 22005KT CAVOK 16/11 Q1020=,SBCF,2022-06-13 03:00:00
1655092800000,METAR SBCF 130400Z 16005KT CAVOK 16/10 Q1020=,SBCF,2022-06-13 04:00:00
1655096400000,METAR SBCF 130500Z 16005KT CAVOK 15/09 Q1020=,SBCF,2022-06-13 05:00:00
1655100000000,METAR SBCF 130600Z 16005KT CAVOK 14/08 Q1019=,SBCF,2022-06-13 06:00:00
1655103600000,METAR SBCF 130700Z 14003KT CAVOK 15/08 Q1019=,SBCF,2022-06-13 07:00:00
1655107200000,METAR SBCF 130800Z 15003KT CAVOK 14/08 Q1020=,SBCF,2022-06-13 08:00:00
1655110800000,METAR SBCF 130900Z 18003KT CAVOK 13/08 Q1020=,SBCF,2022-06-13 09:00:00
1655114400000,METAR SBCF 131000Z 15005KT CAVOK 13/08 Q1021=,SBCF,2022-06-13 10:00:00
1655118000000,METAR SBCF 131100Z 15003KT CAVOK 14/09 Q1021=,SBCF,2022-06-13 11:00:00
1655121600000,METAR SBCF 131200Z 15007KT CAVOK 16/09 Q1022=,SBCF,2022-06-13 12:00:00
1655125200000,METAR SBCF 131300Z 12007KT CAVOK 19/11 Q1022=,SBCF,2022-06-13 13:00:00
1655128800000,METAR SBCF 131400Z 14005KT CAVOK 21/09 Q1022=,SBCF,2022-06-13 14:00:00
1655132400000,METAR SBCF 131500Z 19004KT CAVOK 22/08 Q1021=,SBCF,2022-06-13 15:00:00
1655136000000,METAR SBCF 131600Z 20003KT CAVOK 24/05 Q1020=,SBCF,2022-06-13 16:00:00
1655139600000,METAR SBCF 131700Z 15003KT CAVOK 25/01 Q1020=,SBCF,2022-06-13 17:00:00
1655143200000,METAR SBCF 131800Z 20005KT CAVOK 25/02 Q1020=,SBCF,2022-06-13 18:00:00
1655146800000,METAR SBCF 131900Z 19005KT CAVOK 25/03 Q1020=,SBCF,2022-06-13 19:00:00
1655150400000,METAR SBCF 132000Z 12004KT CAVOK 24/03 Q1020=,SBCF,2022-06-13 20:00:00
1655154000000,METAR SBCF 132100Z 11005KT CAVOK 21/06 Q1021=,SBCF,2022-06-13 21:00:00
1655157600000,METAR SBCF 132200Z 09010KT CAVOK 19/09 Q1021=,SBCF,2022-06-13 22:00:00
1655161200000,METAR SBCF 132300Z 11010KT CAVOK 17/10 Q1022=,SBCF,2022-06-13 23:00:00
1655078400000,METAR SBCT 130000Z VRB02KT CAVOK 07/01 Q1023=,SBCT,2022-06-13 00:00:00
1655082000000,METAR SBCT 130100Z VRB01KT CAVOK 06/01 Q1023=,SBCT,2022-06-13 01:00:00
1655085600000,METAR SBCT 130200Z VRB02KT CAVOK 04/01 Q1023=,SBCT,2022-06-13 02:00:00
1655089200000,METAR SBCT 130300Z 24003KT 200V260 CAVOK 06/01 Q1023=,SBCT,2022-06-13 03:00:00
1655092800000,METAR SBCT 130400Z 24005KT CAVOK 05/01 Q1023=,SBCT,2022-06-13 04:00:00
1655096400000,METAR SBCT 130500Z 27003KT CAVOK 04/01 Q1023=,SBCT,2022-06-13 05:00:00
1655100000000,METAR SBCT 130600Z 31002KT CAVOK 04/01 Q1023=,SBCT,2022-06-13 06:00:00
1655103600000,METAR SBCT 130700Z 32002KT CAVOK 03/01 Q1023=,SBCT,2022-06-13 07:00:00
1655107200000,METAR SBCT 130800Z 02001KT CAVOK 02/01 Q1023=,SBCT,2022-06-13 08:00:00
1655110800000,METAR SBCT 130900Z 04002KT CAVOK 01/01 Q1023=,SBCT,2022-06-13 09:00:00
1655114400000,METAR SBCT 131000Z 07001KT CAVOK 01/01 Q1024=,SBCT,2022-06-13 10:00:00
1655118000000,METAR SBCT 131100Z 10001KT CAVOK 02/01 Q1025=,SBCT,2022-06-13 11:00:00
1655121600000,METAR SBCT 131200Z 17001KT CAVOK 06/03 Q1025=,SBCT,2022-06-13 12:00:00
1655125200000,METAR SBCT 131300Z 21001KT CAVOK 09/03 Q1026=,SBCT,2022-06-13 13:00:00
1655128800000,METAR SBCT 131400Z 09004KT CAVOK 14/05 Q1025=,SBCT,2022-06-13 14:00:00
1655132400000,METAR SBCT 131500Z 12004KT CAVOK 16/07 Q1025=,SBCT,2022-06-13 15:00:00
1655136000000,METAR SBCT 131600Z 36004KT CAVOK 17/06 Q1024=,SBCT,2022-06-13 16:00:00
1655139600000,METAR SBCT 131700Z 09005KT CAVOK 17/07 Q1023=,SBCT,2022-06-13 17:00:00
1655143200000,METAR SBCT 131800Z 14008KT 090V170 CAVOK 18/07 Q1023=,SBCT,2022-06-13 18:00:00
1655146800000,METAR SBCT 131900Z 10008KT 070V140 CAVOK 16/08 Q1023=,SBCT,2022-06-13 19:00:00
1655150400000,METAR SBCT 132000Z 12008KT CAVOK 14/07 Q1024=,SBCT,2022-06-13 20:00:00
1655154000000,METAR SBCT 132100Z 11006KT CAVOK 11/07 Q1024=,SBCT,2022-06-13 21:00:00
1655157600000,METAR SBCT 132200Z 10005KT CAVOK 09/06 Q1025=,SBCT,2022-06-13 22:00:00
1655161200000,METAR SBCT 132300Z 08005KT CAVOK 08/06 Q1025=,SBCT,2022-06-13 23:00:00
1655078400000,METAR SBFL 130000Z VRB01KT CAVOK 11/08 Q1020=,SBFL,2022-06-13 00:00:00
1655082000000,METAR SBFL 130100Z 26002KT CAVOK 11/09 Q1020=,SBFL,2022-06-13 01:00:00
1655085600000,METAR SBFL 130200Z 26002KT CAVOK 11/09 Q1021=,SBFL,2022-06-13 02:00:00
1655089200000,METAR SBFL 130300Z 24002KT CAVOK 10/09 Q1021=,SBFL,2022-06-13 03:00:00
1655092800000,METAR SBFL 130400Z 32002KT CAVOK 10/08 Q1021=,SBFL,2022-06-13 04:00:00
1655096400000,METAR SBFL 130500Z 24003KT CAVOK 09/08 Q1021=,SBFL,2022-06-13 05:00:00
1655100000000,METAR SBFL 130600Z 23003KT CAVOK 09/08 Q1020=,SBFL,2022-06-13 06:00:00
1655103600000,METAR SBFL 130700Z 26002KT CAVOK 09/08 Q1020=,SBFL,2022-06-13 07:00:00
1655107200000,METAR SBFL 130800Z 25002KT CAVOK 09/08 Q1020=,SBFL,2022-06-13 08:00:00
1655110800000,METAR SBFL 130900Z 29004KT CAVOK 11/10 Q1021=,SBFL,2022-06-13 09:00:00
1655114400000,METAR SBFL 131000Z 25003KT 9999 SCT045 10/09 Q1022=,SBFL,2022-06-13 10:00:00
1655118000000,METAR SBFL 131100Z 24003KT CAVOK 12/11 Q1023=,SBFL,2022-06-13 11:00:00
1655121600000,METAR SBFL 131200Z 34004KT 9999 SCT040 14/11 Q1023=,SBFL,2022-06-13 12:00:00
1655125200000,METAR SBFL 131300Z 34005KT 9999 SCT033 16/12 Q1024=,SBFL,2022-06-13 13:00:00
1655128800000,METAR SBFL 131400Z VRB06KT 9999 FEW033 19/11 Q1023=,SBFL,2022-06-13 14:00:00
1655132400000,METAR SBFL 131500Z 19011KT 9999 FEW033 20/12 Q1023=,SBFL,2022-06-13 15:00:00
1655136000000,METAR SBFL 131600Z 16009KT 140V200 9999 FEW033 21/12 Q1022=,SBFL,2022-06-13 16:00:00
1655139600000,METAR SBFL 131700Z 18009KT 130V220 9999 FEW040 21/12 Q1022=,SBFL,2022-06-13 17:00:00
1655143200000,METAR SBFL 131800Z 14010KT 9999 FEW040 20/13 Q1022=,SBFL,2022-06-13 18:00:00
1655146800000,METAR SBFL 131900Z 12008KT 9999 FEW040 19/14 Q1022=,SBFL,2022-06-13 19:00:00
1655150400000,METAR SBFL 132000Z 14009KT 9999 FEW040 18/14 Q1022=,SBFL,2022-06-13 20:00:00
1655154000000,METAR SBFL 132100Z 15008KT 9999 FEW040 16/13 Q1022=,SBFL,2022-06-13 21:00:00
1655157600000,METAR SBFL 132200Z 14003KT 9999 FEW040 16/13 Q1023=,SBFL,2022-06-13 22:00:00
1655161200000,METAR SBFL 132300Z 12006KT 9999 FEW040 15/12 Q1024=,SBFL,2022-06-13 23:00:00
1655078400000,METAR SBGL 130000Z 24009KT 9999 BKN040 19/12 Q1019=,SBGL,2022-06-13 00:00:00
1655082000000,METAR SBGL 130100Z 24009KT 9999 BKN040 19/12 Q1020=,SBGL,2022-06-13 01:00:00
1655085600000,METAR SBGL 130200Z 24010KT 9999 BKN040 19/11 Q1020=,SBGL,2022-06-13 02:00:00
1655089200000,METAR SBGL 130300Z 26006KT 9999 BKN040 19/11 Q1020=,SBGL,2022-06-13 03:00:00
1655092800000,METAR SBGL 130400Z 28006KT 9999 BKN045 18/11 Q1020=,SBGL,2022-06-13 04:00:00
1655096400000,METAR SBGL 130500Z 29007KT 9999 FEW045 17/11 Q1020=,SBGL,2022-06-13 05:00:00
1655100000000,METAR SBGL 130600Z 28006KT 9999 FEW045 16/11 Q1019=,SBGL,2022-06-13 06:00:00
1655103600000,METAR SBGL 130700Z 26006KT CAVOK 16/11 Q1019=,SBGL,2022-06-13 07:00:00
1655107200000,METAR SBGL 130800Z 30007KT CAVOK 15/11 Q1019=,SBGL,2022-06-13 08:00:00
1655110800000,METAR SBGL 130900Z 33007KT 9999 SCT040 16/13 Q1020=,SBGL,2022-06-13 09:00:00
1655114400000,METAR SBGL 131000Z 32008KT 9999 SCT040 16/12 Q1021=,SBGL,2022-06-13 10:00:00
1655118000000,METAR SBGL 131100Z 30006KT 9999 FEW040 17/11 Q1021=,SBGL,2022-06-13 11:00:00
1655121600000,METAR SBGL 131200Z 34006KT 9999 FEW040 19/12 Q1022=,SBGL,2022-06-13 12:00:00
1655125200000,METAR SBGL 131300Z 30007KT 9999 FEW040 20/11 Q1022=,SBGL,2022-06-13 13:00:00
1655128800000,METAR SBGL 131400Z 28009KT 9999 FEW040 22/11 Q1022=,SBGL,2022-06-13 14:00:00
1655132400000,METAR SBGL 131500Z 28007KT 9999 FEW040 23/12 Q1022=,SBGL,2022-06-13 15:00:00
1655136000000,METAR SBGL 131600Z 29009KT 9999 FEW045 22/11 Q1020=,SBGL,2022-06-13 16:00:00
1655139600000,METAR COR SBGL 131700Z 26007KT 9999 FEW030 23/11 Q1020=,SBGL,2022-06-13 17:00:00
1655143200000,METAR SBGL 131800Z 26008KT 9999 FEW030 22/11 Q1020=,SBGL,2022-06-13 18:00:00
1655146800000,METAR SBGL 131900Z 25007KT CAVOK 22/11 Q1020=,SBGL,2022-06-13 19:00:00
1655150400000,METAR SBGL 132000Z 21007KT CAVOK 21/12 Q1021=,SBGL,2022-06-13 20:00:00
1655154000000,METAR SBGL 132100Z 21008KT 9999 FEW008 SCT070 20/13 Q1021=,SBGL,2022-06-13 21:00:00
1655157600000,METAR SBGL 132200Z 22006KT 9999 FEW008 BKN070 20/13 Q1021=,SBGL,2022-06-13 22:00:00
1655161200000,METAR SBGL 132300Z 27005KT 9999 FEW033 BKN070 20/13 Q1022=,SBGL,2022-06-13 23:00:00
1655078400000,METAR SBGR 130000Z 17001KT CAVOK 10/07 Q1022=,SBGR,2022-06-13 00:00:00
1655082000000,METAR SBGR 130100Z 14001KT CAVOK 09/07 Q1023=,SBGR,2022-06-13 01:00:00
1655085600000,METAR SBGR 130200Z 15001KT CAVOK 09/06 Q1023=,SBGR,2022-06-13 02:00:00
1655089200000,METAR SBGR 130300Z 00000KT CAVOK 07/06 Q1023=,SBGR,2022-06-13 03:00:00
1655092800000,METAR SBGR 130400Z 09002KT CAVOK 07/05 Q1023=,SBGR,2022-06-13 04:00:00
1655096400000,METAR SBGR 130500Z 10002KT CAVOK 06/05 Q1022=,SBGR,2022-06-13 05:00:00
1655100000000,METAR SBGR 130600Z 08002KT CAVOK 06/05 Q1022=,SBGR,2022-06-13 06:00:00
1655103600000,METAR SBGR 130700Z 09002KT CAVOK 06/05 Q1022=,SBGR,2022-06-13 07:00:00
1655107200000,METAR SBGR 130800Z 00000KT CAVOK 05/04 Q1022=,SBGR,2022-06-13 08:00:00
1655110800000,METAR SBGR 130900Z 15002KT CAVOK 05/04 Q1023=,SBGR,2022-06-13 09:00:00
1655114400000,METAR SBGR 131000Z 11002KT CAVOK 05/04 Q1023=,SBGR,2022-06-13 10:00:00
1655118000000,METAR SBGR 131100Z 08001KT CAVOK 06/05 Q1024=,SBGR,2022-06-13 11:00:00
1655121600000,METAR SBGR 131200Z 05003KT 020V090 CAVOK 10/06 Q1025=,SBGR,2022-06-13 12:00:00
1655125200000,METAR SBGR 131300Z 08005KT 020V140 CAVOK 13/04 Q1025=,SBGR,2022-06-13 13:00:00
1655128800000,METAR SBGR 131400Z 09006KT CAVOK 14/06 Q1025=,SBGR,2022-06-13 14:00:00
1655132400000,METAR SBGR 131500Z 10005KT CAVOK 15/07 Q1025=,SBGR,2022-06-13 15:00:00
1655136000000,METAR SBGR 131600Z 11005KT CAVOK 16/07 Q1024=,SBGR,2022-06-13 16:00:00
1655139600000,METAR SBGR 131700Z 10005KT CAVOK 17/08 Q1023=,SBGR,2022-06-13 17:00:00
1655143200000,METAR SBGR 131800Z 14006KT 110V190 9999 FEW025 18/08 Q1023=,SBGR,2022-06-13 18:00:00
1655146800000,METAR SBGR 131900Z 16004KT 9999 FEW025 18/09 Q1022=,SBGR,2022-06-13 19:00:00
1655150400000,METAR COR SBGR 132000Z 09004KT CAVOK 22/02 Q1020=,SBGR,2022-06-13 20:00:00
1655154000000,METAR SBGR 132100Z 16009KT CAVOK 14/09 Q1023=,SBGR,2022-06-13 21:00:00
1655157600000,METAR SBGR 132200Z 16007KT CAVOK 12/09 Q1024=,SBGR,2022-06-13 22:00:00
1655160300000,SPECI SBGR 132245Z 16006KT 9999 BKN011 11/10 Q1025=,SBGR,2022-06-13 22:45:00
1655161200000,METAR SBGR 132300Z 16006KT 9999 BKN011 12/09 Q1025=,SBGR,2022-06-13 23:00:00
1655078400000,METAR SBKP 130000Z 10003KT CAVOK 12/04 Q1022=,SBKP,2022-06-13 00:00:00
1655082000000,METAR SBKP 130100Z 13006KT CAVOK 11/06 Q1022=,SBKP,2022-06-13 01:00:00
1655085600000,METAR SBKP 130200Z 14005KT CAVOK 11/06 Q1022=,SBKP,2022-06-13 02:00:00
1655089200000,METAR SBKP 130300Z 13007KT CAVOK 10/07 Q1022=,SBKP,2022-06-13 03:00:00
1655092800000,METAR SBKP 130400Z 12007KT CAVOK 10/06 Q1022=,SBKP,2022-06-13 04:00:00
1655096400000,METAR SBKP 130500Z 12008KT CAVOK 10/06 Q1022=,SBKP,2022-06-13 05:00:00
1655100000000,METAR SBKP 130600Z 12008KT CAVOK 09/05 Q1022=,SBKP,2022-06-13 06:00:00
1655103600000,METAR SBKP 130700Z 12007KT CAVOK 09/04 Q1021=,SBKP,2022-06-13 07:00:00
1655107200000,METAR SBKP 130800Z 13008KT CAVOK 09/03 Q1021=,SBKP,2022-06-13 08:00:00
1655110800000,METAR SBKP 130900Z 14007KT CAVOK 08/03 Q1021=,SBKP,2022-06-13 09:00:00
1655114400000,METAR SBKP 131000Z 13011KT CAVOK 09/03 Q1022=,SBKP,2022-06-13 10:00:00
1655118000000,METAR SBKP 131100Z 14010KT CAVOK 10/04 Q1023=,SBKP,2022-06-13 11:00:00
1655121600000,METAR SBKP 131200Z 14013KT CAVOK 12/04 Q1023=,SBKP,2022-06-13 12:00:00
1655125200000,METAR SBKP 131300Z 14018KT CAVOK 14/04 Q1024=,SBKP,2022-06-13 13:00:00
1655128800000,METAR SBKP 131400Z 13015KT CAVOK 16/05 Q1024=,SBKP,2022-06-13 14:00:00
1655132400000,METAR SBKP 131500Z 15015KT CAVOK 17/06 Q1023=,SBKP,2022-06-13 15:00:00
1655136000000,METAR SBKP 131600Z 15013KT CAVOK 18/07 Q1023=,SBKP,2022-06-13 16:00:00
1655139600000,METAR SBKP 131700Z 12010KT CAVOK 18/06 Q1022=,SBKP,2022-06-13 17:00:00
1655143200000,METAR SBKP 131800Z 13010KT CAVOK 20/06 Q1021=,SBKP,2022-06-13 18:00:00
1655146800000,METAR SBKP 131900Z 12011KT CAVOK 20/07 Q1021=,SBKP,2022-06-13 19:00:00
1655150400000,METAR SBKP 132000Z 12009KT CAVOK 19/07 Q1021=,SBKP,2022-06-13 20:00:00
1655154000000,METAR SBKP 132100Z 15010KT CAVOK 17/08 Q1022=,SBKP,2022-06-13 21:00:00
1655157600000,METAR SBKP 132200Z 15006KT CAVOK 16/08 Q1022=,SBKP,2022-06-13 22:00:00
1655161200000,METAR SBKP 132300Z 14011KT CAVOK 15/08 Q1023=,SBKP,2022-06-13 23:00:00
1655078400000,METAR SBPA 130000Z VRB01KT 9999 BKN035 11/07 Q1024=,SBPA,2022-06-13 00:00:00
1655082000000,METAR SBPA 130100Z VRB02KT 9999 BKN040 11/06 Q1024=,SBPA,2022-06-13 01:00:00
1655085600000,METAR SBPA 130200Z 30003KT 9999 BKN040 11/06 Q1024=,SBPA,2022-06-13 02:00:00
1655089200000,METAR SBPA 130300Z 28004KT 9999 OVC036 11/06 Q1024=,SBPA,2022-06-13 03:00:00
1655092800000,METAR SBPA 130400Z 27005KT 9999 OVC035 11/06 Q1024=,SBPA,2022-06-13 04:00:00
1655096400000,METAR SBPA 130500Z 32002KT 9999 OVC030 11/06 Q1024=,SBPA,2022-06-13 05:00:00
1655100000000,METAR SBPA 130600Z 27004KT 9999 OVC033 11/06 Q1024=,SBPA,2022-06-13 06:00:00
1655103600000,METAR SBPA 130700Z 28004KT 9999 OVC033 11/07 Q1024=,SBPA,2022-06-13 07:00:00
1655107200000,METAR SBPA 130800Z 27006KT 9999 OVC030 10/06 Q1024=,SBPA,2022-06-13 08:00:00
1655110800000,METAR SBPA 130900Z 28007KT 9999 OVC026 10/06 Q1024=,SBPA,2022-06-13 09:00:00
1655114400000,METAR SBPA 131000Z 28005KT 9999 OVC026 10/07 Q1024=,SBPA,2022-06-13 10:00:00
1655118000000,METAR SBPA 131100Z 28007KT 9999 BKN023 BKN032 11/06 Q1025=,SBPA,2022-06-13 11:00:00
1655121600000,METAR SBPA 131200Z 29007KT 260V320 9999 SCT021 BKN030 11/07 Q1026=,SBPA,2022-06-13 12:00:00
1655125200000,METAR SBPA 131300Z 29005G15KT 260V340 9999 SCT019 BKN027 12/07 Q1026=,SBPA,2022-06-13 13:00:00
1655128800000,METAR SBPA 131400Z 28005KT 250V330 9999 SCT015 BKN025 13/08 Q1026=,SBPA,2022-06-13 14:00:00
1655132400000,METAR SBPA 131500Z 29006KT 250V320 9999 BKN019 BKN027 15/09 Q1026=,SBPA,2022-06-13 15:00:00
1655136000000,METAR SBPA 131600Z 29006KT 240V330 9999 BKN019 OVC027 15/09 Q1025=,SBPA,2022-06-13 16:00:00
1655139600000,METAR SBPA 131700Z 32006KT 270V360 9999 BKN020 OVC027 15/10 Q1025=,SBPA,2022-06-13 17:00:00
1655143200000,METAR SBPA 131800Z 25003KT 210V320 9999 BKN021 15/10 Q1024=,SBPA,2022-06-13 18:00:00
1655146800000,METAR SBPA 131900Z VRB01KT 9999 BKN023 16/10 Q1024=,SBPA,2022-06-13 19:00:00
1655150400000,METAR SBPA 132000Z 14003KT 100V270 9999 SCT023 16/11 Q1024=,SBPA,2022-06-13 20:00:00
1655154000000,METAR SBPA 132100Z 15004KT 9999 SCT033 14/11 Q1024=,SBPA,2022-06-13 21:00:00
1655157600000,METAR SBPA 132200Z 09002KT 9999 BKN023 13/11 Q1024=,SBPA,2022-06-13 22:00:00
1655161200000,METAR SBPA 132300Z 16005KT 9999 FEW023 14/11 Q1024=,SBPA,2022-06-13 23:00:00
1655078400000,METAR SBRF 130000Z 14006KT 9999 SCT016 26/23 Q1015=,SBRF,2022-06-13 00:00:00
1655082000000,METAR SBRF 130100Z 14006KT 9999 FEW017 26/23 Q1015=,SBRF,2022-06-13 01:00:00
1655085600000,METAR SBRF 130200Z 21003KT 9999 BKN017 25/23 Q1015=,SBRF,2022-06-13 02:00:00
1655089200000,METAR SBRF 130300Z 23003KT 9999 BKN018 25/23 Q1015=,SBRF,2022-06-13 03:00:00
1655092800000,METAR SBRF 130400Z 00000KT 9999 FEW018 24/23 Q1014=,SBRF,2022-06-13 04:00:00
1655096400000,METAR SBRF 130500Z 26002KT 9999 FEW018 24/23 Q1014=,SBRF,2022-06-13 05:00:00
1655100000000,METAR SBRF 130600Z 35002KT CAVOK 23/23 Q1014=,SBRF,2022-06-13 06:00:00
1655103600000,METAR SBRF 130700Z 24001KT CAVOK 23/22 Q1014=,SBRF,2022-06-13 07:00:00
1655107200000,METAR SBRF 130800Z 03002KT 9999 FEW017 22/22 Q1014=,SBRF,2022-06-13 08:00:00
1655110800000,METAR SBRF 130900Z 36001KT 6000 FEW011 22/22 Q1014=,SBRF,2022-06-13 09:00:00
1655114400000,METAR SBRF 131000Z 00000KT 7000 FEW015 25/23 Q1015=,SBRF,2022-06-13 10:00:00
1655118000000,METAR SBRF 131100Z 25001KT 9999 FEW018 FEW020TCU 27/24 Q1016=,SBRF,2022-06-13 11:00:00
1655121600000,METAR SBRF 131200Z 00000KT 9999 SCT018 FEW020TCU 27/23 Q1016=,SBRF,2022-06-13 12:00:00
1655125200000,METAR SBRF 131300Z 11005KT 9999 SCT018 FEW020TCU 28/22 Q1016=,SBRF,2022-06-13 13:00:00
1655128800000,METAR SBRF 131400Z 13006KT 9999 SCT018 FEW020TCU 29/22 Q1015=,SBRF,2022-06-13 14:00:00
1655132400000,METAR SBRF 131500Z 13006KT 9999 SCT020 FEW023TCU 29/20 Q1015=,SBRF,2022-06-13 15:00:00
1655136000000,METAR SBRF 131600Z 12007KT 9999 SCT020 FEW023TCU 28/21 Q1014=,SBRF,2022-06-13 16:00:00
1655139600000,METAR SBRF 131700Z 12006KT 9999 SCT020 FEW023TCU 28/23 Q1013=,SBRF,2022-06-13 17:00:00
1655143200000,METAR SBRF 131800Z 13006KT 9999 SCT022 28/22 Q1013=,SBRF,2022-06-13 18:00:00
1655146800000,METAR SBRF 131900Z 14006KT 9999 SCT022 28/23 Q1013=,SBRF,2022-06-13 19:00:00
1655150400000,METAR SBRF 132000Z 15005KT 9999 SCT022 27/23 Q1013=,SBRF,2022-06-13 20:00:00
1655154000000,METAR SBRF 132100Z 15005KT 9999 SCT020 27/23 Q1014=,SBRF,2022-06-13 21:00:00
1655157600000,METAR SBRF 132200Z 14005KT 9999 SCT020 27/23 Q1014=,SBRF,2022-06-13 22:00:00
1655161200000,METAR SBRF 132300Z 09004KT 9999 SCT024 27/22 Q1014=,SBRF,2022-06-13 23:00:00
1655078400000,METAR SBRJ 130000Z 22007KT 180V270 9999 FEW020 OVC045 19/13 Q1019=,SBRJ,2022-06-13 00:00:00
1655082000000,METAR SBRJ 130100Z 23007KT 190V250 9999 OVC040 19/12 Q1019=,SBRJ,2022-06-13 01:00:00
1655085600000,METAR SBRJ 130200Z 24007KT 210V270 9999 OVC043 19/10 Q1019=,SBRJ,2022-06-13 02:00:00
1655110200000,SPECI SBRJ 130850Z 31007KT 9999 FEW040 18/11 Q1019=,SBRJ,2022-06-13 08:50:00
1655110800000,METAR SBRJ 130900Z 30006KT 9999 FEW040 18/12 Q1019=,SBRJ,2022-06-13 09:00:00
1655114400000,METAR SBRJ 131000Z 32006KT 9999 SCT040 17/11 Q1020=,SBRJ,2022-06-13 10:00:00
1655118000000,METAR SBRJ 131100Z 31007KT 9999 FEW040 18/11 Q1020=,SBRJ,2022-06-13 11:00:00
1655121600000,METAR SBRJ 131200Z 32008KT 9999 SCT040 19/12 Q1021=,SBRJ,2022-06-13 12:00:00
1655125200000,METAR SBRJ 131300Z 33009KT 9999 SCT035 20/14 Q1021=,SBRJ,2022-06-13 13:00:00
1655128800000,METAR SBRJ 131400Z 27007KT 9999 SCT035 21/12 Q1021=,SBRJ,2022-06-13 14:00:00
1655132400000,METAR SBRJ 131500Z 31008KT 9999 FEW035 22/12 Q1021=,SBRJ,2022-06-13 15:00:00
1655136000000,METAR SBRJ 131600Z 28007KT 9999 FEW035 22/12 Q1020=,SBRJ,2022-06-13 16:00:00
1655139600000,METAR SBRJ 131700Z 31008KT 9999 FEW045 23/12 Q1020=,SBRJ,2022-06-13 17:00:00
1655143200000,METAR SBRJ 131800Z 22009KT 9999 SCT045 22/13 Q1020=,SBRJ,2022-06-13 18:00:00
1655146800000,METAR SBRJ 131900Z 19008KT 9999 FEW030 SCT060 21/13 Q1020=,SBRJ,2022-06-13 19:00:00
1655150400000,METAR SBRJ 132000Z 23007KT 9999 FEW020 BKN050 21/13 Q1020=,SBRJ,2022-06-13 20:00:00
1655154000000,METAR SBRJ 132100Z 21004KT 9999 FEW020 BKN050 21/14 Q1020=,SBRJ,2022-06-13 21:00:00
1655157600000,METAR SBRJ 132200Z 24008KT 9999 FEW020 BKN050 21/14 Q1021=,SBRJ,2022-06-13 22:00:00
1655161200000,METAR SBRJ 132300Z 27007KT 220V300 9999 FEW015 SCT030 BKN070 21/15 Q1021=,SBRJ,2022-06-13 23:00:00
1655078400000,METAR SBSP 130000Z 22006KT 180V250 CAVOK 11/05 Q1023=,SBSP,2022-06-13 00:00:00
1655082000000,METAR SBSP 130100Z 20003KT 130V260 CAVOK 11/04 Q1023=,SBSP,2022-06-13 01:00:00
1655085600000,METAR SBSP 130200Z 19004KT 160V230 CAVOK 10/03 Q1023=,SBSP,2022-06-13 02:00:00
1655085660000,SPECI SBSP 130201Z 19004KT CAVOK 10/03 Q1023=,SBSP,2022-06-13 02:01:00
1655089200000,METAR SBSP 130300Z AUTO 19004KT CAVOK 10/02 Q1023=,SBSP,2022-06-13 03:00:00
1655092800000,METAR SBSP 130400Z AUTO 16002KT CAVOK 09/03 Q1023=,SBSP,2022-06-13 04:00:00
1655096400000,METAR SBSP 130500Z AUTO 15001KT CAVOK 09/03 Q1023=,SBSP,2022-06-13 05:00:00
1655100000000,METAR SBSP 130600Z AUTO 14002KT CAVOK 09/03 Q1023=,SBSP,2022-06-13 06:00:00
1655103600000,METAR SBSP 130700Z AUTO 18002KT CAVOK 09/02 Q1022=,SBSP,2022-06-13 07:00:00
1655107200000,METAR SBSP 130800Z AUTO 00000KT CAVOK 08/02 Q1022=,SBSP,2022-06-13 08:00:00
1655110800000,METAR SBSP 130900Z 18004KT CAVOK 07/02 Q1023=,SBSP,2022-06-13 09:00:00
1655114400000,METAR SBSP 131000Z 12002KT CAVOK 08/03 Q1024=,SBSP,2022-06-13 10:00:00
1655118000000,METAR SBSP 131100Z 15006KT CAVOK 09/04 Q1024=,SBSP,2022-06-13 11:00:00
1655121600000,METAR SBSP 131200Z 14007KT CAVOK 11/03 Q1025=,SBSP,2022-06-13 12:00:00
1655125200000,METAR SBSP 131300Z 14009KT CAVOK 13/03 Q1025=,SBSP,2022-06-13 13:00:00
1655128800000,METAR SBSP 131400Z 16008KT CAVOK 14/05 Q1025=,SBSP,2022-06-13 14:00:00
1655132400000,METAR SBSP 131500Z 15006KT CAVOK 15/06 Q1025=,SBSP,2022-06-13 15:00:00
1655136000000,METAR SBSP 131600Z 17009KT CAVOK 16/07 Q1024=,SBSP,2022-06-13 16:00:00
1655139600000,METAR SBSP 131700Z 16008KT 110V200 CAVOK 16/08 Q1024=,SBSP,2022-06-13 17:00:00
1655143200000,METAR SBSP 131800Z 15006KT 100V210 CAVOK 17/08 Q1023=,SBSP,2022-06-13 18:00:00
1655146800000,METAR SBSP 131900Z 15009KT CAVOK 16/07 Q1024=,SBSP,2022-06-13 19:00:00
1655150400000,METAR SBSP 132000Z 15010KT CAVOK 14/08 Q1024=,SBSP,2022-06-13 20:00:00
1655154000000,METAR SBSP 132100Z 15009KT CAVOK 12/08 Q1024=,SBSP,2022-06-13 21:00:00
1655157600000,METAR SBSP 132200Z 16012KT 9999 BKN010 11/09 Q1025=,SBSP,2022-06-13 22:00:00
1655161200000,METAR SBSP 132300Z 17009KT 9999 BKN009 11/09 Q1025=,SBSP,2022-06-13 23:00:00
1655078400000,METAR SBSV 130000Z 14003KT CAVOK 27/22 Q1015=,SBSV,2022-06-13 00:00:00
1655082000000,METAR COR SBSV 130100Z 13004KT CAVOK 27/22 Q1015=,SBSV,2022-06-13 01:00:00
1655085600000,METAR SBSV 130200Z 14004KT 9999 FEW020 27/22 Q1015=,SBSV,2022-06-13 02:00:00
1655089200000,METAR SBSV 130300Z 13005KT 9999 FEW020 27/21 Q1015=,SBSV,2022-06-13 03:00:00
1655092800000,METAR SBSV 130400Z 17001KT 9999 FEW020 25/22 Q1015=,SBSV,2022-06-13 04:00:00
1655096400000,METAR SBSV 130500Z 00000KT 9999 FEW020 24/22 Q1014=,SBSV,2022-06-13 05:00:00
1655100000000,METAR SBSV 130600Z 29003KT 9999 FEW020 24/22 Q1014=,SBSV,2022-06-13 06:00:00
1655103600000,METAR SBSV 130700Z 00000KT 9999 FEW020 24/22 Q1014=,SBSV,2022-06-13 07:00:00
1655107200000,METAR SBSV 130800Z 30001KT 9999 FEW020 24/22 Q1014=,SBSV,2022-06-13 08:00:00
1655110800000,METAR SBSV 130900Z 28002KT 9999 SCT020 FEW023TCU 24/22 Q1015=,SBSV,2022-06-13 09:00:00
1655114400000,METAR SBSV 131000Z 27001KT 9999 SCT020 25/23 Q1015=,SBSV,2022-06-13 10:00:00
1655118000000,METAR SBSV 131100Z 31001KT 9999 FEW020 28/23 Q1016=,SBSV,2022-06-13 11:00:00
1655121600000,METAR SBSV 131200Z 10005KT 9999 SCT020 29/22 Q1016=,SBSV,2022-06-13 12:00:00
1655125200000,METAR SBSV 131300Z 13006KT 9999 SCT020 29/23 Q1016=,SBSV,2022-06-13 13:00:00
1655128800000,METAR SBSV 131400Z 12008KT 9999 SCT020 30/23 Q1016=,SBSV,2022-06-13 14:00:00
1655132400000,METAR SBSV 131500Z 15007KT 9999 SCT020 29/24 Q1016=,SBSV,2022-06-13 15:00:00
1655136000000,METAR SBSV 131600Z 14007KT 9999 SCT020 29/23 Q1015=,SBSV,2022-06-13 16:00:00
1655139600000,METAR SBSV 131700Z 13007KT 9999 SCT020 29/23 Q1014=,SBSV,2022-06-13 17:00:00
1655143200000,METAR SBSV 131800Z 15009KT 9999 SCT017 29/24 Q1014=,SBSV,2022-06-13 18:00:00
1655146800000,METAR SBSV 131900Z 16011KT 9999 SCT020 28/22 Q1014=,SBSV,2022-06-13 19:00:00
1655150400000,METAR SBSV 132000Z 17010KT 9999 SCT023 28/22 Q1015=,SBSV,2022-06-13 20:00:00
1655154000000,METAR SBSV 132100Z 16012KT 9999 SCT020 28/22 Q1015=,SBSV,2022-06-13 21:00:00
1655157600000,METAR SBSV 132200Z 16010KT 9999 SCT023 28/22 Q1016=,SBSV,2022-06-13 22:00:00
1655161200000,METAR SBSV 132300Z 16010KT 9999 SCT023 27/21 Q1016=,SBSV,2022-06-13 23:00:00
1655164800000,METAR SBBR 140000Z 16004KT 120V190 9999 FEW030 SCT080 22/14 Q1021=,SBBR,2022-06-14 00:00:00
1655168400000,METAR SBBR 140100Z 14005KT CAVOK 21/13 Q1021=,SBBR,2022-06-14 01:00:00
1655172000000,METAR SBBR 140200Z 15004KT CAVOK 20/13 Q1021=,SBBR,2022-06-14 02:00:00
1655175600000,METAR SBBR 140300Z 15004KT CAVOK 20/13 Q1021=,SBBR,2022-06-14 03:00:00
1655179200000,METAR SBBR 140400Z 12004KT CAVOK 18/12 Q1021=,SBBR,2022-06-14 04:00:00
1655182800000,METAR SBBR 140500Z VRB01KT CAVOK 17/12 Q1020=,SBBR,2022-06-14 05:00:00
1655186400000,METAR SBBR 140600Z 28004KT CAVOK 15/12 Q1020=,SBBR,2022-06-14 06:00:00
1655190000000,METAR SBBR 140700Z 00000KT CAVOK 15/12 Q1020=,SBBR,2022-06-14 07:00:00
1655193600000,METAR SBBR 140800Z 00000KT CAVOK 14/12 Q1020=,SBBR,2022-06-14 08:00:00
1655197200000,METAR SBBR 140900Z 14004KT CAVOK 17/09 Q1020=,SBBR,2022-06-14 09:00:00
1655200800000,METAR SBBR 141000Z 12004KT 100V160 CAVOK 17/08 Q1021=,SBBR,2022-06-14 10:00:00
1655204400000,METAR SBBR 141100Z VRB02KT CAVOK 17/10 Q1021=,SBBR,2022-06-14 11:00:00
1655208000000,METAR SBBR 141200Z 10005KT CAVOK 20/08 Q1022=,SBBR,2022-06-14 12:00:00
1655211600000,METAR SBBR 141300Z 10008KT CAVOK 22/08 Q1022=,SBBR,2022-06-14 13:00:00
1655215200000,METAR SBBR 141400Z 10010KT CAVOK 23/10 Q1022=,SBBR,2022-06-14 14:00:00
1655218800000,METAR SBBR 141500Z 07008KT 030V100 CAVOK 24/11 Q1022=,SBBR,2022-06-14 15:00:00
1655222400000,METAR SBBR 141600Z 08008KT CAVOK 26/12 Q1021=,SBBR,2022-06-14 16:00:00
1655226000000,METAR SBBR 141700Z 09007KT 020V160 CAVOK 27/12 Q1020=,SBBR,2022-06-14 17:00:00
1655229600000,METAR SBBR 141800Z 05009KT 9999 FEW035 27/13 Q1019=,SBBR,2022-06-14 18:00:00
1655233200000,METAR SBBR 141900Z 10008KT 9999 SCT035 26/13 Q1019=,SBBR,2022-06-14 19:00:00
1655236800000,METAR SBBR 142000Z 10009KT 9999 SCT040 SCT070 26/13 Q1019=,SBBR,2022-06-14 20:00:00
1655240400000,METAR SBBR 142100Z 12006KT 9999 FEW045 BKN080 25/14 Q1020=,SBBR,2022-06-14 21:00:00
1655244000000,METAR SBBR 142200Z 12006KT 9999 FEW045 BKN080 24/05 Q1021=,SBBR,2022-06-14 22:00:00
1655247600000,METAR SBBR 142300Z 08004KT 9999 FEW045 BKN080 22/14 Q1021=,SBBR,2022-06-14 23:00:00
1655164800000,METAR SBCF 140000Z 11009KT CAVOK 16/08 Q1022=,SBCF,2022-06-14 00:00:00
1655168400000,METAR SBCF 140100Z 13008KT CAVOK 15/08 Q1022=,SBCF,2022-06-14 01:00:00
1655172000000,METAR SBCF 140200Z 11010KT CAVOK 15/07 Q1023=,SBCF,2022-06-14 02:00:00
1655175600000,METAR SBCF 140300Z 12008KT CAVOK 14/07 Q1023=,SBCF,2022-06-14 03:00:00
1655179200000,METAR SBCF 140400Z 12010KT CAVOK 13/06 Q1022=,SBCF,2022-06-14 04:00:00
1655182800000,METAR SBCF 140500Z 13008KT CAVOK 12/06 Q1022=,SBCF,2022-06-14 05:00:00
1655186400000,METAR SBCF 140600Z 13008KT CAVOK 11/06 Q1021=,SBCF,2022-06-14 06:00:00
1655190000000,METAR SBCF 140700Z 13009KT CAVOK 11/06 Q1021=,SBCF,2022-06-14 07:00:00
1655193600000,METAR SBCF 140800Z 12009KT CAVOK 11/06 Q1022=,SBCF,2022-06-14 08:00:00
1655197200000,METAR SBCF 140900Z 13009KT CAVOK 11/06 Q1022=,SBCF,2022-06-14 09:00:00
1655200800000,METAR SBCF 141000Z 13008KT CAVOK 11/06 Q1023=,SBCF,2022-06-14 10:00:00
1655204400000,METAR SBCF 141100Z 12008KT CAVOK 12/07 Q1023=,SBCF,2022-06-14 11:00:00
1655208000000,METAR SBCF 141200Z 11010KT CAVOK 16/08 Q1024=,SBCF,2022-06-14 12:00:00
1655211600000,METAR SBCF 141300Z 09009KT CAVOK 18/09 Q1024=,SBCF,2022-06-14 13:00:00
1655215200000,METAR SBCF 141400Z 10008KT CAVOK 20/09 Q1024=,SBCF,2022-06-14 14:00:00
1655218800000,METAR SBCF 141500Z 10007KT CAVOK 21/09 Q1023=,SBCF,2022-06-14 15:00:00
1655222400000,METAR SBCF 141600Z 09007KT CAVOK 22/10 Q1022=,SBCF,2022-06-14 16:00:00
1655226000000,METAR SBCF 141700Z 07007KT 040V110 CAVOK 22/10 Q1021=,SBCF,2022-06-14 17:00:00
1655229600000,METAR SBCF 141800Z VRB04KT CAVOK 23/10 Q1021=,SBCF,2022-06-14 18:00:00
1655233200000,METAR SBCF 141900Z 10007KT 080V160 CAVOK 22/10 Q1021=,SBCF,2022-06-14 19:00:00
1655236800000,METAR SBCF 142000Z 11010KT CAVOK 21/10 Q1022=,SBCF,2022-06-14 20:00:00
1655240400000,METAR SBCF 142100Z 09011KT CAVOK 20/10 Q1022=,SBCF,2022-06-14 21:00:00
1655244000000,METAR SBCF 142200Z 08010KT CAVOK 19/10 Q1022=,SBCF,2022-06-14 22:00:00
1655247600000,METAR SBCF 142300Z 09010KT CAVOK 18/10 Q1023=,SBCF,2022-06-14 23:00:00
1655164800000,METAR SBCT 140000Z 06003KT CAVOK 08/07 Q1025=,SBCT,2022-06-14 00:00:00
1655168400000,METAR SBCT 140100Z 06004KT 9999 BKN020 08/07 Q1025=,SBCT,2022-06-14 01:00:00
1655172000000,METAR SBCT 140200Z 14004KT 9999 SCT017 07/06 Q1025=,SBCT,2022-06-14 02:00:00
1655175600000,METAR SBCT 140300Z 09007KT 9999 OVC013 09/08 Q1025=,SBCT,2022-06-14 03:00:00
1655179200000,METAR SBCT 140400Z 10007KT 9999 OVC011 10/08 Q1025=,SBCT,2022-06-14 04:00:00
1655182800000,METAR SBCT 140500Z 11005KT 9999 OVC011 10/09 Q1025=,SBCT,2022-06-14 05:00:00
1655186400000,METAR SBCT 140600Z 16002KT 9999 BKN011 08/08 Q1024=,SBCT,2022-06-14 06:00:00
1655190000000,METAR SBCT 140700Z 14004KT 9999 BKN013 07/07 Q1023=,SBCT,2022-06-14 07:00:00
1655193600000,METAR SBCT 140800Z 11003KT 9999 MIFG BKN011 07/07 Q1023=,SBCT,2022-06-14 08:00:00
1655197200000,METAR SBCT 140900Z 11003KT 9999 BKN009 07/07 Q1024=,SBCT,2022-06-14 09:00:00
1655200800000,METAR SBCT 141000Z 00000KT 9999 BKN011 OVC020 07/07 Q1024=,SBCT,2022-06-14 10:00:00
1655204400000,METAR SBCT 141100Z 34001KT 9999 BKN014 OVC020 09/09 Q1025=,SBCT,2022-06-14 11:00:00
1655208000000,METAR SBCT 141200Z 08001KT 9999 BKN014 OVC020 11/10 Q1025=,SBCT,2022-06-14 12:00:00
1655211600000,METAR SBCT 141300Z 05003KT 9999 OVC014 12/10 Q1026=,SBCT,2022-06-14 13:00:00
1655215200000,METAR SBCT 141400Z 08007KT 9999 BKN012 OVC020 15/10 Q1025=,SBCT,2022-06-14 14:00:00
1655216400000,SPECI SBCT 141420Z 07008KT 9999 FEW014 BKN020 15/10 Q1025=,SBCT,2022-06-14 14:20:00
1655218800000,METAR SBCT 141500Z 09008KT 9999 OVC020 14/10 Q1025=,SBCT,2022-06-14 15:00:00
1655222400000,METAR SBCT 141600Z 07009KT 9999 OVC020 15/10 Q1024=,SBCT,2022-06-14 16:00:00
1655226000000,METAR SBCT 141700Z 10009KT 9999 BKN025 16/10 Q1023=,SBCT,2022-06-14 17:00:00
1655229600000,METAR SBCT 141800Z 09010KT 9999 OVC020 14/09 Q1023=,SBCT,2022-06-14 18:00:00
1655233200000,METAR SBCT 141900Z 08008KT 9999 OVC023 14/09 Q1023=,SBCT,2022-06-14 19:00:00
1655236800000,METAR SBCT 142000Z 08008KT 9999 OVC023 13/10 Q1023=,SBCT,2022-06-14 20:00:00
1655240400000,METAR SBCT 142100Z 07005KT 9999 OVC020 13/10 Q1023=,SBCT,2022-06-14 21:00:00
1655244000000,METAR SBCT 142200Z 07004KT 9999 OVC020 12/09 Q1024=,SBCT,2022-06-14 22:00:00
1655247600000,METAR SBCT 142300Z 07006KT 9999 OVC017 12/09 Q1024=,SBCT,2022-06-14 23:00:00
1655164800000,METAR SBFL 140000Z 18005KT 9999 SCT040 15/13 Q1024=,SBFL,2022-06-14 00:00:00
1655168400000,METAR SBFL 140100Z VRB03KT 9999 FEW040 14/12 Q1024=,SBFL,2022-06-14 01:00:00
1655172000000,METAR SBFL 140200Z VRB02KT 9999 FEW046 14/12 Q1024=,SBFL,2022-06-14 02:00:00
1655175600000,METAR SBFL 140300Z 26005KT 9999 FEW046 14/12 Q1024=,SBFL,2022-06-14 03:00:00
1655179200000,METAR SBFL 140400Z 30004KT 9999 FEW046 12/11 Q1024=,SBFL,2022-06-14 04:00:00
1655182800000,METAR SBFL 140500Z VRB02KT 9999 FEW046 12/11 Q1024=,SBFL,2022-06-14 05:00:00
1655186400000,METAR SBFL 140600Z VRB02KT 9999 FEW046 12/11 Q1023=,SBFL,2022-06-14 06:00:00
1655190000000,METAR SBFL 140700Z VRB01KT 9999 BKN046 13/11 Q1023=,SBFL,2022-06-14 07:00:00
1655193600000,METAR SBFL 140800Z VRB02KT 9999 BKN046 13/12 Q1023=,SBFL,2022-06-14 08:00:00
1655197200000,METAR SBFL 140900Z 26003KT 9999 BKN043 13/12 Q1023=,SBFL,2022-06-14 09:00:00
1655200800000,METAR SBFL 141000Z 19001KT 9999 BKN040 13/12 Q1024=,SBFL,2022-06-14 10:00:00
1655204400000,METAR SBFL 141100Z 01001KT 9999 BKN040 13/12 Q1024=,SBFL,2022-06-14 11:00:00
1655208000000,METAR SBFL 141200Z 28006KT 9999 OVC040 15/12 Q1024=,SBFL,2022-06-14 12:00:00
1655211600000,METAR SBFL 141300Z 29008KT 9999 OVC020 16/12 Q1024=,SBFL,2022-06-14 13:00:00
1655215200000,METAR SBFL 141400Z 32006KT 9999 BKN030 17/13 Q1024=,SBFL,2022-06-14 14:00:00
1655218800000,METAR SBFL 141500Z 35006KT 9999 BKN030 19/13 Q1023=,SBFL,2022-06-14 15:00:00
1655222400000,METAR SBFL 141600Z 35008KT 9999 BKN030 19/13 Q1023=,SBFL,2022-06-14 16:00:00
1655226000000,METAR SBFL 141700Z 01007KT 9999 BKN030 20/13 Q1022=,SBFL,2022-06-14 17:00:00
1655229600000,METAR SBFL 141800Z 34007KT 9999 SCT030 BKN045 20/13 Q1021=,SBFL,2022-06-14 18:00:00
1655233200000,METAR SBFL 141900Z 35004KT 9999 FEW030 BKN045 20/13 Q1021=,SBFL,2022-06-14 19:00:00
1655236800000,METAR SBFL 142000Z 02004KT 9999 FEW030 BKN045 19/13 Q1021=,SBFL,2022-06-14 20:00:00
1655240400000,METAR SBFL 142100Z 36005KT 9999 FEW030 BKN045 19/14 Q1021=,SBFL,2022-06-14 21:00:00
1655244000000,METAR SBFL 142200Z 01006KT 9999 FEW030 BKN045 18/14 Q1022=,SBFL,2022-06-14 22:00:00
1655247600000,METAR SBFL 142300Z 04002KT 9999 FEW030 BKN045 18/13 Q1022=,SBFL,2022-06-14 23:00:00
1655164800000,METAR SBGL 140000Z 34007KT 9999 BKN033 BKN070 19/14 Q1022=,SBGL,2022-06-14 00:00:00
1655168400000,METAR SBGL 140100Z 27005KT 9999 BKN026 BKN050 19/15 Q1022=,SBGL,2022-06-14 01:00:00
1655172000000,METAR SBGL 140200Z 34006KT 9999 BKN026 BKN050 19/14 Q1023=,SBGL,2022-06-14 02:00:00
1655175600000,METAR SBGL 140300Z 33007KT 9999 BKN030 BKN050 18/15 Q1022=,SBGL,2022-06-14 03:00:00
1655179200000,METAR SBGL 140400Z 31004KT 6000 -RA BKN023 BKN050 18/15 Q1022=,SBGL,2022-06-14 04:00:00
1655182800000,METAR SBGL 140500Z 29005KT 7000 BKN030 BKN036 18/16 Q1022=,SBGL,2022-06-14 05:00:00
1655186400000,METAR SBGL 140600Z 32005KT 7000 BKN023 BKN036 17/15 Q1022=,SBGL,2022-06-14 06:00:00
1655190000000,METAR SBGL 140700Z 34006KT 7000 BKN023 BKN036 17/15 Q1021=,SBGL,2022-06-14 07:00:00
1655193600000,METAR SBGL 140800Z 35006KT 6000 BKN023 BKN036 17/15 Q1021=,SBGL,2022-06-14 08:00:00
1655197200000,METAR SBGL 140900Z 31004KT 6000 BKN021 BKN026 17/15 Q1021=,SBGL,2022-06-14 09:00:00
1655198700000,SPECI SBGL 140925Z 30004KT 3500 -RA BR BKN009 OVC023 17/15 Q1022=,SBGL,2022-06-14 09:25:00
1655200800000,METAR SBGL 141000Z 32005KT 4000 -RA BR BKN010 OVC030 17/15 Q1022=,SBGL,2022-06-14 10:00:00
1655204400000,METAR SBGL 141100Z 28006KT 6000 BKN012 OVC035 17/15 Q1023=,SBGL,2022-06-14 11:00:00
1655208000000,METAR SBGL 141200Z 30006KT 5000 BR BKN011 OVC025 17/16 Q1023=,SBGL,2022-06-14 12:00:00
1655211600000,METAR SBGL 141300Z 31005KT 3000 -RA BR BKN008 OVC025 18/16 Q1023=,SBGL,2022-06-14 13:00:00
1655215200000,METAR SBGL 141400Z 33004KT 3000 -RA BR BKN007 OVC020 18/17 Q1024=,SBGL,2022-06-14 14:00:00
1655218800000,METAR SBGL 141500Z 33005KT 4000 -RA BR BKN012 OVC030 18/17 Q1023=,SBGL,2022-06-14 15:00:00
1655222400000,METAR SBGL 141600Z 32004KT 5000 BR BKN012 OVC035 19/17 Q1022=,SBGL,2022-06-14 16:00:00
1655226000000,METAR SBGL 141700Z 15002KT 6000 SCT013 OVC030 20/16 Q1022=,SBGL,2022-06-14 17:00:00
1655229600000,METAR SBGL 141800Z 27004KT 7000 SCT012 OVC030 20/17 Q1022=,SBGL,2022-06-14 18:00:00
1655233200000,METAR SBGL 141900Z 25003KT 8000 SCT012 BKN040 20/16 Q1021=,SBGL,2022-06-14 19:00:00
1655236800000,METAR SBGL 142000Z 24003KT 8000 SCT016 BKN040 19/17 Q1021=,SBGL,2022-06-14 20:00:00
1655240400000,METAR SBGL 142100Z 28005KT 9999 SCT020 BKN040 19/17 Q1022=,SBGL,2022-06-14 21:00:00
1655244000000,METAR SBGL 142200Z 22003KT 9999 FEW020 BKN040 19/16 Q1022=,SBGL,2022-06-14 22:00:00
1655247600000,METAR SBGL 142300Z 31002KT 9999 FEW008 SCT070 17/16 Q1022=,SBGL,2022-06-14 23:00:00
1655164800000,METAR SBGR 140000Z 14004KT 8000 BKN013 12/10 Q1025=,SBGR,2022-06-14 00:00:00
1655168400000,METAR SBGR 140100Z 14004KT 8000 OVC011 12/10 Q1025=,SBGR,2022-06-14 01:00:00
1655172000000,METAR SBGR 140200Z 13004KT 9999 OVC011 12/10 Q1025=,SBGR,2022-06-14 02:00:00
1655175600000,METAR SBGR 140300Z 11003KT 9999 OVC009 11/10 Q1025=,SBGR,2022-06-14 03:00:00
1655179200000,METAR SBGR 140400Z 05002KT 9999 OVC011 11/10 Q1025=,SBGR,2022-06-14 04:00:00
1655182800000,METAR SBGR 140500Z 12003KT 9000 SCT011 09/09 Q1024=,SBGR,2022-06-14 05:00:00
1655186400000,METAR SBGR 140600Z 13003KT 7000 SCT007 10/09 Q1024=,SBGR,2022-06-14 06:00:00
1655190000000,METAR SBGR 140700Z 10003KT 6000 OVC004 10/10 Q1024=,SBGR,2022-06-14 07:00:00
1655193600000,METAR SBGR 140800Z 09005KT 6000 OVC004 10/10 Q1023=,SBGR,2022-06-14 08:00:00
1655197200000,METAR SBGR 140900Z 09005KT 2300 BR OVC004 10/10 Q1023=,SBGR,2022-06-14 09:00:00
1655200800000,METAR SBGR 141000Z 06006KT 3500 BR OVC003 10/10 Q1024=,SBGR,2022-06-14 10:00:00
1655204400000,METAR SBGR 141100Z 06007KT 6000 SCT009 11/10 Q1024=,SBGR,2022-06-14 11:00:00
1655208000000,METAR SBGR 141200Z 06009KT 9999 SCT011 12/10 Q1025=,SBGR,2022-06-14 12:00:00
1655211600000,METAR SBGR 141300Z 06006KT 9999 SCT030 14/10 Q1025=,SBGR,2022-06-14 13:00:00
1655215200000,METAR SBGR 141400Z 04009KT 9999 SCT017 15/11 Q1025=,SBGR,2022-06-14 14:00:00
1655218800000,METAR SBGR 141500Z 07011KT 9999 SCT026 17/10 Q1024=,SBGR,2022-06-14 15:00:00
1655222400000,METAR SBGR 141600Z 08012KT 9999 SCT030 18/09 Q1023=,SBGR,2022-06-14 16:00:00
1655226000000,METAR SBGR 141700Z 06011KT 9999 SCT033 18/10 Q1023=,SBGR,2022-06-14 17:00:00
1655229600000,METAR SBGR 141800Z 12007KT 9999 SCT033 18/09 Q1022=,SBGR,2022-06-14 18:00:00
1655233200000,METAR SBGR 141900Z 10007KT CAVOK 18/10 Q1022=,SBGR,2022-06-14 19:00:00
1655236800000,METAR SBGR 142000Z 10007KT 070V140 9999 FEW040 17/10 Q1022=,SBGR,2022-06-14 20:00:00
1655240400000,METAR SBGR 142100Z 13005KT CAVOK 15/11 Q1023=,SBGR,2022-06-14 21:00:00
1655244000000,METAR SBGR 142200Z 13005KT 110V170 CAVOK 14/12 Q1023=,SBGR,2022-06-14 22:00:00
1655247600000,METAR SBGR 142300Z 09003KT 070V130 CAVOK 13/12 Q1024=,SBGR,2022-06-14 23:00:00
1655164800000,METAR SBKP 140000Z 14014KT CAVOK 13/09 Q1023=,SBKP,2022-06-14 00:00:00
1655168400000,METAR SBKP 140100Z 14013KT CAVOK 12/09 Q1024=,SBKP,2022-06-14 01:00:00
1655172000000,METAR SBKP 140200Z 13009KT CAVOK 11/09 Q1024=,SBKP,2022-06-14 02:00:00
1655175600000,METAR SBKP 140300Z 13011KT CAVOK 11/09 Q1024=,SBKP,2022-06-14 03:00:00
1655179200000,METAR SBKP 140400Z 13009KT CAVOK 11/09 Q1023=,SBKP,2022-06-14 04:00:00
1655182800000,METAR SBKP 140500Z 12010KT CAVOK 11/09 Q1023=,SBKP,2022-06-14 05:00:00
1655186400000,METAR SBKP 140600Z 12012KT CAVOK 10/09 Q1022=,SBKP,2022-06-14 06:00:00
1655190000000,METAR SBKP 140700Z 12011KT CAVOK 10/09 Q1021=,SBKP,2022-06-14 07:00:00
1655193600000,METAR SBKP 140800Z 12012KT CAVOK 10/08 Q1021=,SBKP,2022-06-14 08:00:00
1655197200000,METAR SBKP 140900Z 12010KT CAVOK 10/08 Q1022=,SBKP,2022-06-14 09:00:00
1655200800000,METAR SBKP 141000Z 12009KT 9000 FEW030 10/09 Q1022=,SBKP,2022-06-14 10:00:00
1655204400000,METAR SBKP 141100Z 12011KT CAVOK 12/09 Q1023=,SBKP,2022-06-14 11:00:00
1655208000000,METAR SBKP 141200Z 12011KT 9999 FEW020 14/10 Q1024=,SBKP,2022-06-14 12:00:00
1655211600000,METAR SBKP 141300Z 13012KT 9999 FEW020 16/10 Q1024=,SBKP,2022-06-14 13:00:00
1655215200000,METAR SBKP 141400Z 12005KT 9999 FEW025 17/09 Q1024=,SBKP,2022-06-14 14:00:00
1655218800000,METAR SBKP 141500Z 11010KT CAVOK 19/09 Q1023=,SBKP,2022-06-14 15:00:00
1655222400000,METAR SBKP 141600Z 14009KT 120V180 CAVOK 20/08 Q1022=,SBKP,2022-06-14 16:00:00
1655226000000,METAR SBKP 141700Z 14008KT 110V180 CAVOK 21/08 Q1021=,SBKP,2022-06-14 17:00:00
1655229600000,METAR SBKP 141800Z 13008KT 080V180 CAVOK 21/08 Q1021=,SBKP,2022-06-14 18:00:00
1655233200000,METAR SBKP 141900Z 12006KT CAVOK 21/08 Q1020=,SBKP,2022-06-14 19:00:00
1655236800000,METAR SBKP 142000Z 12006KT CAVOK 20/09 Q1021=,SBKP,2022-06-14 20:00:00
1655240400000,METAR SBKP 142100Z 13008KT CAVOK 16/09 Q1021=,SBKP,2022-06-14 21:00:00
1655244000000,METAR SBKP 142200Z 13009KT CAVOK 16/10 Q1021=,SBKP,2022-06-14 22:00:00
1655247600000,METAR SBKP 142300Z 13010KT CAVOK 15/10 Q1022=,SBKP,2022-06-14 23:00:00
1655164800000,METAR SBPA 140000Z 13006KT 9999 FEW020 13/12 Q1024=,SBPA,2022-06-14 00:00:00
1655168400000,METAR SBPA 140100Z 13003KT 9000 NSC 12/11 Q1024=,SBPA,2022-06-14 01:00:00
1655170680000,SPECI SBPA 140138Z 07005KT 3000 BR PRFG NSC 11/10 Q1024=,SBPA,2022-06-14 01:38:00
1655171340000,SPECI SBPA 140149Z 07004KT 0200 R29///// R11/1200 FG VV001 11/10 Q1024=,SBPA,2022-06-14 01:49:00
1655172000000,METAR SBPA 140200Z 08005KT 0200 R29///// R11/0450D FG VV001 11/10 Q1024=,SBPA,2022-06-14 02:00:00
1655174100000,SPECI SBPA 140235Z 09007KT 0300 R29///// R11/0800N FG VV001 11/11 Q1024=,SBPA,2022-06-14 02:35:00
1655175600000,METAR SBPA 140300Z 09005KT 0600 R29///// R11/1000U FG VV004 11/11 Q1024=,SBPA,2022-06-14 03:00:00
1655179200000,METAR SBPA 140400Z 10006KT 0350 R29///// R11/1800D FG VV002 12/12 Q1024=,SBPA,2022-06-14 04:00:00
1655182800000,METAR SBPA 140500Z 11005KT 1000 R29///// R11/P2000 BR PRFG OVC002 12/12 Q1023=,SBPA,2022-06-14 05:00:00
1655186400000,METAR SBPA 140600Z 10006KT 2500 BR OVC002 12/12 Q1023=,SBPA,2022-06-14 06:00:00
1655190000000,METAR SBPA 140700Z 06005KT 0350 R29///// R11/P2000 FG VV002 11/11 Q1022=,SBPA,2022-06-14 07:00:00
1655193600000,METAR SBPA 140800Z 08008KT 0600 R29///// R11/P2000 FG OVC002 11/11 Q1022=,SBPA,2022-06-14 08:00:00
1655197200000,METAR SBPA 140900Z 08006KT 050V110 0600 R29///// R11/P2000 FG OVC002 11/11 Q1021=,SBPA,2022-06-14 09:00:00
1655200800000,METAR SBPA 141000Z 05004KT 0250 R29///// R11/1000D FG VV002 10/10 Q1022=,SBPA,2022-06-14 10:00:00
1655203080000,SPECI SBPA 141038Z VRB02KT 0100 R29///// R11/0650 FG VV002 10/10 Q1022=,SBPA,2022-06-14 10:38:00
1655204400000,METAR SBPA 141100Z 09003KT 040V160 0150 R29///// R11/0550 FG VV002 10/10 Q1022=,SBPA,2022-06-14 11:00:00
1655208000000,METAR SBPA 141200Z 00000KT 0200 R29///// R11/0800 FG VV002 10/10 Q1022=,SBPA,2022-06-14 12:00:00
1655209740000,SPECI SBPA 141229Z 00000KT 0800 R29///// R11/1000 FG VV002 11/11 Q1023=,SBPA,2022-06-14 12:29:00
1655211600000,METAR SBPA 141300Z VRB01KT 1500 R29///// R11/P2000 BR BKN002 11/11 Q1023=,SBPA,2022-06-14 13:00:00
1655214240000,SPECI SBPA 141344Z 31004KT 280V360 3000 BR BKN005 12/12 Q1023=,SBPA,2022-06-14 13:44:00
1655215200000,METAR SBPA 141400Z 30004KT 260V340 3000 BR BKN005 12/12 Q1023=,SBPA,2022-06-14 14:00:00
1655216100000,SPECI SBPA 141415Z 30003KT 200V360 5000 BR BKN003 12/12 Q1023=,SBPA,2022-06-14 14:15:00
1655217180000,SPECI SBPA 141433Z 29003KT 190V350 5000 BR SCT005 14/13 Q1022=,SBPA,2022-06-14 14:33:00
1655218800000,METAR SBPA 141500Z 26003KT 210V320 6000 FEW005 15/13 Q1022=,SBPA,2022-06-14 15:00:00
1655222400000,METAR SBPA 141600Z VRB02KT 9000 NSC 17/12 Q1021=,SBPA,2022-06-14 16:00:00
1655226000000,METAR SBPA 141700Z VRB02KT CAVOK 19/11 Q1020=,SBPA,2022-06-14 17:00:00
1655229600000,METAR SBPA 141800Z VRB01KT CAVOK 20/11 Q1019=,SBPA,2022-06-14 18:00:00
1655233200000,METAR SBPA 141900Z 09003KT 050V130 CAVOK 20/11 Q1019=,SBPA,2022-06-14 19:00:00
1655236800000,METAR SBPA 142000Z 06003KT CAVOK 20/11 Q1019=,SBPA,2022-06-14 20:00:00
1655240400000,METAR SBPA 142100Z VRB02KT CAVOK 15/12 Q1019=,SBPA,2022-06-14 21:00:00
1655244000000,METAR SBPA 142200Z 14002KT CAVOK 14/12 Q1019=,SBPA,2022-06-14 22:00:00
1655247600000,METAR SBPA 142300Z 09002KT CAVOK 14/12 Q1020=,SBPA,2022-06-14 23:00:00
1655164800000,METAR SBRF 140000Z 11002KT 9999 SCT022 27/22 Q1015=,SBRF,2022-06-14 00:00:00
1655168400000,METAR SBRF 140100Z 12006KT 9999 FEW022 27/22 Q1015=,SBRF,2022-06-14 01:00:00
1655172000000,METAR SBRF 140200Z 20004KT 080V250 9999 FEW025 26/23 Q1015=,SBRF,2022-06-14 02:00:00
1655175600000,METAR SBRF 140300Z VRB02KT 9999 SCT025 24/23 Q1015=,SBRF,2022-06-14 03:00:00
1655179200000,METAR SBRF 140400Z 30001KT 9999 BKN020 BKN050 24/23 Q1015=,SBRF,2022-06-14 04:00:00
1655182800000,METAR SBRF 140500Z VRB02KT 9999 SCT020 SCT050 24/23 Q1014=,SBRF,2022-06-14 05:00:00
1655186400000,METAR SBRF 140600Z VRB02KT 9999 SCT022 SCT050 24/23 Q1014=,SBRF,2022-06-14 06:00:00
1655190000000,METAR SBRF 140700Z 34002KT 9999 SCT022 23/23 Q1014=,SBRF,2022-06-14 07:00:00
1655193600000,METAR SBRF 140800Z 31003KT 9999 SCT020 SCT060 23/22 Q1015=,SBRF,2022-06-14 08:00:00
1655197200000,METAR SBRF 140900Z 28002KT 9999 SCT020 23/22 Q1015=,SBRF,2022-06-14 09:00:00
1655200800000,METAR SBRF 141000Z 00000KT 9999 SCT020 FEW021TCU 24/23 Q1016=,SBRF,2022-06-14 10:00:00
1655204400000,METAR SBRF 141100Z 21003KT 9999 SCT020 FEW021TCU 26/23 Q1016=,SBRF,2022-06-14 11:00:00
1655208000000,METAR SBRF 141200Z 20003KT 9999 SCT020 FEW021TCU 27/23 Q1016=,SBRF,2022-06-14 12:00:00
1655211600000,METAR SBRF 141300Z 08006KT 9999 SCT020 FEW021TCU 28/22 Q1016=,SBRF,2022-06-14 13:00:00
1655215200000,METAR SBRF 141400Z 10006KT 9999 SCT020 FEW021TCU 28/22 Q1016=,SBRF,2022-06-14 14:00:00
1655218800000,METAR SBRF 141500Z 13009KT 9999 SCT020 FEW021TCU 29/22 Q1015=,SBRF,2022-06-14 15:00:00
1655222400000,METAR SBRF 141600Z 10007KT 9999 SCT023 29/21 Q1015=,SBRF,2022-06-14 16:00:00
1655226000000,METAR SBRF 141700Z 13008KT 9999 SCT023 29/21 Q1014=,SBRF,2022-06-14 17:00:00
1655229600000,METAR SBRF 141800Z 13007KT 9999 FEW023 29/21 Q1014=,SBRF,2022-06-14 18:00:00
1655233200000,METAR SBRF 141900Z 13007KT 9999 FEW022 28/21 Q1013=,SBRF,2022-06-14 19:00:00
1655236800000,METAR SBRF 142000Z 12008KT 9999 FEW021 27/21 Q1014=,SBRF,2022-06-14 20:00:00
1655240400000,METAR SBRF 142100Z 14006KT 9999 FEW021 28/21 Q1014=,SBRF,2022-06-14 21:00:00
1655244000000,METAR SBRF 142200Z 13007KT 9999 SCT024 27/21 Q1015=,SBRF,2022-06-14 22:00:00
1655247600000,METAR SBRF 142300Z 14006KT 9999 FEW030 BKN050 27/21 Q1015=,SBRF,2022-06-14 23:00:00
1655164800000,METAR SBRJ 140000Z 25005KT 200V290 9999 FEW020 SCT030 BKN070 20/15 Q1022=,SBRJ,2022-06-14 00:00:00
1655168400000,METAR SBRJ 140100Z 26006KT 9999 FEW015 SCT030 BKN070 21/15 Q1022=,SBRJ,2022-06-14 01:00:00
1655172000000,METAR SBRJ 140200Z 26004KT 9999 FEW015 SCT030 BKN070 20/15 Q1022=,SBRJ,2022-06-14 02:00:00
1655196600000,SPECI SBRJ 140850Z 30005KT 5000 -RA BR FEW007 BKN010 OVC025 18/17 Q1021=,SBRJ,2022-06-14 08:50:00
1655197200000,METAR SBRJ 140900Z 30005KT 260V330 5000 -RA BR FEW007 BKN010 OVC025 18/17 Q1021=,SBRJ,2022-06-14 09:00:00
1655199780000,SPECI SBRJ 140943Z 31007KT 4000 -RA BR BKN007 OVC020 17/17 Q1021=,SBRJ,2022-06-14 09:43:00
1655200800000,METAR SBRJ 141000Z 31008KT 4000 -RA BR BKN007 OVC020 17/17 Q1021=,SBRJ,2022-06-14 10:00:00
1655202600000,SPECI SBRJ 141030Z 31007KT 260V330 6000 -RA BKN007 OVC020 17/16 Q1022=,SBRJ,2022-06-14 10:30:00
1655204400000,METAR SBRJ 141100Z 31007KT 6000 -RA BKN007 BKN023 17/17 Q1022=,SBRJ,2022-06-14 11:00:00
1655205900000,SPECI SBRJ 141125Z 33006KT 7000 FEW007 BKN010 BKN023 18/17 Q1022=,SBRJ,2022-06-14 11:25:00
1655208000000,METAR SBRJ 141200Z 32005KT 280V340 6000 -RA BKN007 BKN023 19/18 Q1023=,SBRJ,2022-06-14 12:00:00
1655211600000,METAR SBRJ 141300Z 33006KT 270V360 4500 -RA BR BKN007 OVC023 19/18 Q1023=,SBRJ,2022-06-14 13:00:00
1655213640000,SPECI SBRJ 141334Z 32003KT 290V360 4500 RA BR BKN007 OVC023 18/17 Q1023=,SBRJ,2022-06-14 13:34:00
1655214240000,SPECI SBRJ 141344Z VRB01KT 4500 -RA BR BKN007 OVC023 18/18 Q1023 RERA=,SBRJ,2022-06-14 13:44:00
1655215200000,METAR SBRJ 141400Z 35003KT 310V020 5000 -RA BR BKN010 OVC025 18/17 Q1023 RERA=,SBRJ,2022-06-14 14:00:00
1655217000000,SPECI SBRJ 141430Z 32003KT 270V350 7000 BKN010 OVC025 19/18 Q1023=,SBRJ,2022-06-14 14:30:00
1655218800000,METAR SBRJ 141500Z 36004KT 330V030 8000 BKN010 BKN025 19/18 Q1023=,SBRJ,2022-06-14 15:00:00
1655222400000,METAR SBRJ 141600Z 13004KT 090V160 8000 BKN012 BKN030 19/17 Q1022=,SBRJ,2022-06-14 16:00:00
1655223480000,SPECI SBRJ 141618Z VRB02KT 9999 SCT013 BKN030 19/17 Q1022=,SBRJ,2022-06-14 16:18:00
1655226000000,METAR SBRJ 141700Z 08004KT 050V110 9999 SCT018 BKN040 20/17 Q1021=,SBRJ,2022-06-14 17:00:00
1655229600000,METAR SBRJ 141800Z 12003KT 9999 SCT018 BKN045 20/16 Q1021=,SBRJ,2022-06-14 18:00:00
1655233200000,METAR SBRJ 141900Z 19003KT 9999 SCT018 BKN045 20/15 Q1021=,SBRJ,2022-06-14 19:00:00
1655236800000,METAR SBRJ 142000Z 17004KT 9999 FEW020 SCT040 20/15 Q1021=,SBRJ,2022-06-14 20:00:00
1655240400000,METAR SBRJ 142100Z 25003KT 9999 FEW020 BKN040 20/15 Q1021=,SBRJ,2022-06-14 21:00:00
1655244000000,METAR SBRJ 142200Z 28003KT 9999 FEW020 BKN040 20/17 Q1022=,SBRJ,2022-06-14 22:00:00
1655247600000,METAR SBRJ 142300Z 18002KT 9999 FEW020 BKN040 19/16 Q1022=,SBRJ,2022-06-14 23:00:00
1655164800000,METAR SBSP 140000Z 17009KT 9999 BKN009 11/09 Q1026=,SBSP,2022-06-14 00:00:00
1655168400000,METAR SBSP 140100Z 16008KT 9999 BKN010 11/09 Q1026=,SBSP,2022-06-14 01:00:00
1655172000000,METAR SBSP 140200Z 15006KT 9999 BKN011 11/09 Q1026=,SBSP,2022-06-14 02:00:00
1655172060000,SPECI SBSP 140201Z 16006KT 9999 SCT010 BKN013 11/08 Q1026=,SBSP,2022-06-14 02:01:00
1655174220000,SPECI SBSP 140237Z AUTO 15005KT 9999 FEW010 10/08 Q1025=,SBSP,2022-06-14 02:37:00
1655175600000,METAR SBSP 140300Z AUTO 14005KT 9999 FEW009 10/08 Q1025=,SBSP,2022-06-14 03:00:00
1655179200000,METAR SBSP 140400Z AUTO 11002KT CAVOK 10/08 Q1025=,SBSP,2022-06-14 04:00:00
1655182800000,METAR SBSP 140500Z AUTO 10002KT CAVOK 09/08 Q1025=,SBSP,2022-06-14 05:00:00
1655186160000,SPECI SBSP 140556Z AUTO 13008KT 9999 BKN007 10/09 Q1024=,SBSP,2022-06-14 05:56:00
1655186400000,METAR SBSP 140600Z AUTO 13008KT 9999 BKN007 10/09 Q1024=,SBSP,2022-06-14 06:00:00
1655189280000,SPECI SBSP 140648Z AUTO 12006KT 090V150 9999 OVC004 10/09 Q1024=,SBSP,2022-06-14 06:48:00
1655190000000,METAR SBSP 140700Z AUTO 13005KT 090V150 9999 OVC004 10/09 Q1024=,SBSP,2022-06-14 07:00:00
1655191860000,SPECI SBSP 140731Z AUTO 10005KT 060V120 9999 OVC005 10/09 Q1023=,SBSP,2022-06-14 07:31:00
1655193600000,METAR SBSP 140800Z AUTO 12004KT 9999 OVC005 10/09 Q1023=,SBSP,2022-06-14 08:00:00
1655197200000,METAR SBSP 140900Z 10005KT 9999 BKN005 10/09 Q1024=,SBSP,2022-06-14 09:00:00
1655200800000,METAR SBSP 141000Z 12005KT 9999 SCT003 OVC005 10/09 Q1024=,SBSP,2022-06-14 10:00:00
1655204400000,METAR SBSP 141100Z 09005KT 030V130 8000 SCT003 OVC005 10/09 Q1025=,SBSP,2022-06-14 11:00:00
1655208000000,METAR SBSP 141200Z 12006KT 080V140 9999 FEW005 OVC006 11/10 Q1026=,SBSP,2022-06-14 12:00:00
1655211600000,METAR SBSP 141300Z 13006KT 9999 FEW009 BKN011 12/10 Q1026=,SBSP,2022-06-14 13:00:00
1655215200000,METAR SBSP 141400Z 11008KT 9999 BKN026 15/09 Q1025=,SBSP,2022-06-14 14:00:00
1655218800000,METAR SBSP 141500Z 12009KT 080V150 9999 BKN026 15/09 Q1025=,SBSP,2022-06-14 15:00:00
1655222400000,METAR SBSP 141600Z 09007KT 030V130 9999 BKN026 17/09 Q1024=,SBSP,2022-06-14 16:00:00
1655226000000,METAR SBSP 141700Z 08007KT 040V130 9999 BKN030 17/09 Q1023=,SBSP,2022-06-14 17:00:00
1655229600000,METAR SBSP 141800Z 10005KT 050V130 9999 BKN030 17/09 Q1023=,SBSP,2022-06-14 18:00:00
1655233200000,METAR SBSP 141900Z 13005KT 100V170 9999 FEW033 17/09 Q1023=,SBSP,2022-06-14 19:00:00
1655236800000,METAR SBSP 142000Z 13008KT CAVOK 15/10 Q1023=,SBSP,2022-06-14 20:00:00
1655240400000,METAR SBSP 142100Z 13008KT CAVOK 14/10 Q1023=,SBSP,2022-06-14 21:00:00
1655244000000,METAR SBSP 142200Z 14008KT CAVOK 13/10 Q1024=,SBSP,2022-06-14 22:00:00
1655247600000,METAR SBSP 142300Z 13007KT 9999 FEW009 12/10 Q1024=,SBSP,2022-06-14 23:00:00
1655164800000,METAR SBSV 140000Z 16010KT 9999 SCT023 27/22 Q1017=,SBSV,2022-06-14 00:00:00
1655168400000,METAR SBSV 140100Z 15009KT 9999 SCT023 27/22 Q1017=,SBSV,2022-06-14 01:00:00
1655172000000,METAR SBSV 140200Z 16008KT 9999 FEW023 27/21 Q1017=,SBSV,2022-06-14 02:00:00
1655175600000,METAR SBSV 140300Z 15010KT 9999 FEW023 27/21 Q1017=,SBSV,2022-06-14 03:00:00
1655179200000,METAR SBSV 140400Z 16011KT 9999 SCT023 27/21 Q1017=,SBSV,2022-06-14 04:00:00
1655182800000,METAR SBSV 140500Z 15011KT 9999 SCT023 27/21 Q1016=,SBSV,2022-06-14 05:00:00
1655186400000,METAR SBSV 140600Z 14009KT 9999 SCT020 27/22 Q1016=,SBSV,2022-06-14 06:00:00
1655190000000,METAR SBSV 140700Z 13007KT 9999 SCT020 27/22 Q1016=,SBSV,2022-06-14 07:00:00
1655193600000,METAR SBSV 140800Z 13006KT 9999 SCT020 27/22 Q1016=,SBSV,2022-06-14 08:00:00
1655197200000,METAR SBSV 140900Z 11006KT 8000 VCSH BKN018 FEW023TCU 27/22 Q1016=,SBSV,2022-06-14 09:00:00
1655200800000,METAR SBSV 141000Z 13012KT 9999 VCSH BKN018 FEW023TCU 27/22 Q1017=,SBSV,2022-06-14 10:00:00
1655204400000,METAR SBSV 141100Z 14012KT 9999 BKN018 FEW023TCU 28/23 Q1018=,SBSV,2022-06-14 11:00:00
1655208000000,METAR SBSV 141200Z 13014KT 9999 BKN018 FEW023TCU 29/23 Q1018=,SBSV,2022-06-14 12:00:00
1655211600000,METAR SBSV 141300Z 13014KT 9999 BKN018 FEW023TCU 29/22 Q1018=,SBSV,2022-06-14 13:00:00
1655215200000,METAR SBSV 141400Z 14014KT 9999 BKN018 FEW023TCU 28/22 Q1018=,SBSV,2022-06-14 14:00:00
1655218800000,METAR SBSV 141500Z 14015KT 9999 BKN018 FEW023TCU 28/22 Q1018=,SBSV,2022-06-14 15:00:00
1655222400000,METAR SBSV 141600Z 14016G26KT 9999 BKN018 FEW023TCU 29/21 Q1017=,SBSV,2022-06-14 16:00:00
1655226000000,METAR SBSV 141700Z 14015KT 9999 VCSH BKN018 FEW023TCU 29/21 Q1016=,SBSV,2022-06-14 17:00:00
1655229600000,METAR SBSV 141800Z 16014KT 9000 VCSH BKN018 FEW023TCU 28/22 Q1016=,SBSV,2022-06-14 18:00:00
1655233200000,METAR SBSV 141900Z 13015KT 8000 VCSH SCT023 FEW026TCU SCT033 26/22 Q1016=,SBSV,2022-06-14 19:00:00
1655236800000,METAR SBSV 142000Z 14015KT 110V170 9999 SCT023 FEW026TCU SCT060 27/21 Q1017=,SBSV,2022-06-14 20:00:00
1655240400000,METAR SBSV 142100Z 16016KT 9000 VCSH SCT023 FEW026TCU SCT033 26/21 Q1017=,SBSV,2022-06-14 21:00:00
1655244000000,METAR SBSV 142200Z 15016KT 9999 SCT023 FEW026TCU SCT046 27/19 Q1018=,SBSV,2022-06-14 22:00:00
1655247600000,METAR SBSV 142300Z 16015KT 9999 SCT023 SCT060 27/19 Q1018=,SBSV,2022-06-14 23:00:00
1655251200000,METAR SBBR 150000Z 10005KT 9999 FEW045 BKN080 22/14 Q1022=,SBBR,2022-06-15 00:00:00
1655254800000,METAR SBBR 150100Z 10007KT 9999 FEW045 BKN080 21/14 Q1022=,SBBR,2022-06-15 01:00:00
1655258400000,METAR SBBR 150200Z 11006KT 9999 FEW045 BKN100 20/15 Q1022=,SBBR,2022-06-15 02:00:00
1655262000000,METAR SBBR 150300Z 12003KT CAVOK 20/15 Q1022=,SBBR,2022-06-15 03:00:00
1655265600000,METAR SBBR 150400Z VRB02KT CAVOK 18/15 Q1022=,SBBR,2022-06-15 04:00:00
1655269200000,METAR SBBR 150500Z VRB02KT CAVOK 17/14 Q1021=,SBBR,2022-06-15 05:00:00
1655272800000,METAR SBBR 150600Z 19002KT CAVOK 18/15 Q1021=,SBBR,2022-06-15 06:00:00
1655276400000,METAR SBBR 150700Z 11003KT CAVOK 18/15 Q1021=,SBBR,2022-06-15 07:00:00
1655280000000,METAR SBBR 150800Z VRB02KT CAVOK 17/15 Q1021=,SBBR,2022-06-15 08:00:00
1655283600000,METAR SBBR 150900Z 12003KT 9999 SCT011 SCT100 17/15 Q1022=,SBBR,2022-06-15 09:00:00
1655287200000,METAR SBBR 151000Z 14004KT 110V170 9999 SCT011 SCT100 17/15 Q1022=,SBBR,2022-06-15 10:00:00
1655290800000,METAR SBBR 151100Z 07004KT 010V110 9999 SCT011 SCT100 17/15 Q1023=,SBBR,2022-06-15 11:00:00
1655294400000,METAR SBBR 151200Z 11006KT 9999 FEW011 SCT100 18/15 Q1024=,SBBR,2022-06-15 12:00:00
1655298000000,METAR SBBR 151300Z 07008KT 030V110 9999 FEW015 20/15 Q1024=,SBBR,2022-06-15 13:00:00
1655301600000,METAR SBBR 151400Z 10006KT CAVOK 22/16 Q1024=,SBBR,2022-06-15 14:00:00
1655305200000,METAR SBBR 151500Z 12011KT 9999 SCT025 24/15 Q1023=,SBBR,2022-06-15 15:00:00
1655308800000,METAR SBBR 151600Z 08006KT 040V140 9999 SCT035 25/15 Q1022=,SBBR,2022-06-15 16:00:00
1655312400000,METAR SBBR 151700Z VRB04KT 9999 SCT040 26/15 Q1021=,SBBR,2022-06-15 17:00:00
1655316000000,METAR SBBR 151800Z VRB03KT 9999 SCT040 27/15 Q1021=,SBBR,2022-06-15 18:00:00
1655319600000,METAR SBBR 151900Z 13008KT 9999 SCT040 27/14 Q1020=,SBBR,2022-06-15 19:00:00
1655323200000,METAR SBBR 152000Z 13010KT 9999 SCT040 26/14 Q1021=,SBBR,2022-06-15 20:00:00
1655326800000,METAR SBBR 152100Z 14006KT 9999 FEW045 SCT090 24/15 Q1021=,SBBR,2022-06-15 21:00:00
1655330400000,METAR SBBR 152200Z 13007KT 9999 FEW045 SCT090 23/15 Q1021=,SBBR,2022-06-15 22:00:00
1655334000000,METAR SBBR 152300Z 14006KT 9999 FEW045 SCT100 22/15 Q1022=,SBBR,2022-06-15 23:00:00
1655251200000,METAR SBCF 150000Z 09010KT CAVOK 17/10 Q1023=,SBCF,2022-06-15 00:00:00
1655254800000,METAR SBCF 150100Z 09007KT CAVOK 17/10 Q1024=,SBCF,2022-06-15 01:00:00
1655258400000,METAR SBCF 150200Z 13002KT CAVOK 15/10 Q1023=,SBCF,2022-06-15 02:00:00
1655262000000,METAR SBCF 150300Z 12005KT CAVOK 14/10 Q1023=,SBCF,2022-06-15 03:00:00
1655265600000,METAR SBCF 150400Z 10007KT CAVOK 15/10 Q1023=,SBCF,2022-06-15 04:00:00
1655269200000,METAR SBCF 150500Z 12005KT CAVOK 14/10 Q1023=,SBCF,2022-06-15 05:00:00
1655272800000,METAR SBCF 150600Z 14003KT CAVOK 13/10 Q1022=,SBCF,2022-06-15 06:00:00
1655276400000,METAR SBCF 150700Z 18002KT CAVOK 12/09 Q1022=,SBCF,2022-06-15 07:00:00
1655280000000,METAR SBCF 150800Z 12003KT CAVOK 13/09 Q1022=,SBCF,2022-06-15 08:00:00
1655283600000,METAR SBCF 150900Z 16002KT CAVOK 12/09 Q1023=,SBCF,2022-06-15 09:00:00
1655287200000,METAR SBCF 151000Z 13003KT CAVOK 12/09 Q1023=,SBCF,2022-06-15 10:00:00
1655290800000,METAR SBCF 151100Z 13004KT CAVOK 13/10 Q1024=,SBCF,2022-06-15 11:00:00
1655294400000,METAR SBCF 151200Z 13005KT 100V170 CAVOK 15/11 Q1024=,SBCF,2022-06-15 12:00:00
1655298000000,METAR SBCF 151300Z 10008KT 060V130 CAVOK 17/11 Q1025=,SBCF,2022-06-15 13:00:00
1655301600000,METAR SBCF 151400Z 08006KT 040V150 CAVOK 19/11 Q1024=,SBCF,2022-06-15 14:00:00
1655305200000,METAR SBCF 151500Z 10004KT 050V160 CAVOK 20/11 Q1024=,SBCF,2022-06-15 15:00:00
1655308800000,METAR SBCF 151600Z 15006KT 090V190 CAVOK 21/11 Q1023=,SBCF,2022-06-15 16:00:00
1655312400000,METAR SBCF 151700Z 13007KT 070V190 CAVOK 22/10 Q1022=,SBCF,2022-06-15 17:00:00
1655316000000,METAR SBCF 151800Z 12008KT 070V180 CAVOK 21/10 Q1022=,SBCF,2022-06-15 18:00:00
1655319600000,METAR SBCF 151900Z 11007KT 070V130 CAVOK 20/10 Q1022=,SBCF,2022-06-15 19:00:00
1655323200000,METAR SBCF 152000Z 09009KT CAVOK 18/10 Q1022=,SBCF,2022-06-15 20:00:00
1655326800000,METAR SBCF 152100Z 10008KT CAVOK 17/10 Q1022=,SBCF,2022-06-15 21:00:00
1655330400000,METAR SBCF 152200Z 12007KT CAVOK 15/10 Q1022=,SBCF,2022-06-15 22:00:00
1655334000000,METAR SBCF 152300Z 11005KT CAVOK 15/10 Q1023=,SBCF,2022-06-15 23:00:00
1655251200000,METAR SBCT 150000Z 10004KT 9999 OVC020 12/09 Q1024=,SBCT,2022-06-15 00:00:00
1655254800000,METAR SBCT 150100Z 09006KT 9999 BKN018 12/08 Q1024=,SBCT,2022-06-15 01:00:00
1655258400000,METAR SBCT 150200Z 09005KT 9999 BKN015 11/09 Q1024=,SBCT,2022-06-15 02:00:00
1655262000000,METAR SBCT 150300Z 07006KT 030V090 9999 BKN015 11/09 Q1024=,SBCT,2022-06-15 03:00:00
1655265600000,METAR SBCT 150400Z 11005KT 9999 BKN015 09/08 Q1023=,SBCT,2022-06-15 04:00:00
1655269200000,METAR SBCT 150500Z 12003KT 9999 BKN015 10/08 Q1024=,SBCT,2022-06-15 05:00:00
1655272800000,METAR SBCT 150600Z 13002KT 9999 BKN015 10/08 Q1024=,SBCT,2022-06-15 06:00:00
1655276400000,METAR SBCT 150700Z 08003KT 9999 BKN015 10/09 Q1023=,SBCT,2022-06-15 07:00:00
1655280000000,METAR SBCT 150800Z 06004KT 9999 BKN015 10/09 Q1023=,SBCT,2022-06-15 08:00:00
1655283600000,METAR SBCT 150900Z 02002KT 9999 BKN015 09/09 Q1023=,SBCT,2022-06-15 09:00:00
1655287200000,METAR SBCT 151000Z 05003KT 010V080 9999 FEW015 BKN100 08/08 Q1024=,SBCT,2022-06-15 10:00:00
1655290800000,METAR SBCT 151100Z 08004KT 050V110 9999 FEW015 BKN100 10/09 Q1024=,SBCT,2022-06-15 11:00:00
1655294400000,METAR SBCT 151200Z 01005KT 330V040 CAVOK 11/09 Q1025=,SBCT,2022-06-15 12:00:00
1655298000000,METAR SBCT 151300Z 02007KT 340V050 CAVOK 12/09 Q1025=,SBCT,2022-06-15 13:00:00
1655301600000,METAR SBCT 151400Z 01006KT 320V050 CAVOK 14/10 Q1025=,SBCT,2022-06-15 14:00:00
1655305200000,METAR SBCT 151500Z 33006KT CAVOK 16/08 Q1024=,SBCT,2022-06-15 15:00:00
1655308800000,METAR SBCT 151600Z 01004KT 330V080 CAVOK 17/08 Q1023=,SBCT,2022-06-15 16:00:00
1655312400000,METAR SBCT 151700Z 31005KT 280V350 CAVOK 19/07 Q1021=,SBCT,2022-06-15 17:00:00
1655316000000,METAR SBCT 151800Z 30003KT 260V350 9999 FEW040 20/07 Q1021=,SBCT,2022-06-15 18:00:00
1655319600000,METAR SBCT 151900Z 33004KT 300V030 9999 FEW040 20/08 Q1020=,SBCT,2022-06-15 19:00:00
1655323200000,METAR SBCT 152000Z 30003KT 240V330 CAVOK 20/08 Q1021=,SBCT,2022-06-15 20:00:00
1655326800000,METAR SBCT 152100Z 27004KT CAVOK 17/09 Q1021=,SBCT,2022-06-15 21:00:00
1655330400000,METAR SBCT 152200Z VRB02KT CAVOK 16/10 Q1021=,SBCT,2022-06-15 22:00:00
1655334000000,METAR SBCT 152300Z 07004KT 9999 FEW009 13/11 Q1022=,SBCT,2022-06-15 23:00:00
1655251200000,METAR SBFL 150000Z 34007KT 9999 BKN045 17/14 Q1023=,SBFL,2022-06-15 00:00:00
1655254800000,METAR SBFL 150100Z 36005KT 9999 BKN045 17/15 Q1023=,SBFL,2022-06-15 01:00:00
1655258400000,METAR SBFL 150200Z 36005KT 9999 BKN045 16/15 Q1023=,SBFL,2022-06-15 02:00:00
1655262000000,METAR SBFL 150300Z 35006KT 9999 BKN045 16/14 Q1023=,SBFL,2022-06-15 03:00:00
1655265600000,METAR SBFL 150400Z 01006KT 9999 BKN045 16/14 Q1022=,SBFL,2022-06-15 04:00:00
1655269200000,METAR SBFL 150500Z 01006KT CAVOK 15/14 Q1023=,SBFL,2022-06-15 05:00:00
1655272800000,METAR SBFL 150600Z 01005KT CAVOK 15/14 Q1022=,SBFL,2022-06-15 06:00:00
1655276400000,METAR SBFL 150700Z 35006KT 9999 BKN040 16/15 Q1021=,SBFL,2022-06-15 07:00:00
1655280000000,METAR SBFL 150800Z 35009KT 9999 BKN040 16/15 Q1021=,SBFL,2022-06-15 08:00:00
1655283600000,METAR SBFL 150900Z 34011KT 9999 BKN040 17/13 Q1020=,SBFL,2022-06-15 09:00:00
1655287200000,METAR SBFL 151000Z 32007KT 9999 BKN040 16/13 Q1021=,SBFL,2022-06-15 10:00:00
1655290800000,METAR SBFL 151100Z 32007KT 9999 FEW040 16/13 Q1021=,SBFL,2022-06-15 11:00:00
1655294400000,METAR SBFL 151200Z 30010KT CAVOK 17/13 Q1022=,SBFL,2022-06-15 12:00:00
1655298000000,METAR SBFL 151300Z 31011KT 9999 FEW040 18/13 Q1022=,SBFL,2022-06-15 13:00:00
1655301600000,METAR SBFL 151400Z 32010KT CAVOK 19/13 Q1021=,SBFL,2022-06-15 14:00:00
1655305200000,METAR SBFL 151500Z 33011KT CAVOK 20/13 Q1020=,SBFL,2022-06-15 15:00:00
1655308800000,METAR SBFL 151600Z 34014KT CAVOK 21/13 Q1019=,SBFL,2022-06-15 16:00:00
1655312400000,METAR SBFL 151700Z 35012KT CAVOK 20/13 Q1018=,SBFL,2022-06-15 17:00:00
1655316000000,METAR SBFL 151800Z 35011KT 9999 SCT025 BKN080 20/13 Q1017=,SBFL,2022-06-15 18:00:00
1655319600000,METAR SBFL 151900Z 35011KT 9999 SCT025 SCT080 21/14 Q1017=,SBFL,2022-06-15 19:00:00
1655323200000,METAR COR SBFL 152000Z 35012KT 9999 SCT025 19/14 Q1017=,SBFL,2022-06-15 20:00:00
1655326800000,METAR SBFL 152100Z 01007KT 340V040 9999 SCT025 18/14 Q1018=,SBFL,2022-06-15 21:00:00
1655330400000,METAR SBFL 152200Z 01005KT 300V060 9999 FEW025 18/14 Q1019=,SBFL,2022-06-15 22:00:00
1655334000000,METAR SBFL 152300Z 06003KT CAVOK 16/13 Q1020=,SBFL,2022-06-15 23:00:00
1655251200000,METAR SBGL 150000Z 00000KT 9999 FEW008 BKN035 16/15 Q1023=,SBGL,2022-06-15 00:00:00
1655254800000,METAR SBGL 150100Z 21003KT 9999 FEW008 BKN035 18/16 Q1023=,SBGL,2022-06-15 01:00:00
1655258400000,METAR SBGL 150200Z 00000KT 9999 FEW008 BKN040 17/16 Q1023=,SBGL,2022-06-15 02:00:00
1655262000000,METAR SBGL 150300Z 00000KT 9999 FEW010 BKN040 16/15 Q1023=,SBGL,2022-06-15 03:00:00
1655265600000,METAR SBGL 150400Z 06001KT 9999 FEW010 SCT035 16/15 Q1023=,SBGL,2022-06-15 04:00:00
1655269200000,METAR SBGL 150500Z 00000KT 9999 FEW009 SCT045 16/15 Q1022=,SBGL,2022-06-15 05:00:00
1655269680000,SPECI SBGL 150508Z 24002KT 3500 BR FEW008 SCT045 15/14 Q1022=,SBGL,2022-06-15 05:08:00
1655272800000,METAR SBGL 150600Z 00000KT 3000 BR FEW008 SCT045 14/13 Q1022=,SBGL,2022-06-15 06:00:00
1655276400000,METAR SBGL 150700Z 26003KT 2000 BR FEW006 BKN009 15/14 Q1022=,SBGL,2022-06-15 07:00:00
1655280000000,METAR SBGL 150800Z 25003KT 2500 BR FEW006 SCT009 16/15 Q1022=,SBGL,2022-06-15 08:00:00
1655283600000,METAR SBGL 150900Z 31002KT 2000 BR FEW006 BKN040 14/13 Q1022=,SBGL,2022-06-15 09:00:00
1655287200000,METAR SBGL 151000Z 31004KT 3000 BR FEW006 BKN040 15/14 Q1023=,SBGL,2022-06-15 10:00:00
1655288340000,SPECI SBGL 151019Z 31002KT 3000 BR BKN006 BKN040 16/15 Q1023=,SBGL,2022-06-15 10:19:00
1655290800000,METAR SBGL 151100Z 34003KT 4000 BR BKN008 BKN040 17/15 Q1023=,SBGL,2022-06-15 11:00:00
1655294400000,METAR SBGL 151200Z 03002KT 5000 BR BKN012 BKN060 18/16 Q1024=,SBGL,2022-06-15 12:00:00
1655298000000,METAR SBGL 151300Z 34002KT 6000 SCT012 BKN060 19/16 Q1024=,SBGL,2022-06-15 13:00:00
1655301600000,METAR SBGL 151400Z 08003KT 7000 FEW016 BKN070 21/15 Q1023=,SBGL,2022-06-15 14:00:00
1655305200000,METAR SBGL 151500Z 14005KT 8000 FEW020 SCT070 22/15 Q1022=,SBGL,2022-06-15 15:00:00
1655308800000,METAR SBGL 151600Z 11006KT 9999 FEW020 BKN060 22/14 Q1021=,SBGL,2022-06-15 16:00:00
1655312400000,METAR SBGL 151700Z 13004KT 9999 BKN040 22/11 Q1020=,SBGL,2022-06-15 17:00:00
1655316000000,METAR SBGL 151800Z 11005KT 9999 BKN040 22/12 Q1020=,SBGL,2022-06-15 18:00:00
1655319600000,METAR SBGL 151900Z 12008KT 9999 BKN040 22/13 Q1020=,SBGL,2022-06-15 19:00:00
1655323200000,METAR SBGL 152000Z 13006KT 9999 BKN040 21/13 Q1020=,SBGL,2022-06-15 20:00:00
1655326800000,METAR SBGL 152100Z 12005KT 9999 SCT030 BKN100 19/14 Q1020=,SBGL,2022-06-15 21:00:00
1655330400000,METAR SBGL 152200Z 11005KT 9999 SCT040 18/14 Q1020=,SBGL,2022-06-15 22:00:00
1655334000000,METAR SBGL 152300Z 07002KT CAVOK 17/14 Q1020=,SBGL,2022-06-15 23:00:00
1655251200000,METAR SBGR 150000Z 09003KT CAVOK 12/11 Q1024=,SBGR,2022-06-15 00:00:00
1655254800000,METAR SBGR 150100Z 00000KT 7000 NSC 11/11 Q1024=,SBGR,2022-06-15 01:00:00
1655258400000,METAR SBGR 150200Z 10002KT 4000 BR BKN005 10/10 Q1024=,SBGR,2022-06-15 02:00:00
1655262000000,METAR SBGR 150300Z 18001KT 2500 BR BKN004 11/11 Q1024=,SBGR,2022-06-15 03:00:00
1655265600000,METAR SBGR 150400Z 12003KT 2000 1000E R27R/1000D R27L/1800D R09R/P2000 R09L/P2000 BR OVC002 11/11 Q1024=,SBGR,2022-06-15 04:00:00
1655266500000,SPECI SBGR 150415Z 06005KT 0500 R27R/0800D R27L/1200D R09R/P2000 R09L/P2000 FG OVC002 11/11 Q1024=,SBGR,2022-06-15 04:15:00
1655269200000,METAR SBGR 150500Z 06005KT 0600 R27R/1800U R27L/1800N R09R/P2000 R09L/P2000 FG OVC002 11/11 Q1024=,SBGR,2022-06-15 05:00:00
1655272800000,METAR SBGR 150600Z 08003KT 3500 BR BKN005 11/11 Q1023=,SBGR,2022-06-15 06:00:00
1655276400000,METAR SBGR 150700Z 09006KT 5000 BR BKN011 12/11 Q1023=,SBGR,2022-06-15 07:00:00
1655280000000,METAR SBGR 150800Z 09009KT 8000 FEW011 BKN017 12/11 Q1022=,SBGR,2022-06-15 08:00:00
1655281200000,SPECI SBGR 150820Z 08007KT 8000 BKN006 BKN017 12/11 Q1023=,SBGR,2022-06-15 08:20:00
1655283600000,METAR SBGR 150900Z 06008KT 9000 BKN006 12/11 Q1023=,SBGR,2022-06-15 09:00:00
1655287200000,METAR SBGR 151000Z 07007KT 9000 SCT006 BKN017 12/11 Q1024=,SBGR,2022-06-15 10:00:00
1655290800000,METAR SBGR 151100Z 08007KT 9999 FEW005 SCT017 12/11 Q1025=,SBGR,2022-06-15 11:00:00
1655292000000,SPECI SBGR 151120Z 07010KT 9999 BKN013 13/11 Q1025=,SBGR,2022-06-15 11:20:00
1655294400000,METAR SBGR 151200Z 07011KT 9999 BKN011 13/11 Q1025=,SBGR,2022-06-15 12:00:00
1655298000000,METAR SBGR 151300Z 06012KT 9999 SCT013 14/11 Q1025=,SBGR,2022-06-15 13:00:00
1655301600000,METAR SBGR 151400Z 07012KT 9999 FEW011 15/11 Q1024=,SBGR,2022-06-15 14:00:00
1655305200000,METAR SBGR 151500Z 06012KT 9999 FEW011 15/11 Q1024=,SBGR,2022-06-15 15:00:00
1655308800000,METAR SBGR 151600Z 09007KT CAVOK 16/11 Q1022=,SBGR,2022-06-15 16:00:00
1655312400000,METAR SBGR 151700Z 07004KT CAVOK 17/12 Q1022=,SBGR,2022-06-15 17:00:00
1655316000000,METAR SBGR 151800Z 13002KT CAVOK 18/12 Q1021=,SBGR,2022-06-15 18:00:00
1655319600000,METAR SBGR 151900Z 07005KT CAVOK 19/12 Q1021=,SBGR,2022-06-15 19:00:00
1655323200000,METAR SBGR 152000Z 05005KT CAVOK 18/13 Q1021=,SBGR,2022-06-15 20:00:00
1655326800000,METAR SBGR 152100Z 08004KT CAVOK 16/13 Q1021=,SBGR,2022-06-15 21:00:00
1655330400000,METAR SBGR 152200Z 08006KT CAVOK 15/13 Q1021=,SBGR,2022-06-15 22:00:00
1655334000000,METAR SBGR 152300Z 08007KT CAVOK 15/13 Q1021=,SBGR,2022-06-15 23:00:00
1655251200000,METAR SBKP 150000Z 13010KT CAVOK 14/10 Q1022=,SBKP,2022-06-15 00:00:00
1655254800000,METAR SBKP 150100Z 13011KT CAVOK 13/10 Q1022=,SBKP,2022-06-15 01:00:00
1655258400000,METAR SBKP 150200Z 12010KT CAVOK 13/10 Q1022=,SBKP,2022-06-15 02:00:00
1655262000000,METAR SBKP 150300Z 12011KT CAVOK 13/10 Q1022=,SBKP,2022-06-15 03:00:00
1655265600000,METAR SBKP 150400Z 12010KT CAVOK 12/10 Q1022=,SBKP,2022-06-15 04:00:00
1655269200000,METAR SBKP 150500Z 12013KT CAVOK 12/10 Q1021=,SBKP,2022-06-15 05:00:00
1655272800000,METAR SBKP 150600Z 12012KT CAVOK 12/10 Q1021=,SBKP,2022-06-15 06:00:00
1655276400000,METAR SBKP 150700Z 12011KT CAVOK 11/10 Q1021=,SBKP,2022-06-15 07:00:00
1655280000000,METAR SBKP 150800Z 12014KT CAVOK 11/09 Q1021=,SBKP,2022-06-15 08:00:00
1655283600000,METAR SBKP 150900Z 12013KT CAVOK 11/09 Q1021=,SBKP,2022-06-15 09:00:00
1655287200000,METAR SBKP 151000Z 12011KT 9000 4000E NSC 11/09 Q1022=,SBKP,2022-06-15 10:00:00
1655290800000,METAR SBKP 151100Z 12013KT 9000 4000E NSC 12/10 Q1023=,SBKP,2022-06-15 11:00:00
1655294400000,METAR SBKP 151200Z 11011KT CAVOK 13/10 Q1023=,SBKP,2022-06-15 12:00:00
1655298000000,METAR SBKP 151300Z 11009KT CAVOK 15/11 Q1024=,SBKP,2022-06-15 13:00:00
1655301600000,METAR SBKP 151400Z 12006KT CAVOK 16/11 Q1024=,SBKP,2022-06-15 14:00:00
1655305200000,METAR SBKP 151500Z VRB03KT CAVOK 19/11 Q1023=,SBKP,2022-06-15 15:00:00
1655308800000,METAR SBKP 151600Z VRB03KT CAVOK 21/11 Q1022=,SBKP,2022-06-15 16:00:00
1655312400000,METAR SBKP 151700Z VRB04KT CAVOK 21/11 Q1021=,SBKP,2022-06-15 17:00:00
1655316000000,METAR SBKP 151800Z VRB02KT CAVOK 22/11 Q1020=,SBKP,2022-06-15 18:00:00
1655319600000,METAR SBKP 151900Z 12006KT CAVOK 21/11 Q1019=,SBKP,2022-06-15 19:00:00
1655323200000,METAR SBKP 152000Z 11004KT CAVOK 20/11 Q1020=,SBKP,2022-06-15 20:00:00
1655326800000,METAR SBKP 152100Z 11006KT CAVOK 19/11 Q1020=,SBKP,2022-06-15 21:00:00
1655330400000,METAR SBKP 152200Z 20003KT 150V240 CAVOK 19/12 Q1021=,SBKP,2022-06-15 22:00:00
1655334000000,METAR SBKP 152300Z 19004KT 120V210 CAVOK 17/11 Q1021=,SBKP,2022-06-15 23:00:00
1655251200000,METAR SBPA 150000Z 00000KT CAVOK 12/11 Q1020=,SBPA,2022-06-15 00:00:00
1655254800000,METAR SBPA 150100Z VRB02KT 7000 NSC 12/11 Q1020=,SBPA,2022-06-15 01:00:00
1655258400000,METAR SBPA 150200Z VRB01KT 4500 FU NSC 11/11 Q1021=,SBPA,2022-06-15 02:00:00
1655262000000,METAR SBPA 150300Z 15003KT 4500 BR NSC 10/10 Q1021=,SBPA,2022-06-15 03:00:00
1655265600000,METAR SBPA 150400Z 00000KT 4500 BR NSC 10/10 Q1020=,SBPA,2022-06-15 04:00:00
1655269200000,METAR SBPA 150500Z VRB01KT 4500 BR NSC 10/09 Q1020=,SBPA,2022-06-15 05:00:00
1655272800000,METAR SBPA 150600Z 06004KT 3000 BR NSC 09/09 Q1019=,SBPA,2022-06-15 06:00:00
1655276400000,METAR SBPA 150700Z 08002KT 3000 BR NSC 08/08 Q1019=,SBPA,2022-06-15 07:00:00
1655280000000,METAR SBPA 150800Z 07002KT 3000 BR NSC 08/08 Q1019=,SBPA,2022-06-15 08:00:00
1655282220000,SPECI SBPA 150837Z 06003KT 020V090 0800 R29///// R11/P2000 FG SCT002 08/08 Q1019=,SBPA,2022-06-15 08:37:00
1655283600000,METAR SBPA 150900Z VRB01KT 0800 R29///// R11/P2000 FG SCT002 07/07 Q1019=,SBPA,2022-06-15 09:00:00
1655285640000,SPECI SBPA 150934Z 10002KT 2600 BR SCT004 07/07 Q1020=,SBPA,2022-06-15 09:34:00
1655287200000,METAR SBPA 151000Z 00000KT 2600 0500W R29///// R11/P2000 BR PRFG SCT003 07/07 Q1020=,SBPA,2022-06-15 10:00:00
1655290800000,METAR SBPA 151100Z 07002KT 0300 R29///// R11/P2000D FG NSC 07/07 Q1020=,SBPA,2022-06-15 11:00:00
1655291580000,SPECI SBPA 151113Z 07003KT 2500 0800NE R29///// R11/P2000D BR BCFG FEW002 08/08 Q1020=,SBPA,2022-06-15 11:13:00
1655294400000,METAR SBPA 151200Z VRB02KT 5000 BR FEW002 10/10 Q1020=,SBPA,2022-06-15 12:00:00
1655298000000,METAR SBPA 151300Z VRB02KT 6000 FEW002 13/11 Q1020=,SBPA,2022-06-15 13:00:00
1655301600000,METAR SBPA 151400Z 28005KT 250V310 CAVOK 15/10 Q1020=,SBPA,2022-06-15 14:00:00
1655305200000,METAR SBPA 151500Z 30003KT 270V360 CAVOK 17/12 Q1020=,SBPA,2022-06-15 15:00:00
1655308800000,METAR SBPA 151600Z 26005KT 220V290 CAVOK 18/12 Q1019=,SBPA,2022-06-15 16:00:00
1655312400000,METAR SBPA 151700Z 27004KT 190V360 CAVOK 19/10 Q1019=,SBPA,2022-06-15 17:00:00
1655316000000,METAR SBPA 151800Z VRB02KT CAVOK 21/11 Q1018=,SBPA,2022-06-15 18:00:00
1655319600000,METAR SBPA 151900Z 00000KT CAVOK 22/10 Q1018=,SBPA,2022-06-15 19:00:00
1655323200000,METAR SBPA 152000Z VRB02KT CAVOK 21/11 Q1018=,SBPA,2022-06-15 20:00:00
1655326800000,METAR SBPA 152100Z 08002KT CAVOK 15/12 Q1018=,SBPA,2022-06-15 21:00:00
1655330400000,METAR SBPA 152200Z 10004KT CAVOK 14/11 Q1018=,SBPA,2022-06-15 22:00:00
1655334000000,METAR SBPA 152300Z 08004KT CAVOK 15/11 Q1018=,SBPA,2022-06-15 23:00:00
1655251200000,METAR SBRF 150000Z 14005KT 9999 FEW030 BKN050 27/21 Q1016=,SBRF,2022-06-15 00:00:00
1655254800000,METAR SBRF 150100Z 22003KT 9999 SCT023 BKN060 25/23 Q1016=,SBRF,2022-06-15 01:00:00
1655258400000,METAR SBRF 150200Z 21004KT 9999 FEW025 BKN050 25/22 Q1015=,SBRF,2022-06-15 02:00:00
1655262000000,METAR SBRF 150300Z 18003KT 9999 FEW020 BKN050 25/23 Q1015=,SBRF,2022-06-15 03:00:00
1655265600000,METAR SBRF 150400Z 26002KT 9999 FEW020 BKN050 25/23 Q1015=,SBRF,2022-06-15 04:00:00
1655269200000,METAR SBRF 150500Z 18001KT 9999 FEW020 SCT050 24/23 Q1014=,SBRF,2022-06-15 05:00:00
1655272800000,METAR SBRF 150600Z 26002KT CAVOK 24/22 Q1014=,SBRF,2022-06-15 06:00:00
1655276400000,METAR SBRF 150700Z 00000KT CAVOK 23/22 Q1014=,SBRF,2022-06-15 07:00:00
1655280000000,METAR SBRF 150800Z 01001KT 9999 FEW025 SCT080 24/22 Q1014=,SBRF,2022-06-15 08:00:00
1655283600000,METAR SBRF 150900Z 32003KT 9999 FEW025 SCT080 23/22 Q1015=,SBRF,2022-06-15 09:00:00
1655287200000,METAR SBRF 151000Z 33001KT 9999 SCT025 24/23 Q1015=,SBRF,2022-06-15 10:00:00
1655290800000,METAR SBRF 151100Z 00000KT 9999 SCT028 25/23 Q1016=,SBRF,2022-06-15 11:00:00
1655294400000,METAR SBRF 151200Z 13003KT 9999 SCT040 27/22 Q1016=,SBRF,2022-06-15 12:00:00
1655298000000,METAR SBRF 151300Z 14006KT 9999 FEW028 BKN050 28/21 Q1016=,SBRF,2022-06-15 13:00:00
1655301600000,METAR SBRF 151400Z 17007KT 9999 SCT025 28/23 Q1015=,SBRF,2022-06-15 14:00:00
1655305200000,METAR SBRF 151500Z 12007KT 9999 SCT024 28/22 Q1015=,SBRF,2022-06-15 15:00:00
1655308800000,METAR SBRF 151600Z 15004KT 9999 SCT023 BKN050 29/23 Q1014=,SBRF,2022-06-15 16:00:00
1655312400000,METAR SBRF 151700Z 12006KT 9999 SCT024 SCT050 29/23 Q1013=,SBRF,2022-06-15 17:00:00
1655316000000,METAR SBRF 151800Z 12008KT 9000 4000N -SHRA FEW008 BKN024 FEW025TCU 25/24 Q1013=,SBRF,2022-06-15 18:00:00
1655319600000,METAR SBRF 151900Z 19005KT 160V230 9999 FEW008 SCT023 FEW025TCU BKN060 25/24 Q1013=,SBRF,2022-06-15 19:00:00
1655323200000,METAR SBRF 152000Z 20006KT 9999 VCSH SCT023 FEW025TCU BKN060 25/23 Q1013=,SBRF,2022-06-15 20:00:00
1655326800000,METAR SBRF 152100Z 20006KT 9999 FEW009 SCT023 BKN060 24/23 Q1014=,SBRF,2022-06-15 21:00:00
1655330400000,METAR SBRF 152200Z 16006KT 9999 FEW009 SCT023 BKN060 23/22 Q1014=,SBRF,2022-06-15 22:00:00
1655334000000,METAR SBRF 152300Z 22005KT 9999 FEW009 SCT020 BKN060 23/23 Q1015=,SBRF,2022-06-15 23:00:00
1655251200000,METAR SBRJ 150000Z 10002KT 9999 BKN040 19/17 Q1022=,SBRJ,2022-06-15 00:00:00
1655254800000,METAR SBRJ 150100Z 31002KT 9999 BKN040 19/17 Q1023=,SBRJ,2022-06-15 01:00:00
1655258400000,METAR SBRJ 150200Z 15003KT 9999 BKN040 19/17 Q1022=,SBRJ,2022-06-15 02:00:00
1655283000000,SPECI SBRJ 150850Z 04004KT 9999 FEW020 18/15 Q1021=,SBRJ,2022-06-15 08:50:00
1655283600000,METAR SBRJ 150900Z 04005KT 9999 FEW020 18/15 Q1021=,SBRJ,2022-06-15 09:00:00
1655287200000,METAR SBRJ 151000Z VRB02KT 9999 FEW012 18/16 Q1022=,SBRJ,2022-06-15 10:00:00
1655290800000,METAR SBRJ 151100Z 01005KT 9000 FEW009 SCT030 18/16 Q1023=,SBRJ,2022-06-15 11:00:00
1655294400000,METAR SBRJ 151200Z 34005KT 230V010 7000 FEW007 SCT009 19/17 Q1023=,SBRJ,2022-06-15 12:00:00
1655298000000,METAR SBRJ 151300Z 35006KT 310V020 9000 FEW007 SCT030 19/17 Q1023=,SBRJ,2022-06-15 13:00:00
1655301600000,METAR SBRJ 151400Z 34006KT 310V020 9999 SCT025 19/17 Q1023=,SBRJ,2022-06-15 14:00:00
1655305200000,METAR SBRJ 151500Z 31005KT 270V340 9999 FEW025 20/15 Q1022=,SBRJ,2022-06-15 15:00:00
1655308800000,METAR SBRJ 151600Z VRB02KT 9999 SCT025 22/15 Q1021=,SBRJ,2022-06-15 16:00:00
1655312400000,METAR SBRJ 151700Z 14006KT 9999 SCT025 22/14 Q1020=,SBRJ,2022-06-15 17:00:00
1655316000000,METAR SBRJ 151800Z 14007KT 9999 FEW025 BKN050 21/15 Q1020=,SBRJ,2022-06-15 18:00:00
1655319600000,METAR SBRJ 151900Z 15007KT 9999 FEW025 BKN045 21/14 Q1019=,SBRJ,2022-06-15 19:00:00
1655323200000,METAR SBRJ 152000Z 13007KT 9999 BKN045 21/15 Q1019=,SBRJ,2022-06-15 20:00:00
1655326800000,METAR SBRJ 152100Z 10008KT 9999 SCT045 21/15 Q1019=,SBRJ,2022-06-15 21:00:00
1655330400000,METAR SBRJ 152200Z 10005KT 070V130 9999 SCT045 20/15 Q1020=,SBRJ,2022-06-15 22:00:00
1655334000000,METAR SBRJ 152300Z 09005KT CAVOK 20/15 Q1020=,SBRJ,2022-06-15 23:00:00
1655251200000,METAR SBSP 150000Z 15004KT CAVOK 11/10 Q1024=,SBSP,2022-06-15 00:00:00
1655254800000,METAR SBSP 150100Z 15005KT 9999 FEW007 11/10 Q1025=,SBSP,2022-06-15 01:00:00
1655258400000,METAR SBSP 150200Z 15004KT 9999 SCT007 10/09 Q1024=,SBSP,2022-06-15 02:00:00
1655258520000,SPECI SBSP 150202Z 15003KT 100V170 9999 FEW005 11/09 Q1024=,SBSP,2022-06-15 02:02:00
1655259240000,SPECI SBSP 150214Z AUTO VRB02KT 9999 FEW005 BKN007 11/10 Q1024=,SBSP,2022-06-15 02:14:00
1655262000000,METAR SBSP 150300Z AUTO 14005KT 9999 OVC005 11/10 Q1024=,SBSP,2022-06-15 03:00:00
1655265600000,METAR SBSP 150400Z AUTO 15004KT 9000 SCT003 OVC005 11/10 Q1024=,SBSP,2022-06-15 04:00:00
1655269200000,METAR SBSP 150500Z AUTO 08007KT 060V120 9000 SCT002 OVC006 11/10 Q1024=,SBSP,2022-06-15 05:00:00
1655270640000,SPECI SBSP 150524Z AUTO 11005KT 080V150 9999 OVC004 11/10 Q1024=,SBSP,2022-06-15 05:24:00
1655272800000,METAR SBSP 150600Z AUTO 11004KT 080V140 9999 BKN005 OVC007 11/10 Q1023=,SBSP,2022-06-15 06:00:00
1655273400000,SPECI SBSP 150610Z AUTO 11006KT 9999 OVC006 11/10 Q1023=,SBSP,2022-06-15 06:10:00
1655276400000,METAR SBSP 150700Z AUTO 09004KT 010V140 9999 OVC010 12/10 Q1023=,SBSP,2022-06-15 07:00:00
1655280000000,METAR SBSP 150800Z AUTO 09004KT 050V130 9999 OVC012 12/10 Q1023=,SBSP,2022-06-15 08:00:00
1655282040000,SPECI SBSP 150834Z AUTO 10004KT 060V140 9999 SCT012 OVC015 12/10 Q1023=,SBSP,2022-06-15 08:34:00
1655282100000,SPECI SBSP 150835Z AUTO 11005KT 060V140 9999 FEW012 BKN014 12/10 Q1023=,SBSP,2022-06-15 08:35:00
1655283600000,METAR SBSP 150900Z 09004KT 040V140 9999 BKN015 12/09 Q1024=,SBSP,2022-06-15 09:00:00
1655287200000,METAR SBSP 151000Z 09005KT 050V130 9999 BKN013 12/09 Q1024=,SBSP,2022-06-15 10:00:00
1655290800000,METAR SBSP 151100Z 06007KT 9999 SCT011 12/09 Q1025=,SBSP,2022-06-15 11:00:00
1655294400000,METAR SBSP 151200Z 07006KT 040V120 9999 SCT016 13/09 Q1025=,SBSP,2022-06-15 12:00:00
1655298000000,METAR SBSP 151300Z 08006KT 020V110 9999 SCT016 13/09 Q1025=,SBSP,2022-06-15 13:00:00
1655301600000,METAR SBSP 151400Z 05006KT 010V120 9999 FEW015 14/10 Q1025=,SBSP,2022-06-15 14:00:00
1655305200000,METAR SBSP 151500Z 06005KT 010V110 9000 NSC 16/10 Q1024=,SBSP,2022-06-15 15:00:00
1655308800000,METAR SBSP 151600Z 06004KT 020V100 9000 NSC 17/10 Q1023=,SBSP,2022-06-15 16:00:00
1655312400000,METAR SBSP 151700Z 05003KT 340V110 CAVOK 18/11 Q1022=,SBSP,2022-06-15 17:00:00
1655316000000,METAR SBSP 151800Z 06003KT 350V150 CAVOK 19/10 Q1022=,SBSP,2022-06-15 18:00:00
1655319600000,METAR SBSP 151900Z 08004KT 040V120 CAVOK 18/10 Q1022=,SBSP,2022-06-15 19:00:00
1655323200000,METAR SBSP 152000Z 01004KT 340V060 CAVOK 18/10 Q1022=,SBSP,2022-06-15 20:00:00
1655326800000,METAR SBSP 152100Z 07004KT 030V100 CAVOK 17/11 Q1022=,SBSP,2022-06-15 21:00:00
1655330400000,METAR SBSP 152200Z 09004KT 060V130 CAVOK 17/11 Q1021=,SBSP,2022-06-15 22:00:00
1655334000000,METAR SBSP 152300Z VRB07KT CAVOK 16/11 Q1023=,SBSP,2022-06-15 23:00:00
1655251200000,METAR SBSV 150000Z 15014KT 9999 SCT023 SCT060 27/19 Q1018=,SBSV,2022-06-15 00:00:00
1655254800000,METAR SBSV 150100Z 16015KT 9999 SCT023 SCT060 27/19 Q1019=,SBSV,2022-06-15 01:00:00
1655258400000,METAR SBSV 150200Z 16015KT 9999 SCT023 BKN050 27/19 Q1019=,SBSV,2022-06-15 02:00:00
1655262000000,METAR SBSV 150300Z 16015KT 9999 FEW023 26/18 Q1018=,SBSV,2022-06-15 03:00:00
1655265600000,METAR SBSV 150400Z 16013KT 9999 FEW023 26/19 Q1018=,SBSV,2022-06-15 04:00:00
1655269200000,METAR SBSV 150500Z 16016KT 9999 FEW023 26/19 Q1017=,SBSV,2022-06-15 05:00:00
1655272800000,METAR SBSV 150600Z 16013KT 9999 FEW023 26/20 Q1017=,SBSV,2022-06-15 06:00:00
1655276400000,METAR SBSV 150700Z 16015KT 9999 SCT023 26/20 Q1017=,SBSV,2022-06-15 07:00:00
1655280000000,METAR SBSV 150800Z 16016G28KT 9999 FEW023 25/20 Q1017=,SBSV,2022-06-15 08:00:00
1655283600000,METAR SBSV 150900Z 16020KT 9999 VCSH BKN023 FEW025TCU 25/21 Q1018=,SBSV,2022-06-15 09:00:00
1655287200000,METAR SBSV 151000Z 16013G23KT 6000 -RA BKN023 FEW025TCU 25/21 Q1018=,SBSV,2022-06-15 10:00:00
1655290800000,METAR SBSV 151100Z 17013KT 9999 VCSH BKN023 FEW025TCU 26/20 Q1019=,SBSV,2022-06-15 11:00:00
1655294400000,METAR SBSV 151200Z 16012KT 9999 -RA BKN023 FEW025TCU 26/20 Q1019=,SBSV,2022-06-15 12:00:00
1655298000000,METAR SBSV 151300Z 18015KT 9999 BKN023 FEW025TCU 26/19 Q1019=,SBSV,2022-06-15 13:00:00
1655301600000,METAR SBSV 151400Z 16016KT 9999 BKN023 FEW025TCU 27/18 Q1019=,SBSV,2022-06-15 14:00:00
1655305200000,METAR SBSV 151500Z 17015KT 9999 BKN023 FEW025TCU 28/18 Q1018=,SBSV,2022-06-15 15:00:00
1655308800000,METAR SBSV 151600Z 16015KT 9999 BKN023 FEW025TCU BKN060 28/18 Q1018=,SBSV,2022-06-15 16:00:00
1655312400000,METAR SBSV 151700Z 16015KT 9999 BKN023 FEW025TCU 28/18 Q1017=,SBSV,2022-06-15 17:00:00
1655316000000,METAR SBSV 151800Z 15014KT 9999 SCT023 FEW026TCU BKN060 27/19 Q1017=,SBSV,2022-06-15 18:00:00
1655319600000,METAR SBSV 151900Z 16013KT 8000 VCSH SCT023 FEW026TCU BKN060 27/18 Q1017=,SBSV,2022-06-15 19:00:00
1655323200000,METAR SBSV 152000Z 16013KT 9999 SCT023 SCT070 27/18 Q1017=,SBSV,2022-06-15 20:00:00
1655326800000,METAR SBSV 152100Z 16010KT 140V200 9999 SCT023 27/18 Q1017=,SBSV,2022-06-15 21:00:00
1655330400000,METAR SBSV 152200Z 15012KT 9999 SCT023 SCT070 26/19 Q1017=,SBSV,2022-06-15 22:00:00
1655334000000,METAR SBSV 152300Z 16012KT 9999 SCT023 SCT040 26/18 Q1018=,SBSV,2022-06-15 23:00:00
1655337600000,METAR SBBR 160000Z 12006KT 9999 FEW045 SCT100 21/15 Q1022=,SBBR,2022-06-16 00:00:00
1655341200000,METAR SBBR 160100Z 08002KT 9999 FEW045 SCT100 19/14 Q1023=,SBBR,2022-06-16 01:00:00
1655344800000,METAR SBBR 160200Z 17001KT CAVOK 19/14 Q1023=,SBBR,2022-06-16 02:00:00
1655348400000,METAR SBBR 160300Z 08003KT CAVOK 18/14 Q1022=,SBBR,2022-06-16 03:00:00
1655352000000,METAR SBBR 160400Z VRB02KT CAVOK 18/14 Q1022=,SBBR,2022-06-16 04:00:00
1655355600000,METAR SBBR 160500Z 06002KT CAVOK 17/14 Q1022=,SBBR,2022-06-16 05:00:00
1655359200000,METAR SBBR 160600Z 00000KT CAVOK 16/13 Q1021=,SBBR,2022-06-16 06:00:00
1655362800000,METAR SBBR 160700Z 18002KT CAVOK 17/14 Q1021=,SBBR,2022-06-16 07:00:00
1655366400000,METAR SBBR 160800Z 00000KT CAVOK 15/13 Q1021=,SBBR,2022-06-16 08:00:00
1655370000000,METAR SBBR 160900Z 00000KT CAVOK 14/13 Q1022=,SBBR,2022-06-16 09:00:00
1655373600000,METAR SBBR 161000Z 21003KT 190V250 CAVOK 15/13 Q1022=,SBBR,2022-06-16 10:00:00
1655377200000,METAR SBBR 161100Z VRB02KT CAVOK 18/13 Q1023=,SBBR,2022-06-16 11:00:00
1655380800000,METAR SBBR 161200Z 10007KT CAVOK 19/12 Q1023=,SBBR,2022-06-16 12:00:00
1655384400000,METAR SBBR 161300Z 08007KT 050V110 CAVOK 22/12 Q1023=,SBBR,2022-06-16 13:00:00
1655388000000,METAR SBBR 161400Z 09007KT 040V110 CAVOK 24/12 Q1023=,SBBR,2022-06-16 14:00:00
1655391600000,METAR SBBR 161500Z 10009KT CAVOK 25/12 Q1022=,SBBR,2022-06-16 15:00:00
1655395200000,METAR SBBR 161600Z 11007KT 030V180 CAVOK 26/11 Q1021=,SBBR,2022-06-16 16:00:00
1655398800000,METAR SBBR 161700Z VRB09KT CAVOK 27/11 Q1020=,SBBR,2022-06-16 17:00:00
1655402400000,METAR SBBR 161800Z 11008KT CAVOK 28/11 Q1019=,SBBR,2022-06-16 18:00:00
1655406000000,METAR SBBR 161900Z 14007KT 090V190 CAVOK 27/11 Q1018=,SBBR,2022-06-16 19:00:00
1655409600000,METAR SBBR 162000Z 14008KT CAVOK 27/11 Q1018=,SBBR,2022-06-16 20:00:00
1655413200000,METAR SBBR 162100Z 13007KT CAVOK 25/12 Q1019=,SBBR,2022-06-16 21:00:00
1655416800000,METAR SBBR 162200Z 12006KT CAVOK 23/12 Q1019=,SBBR,2022-06-16 22:00:00
1655420400000,METAR SBBR 162300Z 14007KT CAVOK 22/11 Q1019=,SBBR,2022-06-16 23:00:00
1655337600000,METAR SBCF 160000Z 13004KT CAVOK 14/10 Q1023=,SBCF,2022-06-16 00:00:00
1655341200000,METAR SBCF 160100Z 12005KT CAVOK 14/10 Q1023=,SBCF,2022-06-16 01:00:00
1655344800000,METAR SBCF 160200Z 12007KT CAVOK 14/10 Q1023=,SBCF,2022-06-16 02:00:00
1655348400000,METAR SBCF 160300Z 13004KT CAVOK 13/10 Q1023=,SBCF,2022-06-16 03:00:00
1655352000000,METAR SBCF 160400Z 11008KT CAVOK 13/10 Q1023=,SBCF,2022-06-16 04:00:00
1655355600000,METAR SBCF 160500Z 16003KT CAVOK 12/09 Q1023=,SBCF,2022-06-16 05:00:00
1655359200000,METAR SBCF 160600Z 16002KT CAVOK 12/10 Q1022=,SBCF,2022-06-16 06:00:00
1655362800000,METAR SBCF 160700Z 15003KT CAVOK 11/10 Q1022=,SBCF,2022-06-16 07:00:00
1655366400000,METAR SBCF 160800Z 17002KT CAVOK 11/09 Q1022=,SBCF,2022-06-16 08:00:00
1655370000000,METAR SBCF 160900Z 16003KT CAVOK 11/09 Q1022=,SBCF,2022-06-16 09:00:00
1655373600000,METAR SBCF 161000Z 16002KT CAVOK 11/09 Q1022=,SBCF,2022-06-16 10:00:00
1655377200000,METAR SBCF 161100Z 15002KT CAVOK 12/09 Q1023=,SBCF,2022-06-16 11:00:00
1655380800000,METAR SBCF 161200Z 13003KT CAVOK 15/10 Q1023=,SBCF,2022-06-16 12:00:00
1655384400000,METAR SBCF 161300Z 16004KT CAVOK 17/10 Q1023=,SBCF,2022-06-16 13:00:00
1655388000000,METAR SBCF 161400Z 17004KT CAVOK 20/09 Q1023=,SBCF,2022-06-16 14:00:00
1655391600000,METAR SBCF 161500Z 06003KT CAVOK 22/08 Q1022=,SBCF,2022-06-16 15:00:00
1655395200000,METAR SBCF 161600Z 11005KT CAVOK 23/08 Q1020=,SBCF,2022-06-16 16:00:00
1655398800000,METAR SBCF 161700Z 17006KT CAVOK 23/08 Q1019=,SBCF,2022-06-16 17:00:00
1655402400000,METAR SBCF 161800Z 15005KT CAVOK 24/08 Q1019=,SBCF,2022-06-16 18:00:00
1655406000000,METAR SBCF 161900Z 16003KT CAVOK 24/07 Q1018=,SBCF,2022-06-16 19:00:00
1655409600000,METAR SBCF 162000Z 06008KT CAVOK 22/10 Q1019=,SBCF,2022-06-16 20:00:00
1655413200000,METAR SBCF 162100Z 06008KT CAVOK 20/10 Q1019=,SBCF,2022-06-16 21:00:00
1655416800000,METAR SBCF 162200Z 07010KT CAVOK 19/09 Q1019=,SBCF,2022-06-16 22:00:00
1655420400000,METAR SBCF 162300Z 13005KT CAVOK 17/09 Q1019=,SBCF,2022-06-16 23:00:00
1655337600000,METAR SBCT 160000Z 07005KT 9999 FEW009 13/11 Q1022=,SBCT,2022-06-16 00:00:00
1655341200000,METAR SBCT 160100Z 29005KT 5000 -TSRA SCT040 FEW048CB BKN080 14/12 Q1023=,SBCT,2022-06-16 01:00:00
1655344800000,METAR SBCT 160200Z 20004KT 6000 FEW048 BKN080 14/12 Q1023 RETS=,SBCT,2022-06-16 02:00:00
1655348400000,METAR SBCT 160300Z 09003KT 3000 BR NSC 12/11 Q1022=,SBCT,2022-06-16 03:00:00
1655352000000,METAR SBCT 160400Z 05003KT CAVOK 12/12 Q1022=,SBCT,2022-06-16 04:00:00
1655355600000,METAR SBCT 160500Z 05002KT 2500 R33/0400 R15/2000 BCFG FEW001 11/11 Q1022=,SBCT,2022-06-16 05:00:00
1655359200000,METAR SBCT 160600Z 03002KT 1500 R33/0400 R15/2000 BCFG FEW001 10/10 Q1022=,SBCT,2022-06-16 06:00:00
1655361000000,SPECI SBCT 160630Z 12004KT 0600 R15/0550 R33/1400 FG SCT001 08/08 Q1021=,SBCT,2022-06-16 06:30:00
1655362800000,METAR SBCT 160700Z 14003KT 0600 R15/0550 R33/0550 FG OVC001 08/08 Q1021=,SBCT,2022-06-16 07:00:00
1655366400000,METAR SBCT 160800Z 24002KT 0600 R33/0550 R15/0700 FG BKN005 09/09 Q1021=,SBCT,2022-06-16 08:00:00
1655370000000,METAR SBCT 160900Z 12002KT 0600 R15/0550 R33/1300 FG BKN005 08/08 Q1021=,SBCT,2022-06-16 09:00:00
1655373600000,METAR SBCT 161000Z 11003KT 0600 R15/0650 R33/0650 FG VV001 07/07 Q1022=,SBCT,2022-06-16 10:00:00
1655377200000,METAR SBCT 161100Z 00000KT 0900 R33/0800 R15/1200 FG SCT001 08/08 Q1022=,SBCT,2022-06-16 11:00:00
1655378400000,SPECI SBCT 161120Z 00000KT 5000 BR NSC 10/10 Q1022=,SBCT,2022-06-16 11:20:00
1655380800000,METAR SBCT 161200Z 00000KT 8000 NSC 12/12 Q1022=,SBCT,2022-06-16 12:00:00
1655384400000,METAR SBCT 161300Z 04002KT CAVOK 16/12 Q1022=,SBCT,2022-06-16 13:00:00
1655388000000,METAR SBCT 161400Z 02002KT CAVOK 20/11 Q1022=,SBCT,2022-06-16 14:00:00
1655391600000,METAR SBCT 161500Z 29005KT CAVOK 22/10 Q1021=,SBCT,2022-06-16 15:00:00
1655395200000,METAR SBCT 161600Z 31004KT CAVOK 23/11 Q1020=,SBCT,2022-06-16 16:00:00
1655398800000,METAR SBCT 161700Z 27008KT CAVOK 24/10 Q1019=,SBCT,2022-06-16 17:00:00
1655402400000,METAR SBCT 161800Z 29006KT 250V330 CAVOK 24/09 Q1018=,SBCT,2022-06-16 18:00:00
1655406000000,METAR SBCT 161900Z 27003KT 220V310 CAVOK 24/10 Q1018=,SBCT,2022-06-16 19:00:00
1655409600000,METAR SBCT 162000Z 33003KT 280V350 CAVOK 23/09 Q1018=,SBCT,2022-06-16 20:00:00
1655413200000,METAR SBCT 162100Z 35004KT CAVOK 21/10 Q1018=,SBCT,2022-06-16 21:00:00
1655416800000,METAR SBCT 162200Z VRB02KT CAVOK 17/11 Q1018=,SBCT,2022-06-16 22:00:00
1655420400000,METAR SBCT 162300Z 08003KT CAVOK 15/12 Q1018=,SBCT,2022-06-16 23:00:00
1655337600000,METAR SBFL 160000Z 00000KT CAVOK 14/13 Q1020=,SBFL,2022-06-16 00:00:00
1655341200000,METAR SBFL 160100Z 35004KT 9999 FEW010 15/14 Q1020=,SBFL,2022-06-16 01:00:00
1655344800000,METAR SBFL 160200Z 29005KT 9999 SCT012 BKN016 15/14 Q1020=,SBFL,2022-06-16 02:00:00
1655345160000,SPECI SBFL 160206Z 32005KT 9999 BKN013 16/15 Q1020=,SBFL,2022-06-16 02:06:00
1655348400000,METAR SBFL 160300Z 31005KT 9999 BKN013 15/14 Q1020=,SBFL,2022-06-16 03:00:00
1655352000000,METAR SBFL 160400Z 33004KT 9999 SCT014 15/14 Q1020=,SBFL,2022-06-16 04:00:00
1655355600000,METAR SBFL 160500Z 32007KT CAVOK 15/14 Q1019=,SBFL,2022-06-16 05:00:00
1655359200000,METAR SBFL 160600Z 30006KT CAVOK 14/13 Q1018=,SBFL,2022-06-16 06:00:00
1655362800000,METAR SBFL 160700Z 34008KT CAVOK 15/14 Q1018=,SBFL,2022-06-16 07:00:00
1655366400000,METAR SBFL 160800Z 35007KT CAVOK 15/14 Q1017=,SBFL,2022-06-16 08:00:00
1655370000000,METAR SBFL 160900Z 33008KT CAVOK 15/14 Q1017=,SBFL,2022-06-16 09:00:00
1655373600000,METAR SBFL 161000Z 32008KT CAVOK 15/14 Q1017=,SBFL,2022-06-16 10:00:00
1655377200000,METAR SBFL 161100Z 32009KT 9999 FEW040 16/14 Q1018=,SBFL,2022-06-16 11:00:00
1655380800000,METAR SBFL 161200Z 33012KT CAVOK 17/14 Q1018=,SBFL,2022-06-16 12:00:00
1655384400000,METAR SBFL 161300Z 33010KT CAVOK 20/15 Q1018=,SBFL,2022-06-16 13:00:00
1655388000000,METAR SBFL 161400Z 35014KT CAVOK 21/15 Q1017=,SBFL,2022-06-16 14:00:00
1655391600000,METAR SBFL 161500Z 35009KT 330V030 CAVOK 22/15 Q1016=,SBFL,2022-06-16 15:00:00
1655395200000,METAR SBFL 161600Z 35012KT 300V030 CAVOK 22/16 Q1015=,SBFL,2022-06-16 16:00:00
1655398800000,METAR SBFL 161700Z 36010KT CAVOK 23/16 Q1014=,SBFL,2022-06-16 17:00:00
1655402400000,METAR SBFL 161800Z 35009KT CAVOK 21/16 Q1014=,SBFL,2022-06-16 18:00:00
1655406000000,METAR SBFL 161900Z 35008KT CAVOK 21/16 Q1014=,SBFL,2022-06-16 19:00:00
1655409600000,METAR SBFL 162000Z 01008KT CAVOK 20/16 Q1013=,SBFL,2022-06-16 20:00:00
1655413200000,METAR SBFL 162100Z 35011KT CAVOK 18/16 Q1014=,SBFL,2022-06-16 21:00:00
1655416800000,METAR SBFL 162200Z 35013KT CAVOK 18/16 Q1014=,SBFL,2022-06-16 22:00:00
1655420400000,METAR SBFL 162300Z 34013KT CAVOK 18/16 Q1014=,SBFL,2022-06-16 23:00:00
1655337600000,METAR SBGL 160000Z 11002KT CAVOK 16/14 Q1021=,SBGL,2022-06-16 00:00:00
1655341200000,METAR SBGL 160100Z 00000KT CAVOK 16/14 Q1021=,SBGL,2022-06-16 01:00:00
1655344800000,METAR SBGL 160200Z 10001KT CAVOK 15/13 Q1021=,SBGL,2022-06-16 02:00:00
1655348400000,METAR SBGL 160300Z 12003KT CAVOK 14/13 Q1021=,SBGL,2022-06-16 03:00:00
1655352000000,METAR SBGL 160400Z 11002KT 9999 FEW015 14/13 Q1021=,SBGL,2022-06-16 04:00:00
1655355600000,METAR SBGL 160500Z 33002KT CAVOK 15/14 Q1020=,SBGL,2022-06-16 05:00:00
1655359200000,METAR SBGL 160600Z 04002KT CAVOK 14/13 Q1020=,SBGL,2022-06-16 06:00:00
1655362800000,METAR COR SBGL 160700Z 00000KT 5000 BR NSC 13/12 Q1019=,SBGL,2022-06-16 07:00:00
1655366400000,METAR COR SBGL 160800Z 08002KT 9999 FEW006 13/12 Q1020=,SBGL,2022-06-16 08:00:00
1655370000000,METAR SBGL 160900Z 21002KT 9999 SCT005 14/13 Q1019=,SBGL,2022-06-16 09:00:00
1655373600000,METAR SBGL 161000Z 30005KT 9999 FEW005 SCT007 BKN070 15/14 Q1020=,SBGL,2022-06-16 10:00:00
1655377200000,METAR SBGL 161100Z 32005KT 8000 FEW008 SCT080 16/14 Q1021=,SBGL,2022-06-16 11:00:00
1655380800000,METAR SBGL 161200Z 34004KT 310V010 CAVOK 18/14 Q1021=,SBGL,2022-06-16 12:00:00
1655384400000,METAR SBGL 161300Z VRB02KT CAVOK 20/14 Q1020=,SBGL,2022-06-16 13:00:00
1655388000000,METAR SBGL 161400Z 06004KT 350V090 CAVOK 23/14 Q1020=,SBGL,2022-06-16 14:00:00
1655391600000,METAR SBGL 161500Z 01006KT 320V070 CAVOK 24/14 Q1019=,SBGL,2022-06-16 15:00:00
1655395200000,METAR SBGL 161600Z 04007KT CAVOK 24/13 Q1017=,SBGL,2022-06-16 16:00:00
1655398800000,METAR SBGL 161700Z 09005KT 050V130 CAVOK 24/11 Q1016=,SBGL,2022-06-16 17:00:00
1655402400000,METAR SBGL 161800Z 04004KT 010V070 CAVOK 25/13 Q1016=,SBGL,2022-06-16 18:00:00
1655406000000,METAR SBGL 161900Z 10006KT 070V140 CAVOK 24/14 Q1016=,SBGL,2022-06-16 19:00:00
1655409600000,METAR SBGL 162000Z 14009KT CAVOK 21/15 Q1016=,SBGL,2022-06-16 20:00:00
1655413200000,METAR SBGL 162100Z 15007KT CAVOK 20/16 Q1016=,SBGL,2022-06-16 21:00:00
1655416800000,METAR SBGL 162200Z 15005KT CAVOK 20/15 Q1016=,SBGL,2022-06-16 22:00:00
1655420400000,METAR SBGL 162300Z 14004KT CAVOK 20/16 Q1017=,SBGL,2022-06-16 23:00:00
1655337600000,METAR SBGR 160000Z 16002KT CAVOK 13/12 Q1022=,SBGR,2022-06-16 00:00:00
1655341200000,METAR SBGR 160100Z 09004KT CAVOK 13/12 Q1022=,SBGR,2022-06-16 01:00:00
1655344800000,METAR SBGR 160200Z 08008KT CAVOK 12/12 Q1021=,SBGR,2022-06-16 02:00:00
1655348400000,METAR SBGR 160300Z 14004KT CAVOK 12/11 Q1022=,SBGR,2022-06-16 03:00:00
1655352000000,METAR SBGR 160400Z 09002KT 5000 BR NSC 11/10 Q1023=,SBGR,2022-06-16 04:00:00
1655355600000,METAR SBGR 160500Z 10002KT 5000 BR NSC 11/11 Q1022=,SBGR,2022-06-16 05:00:00
1655359200000,METAR SBGR 160600Z 07001KT 4000 BR FEW007 10/10 Q1022=,SBGR,2022-06-16 06:00:00
1655362800000,METAR SBGR 160700Z 07003KT 5000 BR NSC 09/08 Q1021=,SBGR,2022-06-16 07:00:00
1655366400000,METAR SBGR 160800Z 00000KT 5000 BR NSC 08/08 Q1021=,SBGR,2022-06-16 08:00:00
1655370000000,METAR SBGR 160900Z 09001KT 4000 BR NSC 09/08 Q1021=,SBGR,2022-06-16 09:00:00
1655373600000,METAR SBGR 161000Z 07002KT 4000 BR FEW003 08/08 Q1022=,SBGR,2022-06-16 10:00:00
1655375400000,SPECI COR SBGR 161030Z 08005KT 3000 0800E R27L/0450N R09L/0550N R09R/0600N R27R/0600 BR PRFG FEW002 09/09 Q1022=,SBGR,2022-06-16 10:30:00
1655375880000,SPECI SBGR 161038Z 09006KT 0500 R27R///// R09L/0600N R27L/0650N R09R/1000N FG BKN002 10/10 Q1022=,SBGR,2022-06-16 10:38:00
1655377200000,METAR SBGR 161100Z 08004KT 0200 R27R/0750N R09L/0900N R27L/1100N R09R/1700N FG OVC002 10/10 Q1022=,SBGR,2022-06-16 11:00:00
1655379360000,SPECI SBGR 161136Z 06007KT 0800 R27L/0700N R27R/1200U R09R/1600N R09L/P2000 FG BKN002 10/10 Q1022=,SBGR,2022-06-16 11:36:00
1655380800000,METAR SBGR 161200Z 06006KT 0800 R09R/0700D R09L/0700N R27L/1000D R27R/1300N FG BKN002 10/10 Q1023=,SBGR,2022-06-16 12:00:00
1655381400000,SPECI SBGR 161210Z 06006KT 1000 R09R/1000U R27L/1100U R27R/1500U R09L/1600U BR BKN002 10/10 Q1023=,SBGR,2022-06-16 12:10:00
1655382900000,SPECI SBGR 161235Z 07004KT 4000 BR SCT003 11/11 Q1023=,SBGR,2022-06-16 12:35:00
1655384400000,METAR SBGR 161300Z 05005KT 8000 FEW004 13/12 Q1023=,SBGR,2022-06-16 13:00:00
1655388000000,METAR SBGR 161400Z 07005KT CAVOK 17/12 Q1022=,SBGR,2022-06-16 14:00:00
1655391600000,METAR SBGR 161500Z 09006KT CAVOK 20/11 Q1021=,SBGR,2022-06-16 15:00:00
1655395200000,METAR SBGR 161600Z 07004KT CAVOK 22/10 Q1020=,SBGR,2022-06-16 16:00:00
1655398800000,METAR SBGR 161700Z 11005KT CAVOK 23/13 Q1019=,SBGR,2022-06-16 17:00:00
1655402400000,METAR SBGR 161800Z 05005KT CAVOK 24/12 Q1018=,SBGR,2022-06-16 18:00:00
1655406000000,METAR SBGR 161900Z 05004KT CAVOK 24/11 Q1018=,SBGR,2022-06-16 19:00:00
1655409600000,METAR SBGR 162000Z 08006KT CAVOK 22/12 Q1018=,SBGR,2022-06-16 20:00:00
1655413200000,METAR SBGR 162100Z 08005KT CAVOK 18/13 Q1018=,SBGR,2022-06-16 21:00:00
1655416800000,METAR SBGR 162200Z 06003KT CAVOK 17/14 Q1018=,SBGR,2022-06-16 22:00:00
1655420400000,METAR SBGR 162300Z 05004KT CAVOK 15/12 Q1019=,SBGR,2022-06-16 23:00:00
1655337600000,METAR SBKP 160000Z 15006KT 080V190 9999 FEW030 SCT100 16/11 Q1021=,SBKP,2022-06-16 00:00:00
1655341200000,METAR SBKP 160100Z 13008KT 9999 FEW030 BKN100 15/12 Q1021=,SBKP,2022-06-16 01:00:00
1655344800000,METAR SBKP 160200Z 17005KT 140V220 CAVOK 14/11 Q1021=,SBKP,2022-06-16 02:00:00
1655348400000,METAR SBKP 160300Z 14007KT CAVOK 13/11 Q1021=,SBKP,2022-06-16 03:00:00
1655352000000,METAR SBKP 160400Z 12006KT CAVOK 14/11 Q1021=,SBKP,2022-06-16 04:00:00
1655355600000,METAR SBKP 160500Z 12009KT CAVOK 14/11 Q1021=,SBKP,2022-06-16 05:00:00
1655359200000,METAR SBKP 160600Z 14006KT CAVOK 13/11 Q1020=,SBKP,2022-06-16 06:00:00
1655362800000,METAR SBKP 160700Z 13005KT CAVOK 13/10 Q1020=,SBKP,2022-06-16 07:00:00
1655366400000,METAR SBKP 160800Z 12005KT CAVOK 12/10 Q1020=,SBKP,2022-06-16 08:00:00
1655370000000,METAR SBKP 160900Z 12005KT CAVOK 12/10 Q1020=,SBKP,2022-06-16 09:00:00
1655373600000,METAR SBKP 161000Z 11005KT CAVOK 12/10 Q1021=,SBKP,2022-06-16 10:00:00
1655377200000,METAR SBKP 161100Z 12005KT 9999 3500E BCFG NSC 13/10 Q1021=,SBKP,2022-06-16 11:00:00
1655380800000,METAR SBKP 161200Z 12005KT 9999 NSC 15/11 Q1022=,SBKP,2022-06-16 12:00:00
1655384400000,METAR SBKP 161300Z 10002KT 9999 NSC 18/11 Q1022=,SBKP,2022-06-16 13:00:00
1655388000000,METAR SBKP 161400Z 11004KT 060V150 9999 NSC 21/11 Q1021=,SBKP,2022-06-16 14:00:00
1655391600000,METAR SBKP 161500Z 06003KT 010V160 CAVOK 24/08 Q1020=,SBKP,2022-06-16 15:00:00
1655395200000,METAR SBKP 161600Z 18004KT 130V220 CAVOK 25/06 Q1019=,SBKP,2022-06-16 16:00:00
1655398800000,METAR SBKP 161700Z 00000KT CAVOK 27/05 Q1018=,SBKP,2022-06-16 17:00:00
1655402400000,METAR SBKP 161800Z VRB04KT 9999 FEW040 26/08 Q1018=,SBKP,2022-06-16 18:00:00
1655406000000,METAR SBKP 161900Z 19005KT CAVOK 26/08 Q1017=,SBKP,2022-06-16 19:00:00
1655409600000,METAR SBKP 162000Z 24005KT 9999 FEW030 26/09 Q1017=,SBKP,2022-06-16 20:00:00
1655413200000,METAR SBKP 162100Z 23005KT 140V250 CAVOK 24/09 Q1017=,SBKP,2022-06-16 21:00:00
1655416800000,METAR SBKP 162200Z 24006KT CAVOK 23/09 Q1017=,SBKP,2022-06-16 22:00:00
1655420400000,METAR SBKP 162300Z 15002KT CAVOK 21/09 Q1018=,SBKP,2022-06-16 23:00:00
1655337600000,METAR SBPA 160000Z 10003KT CAVOK 12/11 Q1018=,SBPA,2022-06-16 00:00:00
1655341200000,METAR SBPA 160100Z 09004KT 9000 NSC 12/11 Q1017=,SBPA,2022-06-16 01:00:00
1655344800000,METAR SBPA 160200Z 08002KT 8000 NSC 12/11 Q1017=,SBPA,2022-06-16 02:00:00
1655348400000,METAR SBPA 160300Z VRB01KT 5000 BR BCFG NSC 11/10 Q1017=,SBPA,2022-06-16 03:00:00
1655352000000,METAR SBPA 160400Z 30003KT 4500 BR BCFG NSC 12/11 Q1017=,SBPA,2022-06-16 04:00:00
1655355600000,METAR SBPA 160500Z VRB01KT 3500 BR BCFG NSC 09/09 Q1017=,SBPA,2022-06-16 05:00:00
1655359200000,METAR SBPA 160600Z VRB01KT 3500 BR NSC 09/09 Q1017=,SBPA,2022-06-16 06:00:00
1655362800000,METAR SBPA 160700Z 26001KT 3000 BR BCFG NSC 08/08 Q1016=,SBPA,2022-06-16 07:00:00
1655366400000,METAR SBPA 160800Z 27002KT 3500 BR BCFG NSC 08/08 Q1016=,SBPA,2022-06-16 08:00:00
1655370000000,METAR SBPA 160900Z VRB02KT 6000 NSC 08/08 Q1016=,SBPA,2022-06-16 09:00:00
1655373600000,METAR SBPA 161000Z 00000KT 8000 3000E BCFG NSC 07/07 Q1016=,SBPA,2022-06-16 10:00:00
1655377200000,METAR SBPA 161100Z VRB01KT 8000 NSC 07/07 Q1016=,SBPA,2022-06-16 11:00:00
1655380800000,METAR SBPA 161200Z VRB02KT 8000 FEW010 11/11 Q1017=,SBPA,2022-06-16 12:00:00
1655384400000,METAR SBPA 161300Z 00000KT 8000 NSC 14/11 Q1017=,SBPA,2022-06-16 13:00:00
1655388000000,METAR SBPA 161400Z 00000KT 8000 NSC 17/12 Q1016=,SBPA,2022-06-16 14:00:00
1655391600000,METAR SBPA 161500Z 28005KT 250V310 8000 NSC 19/12 Q1016=,SBPA,2022-06-16 15:00:00
1655395200000,METAR SBPA 161600Z VRB02KT 9000 NSC 20/12 Q1015=,SBPA,2022-06-16 16:00:00
1655398800000,METAR SBPA 161700Z 28003KT 230V320 CAVOK 21/13 Q1013=,SBPA,2022-06-16 17:00:00
1655402400000,METAR SBPA 161800Z VRB01KT CAVOK 23/14 Q1013=,SBPA,2022-06-16 18:00:00
1655406000000,METAR SBPA 161900Z VRB02KT CAVOK 23/14 Q1012=,SBPA,2022-06-16 19:00:00
1655409600000,METAR SBPA 162000Z 19001KT CAVOK 21/16 Q1012=,SBPA,2022-06-16 20:00:00
1655413200000,METAR SBPA 162100Z 00000KT CAVOK 20/15 Q1012=,SBPA,2022-06-16 21:00:00
1655416800000,METAR SBPA 162200Z 09004KT CAVOK 18/15 Q1011=,SBPA,2022-06-16 22:00:00
1655420400000,METAR SBPA 162300Z VRB02KT CAVOK 19/15 Q1011=,SBPA,2022-06-16 23:00:00
1655337600000,METAR SBRF 160000Z 20005KT 9999 FEW009 SCT020 24/23 Q1015=,SBRF,2022-06-16 00:00:00
1655341200000,METAR SBRF 160100Z 24003KT 9999 FEW005 SCT020 BKN080 24/23 Q1015=,SBRF,2022-06-16 01:00:00
1655344800000,METAR SBRF 160200Z 25003KT 9999 FEW012 SCT022 BKN090 24/23 Q1015=,SBRF,2022-06-16 02:00:00
1655348400000,METAR SBRF 160300Z 21002KT 9999 FEW020 BKN100 24/23 Q1015=,SBRF,2022-06-16 03:00:00
1655352000000,METAR SBRF 160400Z 21004KT 9999 VCSH FEW013 SCT020 BKN100 23/23 Q1014=,SBRF,2022-06-16 04:00:00
1655355600000,METAR SBRF 160500Z 25003KT 9999 FEW013 SCT020 BKN100 23/23 Q1014=,SBRF,2022-06-16 05:00:00
1655359200000,METAR SBRF 160600Z 22005KT 9999 FEW013 SCT020 BKN100 23/22 Q1013=,SBRF,2022-06-16 06:00:00
1655362800000,METAR SBRF 160700Z 24005KT 9999 FEW020 BKN100 23/23 Q1013=,SBRF,2022-06-16 07:00:00
1655366400000,METAR SBRF 160800Z 23003KT 9999 FEW020 BKN080 23/22 Q1013=,SBRF,2022-06-16 08:00:00
1655370000000,METAR SBRF 160900Z 28002KT 9999 FEW020 SCT040 BKN080 23/22 Q1014=,SBRF,2022-06-16 09:00:00
1655373600000,METAR SBRF 161000Z 23004KT 9999 FEW020 SCT040 BKN080 24/22 Q1015=,SBRF,2022-06-16 10:00:00
1655377200000,METAR SBRF 161100Z 21005KT 9999 SCT018 BKN060 24/22 Q1015=,SBRF,2022-06-16 11:00:00
1655380800000,METAR SBRF 161200Z 23007KT 9999 SCT018 BKN060 26/23 Q1015=,SBRF,2022-06-16 12:00:00
1655384400000,METAR SBRF 161300Z 23004KT 9999 SCT017 BKN050 27/22 Q1015=,SBRF,2022-06-16 13:00:00
1655388000000,METAR SBRF 161400Z 20004KT 9999 SCT017 BKN050 27/22 Q1015=,SBRF,2022-06-16 14:00:00
1655391600000,METAR SBRF 161500Z 18006KT 9999 SCT017 FEW020TCU BKN050 27/23 Q1014=,SBRF,2022-06-16 15:00:00
1655395200000,METAR SBRF 161600Z 14008KT 9000 VCSH SCT017 FEW020TCU BKN050 28/23 Q1013=,SBRF,2022-06-16 16:00:00
1655398800000,METAR SBRF 161700Z 23006KT 150V300 9999 SCT020 BKN100 26/23 Q1013=,SBRF,2022-06-16 17:00:00
1655402400000,METAR SBRF 161800Z 26002KT 9999 BKN015 BKN100 26/23 Q1013=,SBRF,2022-06-16 18:00:00
1655406000000,METAR SBRF 161900Z 25006KT 230V290 9999 BKN015 BKN100 25/22 Q1013=,SBRF,2022-06-16 19:00:00
1655409600000,METAR SBRF 162000Z 24008KT 9999 SCT025 BKN100 25/21 Q1013=,SBRF,2022-06-16 20:00:00
1655413200000,METAR SBRF 162100Z 22007KT 190V250 9999 SCT015 BKN050 24/21 Q1013=,SBRF,2022-06-16 21:00:00
1655416800000,METAR SBRF 162200Z 21006KT 9999 SCT015 SCT060 23/22 Q1014=,SBRF,2022-06-16 22:00:00
1655420400000,METAR SBRF 162300Z 21007KT 180V240 9999 FEW020 BKN100 23/21 Q1014=,SBRF,2022-06-16 23:00:00
1655337600000,METAR SBRJ 160000Z VRB01KT CAVOK 20/14 Q1020=,SBRJ,2022-06-16 00:00:00
1655341200000,METAR SBRJ 160100Z 07010KT CAVOK 20/15 Q1020=,SBRJ,2022-06-16 01:00:00
1655344800000,METAR SBRJ 160200Z 04005KT CAVOK 19/15 Q1020=,SBRJ,2022-06-16 02:00:00
1655369400000,SPECI SBRJ 160850Z 32004KT CAVOK 17/15 Q1019=,SBRJ,2022-06-16 08:50:00
1655370000000,METAR SBRJ 160900Z 32004KT CAVOK 17/15 Q1019=,SBRJ,2022-06-16 09:00:00
1655373600000,METAR SBRJ 161000Z 32005KT CAVOK 17/16 Q1019=,SBRJ,2022-06-16 10:00:00
1655375700000,SPECI SBRJ 161035Z 32007KT 300V360 6000 BKN006 17/16 Q1020=,SBRJ,2022-06-16 10:35:00
1655377200000,METAR SBRJ 161100Z 31007KT 290V350 6000 BKN007 17/16 Q1020=,SBRJ,2022-06-16 11:00:00
1655379000000,SPECI SBRJ 161130Z 33006KT 7000 FEW007 18/16 Q1020=,SBRJ,2022-06-16 11:30:00
1655380800000,METAR SBRJ 161200Z 34006KT 320V020 7000 FEW008 18/16 Q1020=,SBRJ,2022-06-16 12:00:00
1655384400000,METAR SBRJ 161300Z 03005KT CAVOK 19/16 Q1020=,SBRJ,2022-06-16 13:00:00
1655388000000,METAR SBRJ 161400Z 02006KT CAVOK 20/16 Q1019=,SBRJ,2022-06-16 14:00:00
1655391600000,METAR SBRJ 161500Z 02005KT CAVOK 21/16 Q1018=,SBRJ,2022-06-16 15:00:00
1655395200000,METAR SBRJ 161600Z 34003KT 290V030 CAVOK 23/12 Q1017=,SBRJ,2022-06-16 16:00:00
1655398800000,METAR SBRJ 161700Z 03003KT 340V080 CAVOK 23/14 Q1016=,SBRJ,2022-06-16 17:00:00
1655402400000,METAR SBRJ 161800Z 15009KT CAVOK 22/17 Q1016=,SBRJ,2022-06-16 18:00:00
1655406000000,METAR SBRJ 161900Z 17010KT CAVOK 22/16 Q1016=,SBRJ,2022-06-16 19:00:00
1655409600000,METAR SBRJ 162000Z 17011KT CAVOK 21/17 Q1016=,SBRJ,2022-06-16 20:00:00
1655413200000,METAR SBRJ 162100Z 17007KT CAVOK 20/16 Q1016=,SBRJ,2022-06-16 21:00:00
1655416800000,METAR SBRJ 162200Z 18006KT CAVOK 20/17 Q1016=,SBRJ,2022-06-16 22:00:00
1655420400000,METAR SBRJ 162300Z 18005KT CAVOK 20/17 Q1016=,SBRJ,2022-06-16 23:00:00
1655337600000,METAR SBSP 160000Z 10003KT CAVOK 15/11 Q1023=,SBSP,2022-06-16 00:00:00
1655341200000,METAR SBSP 160100Z 09003KT 060V120 CAVOK 15/11 Q1023=,SBSP,2022-06-16 01:00:00
1655344800000,METAR SBSP 160200Z VRB03KT CAVOK 15/11 Q1023=,SBSP,2022-06-16 02:00:00
1655344860000,SPECI SBSP 160201Z VRB02KT CAVOK 15/11 Q1022=,SBSP,2022-06-16 02:01:00
1655348400000,METAR SBSP 160300Z AUTO VRB02KT CAVOK 14/11 Q1022=,SBSP,2022-06-16 03:00:00
1655352000000,METAR SBSP 160400Z AUTO 00000KT CAVOK 13/10 Q1022=,SBSP,2022-06-16 04:00:00
1655355600000,METAR SBSP 160500Z AUTO 13002KT CAVOK 12/10 Q1022=,SBSP,2022-06-16 05:00:00
1655359200000,METAR SBSP 160600Z AUTO VRB02KT CAVOK 12/10 Q1022=,SBSP,2022-06-16 06:00:00
1655362800000,METAR SBSP 160700Z AUTO VRB01KT CAVOK 12/10 Q1021=,SBSP,2022-06-16 07:00:00
1655366400000,METAR SBSP 160800Z AUTO 07001KT 9000 NCD 11/10 Q1021=,SBSP,2022-06-16 08:00:00
1655370000000,METAR SBSP 160900Z 00000KT 7000 NSC 11/09 Q1022=,SBSP,2022-06-16 09:00:00
1655373600000,METAR SBSP 161000Z 06002KT 6000 NSC 11/09 Q1022=,SBSP,2022-06-16 10:00:00
1655377200000,METAR SBSP 161100Z 04003KT 360V070 8000 NSC 13/11 Q1023=,SBSP,2022-06-16 11:00:00
1655380800000,METAR SBSP 161200Z 03004KT 360V070 8000 NSC 14/11 Q1023=,SBSP,2022-06-16 12:00:00
1655384400000,METAR SBSP 161300Z 05004KT 010V090 8000 NSC 16/11 Q1023=,SBSP,2022-06-16 13:00:00
1655388000000,METAR SBSP 161400Z 05003KT 010V090 7000 NSC 19/11 Q1023=,SBSP,2022-06-16 14:00:00
1655391600000,METAR SBSP 161500Z 07003KT 010V110 7000 NSC 21/09 Q1022=,SBSP,2022-06-16 15:00:00
1655395200000,METAR SBSP 161600Z 08003KT 010V170 8000 NSC 23/07 Q1021=,SBSP,2022-06-16 16:00:00
1655398800000,METAR SBSP 161700Z VRB02KT 8000 NSC 24/05 Q1020=,SBSP,2022-06-16 17:00:00
1655402400000,METAR SBSP 161800Z VRB02KT 9000 NSC 25/06 Q1019=,SBSP,2022-06-16 18:00:00
1655406000000,METAR SBSP 161900Z 23004KT 170V270 CAVOK 24/08 Q1019=,SBSP,2022-06-16 19:00:00
1655409600000,METAR SBSP 162000Z 24004KT CAVOK 24/09 Q1019=,SBSP,2022-06-16 20:00:00
1655413200000,METAR SBSP 162100Z 13003KT CAVOK 22/09 Q1019=,SBSP,2022-06-16 21:00:00
1655416800000,METAR SBSP 162200Z VRB02KT CAVOK 20/08 Q1019=,SBSP,2022-06-16 22:00:00
1655420400000,METAR SBSP 162300Z 00000KT CAVOK 19/07 Q1019=,SBSP,2022-06-16 23:00:00
1655337600000,METAR SBSV 160000Z 15013KT 9999 SCT023 SCT060 26/17 Q1018=,SBSV,2022-06-16 00:00:00
1655341200000,METAR SBSV 160100Z 15011KT 9999 SCT030 26/18 Q1018=,SBSV,2022-06-16 01:00:00
1655344800000,METAR SBSV 160200Z 15013KT 9999 SCT030 26/18 Q1018=,SBSV,2022-06-16 02:00:00
1655348400000,METAR SBSV 160300Z 18010KT 9999 SCT030 25/18 Q1018=,SBSV,2022-06-16 03:00:00
1655352000000,METAR SBSV 160400Z 15007KT 9999 BKN030 26/19 Q1017=,SBSV,2022-06-16 04:00:00
1655355600000,METAR SBSV 160500Z 15010KT 9999 BKN030 26/18 Q1017=,SBSV,2022-06-16 05:00:00
1655359200000,METAR SBSV 160600Z 15010KT 9999 SCT030 26/18 Q1016=,SBSV,2022-06-16 06:00:00
1655362800000,METAR SBSV 160700Z 14010KT 9999 SCT030 26/19 Q1016=,SBSV,2022-06-16 07:00:00
1655366400000,METAR SBSV 160800Z 15012KT 9999 SCT030 26/18 Q1016=,SBSV,2022-06-16 08:00:00
1655370000000,METAR SBSV 160900Z 18006KT 9999 FEW030 25/17 Q1017=,SBSV,2022-06-16 09:00:00
1655373600000,METAR SBSV 161000Z 25006KT 9999 BKN017 FEW023TCU 24/20 Q1017=,SBSV,2022-06-16 10:00:00
1655377200000,METAR SBSV 161100Z 16009KT 9999 BKN020 FEW023TCU 27/19 Q1018=,SBSV,2022-06-16 11:00:00
1655380800000,METAR SBSV 161200Z 11009KT 9999 VCSH BKN020 FEW023TCU 26/20 Q1018=,SBSV,2022-06-16 12:00:00
1655383200000,SPECI SBSV 161240Z 18006KT 130V230 9999 3000N SHRA BKN015 FEW023TCU BKN060 25/21 Q1019=,SBSV,2022-06-16 12:40:00
1655384400000,METAR SBSV 161300Z 20007KT 130V270 8000 VCSH BKN015 FEW023TCU BKN050 24/20 Q1018 RESHRA=,SBSV,2022-06-16 13:00:00
1655388000000,METAR SBSV 161400Z 21010KT 170V280 9999 -RA BKN015 FEW023TCU BKN050 24/21 Q1018=,SBSV,2022-06-16 14:00:00
1655391600000,METAR SBSV 161500Z 21012KT 180V240 9999 SCT017 FEW023TCU 26/22 Q1017=,SBSV,2022-06-16 15:00:00
1655395200000,METAR SBSV 161600Z 19010KT 160V220 9999 VCSH BKN017 FEW023TCU BKN050 26/21 Q1017=,SBSV,2022-06-16 16:00:00
1655398800000,METAR SBSV 161700Z 18009KT 140V230 9999 SCT020 SCT060 27/18 Q1016=,SBSV,2022-06-16 17:00:00
1655402400000,METAR SBSV 161800Z 16010KT 9999 SCT020 SCT060 27/18 Q1016=,SBSV,2022-06-16 18:00:00
1655406000000,METAR SBSV 161900Z 17009KT 9999 SCT020 FEW023TCU SCT060 26/18 Q1015=,SBSV,2022-06-16 19:00:00
1655409600000,METAR SBSV 162000Z 14010KT 9999 SCT020 FEW023TCU 26/18 Q1015=,SBSV,2022-06-16 20:00:00
1655413200000,METAR SBSV 162100Z 15009KT 9999 SCT020 FEW023TCU 26/17 Q1015=,SBSV,2022-06-16 21:00:00
1655416800000,METAR SBSV 162200Z 14008KT 9999 SCT020 FEW023TCU 26/17 Q1015=,SBSV,2022-06-16 22:00:00
1655420400000,METAR SBSV 162300Z 15009KT 9999 SCT020 26/18 Q1016=,SBSV,2022-06-16 23:00:00
1655424000000,METAR SBBR 170000Z 14005KT 110V180 CAVOK 21/11 Q1020=,SBBR,2022-06-17 00:00:00
1655427600000,METAR SBBR 170100Z 00000KT CAVOK 18/11 Q1020=,SBBR,2022-06-17 01:00:00
1655431200000,METAR SBBR 170200Z 00000KT CAVOK 17/12 Q1020=,SBBR,2022-06-17 02:00:00
1655434800000,METAR SBBR 170300Z 20003KT CAVOK 16/11 Q1021=,SBBR,2022-06-17 03:00:00
1655438400000,METAR SBBR 170400Z 27003KT CAVOK 14/11 Q1020=,SBBR,2022-06-17 04:00:00
1655442000000,METAR SBBR 170500Z 30001KT CAVOK 13/11 Q1020=,SBBR,2022-06-17 05:00:00
1655445600000,METAR SBBR 170600Z 26002KT CAVOK 13/11 Q1019=,SBBR,2022-06-17 06:00:00
1655449200000,METAR SBBR 170700Z 22002KT CAVOK 13/10 Q1019=,SBBR,2022-06-17 07:00:00
1655452800000,METAR SBBR 170800Z 27001KT CAVOK 11/10 Q1019=,SBBR,2022-06-17 08:00:00
1655456400000,METAR SBBR 170900Z 25002KT CAVOK 12/10 Q1020=,SBBR,2022-06-17 09:00:00
1655460000000,METAR SBBR 171000Z 30002KT CAVOK 11/10 Q1020=,SBBR,2022-06-17 10:00:00
1655463600000,METAR SBBR 171100Z 00000KT CAVOK 14/11 Q1020=,SBBR,2022-06-17 11:00:00
1655467200000,METAR SBBR 171200Z VRB02KT CAVOK 19/11 Q1021=,SBBR,2022-06-17 12:00:00
1655470800000,METAR SBBR 171300Z 06005KT 010V100 CAVOK 21/10 Q1021=,SBBR,2022-06-17 13:00:00
1655474400000,METAR SBBR 171400Z 03005KT 360V070 CAVOK 23/09 Q1021=,SBBR,2022-06-17 14:00:00
1655478000000,METAR SBBR 171500Z 04004KT 330V110 CAVOK 25/08 Q1020=,SBBR,2022-06-17 15:00:00
1655481600000,METAR SBBR 171600Z 06005KT 010V110 CAVOK 26/05 Q1019=,SBBR,2022-06-17 16:00:00
1655485200000,METAR SBBR 171700Z VRB03KT CAVOK 27/04 Q1018=,SBBR,2022-06-17 17:00:00
1655488800000,METAR SBBR 171800Z 19005KT 150V240 CAVOK 28/04 Q1017=,SBBR,2022-06-17 18:00:00
1655492400000,METAR SBBR 171900Z 14006KT 120V200 CAVOK 28/07 Q1017=,SBBR,2022-06-17 19:00:00
1655496000000,METAR SBBR 172000Z 16007KT CAVOK 27/05 Q1017=,SBBR,2022-06-17 20:00:00
1655499600000,METAR SBBR 172100Z 14005KT CAVOK 25/06 Q1017=,SBBR,2022-06-17 21:00:00
1655503200000,METAR SBBR 172200Z 19004KT CAVOK 23/06 Q1018=,SBBR,2022-06-17 22:00:00
1655506800000,METAR SBBR 172300Z 23003KT CAVOK 21/06 Q1018=,SBBR,2022-06-17 23:00:00
1655424000000,METAR SBCF 170000Z 10008KT CAVOK 18/09 Q1020=,SBCF,2022-06-17 00:00:00
1655427600000,METAR SBCF 170100Z 13003KT CAVOK 16/09 Q1020=,SBCF,2022-06-17 01:00:00
1655431200000,METAR SBCF 170200Z 14003KT CAVOK 15/09 Q1020=,SBCF,2022-06-17 02:00:00
1655434800000,METAR SBCF 170300Z 11004KT CAVOK 15/09 Q1020=,SBCF,2022-06-17 03:00:00
1655438400000,METAR SBCF 170400Z 14003KT CAVOK 14/09 Q1020=,SBCF,2022-06-17 04:00:00
1655442000000,METAR SBCF 170500Z 13002KT CAVOK 13/09 Q1019=,SBCF,2022-06-17 05:00:00
1655445600000,METAR SBCF 170600Z VRB02KT CAVOK 13/09 Q1019=,SBCF,2022-06-17 06:00:00
1655449200000,METAR SBCF 170700Z 15003KT CAVOK 12/10 Q1018=,SBCF,2022-06-17 07:00:00
1655452800000,METAR SBCF 170800Z 15002KT CAVOK 11/09 Q1019=,SBCF,2022-06-17 08:00:00
1655456400000,METAR SBCF 170900Z 14003KT CAVOK 11/09 Q1019=,SBCF,2022-06-17 09:00:00
1655460000000,METAR SBCF 171000Z 15002KT CAVOK 12/09 Q1019=,SBCF,2022-06-17 10:00:00
1655463600000,METAR SBCF 171100Z 14003KT CAVOK 12/09 Q1020=,SBCF,2022-06-17 11:00:00
1655467200000,METAR SBCF 171200Z 15003KT CAVOK 15/11 Q1020=,SBCF,2022-06-17 12:00:00
1655470800000,METAR SBCF 171300Z 18002KT CAVOK 18/10 Q1020=,SBCF,2022-06-17 13:00:00
1655474400000,METAR SBCF 171400Z 12002KT CAVOK 21/10 Q1020=,SBCF,2022-06-17 14:00:00
1655478000000,METAR SBCF 171500Z 06003KT CAVOK 23/10 Q1019=,SBCF,2022-06-17 15:00:00
1655481600000,METAR SBCF 171600Z 07004KT CAVOK 24/10 Q1018=,SBCF,2022-06-17 16:00:00
1655485200000,METAR SBCF 171700Z 07006KT CAVOK 25/09 Q1017=,SBCF,2022-06-17 17:00:00
1655488800000,METAR SBCF 171800Z 31006KT CAVOK 26/09 Q1016=,SBCF,2022-06-17 18:00:00
1655492400000,METAR SBCF 171900Z 28004KT CAVOK 26/08 Q1016=,SBCF,2022-06-17 19:00:00
1655496000000,METAR SBCF 172000Z 03005KT CAVOK 24/09 Q1016=,SBCF,2022-06-17 20:00:00
1655499600000,METAR SBCF 172100Z 35005KT CAVOK 23/08 Q1016=,SBCF,2022-06-17 21:00:00
1655503200000,METAR SBCF 172200Z 29002KT CAVOK 21/08 Q1017=,SBCF,2022-06-17 22:00:00
1655506800000,METAR SBCF 172300Z 28002KT CAVOK 20/07 Q1017=,SBCF,2022-06-17 23:00:00
1655424000000,METAR SBCT 170000Z 05004KT CAVOK 14/12 Q1018=,SBCT,2022-06-17 00:00:00
1655427600000,METAR SBCT 170100Z 05004KT CAVOK 14/13 Q1018=,SBCT,2022-06-17 01:00:00
1655431200000,METAR SBCT 170200Z 04004KT CAVOK 14/13 Q1018=,SBCT,2022-06-17 02:00:00
1655434800000,METAR SBCT 170300Z 04005KT CAVOK 14/13 Q1018=,SBCT,2022-06-17 03:00:00
1655438400000,METAR SBCT 170400Z 01004KT CAVOK 13/12 Q1018=,SBCT,2022-06-17 04:00:00
1655442000000,METAR SBCT 170500Z 04004KT CAVOK 13/12 Q1017=,SBCT,2022-06-17 05:00:00
1655445600000,METAR SBCT 170600Z 03004KT CAVOK 13/12 Q1016=,SBCT,2022-06-17 06:00:00
1655449200000,METAR SBCT 170700Z 04005KT CAVOK 12/11 Q1015=,SBCT,2022-06-17 07:00:00
1655452800000,METAR SBCT 170800Z 05004KT CAVOK 12/11 Q1015=,SBCT,2022-06-17 08:00:00
1655456400000,METAR SBCT 170900Z 04005KT CAVOK 12/11 Q1015=,SBCT,2022-06-17 09:00:00
1655460000000,METAR SBCT 171000Z 04005KT CAVOK 13/12 Q1014=,SBCT,2022-06-17 10:00:00
1655463600000,METAR SBCT 171100Z VRB02KT CAVOK 13/12 Q1015=,SBCT,2022-06-17 11:00:00
1655467200000,METAR SBCT 171200Z 09002KT CAVOK 16/13 Q1015=,SBCT,2022-06-17 12:00:00
1655470800000,METAR SBCT 171300Z 36006KT 320V030 CAVOK 20/13 Q1015=,SBCT,2022-06-17 13:00:00
1655473380000,SPECI SBCT 171343Z 34020G30KT CAVOK 22/12 Q1014=,SBCT,2022-06-17 13:43:00
1655474400000,METAR SBCT 171400Z 34020KT CAVOK 23/12 Q1014=,SBCT,2022-06-17 14:00:00
1655478000000,METAR SBCT 171500Z 34020KT CAVOK 24/12 Q1013=,SBCT,2022-06-17 15:00:00
1655481600000,METAR SBCT 171600Z 34014G25KT CAVOK 25/11 Q1012=,SBCT,2022-06-17 16:00:00
1655485200000,METAR SBCT 171700Z 34020KT 300V360 CAVOK 25/12 Q1011=,SBCT,2022-06-17 17:00:00
1655488800000,METAR SBCT 171800Z 33019G29KT 9999 SCT040 BKN100 23/11 Q1011=,SBCT,2022-06-17 18:00:00
1655492400000,METAR SBCT 171900Z 30013KT 9999 SCT040 BKN100 20/13 Q1012=,SBCT,2022-06-17 19:00:00
1655496000000,METAR SBCT 172000Z 31014KT 9999 BKN040 BKN100 19/13 Q1012=,SBCT,2022-06-17 20:00:00
1655499600000,METAR SBCT 172100Z 32015KT 9999 -RA BKN030 BKN100 17/14 Q1012=,SBCT,2022-06-17 21:00:00
1655503200000,METAR SBCT 172200Z 32011KT 9999 -RA BKN030 OVC100 16/14 Q1012=,SBCT,2022-06-17 22:00:00
1655506800000,METAR SBCT 172300Z 33014KT 9999 -RA SCT015 BKN090 16/15 Q1012=,SBCT,2022-06-17 23:00:00
1655424000000,METAR SBFL 170000Z 34011KT CAVOK 18/16 Q1014=,SBFL,2022-06-17 00:00:00
1655427600000,METAR SBFL 170100Z 34012KT CAVOK 18/16 Q1014=,SBFL,2022-06-17 01:00:00
1655431200000,METAR SBFL 170200Z 34010KT 9999 BKN010 18/17 Q1014=,SBFL,2022-06-17 02:00:00
1655434800000,METAR SBFL 170300Z 34010KT 9999 BKN010 18/17 Q1013=,SBFL,2022-06-17 03:00:00
1655438400000,METAR SBFL 170400Z 33010KT 9999 BKN010 18/16 Q1012=,SBFL,2022-06-17 04:00:00
1655442000000,METAR SBFL 170500Z 35011KT 9999 SCT010 18/16 Q1012=,SBFL,2022-06-17 05:00:00
1655445600000,METAR SBFL 170600Z 36008KT 9999 BKN010 18/16 Q1010=,SBFL,2022-06-17 06:00:00
1655449200000,METAR SBFL 170700Z 34010KT 9999 BKN010 18/16 Q1010=,SBFL,2022-06-17 07:00:00
1655452800000,METAR SBFL 170800Z 14018KT 9999 BKN010 18/16 Q1009=,SBFL,2022-06-17 08:00:00
1655454240000,SPECI SBFL 170824Z 34014KT 9999 SCT010 18/16 Q1009=,SBFL,2022-06-17 08:24:00
1655456400000,METAR SBFL 170900Z 34012KT 9999 SCT010 18/16 Q1009=,SBFL,2022-06-17 09:00:00
1655460000000,METAR SBFL 171000Z 33014KT 9999 FEW010 BKN050 18/16 Q1009=,SBFL,2022-06-17 10:00:00
1655463600000,METAR SBFL 171100Z 35012KT 9999 FEW025 BKN100 18/16 Q1009=,SBFL,2022-06-17 11:00:00
1655467200000,METAR SBFL 171200Z 34013KT 9999 FEW025 BKN100 18/16 Q1009=,SBFL,2022-06-17 12:00:00
1655470800000,METAR SBFL 171300Z 35012KT 9999 FEW025 BKN100 19/16 Q1009=,SBFL,2022-06-17 13:00:00
1655474400000,METAR SBFL 171400Z 34012KT 9999 FEW025 BKN100 20/17 Q1008=,SBFL,2022-06-17 14:00:00
1655478000000,METAR SBFL 171500Z 34012KT 9999 FEW025 BKN100 20/17 Q1007=,SBFL,2022-06-17 15:00:00
1655481600000,METAR SBFL 171600Z 14003KT 9999 FEW025 BKN080 19/17 Q1007=,SBFL,2022-06-17 16:00:00
1655485200000,METAR SBFL 171700Z 23006KT 3500 -RA BR FEW025 BKN046 BKN080 19/17 Q1008=,SBFL,2022-06-17 17:00:00
1655486220000,SPECI SBFL 171717Z 09008KT 9999 FEW010 BKN050 OVC080 19/17 Q1006=,SBFL,2022-06-17 17:17:00
1655488800000,METAR SBFL 171800Z 10007KT 9999 FEW009 BKN050 BKN090 19/17 Q1006=,SBFL,2022-06-17 18:00:00
1655492400000,METAR SBFL 171900Z 35010KT 4500 -RA FEW009 SCT050 OVC100 19/17 Q1005=,SBFL,2022-06-17 19:00:00
1655496000000,METAR SBFL 172000Z 01004KT 330V060 4500 BR FEW009 SCT050 BKN083 19/18 Q1003=,SBFL,2022-06-17 20:00:00
1655496300000,SPECI SBFL 172005Z 33005KT 300V360 9999 FEW009 SCT050 BKN100 19/17 Q1003=,SBFL,2022-06-17 20:05:00
1655499600000,METAR SBFL 172100Z 25005KT 210V290 9999 FEW009 SCT050 18/17 Q1004=,SBFL,2022-06-17 21:00:00
1655503200000,METAR SBFL 172200Z 30004KT 270V340 9000 -RA BKN030 OVC083 19/18 Q1006=,SBFL,2022-06-17 22:00:00
1655506800000,METAR COR SBFL 172300Z VRB03KT CAVOK 19/18 Q1006=,SBFL,2022-06-17 23:00:00
1655424000000,METAR SBGL 170000Z VRB02KT CAVOK 18/15 Q1017=,SBGL,2022-06-17 00:00:00
1655427600000,METAR SBGL 170100Z 02003KT 330V070 CAVOK 18/15 Q1017=,SBGL,2022-06-17 01:00:00
1655431200000,METAR SBGL 170200Z 07002KT CAVOK 17/16 Q1017=,SBGL,2022-06-17 02:00:00
1655434800000,METAR SBGL 170300Z 04002KT CAVOK 17/15 Q1016=,SBGL,2022-06-17 03:00:00
1655438400000,METAR SBGL 170400Z 08002KT CAVOK 17/15 Q1016=,SBGL,2022-06-17 04:00:00
1655442000000,METAR SBGL 170500Z 07002KT CAVOK 16/15 Q1016=,SBGL,2022-06-17 05:00:00
1655445600000,METAR SBGL 170600Z 03002KT 9000 NSC 16/15 Q1015=,SBGL,2022-06-17 06:00:00
1655449200000,METAR SBGL 170700Z 02002KT 8000 NSC 15/14 Q1014=,SBGL,2022-06-17 07:00:00
1655451000000,SPECI SBGL 170730Z 00000KT 1900 0800NE R28/1100 R10/1200 R33/1800 R15/P2000 BR BKN002 BKN005 16/15 Q1015=,SBGL,2022-06-17 07:30:00
1655452800000,METAR SBGL 170800Z 04002KT 7000 FEW016 15/14 Q1014=,SBGL,2022-06-17 08:00:00
1655456400000,METAR SBGL 170900Z 02002KT 6000 SCT014 15/14 Q1014=,SBGL,2022-06-17 09:00:00
1655457480000,SPECI SBGL 170918Z VRB02KT 2000 BR OVC005 15/14 Q1014=,SBGL,2022-06-17 09:18:00
1655460000000,METAR SBGL 171000Z VRB02KT 0100 R28/0275 R10/0350 R15/2000 R33/2000 FG VV004 16/15 Q1014=,SBGL,2022-06-17 10:00:00
1655462100000,SPECI SBGL 171035Z 00000KT 1900 0900NE R33/1700 R10/P2000 R15/P2000 R28/P2000 BR BKN002 BKN005 16/15 Q1015=,SBGL,2022-06-17 10:35:00
1655463600000,METAR SBGL 171100Z 01002KT 1900 R10/P2000 R28/P2000 R15/P2000 R33/P2000 BR BKN002 BKN005 17/16 Q1015=,SBGL,2022-06-17 11:00:00
1655467200000,METAR SBGL 171200Z 07002KT 1100 R28/0750 R10/1100 R15/P2000 R33/P2000 BR VV002 17/16 Q1015=,SBGL,2022-06-17 12:00:00
1655470800000,METAR SBGL 171300Z 00000KT 1200 R10/P2000 R28/P2000 R15/P2000 R33/P2000 BR BKN002 18/17 Q1014=,SBGL,2022-06-17 13:00:00
1655474400000,METAR SBGL 171400Z 35003KT 4500 HZ NSC 21/17 Q1013=,SBGL,2022-06-17 14:00:00
1655475900000,SPECI SBGL 171425Z 35003KT 5000 HZ NSC 22/15 Q1013=,SBGL,2022-06-17 14:25:00
1655478000000,METAR SBGL 171500Z 13004KT 6000 NSC 23/15 Q1013=,SBGL,2022-06-17 15:00:00
1655481600000,METAR SBGL 171600Z 06004KT 7000 NSC 25/15 Q1011=,SBGL,2022-06-17 16:00:00
1655485200000,METAR SBGL 171700Z 15004KT 8000 NSC 26/15 Q1010=,SBGL,2022-06-17 17:00:00
1655488800000,METAR SBGL 171800Z 14005KT CAVOK 25/15 Q1009=,SBGL,2022-06-17 18:00:00
1655492400000,METAR SBGL 171900Z 13003KT CAVOK 26/15 Q1009=,SBGL,2022-06-17 19:00:00
1655496000000,METAR SBGL 172000Z 14004KT CAVOK 23/14 Q1009=,SBGL,2022-06-17 20:00:00
1655499600000,METAR SBGL 172100Z 14003KT CAVOK 20/15 Q1009=,SBGL,2022-06-17 21:00:00
1655503200000,METAR SBGL 172200Z 13003KT CAVOK 19/15 Q1009=,SBGL,2022-06-17 22:00:00
1655506800000,METAR SBGL 172300Z 15004KT CAVOK 19/16 Q1009=,SBGL,2022-06-17 23:00:00
1655424000000,METAR SBGR 170000Z 09001KT CAVOK 13/13 Q1019=,SBGR,2022-06-17 00:00:00
1655427600000,METAR SBGR 170100Z 10002KT 9000 NSC 13/12 Q1019=,SBGR,2022-06-17 01:00:00
1655431200000,METAR SBGR 170200Z 00000KT 6000 NSC 12/11 Q1019=,SBGR,2022-06-17 02:00:00
1655434800000,METAR SBGR 170300Z 09001KT 8000 NSC 11/11 Q1019=,SBGR,2022-06-17 03:00:00
1655438400000,METAR SBGR 170400Z 08003KT CAVOK 11/10 Q1019=,SBGR,2022-06-17 04:00:00
1655442000000,METAR SBGR 170500Z 08004KT CAVOK 11/10 Q1018=,SBGR,2022-06-17 05:00:00
1655445600000,METAR SBGR 170600Z 07004KT CAVOK 10/09 Q1017=,SBGR,2022-06-17 06:00:00
1655449200000,METAR SBGR 170700Z 07004KT CAVOK 10/10 Q1017=,SBGR,2022-06-17 07:00:00
1655452800000,METAR SBGR 170800Z 05003KT CAVOK 10/10 Q1017=,SBGR,2022-06-17 08:00:00
1655456400000,METAR SBGR 170900Z 07003KT 7000 NSC 09/09 Q1017=,SBGR,2022-06-17 09:00:00
1655460000000,METAR SBGR 171000Z 08004KT 6000 BCFG NSC 10/10 Q1017=,SBGR,2022-06-17 10:00:00
1655463600000,METAR SBGR 171100Z 07007KT 9999 4000E BCFG NSC 12/11 Q1017=,SBGR,2022-06-17 11:00:00
1655467200000,METAR SBGR 171200Z 07007KT CAVOK 14/12 Q1018=,SBGR,2022-06-17 12:00:00
1655470800000,METAR SBGR 171300Z 07008KT CAVOK 18/11 Q1017=,SBGR,2022-06-17 13:00:00
1655474400000,METAR SBGR 171400Z 05005KT CAVOK 21/12 Q1017=,SBGR,2022-06-17 14:00:00
1655478000000,METAR SBGR 171500Z 35009KT CAVOK 25/06 Q1015=,SBGR,2022-06-17 15:00:00
1655481600000,METAR SBGR 171600Z 31011KT CAVOK 26/06 Q1015=,SBGR,2022-06-17 16:00:00
1655485200000,METAR SBGR 171700Z 30012KT CAVOK 26/08 Q1014=,SBGR,2022-06-17 17:00:00
1655488800000,METAR SBGR 171800Z 31012KT CAVOK 26/06 Q1013=,SBGR,2022-06-17 18:00:00
1655492400000,METAR SBGR 171900Z 33009KT CAVOK 26/06 Q1013=,SBGR,2022-06-17 19:00:00
1655496000000,METAR COR SBGR 172000Z 30007KT CAVOK 24/07 Q1013=,SBGR,2022-06-17 20:00:00
1655499600000,METAR SBGR 172100Z 34007KT CAVOK 23/06 Q1013=,SBGR,2022-06-17 21:00:00
1655503200000,METAR SBGR 172200Z 33008KT CAVOK 22/07 Q1014=,SBGR,2022-06-17 22:00:00
1655506800000,METAR SBGR 172300Z 32009KT CAVOK 23/07 Q1014=,SBGR,2022-06-17 23:00:00
1655424000000,METAR SBKP 170000Z 14004KT CAVOK 19/10 Q1018=,SBKP,2022-06-17 00:00:00
1655427600000,METAR SBKP 170100Z 13006KT CAVOK 17/11 Q1018=,SBKP,2022-06-17 01:00:00
1655431200000,METAR SBKP 170200Z 12008KT CAVOK 16/11 Q1018=,SBKP,2022-06-17 02:00:00
1655434800000,METAR SBKP 170300Z 11008KT CAVOK 16/11 Q1018=,SBKP,2022-06-17 03:00:00
1655438400000,METAR SBKP 170400Z 11006KT CAVOK 15/11 Q1018=,SBKP,2022-06-17 04:00:00
1655442000000,METAR SBKP 170500Z 11007KT CAVOK 14/11 Q1017=,SBKP,2022-06-17 05:00:00
1655445600000,METAR SBKP 170600Z 10008KT CAVOK 14/11 Q1017=,SBKP,2022-06-17 06:00:00
1655449200000,METAR SBKP 170700Z 11008KT CAVOK 13/11 Q1016=,SBKP,2022-06-17 07:00:00
1655452800000,METAR SBKP 170800Z 11008KT CAVOK 13/10 Q1015=,SBKP,2022-06-17 08:00:00
1655456400000,METAR SBKP 170900Z 12007KT CAVOK 12/10 Q1016=,SBKP,2022-06-17 09:00:00
1655460000000,METAR SBKP 171000Z 07005KT 9000 NSC 12/09 Q1016=,SBKP,2022-06-17 10:00:00
1655463600000,METAR SBKP 171100Z 00000KT 7000 NSC 14/10 Q1017=,SBKP,2022-06-17 11:00:00
1655467200000,METAR SBKP 171200Z 07005KT CAVOK 16/10 Q1017=,SBKP,2022-06-17 12:00:00
1655470800000,METAR SBKP 171300Z 03007KT CAVOK 20/10 Q1017=,SBKP,2022-06-17 13:00:00
1655474400000,METAR SBKP 171400Z 03011KT CAVOK 23/09 Q1016=,SBKP,2022-06-17 14:00:00
1655478000000,METAR SBKP 171500Z 01009KT CAVOK 24/09 Q1016=,SBKP,2022-06-17 15:00:00
1655481600000,METAR SBKP 171600Z 36009KT CAVOK 26/09 Q1015=,SBKP,2022-06-17 16:00:00
1655485200000,METAR SBKP 171700Z 33010KT CAVOK 27/06 Q1014=,SBKP,2022-06-17 17:00:00
1655488800000,METAR SBKP 171800Z 34008KT CAVOK 27/06 Q1013=,SBKP,2022-06-17 18:00:00
1655492400000,METAR SBKP 171900Z 36009KT CAVOK 27/08 Q1013=,SBKP,2022-06-17 19:00:00
1655496000000,METAR SBKP 172000Z 34006KT CAVOK 26/06 Q1013=,SBKP,2022-06-17 20:00:00
1655499600000,METAR SBKP 172100Z 34004KT CAVOK 24/06 Q1013=,SBKP,2022-06-17 21:00:00
1655503200000,METAR SBKP 172200Z 02006KT CAVOK 23/07 Q1013=,SBKP,2022-06-17 22:00:00
1655506800000,METAR SBKP 172300Z 35005KT CAVOK 22/08 Q1014=,SBKP,2022-06-17 23:00:00
1655424000000,METAR SBPA 170000Z VRB02KT 8000 NSC 18/15 Q1011=,SBPA,2022-06-17 00:00:00
1655427600000,METAR SBPA 170100Z 12005KT 8000 NSC 19/15 Q1009=,SBPA,2022-06-17 01:00:00
1655431200000,METAR SBPA 170200Z 02003KT 290V060 8000 NSC 19/15 Q1008=,SBPA,2022-06-17 02:00:00
1655434800000,METAR SBPA 170300Z 08004KT 8000 FEW040TCU BKN100 17/14 Q1007=,SBPA,2022-06-17 03:00:00
1655438400000,METAR SBPA 170400Z VRB01KT 8000 FEW040TCU BKN090 17/15 Q1006=,SBPA,2022-06-17 04:00:00
1655440560000,SPECI SBPA 170436Z 27017G31KT 8000 -RA VCTS SCT020 FEW040CB BKN100 17/15 Q1008=,SBPA,2022-06-17 04:36:00
1655442000000,METAR SBPA 170500Z 25012KT 6000 -RA VCTS SCT020 FEW040CB BKN080 18/15 Q1008=,SBPA,2022-06-17 05:00:00
1655442420000,SPECI SBPA 170507Z 26009KT 4000 -RA SCT020 FEW040TCU BKN070 17/16 Q1009=,SBPA,2022-06-17 05:07:00
1655445600000,METAR SBPA 170600Z 05004KT 020V080 4500 BR FEW040TCU OVC100 17/16 Q1006=,SBPA,2022-06-17 06:00:00
1655449200000,METAR SBPA 170700Z 10006KT 4500 BR FEW040TCU OVC090 17/16 Q1004=,SBPA,2022-06-17 07:00:00
1655451480000,SPECI SBPA 170738Z 24014G28KT 4000 -TSRA BKN010 FEW040CB OVC080 17/16 Q1006=,SBPA,2022-06-17 07:38:00
1655452800000,METAR SBPA 170800Z 23009KT 4000 -TSRA SCT020 FEW040CB OVC070 17/16 Q1006=,SBPA,2022-06-17 08:00:00
1655454240000,SPECI SBPA 170824Z VRB02KT 3500 TSRA FEW040CB BKN050 OVC070 17/16 Q1006=,SBPA,2022-06-17 08:24:00
1655456400000,METAR SBPA 170900Z 06004KT 3500 TSRA BKN035 FEW040CB OVC060 17/17 Q1006=,SBPA,2022-06-17 09:00:00
1655460000000,METAR SBPA 171000Z 08004KT 3500 -RA SCT008 BKN013 FEW040TCU OVC070 17/16 Q1006 RETSRA=,SBPA,2022-06-17 10:00:00
1655463600000,METAR SBPA 171100Z 12004KT 3100 RA SCT005 BKN013 OVC060 17/17 Q1006=,SBPA,2022-06-17 11:00:00
1655467200000,METAR SBPA 171200Z 10006KT 3500 -RA SCT005 BKN010 OVC060 17/17 Q1005 RERA=,SBPA,2022-06-17 12:00:00
1655469420000,SPECI SBPA 171237Z 23003KT 2000 RA SCT005 BKN009 OVC070 17/17 Q1006=,SBPA,2022-06-17 12:37:00
1655470800000,METAR SBPA 171300Z 16004KT 2000 RA BKN009 OVC030 17/17 Q1005=,SBPA,2022-06-17 13:00:00
1655474400000,METAR SBPA 171400Z 06004KT 3500 -RA BKN009 OVC025 17/17 Q1004 RERA=,SBPA,2022-06-17 14:00:00
1655478000000,METAR SBPA 171500Z 03005KT 4000 -RA BKN009 OVC030 18/18 Q1003=,SBPA,2022-06-17 15:00:00
1655481600000,METAR SBPA 171600Z 28004KT 240V310 4000 -RA BR BKN008 OVC022 18/18 Q1003=,SBPA,2022-06-17 16:00:00
1655485200000,METAR SBPA 171700Z 20014KT 180V260 2500 -RA BR BKN004 OVC012 16/15 Q1003=,SBPA,2022-06-17 17:00:00
1655487180000,SPECI SBPA 171733Z 20010KT 170V240 3500 -RA BR BKN008 OVC012 16/15 Q1004=,SBPA,2022-06-17 17:33:00
1655488800000,METAR SBPA 171800Z 20010KT 150V230 3500 -RA BR FEW004 BKN008 OVC019 15/14 Q1004=,SBPA,2022-06-17 18:00:00
1655490900000,SPECI SBPA 171835Z 20012KT 170V230 9999 BKN008 BKN019 OVC026 15/14 Q1005=,SBPA,2022-06-17 18:35:00
1655492400000,METAR SBPA 171900Z 21010KT 9999 FEW008 BKN010 OVC026 15/14 Q1005=,SBPA,2022-06-17 19:00:00
1655496000000,METAR SBPA 172000Z 24008KT 9999 FEW005 SCT011 OVC036 15/13 Q1007=,SBPA,2022-06-17 20:00:00
1655499600000,METAR SBPA 172100Z 25004KT 210V280 9999 VCSH FEW005 BKN030 15/13 Q1008=,SBPA,2022-06-17 21:00:00
1655503200000,METAR SBPA 172200Z 32004KT 9999 SCT010 OVC040 15/14 Q1009=,SBPA,2022-06-17 22:00:00
1655506800000,METAR COR SBPA 172300Z 26009KT 9000 -RA FEW005 BKN055 15/14 Q1011=,SBPA,2022-06-17 23:00:00
1655508180000,SPECI SBPA 172323Z 28009KT 4000 -RA BKN011 OVC032 14/14 Q1011=,SBPA,2022-06-17 23:23:00
1655424000000,METAR SBRF 170000Z 20007KT 170V230 9999 SCT012 SCT020 BKN060 23/21 Q1014=,SBRF,2022-06-17 00:00:00
1655427600000,METAR SBRF 170100Z 20007KT 9999 FEW012 SCT020 BKN060 23/21 Q1014=,SBRF,2022-06-17 01:00:00
1655431200000,METAR SBRF 170200Z 21007KT 170V240 9999 FEW012 SCT020 BKN060 23/21 Q1014=,SBRF,2022-06-17 02:00:00
1655434800000,METAR SBRF 170300Z 20007KT 9999 FEW012 SCT020 BKN060 23/20 Q1014=,SBRF,2022-06-17 03:00:00
1655438400000,METAR SBRF 170400Z 20008KT 9999 FEW012 SCT020 BKN060 23/20 Q1013=,SBRF,2022-06-17 04:00:00
1655442000000,METAR SBRF 170500Z 20008KT 9999 SCT020 BKN060 23/21 Q1013=,SBRF,2022-06-17 05:00:00
1655445600000,METAR SBRF 170600Z 21006KT 180V260 5000 -RA BR FEW012 SCT020 BKN060 22/21 Q1013=,SBRF,2022-06-17 06:00:00
1655449200000,METAR SBRF 170700Z 22006KT 180V270 9999 FEW012 SCT020 BKN060 22/21 Q1012=,SBRF,2022-06-17 07:00:00
1655452800000,METAR SBRF 170800Z 23005KT 190V270 9999 FEW012 SCT020 BKN060 22/21 Q1013=,SBRF,2022-06-17 08:00:00
1655456400000,METAR SBRF 170900Z 22004KT 9999 FEW012 SCT020 BKN060 22/20 Q1013=,SBRF,2022-06-17 09:00:00
1655460000000,METAR SBRF 171000Z 24006KT 200V270 9999 FEW012 SCT020 BKN060 22/20 Q1013=,SBRF,2022-06-17 10:00:00
1655463600000,METAR SBRF 171100Z 22006KT 9999 FEW020 SCT060 24/21 Q1014=,SBRF,2022-06-17 11:00:00
1655467200000,METAR SBRF 171200Z 21006KT 9999 FEW020 SCT060 26/22 Q1014=,SBRF,2022-06-17 12:00:00
1655470800000,METAR SBRF 171300Z 21006KT 9999 SCT020 SCT060 26/22 Q1014=,SBRF,2022-06-17 13:00:00
1655474400000,METAR SBRF 171400Z 19003KT 9999 SCT020 BKN060 27/22 Q1014=,SBRF,2022-06-17 14:00:00
1655478000000,METAR SBRF 171500Z 20006KT 9999 SCT018 FEW020TCU BKN060 27/22 Q1013=,SBRF,2022-06-17 15:00:00
1655481600000,METAR SBRF 171600Z 15005KT 9999 SCT017 FEW020TCU BKN060 26/22 Q1013=,SBRF,2022-06-17 16:00:00
1655485200000,METAR SBRF 171700Z 20005KT 9999 SCT017 FEW020TCU BKN060 26/23 Q1012=,SBRF,2022-06-17 17:00:00
1655488800000,METAR SBRF 171800Z 20008KT 9999 FEW017 BKN070 26/23 Q1012=,SBRF,2022-06-17 18:00:00
1655492400000,METAR SBRF 171900Z 25005KT 9999 FEW018 SCT050 BKN100 26/21 Q1012=,SBRF,2022-06-17 19:00:00
1655496000000,METAR SBRF 172000Z 20005KT 9999 FEW020 BKN070 25/22 Q1012=,SBRF,2022-06-17 20:00:00
1655499600000,METAR SBRF 172100Z 16004KT 9999 FEW018 BKN100 25/22 Q1013=,SBRF,2022-06-17 21:00:00
1655503200000,METAR SBRF 172200Z 20002KT 9999 FEW017 SCT070 24/22 Q1013=,SBRF,2022-06-17 22:00:00
1655506800000,METAR SBRF 172300Z 20004KT 9999 FEW017 24/22 Q1014=,SBRF,2022-06-17 23:00:00
1655424000000,METAR SBRJ 170000Z 09005KT 050V110 CAVOK 21/17 Q1016=,SBRJ,2022-06-17 00:00:00
1655427600000,METAR SBRJ 170100Z VRB01KT CAVOK 20/17 Q1016=,SBRJ,2022-06-17 01:00:00
1655431200000,METAR SBRJ 170200Z 01005KT CAVOK 19/17 Q1016=,SBRJ,2022-06-17 02:00:00
1655455800000,SPECI SBRJ 170850Z 34005KT CAVOK 17/16 Q1014=,SBRJ,2022-06-17 08:50:00
1655456400000,METAR SBRJ 170900Z 35004KT CAVOK 17/16 Q1014=,SBRJ,2022-06-17 09:00:00
1655460000000,METAR SBRJ 171000Z 32004KT 9999 FEW007 18/17 Q1014=,SBRJ,2022-06-17 10:00:00
1655463600000,METAR SBRJ 171100Z 02007KT 8000 FEW007 BKN012 18/17 Q1014=,SBRJ,2022-06-17 11:00:00
1655465400000,SPECI SBRJ 171130Z 34007KT 6000 BKN007 17/17 Q1014=,SBRJ,2022-06-17 11:30:00
1655467200000,METAR SBRJ 171200Z 34006KT 7000 BKN007 17/17 Q1014=,SBRJ,2022-06-17 12:00:00
1655470800000,METAR SBRJ 171300Z 34005KT 6000 FEW005 18/17 Q1014=,SBRJ,2022-06-17 13:00:00
1655474400000,METAR SBRJ 171400Z 33006KT 9000 NSC 20/17 Q1013=,SBRJ,2022-06-17 14:00:00
1655478000000,METAR SBRJ 171500Z 31007KT CAVOK 21/15 Q1012=,SBRJ,2022-06-17 15:00:00
1655481600000,METAR SBRJ 171600Z 35005KT CAVOK 23/16 Q1011=,SBRJ,2022-06-17 16:00:00
1655485200000,METAR SBRJ 171700Z 34005KT CAVOK 24/16 Q1010=,SBRJ,2022-06-17 17:00:00
1655488800000,METAR SBRJ 171800Z 32004KT 290V350 CAVOK 25/14 Q1009=,SBRJ,2022-06-17 18:00:00
1655491500000,SPECI SBRJ 171845Z 14004KT CAVOK 24/19 Q1009=,SBRJ,2022-06-17 18:45:00
1655492400000,METAR SBRJ 171900Z 13004KT CAVOK 24/19 Q1009=,SBRJ,2022-06-17 19:00:00
1655496000000,METAR SBRJ 172000Z VRB02KT CAVOK 24/19 Q1009=,SBRJ,2022-06-17 20:00:00
1655499600000,METAR SBRJ 172100Z VRB01KT CAVOK 22/19 Q1008=,SBRJ,2022-06-17 21:00:00
1655503200000,METAR SBRJ 172200Z 00000KT CAVOK 22/16 Q1008=,SBRJ,2022-06-17 22:00:00
1655506800000,METAR SBRJ 172300Z 31005KT 260V340 CAVOK 24/17 Q1008=,SBRJ,2022-06-17 23:00:00
1655424000000,METAR SBSP 170000Z 10002KT CAVOK 17/09 Q1019=,SBSP,2022-06-17 00:00:00
1655427600000,METAR SBSP 170100Z 09001KT CAVOK 16/09 Q1020=,SBSP,2022-06-17 01:00:00
1655431200000,METAR SBSP 170200Z 04002KT CAVOK 15/09 Q1019=,SBSP,2022-06-17 02:00:00
1655431260000,SPECI SBSP 170201Z VRB01KT CAVOK 15/09 Q1019=,SBSP,2022-06-17 02:01:00
1655434800000,METAR SBSP 170300Z AUTO 05001KT CAVOK 14/09 Q1019=,SBSP,2022-06-17 03:00:00
1655438400000,METAR SBSP 170400Z AUTO 05003KT CAVOK 15/10 Q1019=,SBSP,2022-06-17 04:00:00
1655442000000,METAR SBSP 170500Z AUTO 03002KT CAVOK 14/10 Q1018=,SBSP,2022-06-17 05:00:00
1655445600000,METAR SBSP 170600Z AUTO 36002KT CAVOK 14/10 Q1018=,SBSP,2022-06-17 06:00:00
1655449200000,METAR SBSP 170700Z AUTO 04004KT CAVOK 14/10 Q1017=,SBSP,2022-06-17 07:00:00
1655452800000,METAR SBSP 170800Z AUTO VRB02KT CAVOK 13/10 Q1017=,SBSP,2022-06-17 08:00:00
1655456400000,METAR SBSP 170900Z 05003KT CAVOK 13/10 Q1017=,SBSP,2022-06-17 09:00:00
1655460000000,METAR SBSP 171000Z 02003KT CAVOK 12/10 Q1017=,SBSP,2022-06-17 10:00:00
1655463600000,METAR SBSP 171100Z 05004KT CAVOK 14/10 Q1018=,SBSP,2022-06-17 11:00:00
1655467200000,METAR SBSP 171200Z 03004KT CAVOK 15/11 Q1018=,SBSP,2022-06-17 12:00:00
1655470800000,METAR SBSP 171300Z 01004KT CAVOK 18/11 Q1018=,SBSP,2022-06-17 13:00:00
1655474400000,METAR SBSP 171400Z 34007KT CAVOK 21/09 Q1017=,SBSP,2022-06-17 14:00:00
1655478000000,METAR SBSP 171500Z 33010KT CAVOK 24/08 Q1016=,SBSP,2022-06-17 15:00:00
1655481600000,METAR SBSP 171600Z 33015KT 290V360 CAVOK 24/08 Q1015=,SBSP,2022-06-17 16:00:00
1655485200000,METAR SBSP 171700Z 34013KT 310V010 CAVOK 25/07 Q1014=,SBSP,2022-06-17 17:00:00
1655488800000,METAR SBSP 171800Z 33016KT 280V360 CAVOK 25/06 Q1014=,SBSP,2022-06-17 18:00:00
1655492400000,METAR SBSP 171900Z 33014KT CAVOK 24/05 Q1013=,SBSP,2022-06-17 19:00:00
1655496000000,METAR SBSP 172000Z 35010KT 330V030 CAVOK 24/06 Q1014=,SBSP,2022-06-17 20:00:00
1655499600000,METAR SBSP 172100Z 34011KT CAVOK 22/05 Q1014=,SBSP,2022-06-17 21:00:00
1655503200000,METAR SBSP 172200Z 35010KT CAVOK 22/06 Q1014=,SBSP,2022-06-17 22:00:00
1655506800000,METAR SBSP 172300Z 33010KT CAVOK 22/06 Q1015=,SBSP,2022-06-17 23:00:00
1655424000000,METAR SBSV 170000Z 15008KT 9999 SCT020 26/17 Q1016=,SBSV,2022-06-17 00:00:00
1655427600000,METAR SBSV 170100Z 15010KT 9999 FEW020 26/18 Q1016=,SBSV,2022-06-17 01:00:00
1655431200000,METAR SBSV 170200Z 15009KT 9999 FEW020 SCT060 26/17 Q1016=,SBSV,2022-06-17 02:00:00
1655434800000,METAR SBSV 170300Z 15008KT 9999 FEW020 SCT060 26/17 Q1016=,SBSV,2022-06-17 03:00:00
1655438400000,METAR SBSV 170400Z 16008KT 9999 FEW020 SCT060 26/22 Q1015=,SBSV,2022-06-17 04:00:00
1655442000000,METAR SBSV 170500Z 18005KT 9999 FEW020 25/17 Q1015=,SBSV,2022-06-17 05:00:00
1655445600000,METAR SBSV 170600Z 15005KT 9999 FEW020 25/17 Q1014=,SBSV,2022-06-17 06:00:00
1655449200000,METAR SBSV 170700Z 18003KT CAVOK 24/17 Q1015=,SBSV,2022-06-17 07:00:00
1655452800000,METAR SBSV 170800Z 18006KT CAVOK 25/18 Q1015=,SBSV,2022-06-17 08:00:00
1655456400000,METAR SBSV 170900Z 25003KT 9999 FEW020 21/18 Q1015=,SBSV,2022-06-17 09:00:00
1655460000000,METAR SBSV 171000Z 26002KT 9999 FEW023 23/19 Q1015=,SBSV,2022-06-17 10:00:00
1655463600000,METAR SBSV 171100Z 19007KT 150V220 9999 FEW023 27/18 Q1016=,SBSV,2022-06-17 11:00:00
1655467200000,METAR SBSV 171200Z 20009KT 160V220 9999 SCT023 27/18 Q1016=,SBSV,2022-06-17 12:00:00
1655470800000,METAR SBSV 171300Z 17010KT 140V220 9999 SCT023 28/18 Q1017=,SBSV,2022-06-17 13:00:00
1655474400000,METAR SBSV 171400Z 20010KT 140V240 9999 SCT023 27/20 Q1016=,SBSV,2022-06-17 14:00:00
1655478000000,METAR SBSV 171500Z 19011KT 160V240 9999 SCT023 27/20 Q1016=,SBSV,2022-06-17 15:00:00
1655481600000,METAR SBSV 171600Z 19011KT 160V230 9999 SCT023 27/20 Q1015=,SBSV,2022-06-17 16:00:00
1655485200000,METAR COR SBSV 171700Z 19010KT 9999 SCT023 27/20 Q1014=,SBSV,2022-06-17 17:00:00
1655488800000,METAR SBSV 171800Z 19010KT 9999 SCT023 26/20 Q1014=,SBSV,2022-06-17 18:00:00
1655492400000,METAR SBSV 171900Z 19009KT 9999 SCT023 26/20 Q1014=,SBSV,2022-06-17 19:00:00
1655496000000,METAR SBSV 172000Z 19008KT 9999 SCT023 26/20 Q1014=,SBSV,2022-06-17 20:00:00
1655499600000,METAR SBSV 172100Z 17005KT 9999 SCT023 26/20 Q1014=,SBSV,2022-06-17 21:00:00
1655503200000,METAR SBSV 172200Z 15006KT 9999 SCT023 26/19 Q1015=,SBSV,2022-06-17 22:00:00
1655506800000,METAR SBSV 172300Z 15005KT 9999 SCT023 26/19 Q1015=,SBSV,2022-06-17 23:00:00
1655510400000,METAR SBBR 180000Z 28003KT 250V330 CAVOK 17/08 Q1019=,SBBR,2022-06-18 00:00:00
1655514000000,METAR SBBR 180100Z VRB02KT CAVOK 17/08 Q1019=,SBBR,2022-06-18 01:00:00
1655517600000,METAR SBBR 180200Z 17004KT CAVOK 17/07 Q1019=,SBBR,2022-06-18 02:00:00
1655521200000,METAR SBBR 180300Z VRB02KT CAVOK 16/07 Q1020=,SBBR,2022-06-18 03:00:00
1655524800000,METAR SBBR 180400Z 00000KT CAVOK 14/08 Q1020=,SBBR,2022-06-18 04:00:00
1655528400000,METAR SBBR 180500Z 28002KT CAVOK 13/07 Q1019=,SBBR,2022-06-18 05:00:00
1655532000000,METAR SBBR 180600Z VRB01KT CAVOK 14/08 Q1019=,SBBR,2022-06-18 06:00:00
1655535600000,METAR SBBR 180700Z VRB01KT CAVOK 13/08 Q1019=,SBBR,2022-06-18 07:00:00
1655539200000,METAR SBBR 180800Z 08003KT CAVOK 12/08 Q1019=,SBBR,2022-06-18 08:00:00
1655542800000,METAR SBBR 180900Z 23003KT CAVOK 12/08 Q1020=,SBBR,2022-06-18 09:00:00
1655546400000,METAR SBBR 181000Z VRB02KT CAVOK 11/08 Q1020=,SBBR,2022-06-18 10:00:00
1655550000000,METAR SBBR 181100Z VRB01KT CAVOK 16/09 Q1021=,SBBR,2022-06-18 11:00:00
1655553600000,METAR SBBR 181200Z 04003KT 360V090 CAVOK 20/10 Q1021=,SBBR,2022-06-18 12:00:00
1655557200000,METAR SBBR 181300Z 28005KT 230V340 CAVOK 25/13 Q1022=,SBBR,2022-06-18 13:00:00
1655560800000,METAR SBBR 181400Z 25011KT 9999 SCT040 26/12 Q1022=,SBBR,2022-06-18 14:00:00
1655564400000,METAR SBBR 181500Z 26011KT 220V300 9999 FEW040 27/12 Q1021=,SBBR,2022-06-18 15:00:00
1655568000000,METAR SBBR 181600Z 25007KT 210V290 9999 FEW040 27/12 Q1021=,SBBR,2022-06-18 16:00:00
1655571600000,METAR SBBR 181700Z 22009KT 170V270 9999 FEW040 28/13 Q1020=,SBBR,2022-06-18 17:00:00
1655575200000,METAR SBBR 181800Z 23007KT 9999 FEW040 27/11 Q1020=,SBBR,2022-06-18 18:00:00
1655578800000,METAR SBBR 181900Z 21004KT 9999 FEW040 27/11 Q1020=,SBBR,2022-06-18 19:00:00
1655582400000,METAR SBBR 182000Z 19010KT 160V220 CAVOK 26/12 Q1020=,SBBR,2022-06-18 20:00:00
1655586000000,METAR SBBR 182100Z 17008KT CAVOK 24/12 Q1021=,SBBR,2022-06-18 21:00:00
1655589600000,METAR SBBR 182200Z 17006KT CAVOK 22/12 Q1021=,SBBR,2022-06-18 22:00:00
1655593200000,METAR SBBR 182300Z 20005KT CAVOK 21/12 Q1021=,SBBR,2022-06-18 23:00:00
1655510400000,METAR SBCF 180000Z 00000KT CAVOK 18/08 Q1018=,SBCF,2022-06-18 00:00:00
1655514000000,METAR SBCF 180100Z 07002KT CAVOK 17/09 Q1018=,SBCF,2022-06-18 01:00:00
1655517600000,METAR SBCF 180200Z 20002KT CAVOK 14/09 Q1018=,SBCF,2022-06-18 02:00:00
1655521200000,METAR SBCF 180300Z 19002KT CAVOK 13/09 Q1018=,SBCF,2022-06-18 03:00:00
1655524800000,METAR SBCF 180400Z 20002KT CAVOK 13/09 Q1018=,SBCF,2022-06-18 04:00:00
1655528400000,METAR SBCF 180500Z 16002KT CAVOK 12/09 Q1018=,SBCF,2022-06-18 05:00:00
1655532000000,METAR SBCF 180600Z 12002KT CAVOK 13/09 Q1018=,SBCF,2022-06-18 06:00:00
1655535600000,METAR SBCF 180700Z 00000KT CAVOK 11/08 Q1018=,SBCF,2022-06-18 07:00:00
1655539200000,METAR SBCF 180800Z 00000KT CAVOK 13/08 Q1018=,SBCF,2022-06-18 08:00:00
1655542800000,METAR SBCF 180900Z 13002KT 8000 NSC 11/08 Q1019=,SBCF,2022-06-18 09:00:00
1655546400000,METAR SBCF 181000Z 16002KT CAVOK 11/08 Q1020=,SBCF,2022-06-18 10:00:00
1655550000000,METAR SBCF 181100Z 14002KT CAVOK 12/09 Q1020=,SBCF,2022-06-18 11:00:00
1655553600000,METAR SBCF 181200Z 16002KT CAVOK 15/10 Q1021=,SBCF,2022-06-18 12:00:00
1655557200000,METAR SBCF 181300Z 20005KT CAVOK 19/10 Q1021=,SBCF,2022-06-18 13:00:00
1655560800000,METAR SBCF 181400Z 22005KT CAVOK 22/10 Q1021=,SBCF,2022-06-18 14:00:00
1655564400000,METAR SBCF 181500Z 25005KT CAVOK 24/10 Q1020=,SBCF,2022-06-18 15:00:00
1655568000000,METAR SBCF 181600Z 25005KT CAVOK 26/09 Q1020=,SBCF,2022-06-18 16:00:00
1655571600000,METAR SBCF 181700Z 22006KT 9999 FEW035 SCT100 26/10 Q1019=,SBCF,2022-06-18 17:00:00
1655575200000,METAR SBCF 181800Z 23007KT 9999 FEW035 BKN100 26/10 Q1019=,SBCF,2022-06-18 18:00:00
1655578800000,METAR SBCF 181900Z 24005KT 9999 FEW035 BKN070 24/11 Q1019=,SBCF,2022-06-18 19:00:00
1655582400000,METAR SBCF 182000Z 23006KT 9999 FEW035 BKN100 23/11 Q1019=,SBCF,2022-06-18 20:00:00
1655586000000,METAR SBCF 182100Z 22006KT CAVOK 22/11 Q1020=,SBCF,2022-06-18 21:00:00
1655589600000,METAR SBCF 182200Z 16003KT CAVOK 22/11 Q1020=,SBCF,2022-06-18 22:00:00
1655593200000,METAR SBCF 182300Z 21002KT CAVOK 21/11 Q1020=,SBCF,2022-06-18 23:00:00
1655510400000,METAR SBCT 180000Z 34012KT 9999 -RA BKN011 OVC020 16/15 Q1013=,SBCT,2022-06-18 00:00:00
1655514000000,METAR SBCT 180100Z 32011KT 9999 BKN011 OVC030 16/16 Q1013=,SBCT,2022-06-18 01:00:00
1655517600000,METAR SBCT 180200Z 30010KT 9999 BKN008 OVC030 16/15 Q1013=,SBCT,2022-06-18 02:00:00
1655521200000,METAR SBCT 180300Z 28008KT 9999 BKN010 BKN060 16/15 Q1014=,SBCT,2022-06-18 03:00:00
1655524800000,METAR SBCT 180400Z 29008KT 9999 BKN009 16/15 Q1014=,SBCT,2022-06-18 04:00:00
1655528400000,METAR SBCT 180500Z 25007KT 9999 BKN009 15/14 Q1015=,SBCT,2022-06-18 05:00:00
1655532000000,METAR SBCT 180600Z 25011KT 9999 BKN014 15/13 Q1016=,SBCT,2022-06-18 06:00:00
1655535600000,METAR SBCT 180700Z 24008KT 9999 BKN014 14/12 Q1016=,SBCT,2022-06-18 07:00:00
1655539200000,METAR SBCT 180800Z 24010KT 9999 BKN014 13/11 Q1016=,SBCT,2022-06-18 08:00:00
1655542800000,METAR SBCT 180900Z 24007KT 9999 BKN013 13/11 Q1017=,SBCT,2022-06-18 09:00:00
1655546400000,METAR SBCT 181000Z 24008KT 9999 BKN010 12/11 Q1018=,SBCT,2022-06-18 10:00:00
1655550000000,METAR SBCT 181100Z 26008KT 9999 BKN014 10/09 Q1019=,SBCT,2022-06-18 11:00:00
1655553600000,METAR SBCT 181200Z VRB09KT 9999 FEW014 11/07 Q1020=,SBCT,2022-06-18 12:00:00
1655557200000,METAR SBCT 181300Z 26008KT 230V290 9999 FEW015 12/07 Q1020=,SBCT,2022-06-18 13:00:00
1655560800000,METAR SBCT 181400Z 25006KT 9999 FEW017 13/07 Q1021=,SBCT,2022-06-18 14:00:00
1655564400000,METAR SBCT 181500Z 24005KT 180V300 CAVOK 14/07 Q1021=,SBCT,2022-06-18 15:00:00
1655568000000,METAR SBCT 181600Z 24006KT 210V290 CAVOK 16/04 Q1020=,SBCT,2022-06-18 16:00:00
1655571600000,METAR SBCT 181700Z 23005KT CAVOK 17/04 Q1020=,SBCT,2022-06-18 17:00:00
1655575200000,METAR SBCT 181800Z VRB04KT CAVOK 17/00 Q1020=,SBCT,2022-06-18 18:00:00
1655578800000,METAR SBCT 181900Z 25004KT 200V270 CAVOK 17/01 Q1020=,SBCT,2022-06-18 19:00:00
1655582400000,METAR SBCT 182000Z 19005KT 9999 FEW010 16/00 Q1021=,SBCT,2022-06-18 20:00:00
1655586000000,METAR SBCT 182100Z 12006KT 9999 FEW010 12/09 Q1021=,SBCT,2022-06-18 21:00:00
1655588400000,SPECI SBCT 182140Z 13008KT 9000 BKN004 11/10 Q1022=,SBCT,2022-06-18 21:40:00
1655589600000,METAR SBCT 182200Z 13007KT 9000 BKN004 11/10 Q1022=,SBCT,2022-06-18 22:00:00
1655593200000,METAR SBCT 182300Z 11005KT 9999 SCT005 09/09 Q1022=,SBCT,2022-06-18 23:00:00
1655510400000,METAR SBFL 180000Z 27006KT CAVOK 19/18 Q1006=,SBFL,2022-06-18 00:00:00
1655514000000,METAR SBFL 180100Z 18006KT 9999 SCT013 BKN050 19/18 Q1008=,SBFL,2022-06-18 01:00:00
1655515500000,SPECI SBFL 180125Z 16009KT 9999 BKN007 BKN050 18/17 Q1008=,SBFL,2022-06-18 01:25:00
1655517600000,METAR SBFL 180200Z 17009KT 9999 BKN008 BKN050 18/15 Q1009=,SBFL,2022-06-18 02:00:00
1655521200000,METAR SBFL 180300Z 15009G19KT 9999 BKN012 BKN050 17/14 Q1010=,SBFL,2022-06-18 03:00:00
1655524800000,METAR SBFL 180400Z 18017G27KT 9999 BKN012 BKN050 17/12 Q1011=,SBFL,2022-06-18 04:00:00
1655528400000,METAR SBFL 180500Z 19011G21KT 9999 BKN012 BKN050 17/12 Q1011=,SBFL,2022-06-18 05:00:00
1655532000000,METAR SBFL 180600Z 17009KT 9999 SCT030 17/12 Q1012=,SBFL,2022-06-18 06:00:00
1655535600000,METAR SBFL 180700Z 16011KT 9999 SCT030 17/12 Q1012=,SBFL,2022-06-18 07:00:00
1655539200000,METAR SBFL 180800Z 16010KT 9999 SCT030 17/12 Q1012=,SBFL,2022-06-18 08:00:00
1655542800000,METAR SBFL 180900Z 01006KT CAVOK 15/12 Q1014=,SBFL,2022-06-18 09:00:00
1655546400000,METAR SBFL 181000Z 04002KT 9999 SCT026 14/13 Q1015=,SBFL,2022-06-18 10:00:00
1655550000000,METAR SBFL 181100Z VRB02KT 9999 FEW026 15/11 Q1016=,SBFL,2022-06-18 11:00:00
1655553600000,METAR SBFL 181200Z 06004KT 9999 FEW026 16/10 Q1017=,SBFL,2022-06-18 12:00:00
1655557200000,METAR SBFL 181300Z 12005KT 080V150 9999 FEW026 17/10 Q1018=,SBFL,2022-06-18 13:00:00
1655560800000,METAR SBFL 181400Z VRB06KT 9999 FEW020 17/09 Q1018=,SBFL,2022-06-18 14:00:00
1655564400000,METAR SBFL 181500Z 15007KT 120V210 9999 FEW040 17/08 Q1019=,SBFL,2022-06-18 15:00:00
1655568000000,METAR SBFL 181600Z 11007KT 060V140 9999 FEW040 17/08 Q1018=,SBFL,2022-06-18 16:00:00
1655571600000,METAR SBFL 181700Z 14005KT 080V180 9999 FEW040 18/08 Q1018=,SBFL,2022-06-18 17:00:00
1655575200000,METAR SBFL 181800Z 13010KT 090V150 9999 FEW040 17/08 Q1018=,SBFL,2022-06-18 18:00:00
1655578800000,METAR SBFL 181900Z 14009KT CAVOK 16/08 Q1019=,SBFL,2022-06-18 19:00:00
1655582400000,METAR SBFL 182000Z 13007KT CAVOK 14/09 Q1020=,SBFL,2022-06-18 20:00:00
1655586000000,METAR SBFL 182100Z 12005KT CAVOK 12/08 Q1021=,SBFL,2022-06-18 21:00:00
1655589600000,METAR SBFL 182200Z 08003KT CAVOK 12/08 Q1022=,SBFL,2022-06-18 22:00:00
1655593200000,METAR SBFL 182300Z VRB02KT 9999 BKN030 11/09 Q1022=,SBFL,2022-06-18 23:00:00
1655510400000,METAR SBGL 180000Z 14002KT CAVOK 18/16 Q1009=,SBGL,2022-06-18 00:00:00
1655514000000,METAR SBGL 180100Z VRB02KT CAVOK 17/15 Q1010=,SBGL,2022-06-18 01:00:00
1655517600000,METAR SBGL 180200Z 27004KT CAVOK 18/16 Q1010=,SBGL,2022-06-18 02:00:00
1655521200000,METAR SBGL 180300Z VRB02KT CAVOK 16/15 Q1010=,SBGL,2022-06-18 03:00:00
1655524800000,METAR SBGL 180400Z 04004KT 010V080 7000 NSC 16/15 Q1010=,SBGL,2022-06-18 04:00:00
1655528400000,METAR SBGL 180500Z 36002KT 6000 NSC 17/15 Q1010=,SBGL,2022-06-18 05:00:00
1655532000000,METAR SBGL 180600Z VRB02KT 6000 NSC 16/15 Q1010=,SBGL,2022-06-18 06:00:00
1655535600000,METAR SBGL 180700Z 22002KT 7000 NSC 16/14 Q1010=,SBGL,2022-06-18 07:00:00
1655539200000,METAR SBGL 180800Z 27004KT 7000 NSC 16/14 Q1011=,SBGL,2022-06-18 08:00:00
1655542800000,METAR SBGL 180900Z 07003KT 050V110 8000 NSC 15/14 Q1012=,SBGL,2022-06-18 09:00:00
1655546400000,METAR SBGL 181000Z 33006KT 8000 NSC 17/15 Q1013=,SBGL,2022-06-18 10:00:00
1655550000000,METAR SBGL 181100Z 01004KT CAVOK 19/15 Q1013=,SBGL,2022-06-18 11:00:00
1655553600000,METAR SBGL 181200Z 06002KT CAVOK 21/16 Q1013=,SBGL,2022-06-18 12:00:00
1655557200000,METAR SBGL 181300Z 15002KT 9999 FEW040 BKN090 23/17 Q1013=,SBGL,2022-06-18 13:00:00
1655560800000,METAR SBGL 181400Z 12002KT 9999 FEW040 BKN090 23/18 Q1014=,SBGL,2022-06-18 14:00:00
1655564400000,METAR SBGL 181500Z 30003KT 9999 FEW040 BKN090 25/17 Q1014=,SBGL,2022-06-18 15:00:00
1655568000000,METAR SBGL 181600Z 22010KT 9999 FEW040 BKN090 26/18 Q1015=,SBGL,2022-06-18 16:00:00
1655571600000,METAR SBGL 181700Z 21013KT 9999 SCT035 BKN080 25/18 Q1016=,SBGL,2022-06-18 17:00:00
1655575200000,METAR SBGL 181800Z 22011KT 9999 SCT035 BKN070 24/18 Q1016=,SBGL,2022-06-18 18:00:00
1655578800000,METAR SBGL 181900Z 22009KT 9999 BKN020 OVC060 23/19 Q1017=,SBGL,2022-06-18 19:00:00
1655582400000,METAR SBGL 182000Z 21010KT 9000 VCSH BKN016 OVC060 22/18 Q1018=,SBGL,2022-06-18 20:00:00
1655583060000,SPECI SBGL 182011Z 22013KT 6000 -RA BKN012 OVC050 21/18 Q1018=,SBGL,2022-06-18 20:11:00
1655586000000,METAR SBGL 182100Z 22009KT 4000 -RA BR BKN012 OVC040 21/19 Q1019=,SBGL,2022-06-18 21:00:00
1655589600000,METAR SBGL 182200Z 23010KT 7000 BKN012 OVC040 21/18 Q1019=,SBGL,2022-06-18 22:00:00
1655593200000,METAR SBGL 182300Z 25008KT 7000 BKN013 OVC026 20/18 Q1020=,SBGL,2022-06-18 23:00:00
1655510400000,METAR SBGR 180000Z 34005KT CAVOK 23/07 Q1014=,SBGR,2022-06-18 00:00:00
1655514000000,METAR SBGR 180100Z 31009KT CAVOK 23/08 Q1014=,SBGR,2022-06-18 01:00:00
1655517600000,METAR SBGR 180200Z 32008KT CAVOK 22/07 Q1015=,SBGR,2022-06-18 02:00:00
1655521200000,METAR SBGR 180300Z 32009KT CAVOK 22/08 Q1015=,SBGR,2022-06-18 03:00:00
1655524800000,METAR SBGR 180400Z 28014KT CAVOK 21/09 Q1016=,SBGR,2022-06-18 04:00:00
1655528400000,METAR SBGR 180500Z 32017G29KT CAVOK 20/13 Q1016 WS R27L=,SBGR,2022-06-18 05:00:00
1655532000000,METAR SBGR 180600Z 29015KT CAVOK 20/13 Q1016=,SBGR,2022-06-18 06:00:00
1655535600000,METAR SBGR 180700Z 34013KT CAVOK 19/14 Q1015=,SBGR,2022-06-18 07:00:00
1655539200000,METAR SBGR 180800Z 33020KT CAVOK 20/14 Q1014=,SBGR,2022-06-18 08:00:00
1655542800000,METAR SBGR 180900Z 30014KT CAVOK 20/13 Q1015=,SBGR,2022-06-18 09:00:00
1655546400000,METAR SBGR 181000Z 29010KT CAVOK 18/14 Q1017=,SBGR,2022-06-18 10:00:00
1655550000000,METAR COR SBGR 181100Z 31006KT 9999 SCT025 18/14 Q1018=,SBGR,2022-06-18 11:00:00
1655553600000,METAR SBGR 181200Z 28006KT 9999 BKN030 BKN070 19/14 Q1019=,SBGR,2022-06-18 12:00:00
1655557200000,METAR SBGR 181300Z 29009KT 9999 BKN030 BKN100 19/15 Q1019=,SBGR,2022-06-18 13:00:00
1655560800000,METAR SBGR 181400Z 29007KT 9999 BKN020 20/15 Q1019=,SBGR,2022-06-18 14:00:00
1655564400000,METAR SBGR 181500Z 18009KT 9999 OVC009 16/14 Q1020=,SBGR,2022-06-18 15:00:00
1655568000000,METAR SBGR 181600Z 16006KT 9999 OVC009 15/13 Q1020=,SBGR,2022-06-18 16:00:00
1655571600000,METAR SBGR 181700Z 18005KT 9999 OVC010 15/13 Q1020=,SBGR,2022-06-18 17:00:00
1655575200000,METAR SBGR 181800Z 16006KT 9999 OVC010 15/13 Q1020=,SBGR,2022-06-18 18:00:00
1655578800000,METAR SBGR 181900Z 15005KT 9999 OVC008 14/13 Q1021=,SBGR,2022-06-18 19:00:00
1655582400000,METAR SBGR 182000Z 14004KT 9999 OVC011 15/12 Q1021=,SBGR,2022-06-18 20:00:00
1655586000000,METAR SBGR 182100Z 14005KT 9999 OVC011 14/12 Q1022=,SBGR,2022-06-18 21:00:00
1655589600000,METAR SBGR 182200Z 15004KT 9999 OVC009 14/13 Q1022=,SBGR,2022-06-18 22:00:00
1655593200000,METAR SBGR 182300Z 10005KT 5000 -DZ BR OVC006 14/13 Q1023=,SBGR,2022-06-18 23:00:00
1655510400000,METAR SBKP 180000Z 36006KT CAVOK 22/09 Q1014=,SBKP,2022-06-18 00:00:00
1655514000000,METAR SBKP 180100Z 02004KT 9999 FEW040 BKN080 22/09 Q1014=,SBKP,2022-06-18 01:00:00
1655517600000,METAR SBKP 180200Z 29006KT 250V350 9999 FEW040 OVC100 21/10 Q1015=,SBKP,2022-06-18 02:00:00
1655521200000,METAR SBKP 180300Z 29005KT 270V030 CAVOK 20/10 Q1016=,SBKP,2022-06-18 03:00:00
1655524800000,METAR SBKP 180400Z 28010KT 9000 -RA SCT030 FEW040TCU OVC070 18/14 Q1017=,SBKP,2022-06-18 04:00:00
1655528400000,METAR SBKP 180500Z 34008KT 9999 FEW030 SCT070 BKN100 18/15 Q1017=,SBKP,2022-06-18 05:00:00
1655532000000,METAR SBKP 180600Z 34005KT CAVOK 18/16 Q1017=,SBKP,2022-06-18 06:00:00
1655535600000,METAR SBKP 180700Z 02006KT 9999 -RA NSC 18/16 Q1016=,SBKP,2022-06-18 07:00:00
1655539200000,METAR SBKP 180800Z 02013KT 9999 -RA NSC 18/15 Q1015=,SBKP,2022-06-18 08:00:00
1655542800000,METAR SBKP 180900Z 36008KT 9999 FEW030 SCT080 BKN100 18/15 Q1016=,SBKP,2022-06-18 09:00:00
1655546400000,METAR SBKP 181000Z 34003KT 300V020 9999 FEW030 SCT080 17/15 Q1017=,SBKP,2022-06-18 10:00:00
1655550000000,METAR SBKP 181100Z 35005KT 9999 BKN030 OVC080 17/15 Q1018=,SBKP,2022-06-18 11:00:00
1655553600000,METAR SBKP 181200Z 02007KT 9999 BKN026 18/16 Q1018=,SBKP,2022-06-18 12:00:00
1655557200000,METAR SBKP 181300Z 35006KT 9999 BKN023 19/16 Q1019=,SBKP,2022-06-18 13:00:00
1655560800000,METAR SBKP 181400Z 35005KT 9999 BKN023 19/16 Q1019=,SBKP,2022-06-18 14:00:00
1655564400000,METAR SBKP 181500Z 32007KT 9999 BKN017 SCT030 20/16 Q1019=,SBKP,2022-06-18 15:00:00
1655568000000,METAR SBKP 181600Z 33007KT 9999 BKN017 21/16 Q1019=,SBKP,2022-06-18 16:00:00
1655571600000,METAR SBKP 181700Z 24005KT 9999 BKN023 FEW030TCU 21/16 Q1018=,SBKP,2022-06-18 17:00:00
1655575200000,METAR SBKP 181800Z 28005KT 9999 BKN023 FEW030TCU 22/16 Q1018=,SBKP,2022-06-18 18:00:00
1655578800000,METAR SBKP 181900Z 21004KT 180V240 9999 SCT030 FEW040TCU 22/16 Q1018=,SBKP,2022-06-18 19:00:00
1655582400000,METAR SBKP 182000Z 12007KT 9999 SCT030 19/15 Q1019=,SBKP,2022-06-18 20:00:00
1655586000000,METAR SBKP 182100Z 12009KT 9999 SCT030 FEW040TCU 17/14 Q1020=,SBKP,2022-06-18 21:00:00
1655589600000,METAR SBKP 182200Z 12013KT 9999 SCT025 16/13 Q1020=,SBKP,2022-06-18 22:00:00
1655593200000,METAR SBKP 182300Z 12013KT 9999 FEW025 16/13 Q1020=,SBKP,2022-06-18 23:00:00
1655510400000,METAR SBPA 180000Z 29010KT 4000 -RA BKN011 OVC030 14/14 Q1011=,SBPA,2022-06-18 00:00:00
1655514000000,METAR SBPA 180100Z 28012KT 6000 BKN013 BKN035 14/13 Q1012=,SBPA,2022-06-18 01:00:00
1655517600000,METAR SBPA 180200Z 28013KT 6000 BKN013 BKN040 13/12 Q1014=,SBPA,2022-06-18 02:00:00
1655521200000,METAR SBPA 180300Z 28012KT 9999 FEW020 12/10 Q1015=,SBPA,2022-06-18 03:00:00
1655524800000,METAR SBPA 180400Z 28010KT CAVOK 11/09 Q1016=,SBPA,2022-06-18 04:00:00
1655528400000,METAR SBPA 180500Z 28008KT CAVOK 10/09 Q1016=,SBPA,2022-06-18 05:00:00
1655532000000,METAR SBPA 180600Z 28007KT CAVOK 10/09 Q1017=,SBPA,2022-06-18 06:00:00
1655535600000,METAR SBPA 180700Z 28009KT CAVOK 09/08 Q1017=,SBPA,2022-06-18 07:00:00
1655539200000,METAR SBPA 180800Z 28008KT CAVOK 09/08 Q1018=,SBPA,2022-06-18 08:00:00
1655542800000,METAR SBPA 180900Z 29011KT CAVOK 09/06 Q1019=,SBPA,2022-06-18 09:00:00
1655546400000,METAR SBPA 181000Z 28007KT CAVOK 07/07 Q1019=,SBPA,2022-06-18 10:00:00
1655550000000,METAR SBPA 181100Z 28008KT CAVOK 08/06 Q1020=,SBPA,2022-06-18 11:00:00
1655553600000,METAR SBPA 181200Z 29011KT CAVOK 09/06 Q1021=,SBPA,2022-06-18 12:00:00
1655557200000,METAR SBPA 181300Z 28013KT CAVOK 10/06 Q1021=,SBPA,2022-06-18 13:00:00
1655560800000,METAR SBPA 181400Z 28011KT CAVOK 11/06 Q1022=,SBPA,2022-06-18 14:00:00
1655564400000,METAR SBPA 181500Z 30015KT 9999 FEW030 12/04 Q1022=,SBPA,2022-06-18 15:00:00
1655568000000,METAR SBPA 181600Z 29014KT CAVOK 12/04 Q1021=,SBPA,2022-06-18 16:00:00
1655571600000,METAR SBPA 181700Z 28015KT CAVOK 13/03 Q1021=,SBPA,2022-06-18 17:00:00
1655575200000,METAR SBPA 181800Z 27014KT CAVOK 13/03 Q1021=,SBPA,2022-06-18 18:00:00
1655578800000,METAR SBPA 181900Z 30013KT CAVOK 13/04 Q1021=,SBPA,2022-06-18 19:00:00
1655582400000,METAR SBPA 182000Z 27012KT CAVOK 12/04 Q1021=,SBPA,2022-06-18 20:00:00
1655586000000,METAR SBPA 182100Z 27007KT CAVOK 10/04 Q1022=,SBPA,2022-06-18 21:00:00
1655589600000,METAR SBPA 182200Z 25005KT CAVOK 10/05 Q1022=,SBPA,2022-06-18 22:00:00
1655593200000,METAR SBPA 182300Z 26003KT 230V300 CAVOK 10/04 Q1022=,SBPA,2022-06-18 23:00:00
1655510400000,METAR SBRF 180000Z 20006KT CAVOK 24/22 Q1014=,SBRF,2022-06-18 00:00:00
1655514000000,METAR SBRF 180100Z 19004KT 160V230 9999 FEW025 BKN060 24/23 Q1014=,SBRF,2022-06-18 01:00:00
1655517600000,METAR SBRF 180200Z 23006KT 190V270 9999 SCT015 OVC060 24/22 Q1014=,SBRF,2022-06-18 02:00:00
1655521200000,METAR SBRF 180300Z 21004KT 140V260 9999 FEW025 SCT070 23/21 Q1014=,SBRF,2022-06-18 03:00:00
1655524800000,METAR SBRF 180400Z VRB02KT 9999 FEW020 SCT070 23/21 Q1014=,SBRF,2022-06-18 04:00:00
1655528400000,METAR SBRF 180500Z 20003KT 170V240 9999 FEW025 OVC050 23/21 Q1014=,SBRF,2022-06-18 05:00:00
1655532000000,METAR SBRF 180600Z 23009KT 9000 VCSH FEW010 OVC050 22/21 Q1013=,SBRF,2022-06-18 06:00:00
1655535600000,METAR SBRF 180700Z 24010KT 9000 VCSH FEW010 OVC050 23/21 Q1013=,SBRF,2022-06-18 07:00:00
1655539200000,METAR SBRF 180800Z 22003KT 160V250 9999 FEW023 BKN060 23/21 Q1014=,SBRF,2022-06-18 08:00:00
1655542800000,METAR SBRF 180900Z VRB02KT 9999 FEW023 BKN060 23/21 Q1014=,SBRF,2022-06-18 09:00:00
1655546400000,METAR SBRF 181000Z 25004KT 210V280 9999 FEW025 SCT050 25/22 Q1015=,SBRF,2022-06-18 10:00:00
1655550000000,METAR SBRF 181100Z 22003KT 9999 SCT046 26/22 Q1015=,SBRF,2022-06-18 11:00:00
1655553600000,METAR SBRF 181200Z 20003KT 9999 FEW023 28/21 Q1015=,SBRF,2022-06-18 12:00:00
1655557200000,METAR SBRF 181300Z 15003KT 9999 FEW023 29/21 Q1015=,SBRF,2022-06-18 13:00:00
1655560800000,METAR SBRF 181400Z 11006KT 9999 FEW023 29/19 Q1015=,SBRF,2022-06-18 14:00:00
1655564400000,METAR SBRF 181500Z 11006KT 9999 FEW023 30/19 Q1014=,SBRF,2022-06-18 15:00:00
1655568000000,METAR SBRF 181600Z 09006KT 9999 FEW023 29/19 Q1014=,SBRF,2022-06-18 16:00:00
1655571600000,METAR SBRF 181700Z 11008KT 9999 FEW023 29/20 Q1013=,SBRF,2022-06-18 17:00:00
1655575200000,METAR SBRF 181800Z 13008KT 9999 FEW025 28/20 Q1013=,SBRF,2022-06-18 18:00:00
1655578800000,METAR SBRF 181900Z 11006KT 9999 FEW025 28/21 Q1014=,SBRF,2022-06-18 19:00:00
1655582400000,METAR SBRF 182000Z 12007KT 9999 FEW023 27/22 Q1014=,SBRF,2022-06-18 20:00:00
1655586000000,METAR SBRF 182100Z 14006KT 9999 FEW023 27/22 Q1014=,SBRF,2022-06-18 21:00:00
1655589600000,METAR SBRF 182200Z 13007KT 9999 FEW020 SCT070 26/22 Q1015=,SBRF,2022-06-18 22:00:00
1655593200000,METAR SBRF 182300Z 14007KT 9999 FEW020 SCT070 26/23 Q1015=,SBRF,2022-06-18 23:00:00
1655510400000,METAR SBRJ 180000Z VRB02KT CAVOK 23/17 Q1008=,SBRJ,2022-06-18 00:00:00
1655514000000,METAR SBRJ 180100Z VRB02KT CAVOK 22/19 Q1009=,SBRJ,2022-06-18 01:00:00
1655517600000,METAR SBRJ 180200Z 05003KT CAVOK 21/19 Q1009=,SBRJ,2022-06-18 02:00:00
1655542200000,SPECI SBRJ 180850Z 36004KT CAVOK 21/18 Q1011=,SBRJ,2022-06-18 08:50:00
1655542800000,METAR SBRJ 180900Z 01005KT CAVOK 20/18 Q1011=,SBRJ,2022-06-18 09:00:00
1655546400000,METAR SBRJ 181000Z 36005KT CAVOK 20/19 Q1012=,SBRJ,2022-06-18 10:00:00
1655550000000,METAR SBRJ 181100Z 01010KT CAVOK 20/18 Q1013=,SBRJ,2022-06-18 11:00:00
1655553600000,METAR SBRJ 181200Z 36007KT CAVOK 21/18 Q1013=,SBRJ,2022-06-18 12:00:00
1655557200000,METAR SBRJ 181300Z 34007KT 9999 FEW045 BKN090 21/17 Q1013=,SBRJ,2022-06-18 13:00:00
1655560800000,METAR SBRJ 181400Z 30005KT 9999 FEW045 BKN090 22/17 Q1013=,SBRJ,2022-06-18 14:00:00
1655564400000,METAR SBRJ 181500Z 18007KT 9999 FEW045 BKN090 25/19 Q1014=,SBRJ,2022-06-18 15:00:00
1655568000000,METAR SBRJ 181600Z 20013KT 9999 FEW040 BKN090 27/18 Q1014=,SBRJ,2022-06-18 16:00:00
1655571600000,METAR SBRJ 181700Z 22010KT 9999 FEW030 BKN090 26/18 Q1015=,SBRJ,2022-06-18 17:00:00
1655575200000,METAR SBRJ 181800Z 24006KT 9999 FEW020 SCT040 BKN080 24/19 Q1015=,SBRJ,2022-06-18 18:00:00
1655578800000,METAR SBRJ 181900Z 21011KT 9999 FEW018 SCT050 BKN080 23/19 Q1016=,SBRJ,2022-06-18 19:00:00
1655582400000,METAR SBRJ 182000Z 19008KT 5000 -RA BR BKN012 BKN040 22/20 Q1017=,SBRJ,2022-06-18 20:00:00
1655586000000,METAR SBRJ 182100Z 20012KT 5000 -RA BR BKN012 OVC030 21/19 Q1018 WS R20=,SBRJ,2022-06-18 21:00:00
1655589600000,METAR SBRJ 182200Z 21004KT 7000 -RA BKN012 OVC040 21/19 Q1019=,SBRJ,2022-06-18 22:00:00
1655593200000,METAR SBRJ 182300Z 20012KT 7000 -RA BKN014 OVC040 21/18 Q1019=,SBRJ,2022-06-18 23:00:00
1655510400000,METAR SBSP 180000Z 35006KT CAVOK 20/07 Q1015=,SBSP,2022-06-18 00:00:00
1655514000000,METAR SBSP 180100Z 35008KT CAVOK 21/07 Q1015=,SBSP,2022-06-18 01:00:00
1655517600000,METAR SBSP 180200Z 34008KT CAVOK 21/07 Q1015=,SBSP,2022-06-18 02:00:00
1655517660000,SPECI SBSP 180201Z 33007KT CAVOK 21/07 Q1015=,SBSP,2022-06-18 02:01:00
1655521200000,METAR SBSP 180300Z AUTO 29006KT CAVOK 20/07 Q1016=,SBSP,2022-06-18 03:00:00
1655524200000,SPECI SBSP 180350Z AUTO 31016G32KT CAVOK 20/12 Q1017=,SBSP,2022-06-18 03:50:00
1655524800000,METAR SBSP 180400Z AUTO 31016G32KT 270V340 CAVOK 20/12 Q1017=,SBSP,2022-06-18 04:00:00
1655524860000,SPECI SBSP 180401Z AUTO 30015KT 270V330 CAVOK 19/13 Q1016=,SBSP,2022-06-18 04:01:00
1655525220000,SPECI SBSP 180407Z AUTO 30014G26KT CAVOK 19/12 Q1016=,SBSP,2022-06-18 04:07:00
1655525820000,SPECI SBSP 180417Z AUTO 31015KT 270V330 CAVOK 19/13 Q1016=,SBSP,2022-06-18 04:17:00
1655528400000,METAR SBSP 180500Z AUTO 32015KT CAVOK 18/13 Q1016=,SBSP,2022-06-18 05:00:00
1655532000000,METAR SBSP 180600Z AUTO 32012KT 280V340 CAVOK 18/13 Q1016=,SBSP,2022-06-18 06:00:00
1655535600000,METAR SBSP 180700Z AUTO 35015KT 320V030 CAVOK 17/13 Q1015=,SBSP,2022-06-18 07:00:00
1655536260000,SPECI SBSP 180711Z AUTO 33012KT CAVOK 17/13 Q1015=,SBSP,2022-06-18 07:11:00
1655539200000,METAR SBSP 180800Z AUTO 34012KT CAVOK 17/13 Q1015=,SBSP,2022-06-18 08:00:00
1655540460000,SPECI SBSP 180821Z AUTO 28009KT 240V330 CAVOK 17/13 Q1016=,SBSP,2022-06-18 08:21:00
1655542800000,METAR SBSP 180900Z 29008KT 240V340 9999 FEW046 17/13 Q1017=,SBSP,2022-06-18 09:00:00
1655546400000,METAR SBSP 181000Z 33006KT 290V010 9999 FEW040 17/14 Q1017=,SBSP,2022-06-18 10:00:00
1655550000000,METAR SBSP 181100Z 32009KT 280V350 9999 FEW023 BKN043 17/14 Q1018=,SBSP,2022-06-18 11:00:00
1655553600000,METAR SBSP 181200Z 32007KT 270V350 9999 FEW015 OVC021 17/14 Q1019=,SBSP,2022-06-18 12:00:00
1655557200000,METAR SBSP 181300Z 31006KT 250V340 9000 -DZ SCT013 OVC017 18/14 Q1020=,SBSP,2022-06-18 13:00:00
1655558340000,SPECI SBSP 181319Z 23009KT 190V260 8000 -RA FEW005 OVC013 16/14 Q1020=,SBSP,2022-06-18 13:19:00
1655560800000,METAR SBSP 181400Z 19012KT 170V230 9999 FEW005 BKN013 OVC023 15/13 Q1021=,SBSP,2022-06-18 14:00:00
1655564400000,METAR SBSP 181500Z 19009KT 9999 OVC008 14/12 Q1021=,SBSP,2022-06-18 15:00:00
1655568000000,METAR SBSP 181600Z 19009KT 160V220 9999 BKN008 OVC015 15/12 Q1021=,SBSP,2022-06-18 16:00:00
1655571600000,METAR SBSP 181700Z 15008KT 9999 SCT006 OVC009 14/12 Q1021=,SBSP,2022-06-18 17:00:00
1655575200000,METAR SBSP 181800Z 14011KT 9000 SCT005 OVC007 13/11 Q1021=,SBSP,2022-06-18 18:00:00
1655578800000,METAR SBSP 181900Z 14007KT 110V170 9999 SCT007 OVC009 14/11 Q1021=,SBSP,2022-06-18 19:00:00
1655582400000,METAR SBSP 182000Z 14008KT 9999 SCT004 OVC007 13/12 Q1022=,SBSP,2022-06-18 20:00:00
1655583600000,SPECI SBSP 182020Z 16009KT 4000 BR SCT003 OVC005 13/12 Q1022=,SBSP,2022-06-18 20:20:00
1655586000000,METAR SBSP 182100Z 16010KT 4000 -DZ BR SCT003 OVC005 13/11 Q1023=,SBSP,2022-06-18 21:00:00
1655589600000,METAR SBSP 182200Z 16006KT 5000 -DZ BR SCT002 OVC005 13/12 Q1023=,SBSP,2022-06-18 22:00:00
1655593200000,METAR SBSP 182300Z 14008KT 9000 -DZ SCT003 OVC005 13/12 Q1023=,SBSP,2022-06-18 23:00:00
1655510400000,METAR SBSV 180000Z 14004KT 9999 SCT023 26/19 Q1016=,SBSV,2022-06-18 00:00:00
1655514000000,METAR SBSV 180100Z 15005KT 9999 FEW030 26/20 Q1016=,SBSV,2022-06-18 01:00:00
1655517600000,METAR SBSV 180200Z 14003KT 9999 FEW030 25/20 Q1016=,SBSV,2022-06-18 02:00:00
1655521200000,METAR SBSV 180300Z 13004KT 9999 SCT025 25/19 Q1015=,SBSV,2022-06-18 03:00:00
1655524800000,METAR SBSV 180400Z 15005KT 9999 SCT025 25/19 Q1015=,SBSV,2022-06-18 04:00:00
1655528400000,METAR SBSV 180500Z 15003KT 9999 SCT025 25/20 Q1015=,SBSV,2022-06-18 05:00:00
1655532000000,METAR SBSV 180600Z 27002KT 9999 SCT023 22/19 Q1014=,SBSV,2022-06-18 06:00:00
1655535600000,METAR SBSV 180700Z 29001KT 9999 FEW023 21/19 Q1014=,SBSV,2022-06-18 07:00:00
1655539200000,METAR SBSV 180800Z 00000KT 9999 FEW023 21/19 Q1015=,SBSV,2022-06-18 08:00:00
1655542800000,METAR SBSV 180900Z 00000KT 9999 SCT023 21/19 Q1015=,SBSV,2022-06-18 09:00:00
1655546400000,METAR SBSV 181000Z 27002KT 9999 SCT023 23/20 Q1016=,SBSV,2022-06-18 10:00:00
1655550000000,METAR SBSV 181100Z 16005KT 120V190 9999 SCT023 27/21 Q1017=,SBSV,2022-06-18 11:00:00
1655553600000,METAR SBSV 181200Z 15006KT 9999 SCT023 27/21 Q1017=,SBSV,2022-06-18 12:00:00
1655557200000,METAR SBSV 181300Z 15007KT 100V230 9999 SCT023 27/20 Q1017=,SBSV,2022-06-18 13:00:00
1655560800000,METAR SBSV 181400Z 17008KT 130V210 9999 SCT025 28/21 Q1017=,SBSV,2022-06-18 14:00:00
1655564400000,METAR SBSV 181500Z 14009KT 110V180 9999 SCT025 28/21 Q1016=,SBSV,2022-06-18 15:00:00
1655568000000,METAR SBSV 181600Z 16008KT 090V210 9999 SCT025 28/21 Q1016=,SBSV,2022-06-18 16:00:00
1655571600000,METAR SBSV 181700Z 15008KT 110V190 9999 SCT025 28/21 Q1015=,SBSV,2022-06-18 17:00:00
1655575200000,METAR SBSV 181800Z 16008KT 120V210 9999 SCT025 28/20 Q1015=,SBSV,2022-06-18 18:00:00
1655578800000,METAR SBSV 181900Z 15007KT 9999 FEW025 27/20 Q1015=,SBSV,2022-06-18 19:00:00
1655582400000,METAR SBSV 182000Z 13006KT 9999 FEW025 27/20 Q1015=,SBSV,2022-06-18 20:00:00
1655586000000,METAR SBSV 182100Z 14005KT CAVOK 26/21 Q1015=,SBSV,2022-06-18 21:00:00
1655589600000,METAR SBSV 182200Z 13005KT CAVOK 26/21 Q1016=,SBSV,2022-06-18 22:00:00
1655593200000,METAR SBSV 182300Z 13005KT 9999 FEW020 26/21 Q1016=,SBSV,2022-06-18 23:00:00
1655596800000,METAR SBBR 190000Z 17003KT 140V210 CAVOK 20/12 Q1021=,SBBR,2022-06-19 00:00:00
1655600400000,METAR SBBR 190100Z 00000KT CAVOK 18/12 Q1022=,SBBR,2022-06-19 01:00:00
1655604000000,METAR SBBR 190200Z 25001KT CAVOK 17/12 Q1022=,SBBR,2022-06-19 02:00:00
1655607600000,METAR SBBR 190300Z VRB01KT CAVOK 16/12 Q1021=,SBBR,2022-06-19 03:00:00
1655611200000,METAR SBBR 190400Z VRB01KT CAVOK 15/12 Q1021=,SBBR,2022-06-19 04:00:00
1655614800000,METAR SBBR 190500Z 02002KT CAVOK 18/11 Q1020=,SBBR,2022-06-19 05:00:00
1655618400000,METAR SBBR 190600Z 20003KT CAVOK 16/12 Q1020=,SBBR,2022-06-19 06:00:00
1655622000000,METAR SBBR 190700Z VRB02KT CAVOK 14/11 Q1021=,SBBR,2022-06-19 07:00:00
1655625600000,METAR SBBR 190800Z VRB02KT CAVOK 13/11 Q1021=,SBBR,2022-06-19 08:00:00
1655629200000,METAR SBBR 190900Z VRB02KT CAVOK 14/11 Q1021=,SBBR,2022-06-19 09:00:00
1655632800000,METAR SBBR 191000Z 26002KT CAVOK 13/11 Q1022=,SBBR,2022-06-19 10:00:00
1655636400000,METAR SBBR 191100Z 30002KT CAVOK 15/12 Q1023=,SBBR,2022-06-19 11:00:00
1655640000000,METAR SBBR 191200Z 09004KT CAVOK 20/12 Q1023=,SBBR,2022-06-19 12:00:00
1655643600000,METAR SBBR 191300Z 10011KT CAVOK 22/10 Q1023=,SBBR,2022-06-19 13:00:00
1655647200000,METAR SBBR 191400Z 10011KT CAVOK 24/11 Q1023=,SBBR,2022-06-19 14:00:00
1655650800000,METAR SBBR 191500Z 10008KT CAVOK 26/11 Q1023=,SBBR,2022-06-19 15:00:00
1655654400000,METAR SBBR 191600Z 09009KT CAVOK 26/10 Q1022=,SBBR,2022-06-19 16:00:00
1655658000000,METAR SBBR 191700Z 07007KT 030V120 CAVOK 27/10 Q1021=,SBBR,2022-06-19 17:00:00
1655661600000,METAR SBBR 191800Z 07008KT 030V110 CAVOK 27/09 Q1020=,SBBR,2022-06-19 18:00:00
1655665200000,METAR SBBR 191900Z 06005KT 350V100 CAVOK 27/09 Q1020=,SBBR,2022-06-19 19:00:00
1655668800000,METAR SBBR 192000Z 12007KT 080V150 CAVOK 27/09 Q1020=,SBBR,2022-06-19 20:00:00
1655672400000,METAR SBBR 192100Z 13008KT CAVOK 25/10 Q1020=,SBBR,2022-06-19 21:00:00
1655676000000,METAR SBBR 192200Z 14007KT CAVOK 23/11 Q1021=,SBBR,2022-06-19 22:00:00
1655679600000,METAR SBBR 192300Z 15006KT CAVOK 22/11 Q1022=,SBBR,2022-06-19 23:00:00
1655596800000,METAR SBCF 190000Z 28002KT CAVOK 20/11 Q1020=,SBCF,2022-06-19 00:00:00
1655600400000,METAR SBCF 190100Z 22003KT CAVOK 19/12 Q1021=,SBCF,2022-06-19 01:00:00
1655604000000,METAR SBCF 190200Z 13002KT CAVOK 19/12 Q1021=,SBCF,2022-06-19 02:00:00
1655607600000,METAR SBCF 190300Z 15002KT CAVOK 18/12 Q1021=,SBCF,2022-06-19 03:00:00
1655611200000,METAR SBCF 190400Z 14003KT CAVOK 18/12 Q1021=,SBCF,2022-06-19 04:00:00
1655614800000,METAR SBCF 190500Z 15003KT CAVOK 17/12 Q1020=,SBCF,2022-06-19 05:00:00
1655618400000,METAR SBCF 190600Z 12006KT CAVOK 27/12 Q1020=,SBCF,2022-06-19 06:00:00
1655622000000,METAR SBCF 190700Z 13006KT CAVOK 16/12 Q1020=,SBCF,2022-06-19 07:00:00
1655625600000,METAR SBCF 190800Z 13005KT CAVOK 15/12 Q1020=,SBCF,2022-06-19 08:00:00
1655629200000,METAR SBCF 190900Z 12007KT CAVOK 15/12 Q1021=,SBCF,2022-06-19 09:00:00
1655632800000,METAR SBCF 191000Z 14004KT CAVOK 14/12 Q1022=,SBCF,2022-06-19 10:00:00
1655636400000,METAR SBCF 191100Z 13005KT CAVOK 16/12 Q1023=,SBCF,2022-06-19 11:00:00
1655640000000,METAR SBCF 191200Z 11011KT CAVOK 19/13 Q1023=,SBCF,2022-06-19 12:00:00
1655643600000,METAR SBCF 191300Z 11008KT CAVOK 21/14 Q1024=,SBCF,2022-06-19 13:00:00
1655647200000,METAR SBCF 191400Z 07006KT CAVOK 22/13 Q1023=,SBCF,2022-06-19 14:00:00
1655650800000,METAR SBCF 191500Z 06005KT 9999 FEW025 SCT080 25/14 Q1023=,SBCF,2022-06-19 15:00:00
1655654400000,METAR SBCF 191600Z 11005KT 9999 SCT040 SCT080 25/13 Q1022=,SBCF,2022-06-19 16:00:00
1655658000000,METAR SBCF 191700Z 10005KT 9999 FEW045 25/13 Q1021=,SBCF,2022-06-19 17:00:00
1655661600000,METAR SBCF 191800Z 11010KT 9999 SCT045 24/13 Q1021=,SBCF,2022-06-19 18:00:00
1655665200000,METAR SBCF 191900Z 08007KT 9999 FEW045 24/13 Q1021=,SBCF,2022-06-19 19:00:00
1655668800000,METAR SBCF 192000Z 07010KT 9999 FEW045 SCT080 23/12 Q1021=,SBCF,2022-06-19 20:00:00
1655672400000,METAR SBCF 192100Z 08008KT CAVOK 22/13 Q1022=,SBCF,2022-06-19 21:00:00
1655676000000,METAR SBCF 192200Z 08009KT CAVOK 21/13 Q1022=,SBCF,2022-06-19 22:00:00
1655679600000,METAR SBCF 192300Z 11009KT CAVOK 19/13 Q1022=,SBCF,2022-06-19 23:00:00
1655596800000,METAR SBCT 190000Z 10004KT 9999 BKN008 09/09 Q1023=,SBCT,2022-06-19 00:00:00
1655600400000,METAR SBCT 190100Z 07006KT 9999 OVC006 09/09 Q1023=,SBCT,2022-06-19 01:00:00
1655604000000,METAR SBCT 190200Z 04003KT 9999 OVC005 10/09 Q1023=,SBCT,2022-06-19 02:00:00
1655607600000,METAR SBCT 190300Z 08005KT 9999 OVC006 10/10 Q1023=,SBCT,2022-06-19 03:00:00
1655611200000,METAR SBCT 190400Z 08006KT 9999 OVC007 10/09 Q1023=,SBCT,2022-06-19 04:00:00
1655614800000,METAR SBCT 190500Z 11004KT 9999 OVC008 10/09 Q1023=,SBCT,2022-06-19 05:00:00
1655618400000,METAR SBCT 190600Z 12006KT 9999 OVC008 09/09 Q1022=,SBCT,2022-06-19 06:00:00
1655622000000,METAR SBCT 190700Z 10003KT 9999 BKN009 OVC020 09/09 Q1022=,SBCT,2022-06-19 07:00:00
1655625600000,METAR SBCT 190800Z 07005KT 9999 BKN011 OVC020 09/09 Q1022=,SBCT,2022-06-19 08:00:00
1655629200000,METAR SBCT 190900Z 07005KT 9999 BKN011 OVC020 10/09 Q1023=,SBCT,2022-06-19 09:00:00
1655632800000,METAR SBCT 191000Z 04004KT 9999 BKN010 OVC020 10/09 Q1024=,SBCT,2022-06-19 10:00:00
1655636400000,METAR SBCT 191100Z 08004KT 9999 FEW011 BKN025 10/09 Q1025=,SBCT,2022-06-19 11:00:00
1655640000000,METAR SBCT 191200Z 08006KT 9999 FEW008 12/09 Q1025=,SBCT,2022-06-19 12:00:00
1655643600000,METAR SBCT 191300Z 08009KT 9999 FEW010 14/09 Q1025=,SBCT,2022-06-19 13:00:00
1655647200000,METAR SBCT 191400Z 09008KT 9999 BKN016 BKN020 13/09 Q1025=,SBCT,2022-06-19 14:00:00
1655650800000,METAR SBCT 191500Z 09007KT 9999 BKN017 OVC022 13/10 Q1025=,SBCT,2022-06-19 15:00:00
1655654400000,METAR SBCT 191600Z 36006KT 9999 BKN022 15/09 Q1024=,SBCT,2022-06-19 16:00:00
1655658000000,METAR SBCT 191700Z 03008KT 9999 BKN025 15/10 Q1023=,SBCT,2022-06-19 17:00:00
1655661600000,METAR SBCT 191800Z 36005KT 9999 OVC025 15/09 Q1022=,SBCT,2022-06-19 18:00:00
1655665200000,METAR SBCT 191900Z 03007KT 9999 OVC025 14/10 Q1022=,SBCT,2022-06-19 19:00:00
1655668800000,METAR SBCT 192000Z 03007KT 9999 OVC023 14/10 Q1022=,SBCT,2022-06-19 20:00:00
1655672400000,METAR SBCT 192100Z 02007KT 9999 OVC020 13/09 Q1022=,SBCT,2022-06-19 21:00:00
1655676000000,METAR SBCT 192200Z 03007KT 9999 OVC015 13/09 Q1022=,SBCT,2022-06-19 22:00:00
1655679600000,METAR SBCT 192300Z 02005KT 9999 BKN020 12/09 Q1023=,SBCT,2022-06-19 23:00:00
1655596800000,METAR SBFL 190000Z 00000KT 9999 BKN030 12/10 Q1022=,SBFL,2022-06-19 00:00:00
1655600400000,METAR COR SBFL 190100Z 35004KT 9999 BKN030 12/09 Q1022=,SBFL,2022-06-19 01:00:00
1655604000000,METAR SBFL 190200Z 21003KT 9999 BKN030 13/09 Q1023=,SBFL,2022-06-19 02:00:00
1655607600000,METAR SBFL 190300Z 00000KT 9999 BKN030 13/09 Q1023=,SBFL,2022-06-19 03:00:00
1655611200000,METAR SBFL 190400Z 22003KT 9999 BKN030 12/10 Q1023=,SBFL,2022-06-19 04:00:00
1655614800000,METAR SBFL 190500Z 29004KT 9999 BKN030 13/10 Q1023=,SBFL,2022-06-19 05:00:00
1655618400000,METAR SBFL 190600Z 25002KT 9999 BKN030 12/10 Q1023=,SBFL,2022-06-19 06:00:00
1655622000000,METAR SBFL 190700Z 31002KT 9999 BKN030 11/09 Q1023=,SBFL,2022-06-19 07:00:00
1655625600000,METAR SBFL 190800Z 31002KT 9999 BKN030 11/09 Q1023=,SBFL,2022-06-19 08:00:00
1655629200000,METAR SBFL 190900Z 35004KT 9999 BKN030 12/10 Q1022=,SBFL,2022-06-19 09:00:00
1655632800000,METAR SBFL 191000Z 26001KT 9999 FEW030 09/08 Q1023=,SBFL,2022-06-19 10:00:00
1655636400000,METAR SBFL 191100Z 30003KT 9999 FEW030 12/11 Q1024=,SBFL,2022-06-19 11:00:00
1655640000000,METAR SBFL 191200Z 29006KT 9999 BKN030 13/10 Q1025=,SBFL,2022-06-19 12:00:00
1655643600000,METAR SBFL 191300Z 29007KT 9999 BKN030 14/10 Q1025=,SBFL,2022-06-19 13:00:00
1655647200000,METAR SBFL 191400Z 32006KT 9999 BKN030 15/10 Q1024=,SBFL,2022-06-19 14:00:00
1655650800000,METAR SBFL 191500Z 35011KT 9999 FEW030 17/10 Q1023=,SBFL,2022-06-19 15:00:00
1655654400000,METAR SBFL 191600Z 36012KT CAVOK 18/10 Q1022=,SBFL,2022-06-19 16:00:00
1655658000000,METAR SBFL 191700Z 36011KT CAVOK 19/11 Q1021=,SBFL,2022-06-19 17:00:00
1655661600000,METAR SBFL 191800Z 36013KT CAVOK 18/11 Q1020=,SBFL,2022-06-19 18:00:00
1655665200000,METAR SBFL 191900Z 36014KT CAVOK 18/11 Q1020=,SBFL,2022-06-19 19:00:00
1655668800000,METAR SBFL 192000Z 36014KT CAVOK 17/11 Q1020=,SBFL,2022-06-19 20:00:00
1655672400000,METAR SBFL 192100Z 36014KT CAVOK 16/12 Q1020=,SBFL,2022-06-19 21:00:00
1655676000000,METAR SBFL 192200Z 35013KT CAVOK 17/12 Q1020=,SBFL,2022-06-19 22:00:00
1655679600000,METAR SBFL 192300Z 33011KT 9999 BKN040 17/13 Q1021=,SBFL,2022-06-19 23:00:00
1655596800000,METAR SBGL 190000Z 26009KT 7000 BKN015 OVC026 20/18 Q1020=,SBGL,2022-06-19 00:00:00
1655600400000,METAR SBGL 190100Z 27006KT 4000 -RA BR BKN015 OVC030 20/18 Q1021=,SBGL,2022-06-19 01:00:00
1655604000000,METAR SBGL 190200Z 23008KT 6000 BKN011 OVC030 19/18 Q1021=,SBGL,2022-06-19 02:00:00
1655607600000,METAR SBGL 190300Z 28004KT 7000 BKN015 OVC033 19/17 Q1021=,SBGL,2022-06-19 03:00:00
1655611200000,METAR SBGL 190400Z 20004KT 7000 BKN015 OVC030 19/17 Q1021=,SBGL,2022-06-19 04:00:00
1655614800000,METAR SBGL 190500Z 22005KT 7000 BKN015 OVC030 18/17 Q1020=,SBGL,2022-06-19 05:00:00
1655618400000,METAR SBGL 190600Z 31007KT 6000 BKN008 BKN011 OVC019 18/17 Q1020=,SBGL,2022-06-19 06:00:00
1655622000000,METAR SBGL 190700Z 35008KT 6000 BKN008 BKN015 OVC020 18/17 Q1020=,SBGL,2022-06-19 07:00:00
1655625600000,METAR SBGL 190800Z 34003KT 3000 -RA BR SCT003 BKN004 OVC009 18/17 Q1021=,SBGL,2022-06-19 08:00:00
1655629200000,METAR SBGL 190900Z 15003KT 4000 -RA BR SCT004 BKN008 OVC009 18/17 Q1021=,SBGL,2022-06-19 09:00:00
1655632800000,METAR SBGL 191000Z 12007KT 4500 -RA BR BKN008 BKN011 OVC026 18/17 Q1022=,SBGL,2022-06-19 10:00:00
1655636400000,METAR SBGL 191100Z 06004KT 4000 -RA BR FEW004 BKN008 OVC040 18/17 Q1023=,SBGL,2022-06-19 11:00:00
1655640000000,METAR SBGL 191200Z 12002KT 3500 -RA BR SCT004 BKN008 OVC025 19/18 Q1023=,SBGL,2022-06-19 12:00:00
1655643600000,METAR SBGL 191300Z 15004KT 3500 -RA BR SCT004 BKN008 OVC020 20/18 Q1024=,SBGL,2022-06-19 13:00:00
1655645400000,SPECI SBGL 191330Z 15007KT 2000 -RA BR SCT004 BKN008 OVC015 19/17 Q1024=,SBGL,2022-06-19 13:30:00
1655647200000,METAR SBGL 191400Z 17008KT 2000 -RA BR SCT004 BKN008 OVC015 19/18 Q1024=,SBGL,2022-06-19 14:00:00
1655650800000,METAR SBGL 191500Z 14006KT 3000 -RA BR SCT004 BKN008 OVC015 18/17 Q1023=,SBGL,2022-06-19 15:00:00
1655654400000,METAR SBGL 191600Z 14008KT 3500 -RA SCT005 BKN012 OVC025 18/17 Q1022=,SBGL,2022-06-19 16:00:00
1655656800000,SPECI SBGL 191640Z 14005KT 5000 BR SCT012 OVC025 19/17 Q1022=,SBGL,2022-06-19 16:40:00
1655658000000,METAR SBGL 191700Z 13004KT 5000 BR FEW012 OVC025 19/17 Q1022=,SBGL,2022-06-19 17:00:00
1655661600000,METAR COR SBGL 191800Z 13003KT 6000 FEW015 OVC030 19/17 Q1022=,SBGL,2022-06-19 18:00:00
1655665200000,METAR SBGL 191900Z 09002KT 4000 -RA BR FEW015 OVC050 19/17 Q1021=,SBGL,2022-06-19 19:00:00
1655668800000,METAR SBGL 192000Z 07002KT 9999 FEW015 OVC050 19/17 Q1021=,SBGL,2022-06-19 20:00:00
1655672400000,METAR SBGL 192100Z 02002KT 9999 FEW015 SCT025 OVC050 19/17 Q1022=,SBGL,2022-06-19 21:00:00
1655676000000,METAR SBGL 192200Z 04002KT 9999 FEW015 OVC030 19/17 Q1022=,SBGL,2022-06-19 22:00:00
1655679600000,METAR SBGL 192300Z 35004KT 9999 FEW020 SCT024 OVC035 19/17 Q1022=,SBGL,2022-06-19 23:00:00
1655596800000,METAR SBGR 190000Z 15005KT 7000 BKN007 OVC009 14/13 Q1023=,SBGR,2022-06-19 00:00:00
1655600400000,METAR SBGR 190100Z 12007KT 5000 -DZ BR OVC007 14/12 Q1023=,SBGR,2022-06-19 01:00:00
1655604000000,METAR COR SBGR 190200Z 12004KT 5000 BR OVC011 14/12 Q1023=,SBGR,2022-06-19 02:00:00
1655607600000,METAR SBGR 190300Z 09004KT 9000 OVC009 14/12 Q1023=,SBGR,2022-06-19 03:00:00
1655611200000,METAR SBGR 190400Z 10004KT 7000 OVC006 14/13 Q1023=,SBGR,2022-06-19 04:00:00
1655614800000,METAR SBGR 190500Z 14003KT 3000 -DZ BR OVC005 13/13 Q1023=,SBGR,2022-06-19 05:00:00
1655618400000,METAR SBGR 190600Z 14003KT 8000 OVC006 14/13 Q1022=,SBGR,2022-06-19 06:00:00
1655622000000,METAR SBGR 190700Z 12004KT 9999 OVC009 14/13 Q1022=,SBGR,2022-06-19 07:00:00
1655625600000,METAR SBGR 190800Z 12006KT 9999 OVC011 14/13 Q1022=,SBGR,2022-06-19 08:00:00
1655629200000,METAR SBGR 190900Z 12005KT 9999 OVC009 14/12 Q1023=,SBGR,2022-06-19 09:00:00
1655632800000,METAR SBGR 191000Z 12005KT 8000 OVC008 14/13 Q1023=,SBGR,2022-06-19 10:00:00
1655636400000,METAR SBGR 191100Z 13004KT 8000 OVC008 14/13 Q1024=,SBGR,2022-06-19 11:00:00
1655640000000,METAR SBGR 191200Z 13006KT 9999 SCT009 BKN015 14/12 Q1025=,SBGR,2022-06-19 12:00:00
1655643600000,METAR SBGR 191300Z 12007KT 090V160 9999 BKN013 BKN020 15/12 Q1025=,SBGR,2022-06-19 13:00:00
1655647200000,METAR SBGR 191400Z 10007KT 9999 BKN013 16/13 Q1025=,SBGR,2022-06-19 14:00:00
1655650800000,METAR SBGR 191500Z 08007KT 9999 BKN015 BKN022 16/13 Q1024=,SBGR,2022-06-19 15:00:00
1655654400000,METAR SBGR 191600Z 13004KT 9999 BKN020 17/13 Q1023=,SBGR,2022-06-19 16:00:00
1655658000000,METAR SBGR 191700Z 12007KT 9999 BKN023 17/13 Q1022=,SBGR,2022-06-19 17:00:00
1655661600000,METAR SBGR 191800Z 07007KT 350V100 9999 BKN023 18/13 Q1021=,SBGR,2022-06-19 18:00:00
1655665200000,METAR SBGR 191900Z 06007KT 9999 BKN023 19/13 Q1021=,SBGR,2022-06-19 19:00:00
1655668800000,METAR SBGR 192000Z 13004KT 9999 BKN023 17/14 Q1022=,SBGR,2022-06-19 20:00:00
1655672400000,METAR SBGR 192100Z 14006KT 7000 BKN011 BKN023 15/13 Q1022=,SBGR,2022-06-19 21:00:00
1655674800000,SPECI SBGR 192140Z 13004KT 7000 BKN009 BKN023 15/13 Q1023=,SBGR,2022-06-19 21:40:00
1655676000000,METAR SBGR 192200Z 13003KT 7000 FEW007 BKN009 15/13 Q1023=,SBGR,2022-06-19 22:00:00
1655679600000,METAR SBGR 192300Z 09007KT 8000 OVC008 14/13 Q1023=,SBGR,2022-06-19 23:00:00
1655596800000,METAR SBKP 190000Z 12013KT 9000 FEW030 15/13 Q1021=,SBKP,2022-06-19 00:00:00
1655600400000,METAR SBKP 190100Z 12013KT 8000 SCT030 15/13 Q1021=,SBKP,2022-06-19 01:00:00
1655604000000,METAR SBKP 190200Z 12012KT 8000 FEW030 15/12 Q1021=,SBKP,2022-06-19 02:00:00
1655607600000,METAR SBKP 190300Z 12014KT 9999 FEW030 15/12 Q1021=,SBKP,2022-06-19 03:00:00
1655611200000,METAR SBKP 190400Z 11016KT 9999 SCT035 15/12 Q1021=,SBKP,2022-06-19 04:00:00
1655614800000,METAR SBKP 190500Z 12011KT 9999 SCT030 15/13 Q1021=,SBKP,2022-06-19 05:00:00
1655618400000,METAR SBKP 190600Z 12014KT 9999 SCT035 15/12 Q1020=,SBKP,2022-06-19 06:00:00
1655622000000,METAR SBKP 190700Z 11013KT 9999 BKN036 15/12 Q1021=,SBKP,2022-06-19 07:00:00
1655625600000,METAR SBKP 190800Z 12012KT 9999 BKN036 15/12 Q1021=,SBKP,2022-06-19 08:00:00
1655629200000,METAR SBKP 190900Z 11011KT 9999 SCT033 14/12 Q1021=,SBKP,2022-06-19 09:00:00
1655632800000,METAR SBKP 191000Z 12010KT 9999 FEW040 14/12 Q1022=,SBKP,2022-06-19 10:00:00
1655636400000,METAR SBKP 191100Z 12011KT 9999 FEW020 SCT070 15/12 Q1023=,SBKP,2022-06-19 11:00:00
1655640000000,METAR SBKP 191200Z 11011KT 9999 FEW025 SCT070 17/13 Q1023=,SBKP,2022-06-19 12:00:00
1655643600000,METAR SBKP 191300Z 13014KT 9999 FEW025 18/13 Q1023=,SBKP,2022-06-19 13:00:00
1655647200000,METAR SBKP 191400Z 12008KT 9999 SCT030 19/13 Q1023=,SBKP,2022-06-19 14:00:00
1655650800000,METAR SBKP 191500Z 13008KT 9999 BKN030 20/13 Q1023=,SBKP,2022-06-19 15:00:00
1655654400000,METAR SBKP 191600Z 16004KT 120V200 9999 BKN035 21/13 Q1022=,SBKP,2022-06-19 16:00:00
1655658000000,METAR COR SBKP 191700Z 08004KT 360V140 9999 SCT033 23/14 Q1020=,SBKP,2022-06-19 17:00:00
1655661600000,METAR SBKP 191800Z 35005KT 310V030 9999 SCT040 23/12 Q1020=,SBKP,2022-06-19 18:00:00
1655665200000,METAR SBKP 191900Z VRB03KT CAVOK 24/11 Q1020=,SBKP,2022-06-19 19:00:00
1655668800000,METAR SBKP 192000Z 15007KT CAVOK 22/14 Q1020=,SBKP,2022-06-19 20:00:00
1655672400000,METAR SBKP 192100Z 13006KT CAVOK 20/14 Q1020=,SBKP,2022-06-19 21:00:00
1655676000000,METAR SBKP 192200Z 13009KT CAVOK 18/14 Q1021=,SBKP,2022-06-19 22:00:00
1655679600000,METAR SBKP 192300Z 12012KT CAVOK 17/13 Q1021=,SBKP,2022-06-19 23:00:00
1655596800000,METAR SBPA 190000Z 28004KT CAVOK 08/05 Q1023=,SBPA,2022-06-19 00:00:00
1655600400000,METAR SBPA 190100Z 32003KT CAVOK 07/04 Q1023=,SBPA,2022-06-19 01:00:00
1655604000000,METAR SBPA 190200Z 00000KT CAVOK 05/04 Q1023=,SBPA,2022-06-19 02:00:00
1655607600000,METAR SBPA 190300Z VRB02KT CAVOK 05/04 Q1024=,SBPA,2022-06-19 03:00:00
1655611200000,METAR SBPA 190400Z VRB01KT CAVOK 05/04 Q1024=,SBPA,2022-06-19 04:00:00
1655614800000,METAR SBPA 190500Z VRB02KT CAVOK 06/05 Q1023=,SBPA,2022-06-19 05:00:00
1655618400000,METAR SBPA 190600Z 30003KT 260V330 CAVOK 04/04 Q1023=,SBPA,2022-06-19 06:00:00
1655622000000,METAR SBPA 190700Z 28004KT CAVOK 05/04 Q1023=,SBPA,2022-06-19 07:00:00
1655625600000,METAR SBPA 190800Z 00000KT CAVOK 04/04 Q1023=,SBPA,2022-06-19 08:00:00
1655629200000,METAR SBPA 190900Z 00000KT 9999 SCT004 04/04 Q1023=,SBPA,2022-06-19 09:00:00
1655629500000,SPECI SBPA 190905Z 32003KT 280V350 9999 BKN003 05/05 Q1023=,SBPA,2022-06-19 09:05:00
1655632800000,METAR SBPA 191000Z VRB01KT 8000 SCT003 04/04 Q1023=,SBPA,2022-06-19 10:00:00
1655636400000,METAR SBPA 191100Z VRB01KT 5000 BR BCFG FEW001 03/03 Q1023=,SBPA,2022-06-19 11:00:00
1655640000000,METAR SBPA 191200Z 00000KT 5000 BR BCFG FEW001 07/06 Q1023=,SBPA,2022-06-19 12:00:00
1655643600000,METAR SBPA 191300Z VRB01KT 5000 BR FEW001 09/06 Q1023=,SBPA,2022-06-19 13:00:00
1655647200000,METAR SBPA 191400Z 31003KT 240V360 5000 BR FEW001 10/07 Q1023=,SBPA,2022-06-19 14:00:00
1655650800000,METAR SBPA 191500Z 28003KT 220V320 CAVOK 12/08 Q1022=,SBPA,2022-06-19 15:00:00
1655654400000,METAR SBPA 191600Z VRB01KT CAVOK 15/07 Q1021=,SBPA,2022-06-19 16:00:00
1655658000000,METAR SBPA 191700Z VRB01KT CAVOK 16/07 Q1019=,SBPA,2022-06-19 17:00:00
1655661600000,METAR SBPA 191800Z VRB02KT CAVOK 17/07 Q1019=,SBPA,2022-06-19 18:00:00
1655665200000,METAR SBPA 191900Z 05003KT 010V100 CAVOK 17/07 Q1018=,SBPA,2022-06-19 19:00:00
1655668800000,METAR SBPA 192000Z VRB01KT CAVOK 17/08 Q1018=,SBPA,2022-06-19 20:00:00
1655672400000,METAR SBPA 192100Z 30003KT 260V360 CAVOK 14/08 Q1019=,SBPA,2022-06-19 21:00:00
1655676000000,METAR SBPA 192200Z VRB02KT CAVOK 10/08 Q1019=,SBPA,2022-06-19 22:00:00
1655679600000,METAR SBPA 192300Z 20002KT CAVOK 09/08 Q1020=,SBPA,2022-06-19 23:00:00
1655596800000,METAR SBRF 190000Z 14005KT CAVOK 26/23 Q1015=,SBRF,2022-06-19 00:00:00
1655600400000,METAR SBRF 190100Z 20003KT 9999 FEW018 SCT060 25/23 Q1015=,SBRF,2022-06-19 01:00:00
1655604000000,METAR SBRF 190200Z 21003KT 9999 SCT018 SCT060 25/23 Q1015=,SBRF,2022-06-19 02:00:00
1655607600000,METAR SBRF 190300Z 23003KT 9999 BKN020 25/23 Q1015=,SBRF,2022-06-19 03:00:00
1655611200000,METAR SBRF 190400Z 21002KT 9999 SCT020 SCT060 25/23 Q1015=,SBRF,2022-06-19 04:00:00
1655614800000,METAR SBRF 190500Z 00000KT 9999 SCT020 SCT060 25/23 Q1014=,SBRF,2022-06-19 05:00:00
1655618400000,METAR SBRF 190600Z 27003KT 9999 SCT020 SCT060 24/23 Q1014=,SBRF,2022-06-19 06:00:00
1655622000000,METAR SBRF 190700Z 23002KT 9999 VCSH SCT020 SCT060 24/23 Q1014=,SBRF,2022-06-19 07:00:00
1655625600000,METAR SBRF 190800Z 02003KT 9999 4000N -RA BKN020 24/23 Q1014=,SBRF,2022-06-19 08:00:00
1655629200000,METAR SBRF 190900Z 31004KT 9999 SCT023 BKN060 24/23 Q1015=,SBRF,2022-06-19 09:00:00
1655632800000,METAR SBRF 191000Z 22003KT 9999 VCSH SCT024 BKN050 25/24 Q1015=,SBRF,2022-06-19 10:00:00
1655636400000,METAR SBRF 191100Z 11006KT 9999 SCT029 28/22 Q1016=,SBRF,2022-06-19 11:00:00
1655640000000,METAR SBRF 191200Z 11006KT 9999 BKN025 SCT050 28/23 Q1016=,SBRF,2022-06-19 12:00:00
1655643600000,METAR SBRF 191300Z 12007KT 9999 SCT025 BKN060 29/22 Q1016=,SBRF,2022-06-19 13:00:00
1655647200000,METAR SBRF 191400Z 10006KT 9999 FEW027 29/22 Q1015=,SBRF,2022-06-19 14:00:00
1655650800000,METAR SBRF 191500Z 12007KT 9999 FEW027 29/22 Q1015=,SBRF,2022-06-19 15:00:00
1655654400000,METAR SBRF 191600Z 10008KT 9999 SCT027 29/22 Q1014=,SBRF,2022-06-19 16:00:00
1655658000000,METAR SBRF 191700Z 13007KT 9999 SCT026 28/22 Q1014=,SBRF,2022-06-19 17:00:00
1655661600000,METAR SBRF 191800Z 13007KT 090V180 9999 SCT026 28/22 Q1013=,SBRF,2022-06-19 18:00:00
1655665200000,METAR SBRF 191900Z 13007KT 080V160 9999 SCT026 28/22 Q1013=,SBRF,2022-06-19 19:00:00
1655668800000,METAR SBRF 192000Z 14007KT 070V180 9999 SCT026 27/22 Q1014=,SBRF,2022-06-19 20:00:00
1655672400000,METAR SBRF 192100Z 18006KT 9999 FEW026 27/22 Q1014=,SBRF,2022-06-19 21:00:00
1655676000000,METAR SBRF 192200Z 16006KT CAVOK 26/22 Q1014=,SBRF,2022-06-19 22:00:00
1655679600000,METAR SBRF 192300Z 21003KT 9999 FEW023 26/23 Q1014=,SBRF,2022-06-19 23:00:00
1655596800000,METAR SBRJ 190000Z 23006KT 6000 -RA BKN012 OVC040 20/19 Q1020=,SBRJ,2022-06-19 00:00:00
1655600400000,METAR SBRJ 190100Z 21006KT 7000 BKN012 OVC040 21/19 Q1020=,SBRJ,2022-06-19 01:00:00
1655604000000,METAR SBRJ 190200Z 18008KT 9999 BKN012 OVC040 21/18 Q1020=,SBRJ,2022-06-19 02:00:00
1655628600000,SPECI SBRJ 190850Z 10007KT 6000 -RA BKN010 OVC030 19/18 Q1020=,SBRJ,2022-06-19 08:50:00
1655629200000,METAR SBRJ 190900Z 10006KT 6000 -RA BKN010 OVC030 19/18 Q1021=,SBRJ,2022-06-19 09:00:00
1655632800000,METAR SBRJ 191000Z 07005KT 6000 -RA BKN010 OVC025 19/17 Q1021=,SBRJ,2022-06-19 10:00:00
1655634600000,SPECI SBRJ 191030Z 19003KT 6000 -RA BKN010 OVC020 19/17 Q1022=,SBRJ,2022-06-19 10:30:00
1655636400000,METAR SBRJ 191100Z 18003KT 6000 -RA BKN010 OVC020 19/18 Q1022=,SBRJ,2022-06-19 11:00:00
1655640000000,METAR SBRJ 191200Z 19004KT 6000 -RA FEW006 BKN010 OVC020 19/18 Q1023=,SBRJ,2022-06-19 12:00:00
1655640900000,SPECI SBRJ 191215Z 18006KT 4500 -RA BR FEW006 BKN010 OVC020 19/18 Q1023=,SBRJ,2022-06-19 12:15:00
1655643600000,METAR SBRJ 191300Z 16009KT 4000 -RA BR SCT005 BKN010 OVC020 19/18 Q1023=,SBRJ,2022-06-19 13:00:00
1655647200000,METAR SBRJ 191400Z 17008KT 4000 -RA BR SCT005 BKN010 OVC020 19/18 Q1023=,SBRJ,2022-06-19 14:00:00
1655648400000,SPECI SBRJ 191420Z 16011KT 4500 -RA BR BKN006 BKN010 OVC020 18/17 Q1023=,SBRJ,2022-06-19 14:20:00
1655649600000,SPECI SBRJ 191440Z 17010KT 6000 -RA SCT006 BKN010 OVC020 19/18 Q1023=,SBRJ,2022-06-19 14:40:00
1655650800000,METAR SBRJ 191500Z 14009KT 7000 FEW006 BKN010 OVC023 18/17 Q1023=,SBRJ,2022-06-19 15:00:00
1655654400000,METAR SBRJ 191600Z 12006KT 6000 -RA BKN012 OVC023 19/17 Q1022=,SBRJ,2022-06-19 16:00:00
1655658000000,METAR SBRJ 191700Z 19005KT 9999 SCT015 OVC030 19/17 Q1021=,SBRJ,2022-06-19 17:00:00
1655661600000,METAR SBRJ 191800Z 13008KT 9999 SCT015 OVC030 20/18 Q1021=,SBRJ,2022-06-19 18:00:00
1655665200000,METAR SBRJ 191900Z 13006KT 9999 FEW015 OVC030 20/16 Q1021=,SBRJ,2022-06-19 19:00:00
1655668800000,METAR SBRJ 192000Z 07004KT 9999 FEW015 OVC030 20/16 Q1021=,SBRJ,2022-06-19 20:00:00
1655672400000,METAR SBRJ 192100Z 12003KT 9999 FEW015 OVC030 20/16 Q1021=,SBRJ,2022-06-19 21:00:00
1655676000000,METAR SBRJ 192200Z 10003KT 9999 OVC035 20/16 Q1022=,SBRJ,2022-06-19 22:00:00
1655679600000,METAR SBRJ 192300Z 09002KT 9999 OVC035 20/17 Q1022=,SBRJ,2022-06-19 23:00:00
1655596800000,METAR SBSP 190000Z 16009KT 4000 BR OVC003 12/11 Q1023=,SBSP,2022-06-19 00:00:00
1655600400000,METAR SBSP 190100Z 14005KT 100V160 6000 OVC004 12/11 Q1024=,SBSP,2022-06-19 01:00:00
1655604000000,METAR SBSP 190200Z 14007KT 9000 OVC006 12/11 Q1024=,SBSP,2022-06-19 02:00:00
1655604060000,SPECI SBSP 190201Z 13006KT 9999 BKN005 OVC011 12/11 Q1023=,SBSP,2022-06-19 02:01:00
1655604960000,SPECI SBSP 190216Z AUTO 14007KT 110V170 9999 SCT003 OVC006 12/11 Q1023=,SBSP,2022-06-19 02:16:00
1655607600000,METAR SBSP 190300Z AUTO 14006KT 110V170 9999 SCT002 OVC005 12/11 Q1023=,SBSP,2022-06-19 03:00:00
1655610720000,SPECI SBSP 190352Z AUTO 15007KT 9999 SCT002 OVC004 12/11 Q1023=,SBSP,2022-06-19 03:52:00
1655611200000,METAR SBSP 190400Z AUTO 15007KT 9999 SCT002 OVC004 12/11 Q1023=,SBSP,2022-06-19 04:00:00
1655614800000,METAR SBSP 190500Z AUTO 13007KT 090V150 8000 SCT002 OVC004 12/11 Q1023=,SBSP,2022-06-19 05:00:00
1655618400000,METAR SBSP 190600Z AUTO 14007KT 100V170 9000 SCT002 OVC004 12/11 Q1023=,SBSP,2022-06-19 06:00:00
1655619180000,SPECI SBSP 190613Z AUTO 14006KT 9999 SCT003 BKN005 OVC007 12/11 Q1023=,SBSP,2022-06-19 06:13:00
1655622000000,METAR SBSP 190700Z AUTO 13007KT 8000 SCT003 OVC005 12/11 Q1023=,SBSP,2022-06-19 07:00:00
1655622120000,SPECI SBSP 190702Z AUTO 13006KT 8000 SCT002 OVC004 12/11 Q1023=,SBSP,2022-06-19 07:02:00
1655624460000,SPECI SBSP 190741Z AUTO 15007KT 9000 SCT002 OVC005 12/11 Q1023=,SBSP,2022-06-19 07:41:00
1655625300000,SPECI SBSP 190755Z AUTO 16007KT 9000 SCT002 OVC004 12/11 Q1023=,SBSP,2022-06-19 07:55:00
1655625600000,METAR SBSP 190800Z AUTO 16007KT 9000 SCT002 OVC004 12/11 Q1023=,SBSP,2022-06-19 08:00:00
1655629200000,METAR SBSP 190900Z 13007KT 4000 -DZ BR SCT001 OVC003 12/11 Q1024=,SBSP,2022-06-19 09:00:00
1655632800000,METAR SBSP 191000Z 13007KT 3000 -DZ BR SCT003 OVC004 12/11 Q1024=,SBSP,2022-06-19 10:00:00
1655636400000,METAR SBSP 191100Z 15009KT 3000 BR SCT002 OVC004 12/11 Q1025=,SBSP,2022-06-19 11:00:00
1655640000000,METAR SBSP 191200Z 15007KT 5000 BR SCT002 OVC005 12/11 Q1025=,SBSP,2022-06-19 12:00:00
1655643600000,METAR SBSP 191300Z 13006KT 100V160 7000 SCT005 OVC007 13/12 Q1026=,SBSP,2022-06-19 13:00:00
1655647200000,METAR SBSP 191400Z 12007KT 9000 SCT009 OVC013 14/12 Q1026=,SBSP,2022-06-19 14:00:00
1655650800000,METAR SBSP 191500Z 15007KT 120V190 9000 FEW005 OVC013 15/12 Q1025=,SBSP,2022-06-19 15:00:00
1655654400000,METAR SBSP 191600Z 16007KT 9000 SCT004 OVC008 14/12 Q1024=,SBSP,2022-06-19 16:00:00
1655656800000,SPECI SBSP 191640Z 16007KT 120V190 9999 SCT004 OVC013 15/12 Q1023=,SBSP,2022-06-19 16:40:00
1655658000000,METAR SBSP 191700Z 17008KT 9999 SCT006 BKN011 14/12 Q1023=,SBSP,2022-06-19 17:00:00
1655661600000,METAR SBSP 191800Z 16005KT 130V210 9999 SCT011 BKN021 15/13 Q1023=,SBSP,2022-06-19 18:00:00
1655665200000,METAR SBSP 191900Z 18008KT 150V210 9000 SCT008 BKN011 15/12 Q1023=,SBSP,2022-06-19 19:00:00
1655668800000,METAR SBSP 192000Z 16010KT 8000 SCT005 BKN007 OVC026 13/11 Q1023=,SBSP,2022-06-19 20:00:00
1655672400000,METAR SBSP 192100Z 16008KT 7000 SCT004 OVC007 13/11 Q1023=,SBSP,2022-06-19 21:00:00
1655676000000,METAR SBSP 192200Z 16006KT 6000 SCT003 OVC006 13/11 Q1023=,SBSP,2022-06-19 22:00:00
1655679600000,METAR SBSP 192300Z 12007KT 6000 SCT004 OVC006 13/12 Q1023=,SBSP,2022-06-19 23:00:00
1655596800000,METAR SBSV 190000Z 14005KT 9999 FEW023 26/21 Q1017=,SBSV,2022-06-19 00:00:00
1655600400000,METAR SBSV 190100Z 14004KT CAVOK 26/21 Q1017=,SBSV,2022-06-19 01:00:00
1655604000000,METAR SBSV 190200Z 15005KT 9999 FEW023 26/21 Q1017=,SBSV,2022-06-19 02:00:00
1655607600000,METAR SBSV 190300Z 14005KT 9999 SCT023 26/21 Q1017=,SBSV,2022-06-19 03:00:00
1655611200000,METAR SBSV 190400Z 13005KT 9999 FEW023 26/21 Q1016=,SBSV,2022-06-19 04:00:00
1655614800000,METAR SBSV 190500Z VRB02KT CAVOK 23/19 Q1016=,SBSV,2022-06-19 05:00:00
1655618400000,METAR SBSV 190600Z 26003KT CAVOK 22/20 Q1015=,SBSV,2022-06-19 06:00:00
1655622000000,METAR SBSV 190700Z 00000KT 9999 FEW023 21/20 Q1016=,SBSV,2022-06-19 07:00:00
1655625600000,METAR SBSV 190800Z 30002KT 9999 FEW023 21/19 Q1016=,SBSV,2022-06-19 08:00:00
1655629200000,METAR SBSV 190900Z 26002KT 9999 SCT023 22/20 Q1016=,SBSV,2022-06-19 09:00:00
1655632800000,METAR SBSV 191000Z 29002KT 9999 SCT023 23/21 Q1017=,SBSV,2022-06-19 10:00:00
1655636400000,METAR SBSV 191100Z 28005KT 9999 SCT023 26/22 Q1017=,SBSV,2022-06-19 11:00:00
1655640000000,METAR SBSV 191200Z 21006KT 9999 SCT023 27/22 Q1018=,SBSV,2022-06-19 12:00:00
1655643600000,METAR SBSV 191300Z 15008KT 9999 SCT023 28/21 Q1018=,SBSV,2022-06-19 13:00:00
1655647200000,METAR SBSV 191400Z 19009KT 9999 SCT023 28/21 Q1018=,SBSV,2022-06-19 14:00:00
1655650800000,METAR SBSV 191500Z 18010KT 9999 SCT023 28/21 Q1017=,SBSV,2022-06-19 15:00:00
1655654400000,METAR SBSV 191600Z 19011KT 9999 SCT023 28/21 Q1017=,SBSV,2022-06-19 16:00:00
1655658000000,METAR SBSV 191700Z 17012KT 9999 SCT023 28/22 Q1016=,SBSV,2022-06-19 17:00:00
1655661600000,METAR SBSV 191800Z 18012KT 9999 SCT023 28/21 Q1016=,SBSV,2022-06-19 18:00:00
1655665200000,METAR SBSV 191900Z 18011KT 9999 SCT023 28/21 Q1016=,SBSV,2022-06-19 19:00:00
1655668800000,METAR SBSV 192000Z 18011KT 9999 SCT023 27/20 Q1016=,SBSV,2022-06-19 20:00:00
1655672400000,METAR SBSV 192100Z 19012KT 9999 SCT023 27/20 Q1016=,SBSV,2022-06-19 21:00:00
1655676000000,METAR SBSV 192200Z 17012KT 9999 FEW023 SCT050 27/20 Q1017=,SBSV,2022-06-19 22:00:00
1655679600000,METAR SBSV 192300Z 17011KT 9999 FEW023 SCT050 27/21 Q1017=,SBSV,2022-06-19 23:00:00
1655683200000,METAR SBBR 200000Z 10004KT CAVOK 20/10 Q1022=,SBBR,2022-06-20 00:00:00
1655686800000,METAR SBBR 200100Z 09003KT CAVOK 20/09 Q1022=,SBBR,2022-06-20 01:00:00
1655690400000,METAR SBBR 200200Z 16002KT CAVOK 19/09 Q1022=,SBBR,2022-06-20 02:00:00
1655694000000,METAR SBBR 200300Z 31002KT CAVOK 16/09 Q1022=,SBBR,2022-06-20 03:00:00
1655697600000,METAR SBBR 200400Z VRB02KT CAVOK 14/09 Q1022=,SBBR,2022-06-20 04:00:00
1655701200000,METAR SBBR 200500Z 28001KT CAVOK 14/09 Q1022=,SBBR,2022-06-20 05:00:00
1655704800000,METAR SBBR 200600Z 00000KT CAVOK 13/09 Q1022=,SBBR,2022-06-20 06:00:00
1655708400000,METAR SBBR 200700Z VRB01KT CAVOK 13/09 Q1022=,SBBR,2022-06-20 07:00:00
1655712000000,METAR SBBR 200800Z 29002KT CAVOK 12/09 Q1022=,SBBR,2022-06-20 08:00:00
1655715600000,METAR SBBR 200900Z 31002KT CAVOK 13/10 Q1022=,SBBR,2022-06-20 09:00:00
1655719200000,METAR SBBR 201000Z VRB02KT CAVOK 15/11 Q1023=,SBBR,2022-06-20 10:00:00
1655722800000,METAR SBBR 201100Z VRB02KT CAVOK 16/11 Q1023=,SBBR,2022-06-20 11:00:00
1655726400000,METAR SBBR 201200Z 06008KT 030V100 CAVOK 19/12 Q1024=,SBBR,2022-06-20 12:00:00
1655730000000,METAR SBBR 201300Z 08010KT 040V100 CAVOK 21/12 Q1024=,SBBR,2022-06-20 13:00:00
1655733600000,METAR SBBR 201400Z 08010KT 040V120 CAVOK 22/13 Q1024=,SBBR,2022-06-20 14:00:00
1655737200000,METAR SBBR 201500Z 06009KT 030V090 CAVOK 24/13 Q1023=,SBBR,2022-06-20 15:00:00
1655740800000,METAR SBBR 201600Z 06010KT 030V090 CAVOK 25/12 Q1022=,SBBR,2022-06-20 16:00:00
1655744400000,METAR SBBR 201700Z 09009KT 030V140 CAVOK 26/11 Q1021=,SBBR,2022-06-20 17:00:00
1655748000000,METAR SBBR 201800Z 10010KT CAVOK 26/11 Q1020=,SBBR,2022-06-20 18:00:00
1655751600000,METAR SBBR 201900Z 10008KT 070V140 9999 FEW040 26/11 Q1020=,SBBR,2022-06-20 19:00:00
1655755200000,METAR SBBR 202000Z 09009KT 9999 FEW040 25/12 Q1021=,SBBR,2022-06-20 20:00:00
1655758800000,METAR SBBR 202100Z 08005KT 9999 FEW040 23/13 Q1021=,SBBR,2022-06-20 21:00:00
1655762400000,METAR SBBR 202200Z 11006KT 9999 FEW040 22/13 Q1021=,SBBR,2022-06-20 22:00:00
1655766000000,METAR SBBR 202300Z 12007KT 9999 FEW040 21/12 Q1022=,SBBR,2022-06-20 23:00:00
1655683200000,METAR SBCF 200000Z 10009KT CAVOK 19/13 Q1023=,SBCF,2022-06-20 00:00:00
1655686800000,METAR SBCF 200100Z 07006KT CAVOK 18/13 Q1023=,SBCF,2022-06-20 01:00:00
1655690400000,METAR SBCF 200200Z 13004KT CAVOK 17/12 Q1023=,SBCF,2022-06-20 02:00:00
1655694000000,METAR SBCF 200300Z 10006KT CAVOK 17/12 Q1023=,SBCF,2022-06-20 03:00:00
1655697600000,METAR SBCF 200400Z 09008KT CAVOK 17/12 Q1023=,SBCF,2022-06-20 04:00:00
1655701200000,METAR SBCF 200500Z 11007KT CAVOK 16/12 Q1023=,SBCF,2022-06-20 05:00:00
1655704800000,METAR SBCF 200600Z 11008KT CAVOK 16/13 Q1022=,SBCF,2022-06-20 06:00:00
1655708400000,METAR SBCF 200700Z 09010KT CAVOK 16/13 Q1022=,SBCF,2022-06-20 07:00:00
1655712000000,METAR SBCF 200800Z 10006KT CAVOK 16/13 Q1022=,SBCF,2022-06-20 08:00:00
1655715600000,METAR SBCF 200900Z 14003KT CAVOK 15/13 Q1023=,SBCF,2022-06-20 09:00:00
1655719200000,METAR SBCF 201000Z 14004KT CAVOK 14/13 Q1023=,SBCF,2022-06-20 10:00:00
1655722800000,METAR SBCF 201100Z 10008KT CAVOK 17/14 Q1024=,SBCF,2022-06-20 11:00:00
1655726400000,METAR SBCF 201200Z 09005KT 9999 FEW025 19/14 Q1025=,SBCF,2022-06-20 12:00:00
1655730000000,METAR SBCF 201300Z 08004KT 9999 SCT021 21/14 Q1025=,SBCF,2022-06-20 13:00:00
1655733600000,METAR SBCF 201400Z 13007KT 9999 SCT025 21/14 Q1024=,SBCF,2022-06-20 14:00:00
1655737200000,METAR SBCF 201500Z 08006KT 9999 SCT035 23/14 Q1024=,SBCF,2022-06-20 15:00:00
1655740800000,METAR SBCF 201600Z 08006KT 9999 SCT035 23/13 Q1023=,SBCF,2022-06-20 16:00:00
1655744400000,METAR SBCF 201700Z 06007KT 9999 SCT036 25/14 Q1021=,SBCF,2022-06-20 17:00:00
1655748000000,METAR SBCF 201800Z 06006KT 9999 SCT040 24/13 Q1021=,SBCF,2022-06-20 18:00:00
1655751600000,METAR SBCF 201900Z 08004KT 9999 FEW042 24/13 Q1021=,SBCF,2022-06-20 19:00:00
1655755200000,METAR SBCF 202000Z 08004KT CAVOK 21/13 Q1021=,SBCF,2022-06-20 20:00:00
1655758800000,METAR SBCF 202100Z 07006KT CAVOK 21/12 Q1022=,SBCF,2022-06-20 21:00:00
1655762400000,METAR SBCF 202200Z 07006KT CAVOK 20/12 Q1022=,SBCF,2022-06-20 22:00:00
1655766000000,METAR SBCF 202300Z 10007KT CAVOK 20/13 Q1022=,SBCF,2022-06-20 23:00:00
1655683200000,METAR SBCT 200000Z 01003KT 9999 SCT023 BKN100 11/09 Q1023=,SBCT,2022-06-20 00:00:00
1655685420000,SPECI SBCT 200037Z 01004KT 9999 FEW006 BKN013 11/10 Q1023=,SBCT,2022-06-20 00:37:00
1655686800000,METAR SBCT 200100Z 01002KT 9999 FEW006 BKN013 10/09 Q1023=,SBCT,2022-06-20 01:00:00
1655690400000,METAR SBCT 200200Z 01007KT 9999 BKN009 11/10 Q1024=,SBCT,2022-06-20 02:00:00
1655694000000,METAR SBCT 200300Z 01005KT 9999 OVC008 11/10 Q1023=,SBCT,2022-06-20 03:00:00
1655697600000,METAR SBCT 200400Z 01003KT 9999 OVC006 11/11 Q1023=,SBCT,2022-06-20 04:00:00
1655701200000,METAR SBCT 200500Z 01003KT 9000 OVC003 11/11 Q1023=,SBCT,2022-06-20 05:00:00
1655704800000,METAR SBCT 200600Z 01004KT 7000 OVC003 11/11 Q1022=,SBCT,2022-06-20 06:00:00
1655706300000,SPECI SBCT 200625Z 01005KT 2000 BR OVC003 11/11 Q1022=,SBCT,2022-06-20 06:25:00
1655708400000,METAR SBCT 200700Z 01004KT 2500 BR OVC003 11/11 Q1022=,SBCT,2022-06-20 07:00:00
1655712000000,METAR SBCT 200800Z 01004KT 4000 BR OVC003 11/11 Q1021=,SBCT,2022-06-20 08:00:00
1655715600000,METAR SBCT 200900Z 01003KT 3000 BR OVC003 11/11 Q1022=,SBCT,2022-06-20 09:00:00
1655718720000,SPECI SBCT 200952Z 04003KT 0900 FG OVC003 11/11 Q1021=,SBCT,2022-06-20 09:52:00
1655719200000,METAR SBCT 201000Z 05003KT 0600 R33/1200 R15/1700 FG OVC003 11/11 Q1021=,SBCT,2022-06-20 10:00:00
1655721600000,SPECI SBCT 201040Z 11003KT 1200 R33/1800 R15/P2000 -DZ BR OVC003 11/11 Q1022=,SBCT,2022-06-20 10:40:00
1655722800000,METAR SBCT 201100Z 07001KT 2000 BR OVC003 11/11 Q1022=,SBCT,2022-06-20 11:00:00
1655726400000,METAR SBCT 201200Z 02004KT 5000 BR OVC003 12/12 Q1024=,SBCT,2022-06-20 12:00:00
1655730000000,METAR SBCT 201300Z 17001KT 4000 BR OVC004 12/12 Q1024=,SBCT,2022-06-20 13:00:00
1655731800000,SPECI SBCT 201330Z 03002KT 5000 BR BKN005 OVC007 13/12 Q1023=,SBCT,2022-06-20 13:30:00
1655733600000,METAR SBCT 201400Z 16003KT 8000 BKN007 BKN009 14/12 Q1023=,SBCT,2022-06-20 14:00:00
1655737200000,METAR SBCT 201500Z VRB04KT 9000 BKN013 15/11 Q1023=,SBCT,2022-06-20 15:00:00
1655740800000,METAR SBCT 201600Z 24004KT 9999 BKN014 BKN020 16/11 Q1022=,SBCT,2022-06-20 16:00:00
1655744400000,METAR SBCT 201700Z 30004KT 240V330 9999 BKN014 BKN022 17/11 Q1021=,SBCT,2022-06-20 17:00:00
1655745900000,SPECI SBCT 201725Z 27003KT 9999 BKN023 17/11 Q1021=,SBCT,2022-06-20 17:25:00
1655748000000,METAR SBCT 201800Z 31004KT 270V360 9999 BKN023 18/12 Q1020=,SBCT,2022-06-20 18:00:00
1655751600000,METAR SBCT 201900Z 30004KT 9999 BKN023 18/12 Q1020=,SBCT,2022-06-20 19:00:00
1655755200000,METAR SBCT 202000Z 33002KT 9999 SCT023 17/12 Q1021=,SBCT,2022-06-20 20:00:00
1655758800000,METAR SBCT 202100Z 33002KT 9999 SCT025 16/12 Q1021=,SBCT,2022-06-20 21:00:00
1655762400000,METAR SBCT 202200Z 31002KT CAVOK 15/12 Q1021=,SBCT,2022-06-20 22:00:00
1655766000000,METAR SBCT 202300Z 05002KT CAVOK 13/12 Q1021=,SBCT,2022-06-20 23:00:00
1655683200000,METAR SBFL 200000Z 33012KT 9999 BKN040 17/12 Q1021=,SBFL,2022-06-20 00:00:00
1655686800000,METAR SBFL 200100Z 32011KT 9999 BKN040 17/13 Q1021=,SBFL,2022-06-20 01:00:00
1655690400000,METAR SBFL 200200Z 32009KT 9999 BKN040 17/13 Q1021=,SBFL,2022-06-20 02:00:00
1655694000000,METAR SBFL 200300Z 31010KT 9999 BKN040 16/13 Q1020=,SBFL,2022-06-20 03:00:00
1655697600000,METAR SBFL 200400Z 32010KT 9999 BKN040 17/13 Q1020=,SBFL,2022-06-20 04:00:00
1655701200000,METAR SBFL 200500Z 32009KT 9999 BKN040 17/13 Q1020=,SBFL,2022-06-20 05:00:00
1655704800000,METAR SBFL 200600Z 31011KT 9999 BKN040 16/13 Q1020=,SBFL,2022-06-20 06:00:00
1655708400000,METAR SBFL 200700Z 32009KT 9999 BKN040 16/13 Q1020=,SBFL,2022-06-20 07:00:00
1655712000000,METAR SBFL 200800Z 33006KT 9999 BKN040 16/13 Q1020=,SBFL,2022-06-20 08:00:00
1655715600000,METAR SBFL 200900Z 28004KT 9999 BKN040 16/13 Q1020=,SBFL,2022-06-20 09:00:00
1655719200000,METAR SBFL 201000Z 31008KT CAVOK 15/12 Q1020=,SBFL,2022-06-20 10:00:00
1655722800000,METAR SBFL 201100Z 32007KT CAVOK 15/11 Q1020=,SBFL,2022-06-20 11:00:00
1655726400000,METAR SBFL 201200Z 31007KT CAVOK 16/12 Q1020=,SBFL,2022-06-20 12:00:00
1655730000000,METAR SBFL 201300Z 30007KT CAVOK 18/12 Q1021=,SBFL,2022-06-20 13:00:00
1655733600000,METAR SBFL 201400Z 29006KT CAVOK 19/11 Q1021=,SBFL,2022-06-20 14:00:00
1655737200000,METAR SBFL 201500Z 35002KT CAVOK 20/13 Q1020=,SBFL,2022-06-20 15:00:00
1655740800000,METAR SBFL 201600Z 34005KT CAVOK 21/11 Q1019=,SBFL,2022-06-20 16:00:00
1655744400000,METAR SBFL 201700Z 34005KT CAVOK 21/12 Q1018=,SBFL,2022-06-20 17:00:00
1655748000000,METAR SBFL 201800Z 33004KT CAVOK 21/11 Q1017=,SBFL,2022-06-20 18:00:00
1655751600000,METAR SBFL 201900Z 33004KT CAVOK 21/13 Q1018=,SBFL,2022-06-20 19:00:00
1655755200000,METAR SBFL 202000Z 35003KT CAVOK 20/14 Q1017=,SBFL,2022-06-20 20:00:00
1655758800000,METAR SBFL 202100Z 23002KT CAVOK 16/14 Q1018=,SBFL,2022-06-20 21:00:00
1655762400000,METAR SBFL 202200Z 35001KT CAVOK 17/14 Q1018=,SBFL,2022-06-20 22:00:00
1655766000000,METAR SBFL 202300Z 34005KT CAVOK 17/15 Q1019=,SBFL,2022-06-20 23:00:00
1655683200000,METAR SBGL 200000Z 10002KT 9999 FEW020 BKN040 18/17 Q1022=,SBGL,2022-06-20 00:00:00
1655686800000,METAR SBGL 200100Z 33001KT 9999 SCT018 BKN035 18/17 Q1023=,SBGL,2022-06-20 01:00:00
1655690400000,METAR SBGL 200200Z 04001KT 9999 FEW017 BKN040 18/16 Q1022=,SBGL,2022-06-20 02:00:00
1655694000000,METAR SBGL 200300Z 10002KT 9999 FEW017 BKN050 16/15 Q1022=,SBGL,2022-06-20 03:00:00
1655697600000,METAR SBGL 200400Z 07004KT 9999 FEW008 BKN045 16/15 Q1021=,SBGL,2022-06-20 04:00:00
1655701200000,METAR SBGL 200500Z 08002KT 9999 FEW005 16/15 Q1020=,SBGL,2022-06-20 05:00:00
1655704800000,METAR SBGL 200600Z 16002KT 9999 FEW010 16/15 Q1020=,SBGL,2022-06-20 06:00:00
1655708400000,METAR SBGL 200700Z 31002KT 9999 FEW013 16/15 Q1020=,SBGL,2022-06-20 07:00:00
1655712000000,METAR SBGL 200800Z 32001KT 8000 FEW013 16/16 Q1020=,SBGL,2022-06-20 08:00:00
1655715600000,METAR SBGL 200900Z 31003KT 8000 FEW005 16/15 Q1021=,SBGL,2022-06-20 09:00:00
1655718480000,SPECI SBGL 200948Z 06004KT 4000 BR FEW004 BKN008 16/15 Q1021=,SBGL,2022-06-20 09:48:00
1655719200000,METAR SBGL 201000Z 05003KT 4000 -DZ BR FEW003 BKN008 16/16 Q1021=,SBGL,2022-06-20 10:00:00
1655722800000,METAR SBGL 201100Z 33003KT 4000 BR FEW005 BKN008 18/17 Q1021=,SBGL,2022-06-20 11:00:00
1655726400000,METAR SBGL 201200Z 09005KT 4000 BR BKN008 19/17 Q1022=,SBGL,2022-06-20 12:00:00
1655730000000,METAR SBGL 201300Z 04005KT 360V080 5000 BR BKN008 19/17 Q1022=,SBGL,2022-06-20 13:00:00
1655733600000,METAR SBGL 201400Z 12005KT 7000 SCT010 20/17 Q1021=,SBGL,2022-06-20 14:00:00
1655737200000,METAR SBGL 201500Z 16004KT 9999 FEW015 22/18 Q1020=,SBGL,2022-06-20 15:00:00
1655740800000,METAR SBGL 201600Z 10003KT CAVOK 24/17 Q1019=,SBGL,2022-06-20 16:00:00
1655744400000,METAR SBGL 201700Z 02004KT CAVOK 25/18 Q1018=,SBGL,2022-06-20 17:00:00
1655748000000,METAR SBGL 201800Z VRB02KT CAVOK 24/18 Q1018=,SBGL,2022-06-20 18:00:00
1655751600000,METAR SBGL 201900Z 21002KT CAVOK 24/17 Q1018=,SBGL,2022-06-20 19:00:00
1655755200000,METAR SBGL 202000Z 10005KT 9999 FEW030 BKN080 23/17 Q1019=,SBGL,2022-06-20 20:00:00
1655758800000,METAR SBGL 202100Z 13005KT 9999 FEW030 BKN080 23/19 Q1018=,SBGL,2022-06-20 21:00:00
1655762400000,METAR SBGL 202200Z VRB02KT 9999 FEW030 BKN080 22/19 Q1019=,SBGL,2022-06-20 22:00:00
1655766000000,METAR SBGL 202300Z 10003KT 9999 FEW030 BKN100 21/19 Q1019=,SBGL,2022-06-20 23:00:00
1655683200000,METAR SBGR 200000Z 09005KT 9999 OVC007 14/13 Q1023=,SBGR,2022-06-20 00:00:00
1655686800000,METAR SBGR 200100Z 08005KT 9999 OVC009 15/13 Q1023=,SBGR,2022-06-20 01:00:00
1655690400000,METAR SBGR 200200Z 10003KT 9999 OVC009 15/13 Q1023=,SBGR,2022-06-20 02:00:00
1655694000000,METAR SBGR 200300Z 07012KT 9999 OVC007 15/14 Q1022=,SBGR,2022-06-20 03:00:00
1655697600000,METAR SBGR 200400Z 06011KT 9999 OVC007 15/14 Q1022=,SBGR,2022-06-20 04:00:00
1655701200000,METAR SBGR 200500Z 07010KT 9999 OVC007 15/14 Q1022=,SBGR,2022-06-20 05:00:00
1655704800000,METAR SBGR 200600Z 06008KT 9999 OVC007 15/14 Q1021=,SBGR,2022-06-20 06:00:00
1655708400000,METAR SBGR 200700Z 07004KT 9999 OVC007 15/14 Q1022=,SBGR,2022-06-20 07:00:00
1655712000000,METAR SBGR 200800Z 04006KT 9999 OVC007 15/14 Q1021=,SBGR,2022-06-20 08:00:00
1655715600000,METAR SBGR 200900Z 06010KT 9999 OVC007 14/14 Q1021=,SBGR,2022-06-20 09:00:00
1655719200000,METAR COR SBGR 201000Z 26003KT 8000 OVC015 15/14 Q1022=,SBGR,2022-06-20 10:00:00
1655722800000,METAR SBGR 201100Z 07008KT 8000 SCT008 OVC100 15/14 Q1022=,SBGR,2022-06-20 11:00:00
1655726400000,METAR SBGR 201200Z 07011KT 8000 FEW007 16/14 Q1022=,SBGR,2022-06-20 12:00:00
1655730000000,METAR SBGR 201300Z 09005KT 9000 FEW009 16/14 Q1024=,SBGR,2022-06-20 13:00:00
1655733600000,METAR SBGR 201400Z 09005KT 9999 FEW035 18/14 Q1024=,SBGR,2022-06-20 14:00:00
1655737200000,METAR SBGR 201500Z 08006KT CAVOK 18/15 Q1023=,SBGR,2022-06-20 15:00:00
1655740800000,METAR SBGR 201600Z 31003KT 260V040 CAVOK 20/14 Q1022=,SBGR,2022-06-20 16:00:00
1655744400000,METAR SBGR 201700Z 31008KT CAVOK 21/13 Q1021=,SBGR,2022-06-20 17:00:00
1655748000000,METAR SBGR 201800Z 30007KT CAVOK 21/14 Q1021=,SBGR,2022-06-20 18:00:00
1655751600000,METAR SBGR 201900Z 33005KT CAVOK 21/13 Q1020=,SBGR,2022-06-20 19:00:00
1655755200000,METAR SBGR 202000Z 01004KT CAVOK 20/14 Q1020=,SBGR,2022-06-20 20:00:00
1655758800000,METAR SBGR 202100Z 07008KT CAVOK 17/15 Q1021=,SBGR,2022-06-20 21:00:00
1655762400000,METAR SBGR 202200Z 07008KT CAVOK 16/15 Q1021=,SBGR,2022-06-20 22:00:00
1655766000000,METAR SBGR 202300Z 08007KT CAVOK 15/15 Q1022=,SBGR,2022-06-20 23:00:00
1655683200000,METAR SBKP 200000Z 12011KT CAVOK 15/13 Q1021=,SBKP,2022-06-20 00:00:00
1655686800000,METAR SBKP 200100Z 12011KT CAVOK 15/13 Q1022=,SBKP,2022-06-20 01:00:00
1655690400000,METAR SBKP 200200Z 12010KT 9000 NSC 15/13 Q1021=,SBKP,2022-06-20 02:00:00
1655694000000,METAR SBKP 200300Z 10006KT CAVOK 15/13 Q1021=,SBKP,2022-06-20 03:00:00
1655697600000,METAR SBKP 200400Z 11005KT CAVOK 15/13 Q1021=,SBKP,2022-06-20 04:00:00
1655701200000,METAR SBKP 200500Z 13008KT CAVOK 15/13 Q1021=,SBKP,2022-06-20 05:00:00
1655704800000,METAR SBKP 200600Z 12006KT 9999 SCT040 BKN100 15/13 Q1021=,SBKP,2022-06-20 06:00:00
1655708400000,METAR SBKP 200700Z 22006KT 6000 FEW010 BKN040 BKN100 14/13 Q1022=,SBKP,2022-06-20 07:00:00
1655712000000,METAR SBKP 200800Z 10003KT 6000 -RA FEW010 BKN040 BKN080 14/13 Q1021=,SBKP,2022-06-20 08:00:00
1655715600000,METAR SBKP 200900Z 06007KT 8000 FEW030 OVC100 15/13 Q1020=,SBKP,2022-06-20 09:00:00
1655719200000,METAR SBKP 201000Z 18005KT 150V220 5000 BR SCT030 BKN080 OVC100 15/13 Q1021=,SBKP,2022-06-20 10:00:00
1655722800000,METAR SBKP 201100Z 19004KT 150V220 5000 BR NSC 15/14 Q1022=,SBKP,2022-06-20 11:00:00
1655726400000,METAR SBKP 201200Z VRB02KT 5000 -RA BR NSC 16/14 Q1023=,SBKP,2022-06-20 12:00:00
1655730000000,METAR SBKP 201300Z 24008KT 5000 -RA BR NSC 16/14 Q1023=,SBKP,2022-06-20 13:00:00
1655733600000,METAR SBKP 201400Z 07004KT 030V170 4000 -RA BR FEW030 BKN100 17/15 Q1023=,SBKP,2022-06-20 14:00:00
1655736000000,SPECI SBKP 201440Z 14006KT 100V180 6000 FEW013 BKN080 17/15 Q1023=,SBKP,2022-06-20 14:40:00
1655737200000,METAR SBKP 201500Z 14007KT 7000 FEW013 BKN080 18/15 Q1023=,SBKP,2022-06-20 15:00:00
1655740800000,METAR SBKP 201600Z 00000KT 7000 FEW020 BKN080 20/15 Q1022=,SBKP,2022-06-20 16:00:00
1655744400000,METAR SBKP 201700Z 36003KT 330V040 7000 FEW020 BKN100 19/15 Q1021=,SBKP,2022-06-20 17:00:00
1655748000000,METAR SBKP 201800Z 00000KT 8000 NSC 20/14 Q1020=,SBKP,2022-06-20 18:00:00
1655751600000,METAR SBKP 201900Z 30004KT 220V350 CAVOK 20/14 Q1020=,SBKP,2022-06-20 19:00:00
1655755200000,METAR SBKP 202000Z 28004KT CAVOK 20/13 Q1020=,SBKP,2022-06-20 20:00:00
1655758800000,METAR SBKP 202100Z 00000KT CAVOK 19/13 Q1020=,SBKP,2022-06-20 21:00:00
1655762400000,METAR SBKP 202200Z 00000KT CAVOK 17/13 Q1020=,SBKP,2022-06-20 22:00:00
1655766000000,METAR SBKP 202300Z 13005KT CAVOK 16/13 Q1021=,SBKP,2022-06-20 23:00:00
1655683200000,METAR SBPA 200000Z 04002KT CAVOK 09/08 Q1020=,SBPA,2022-06-20 00:00:00
1655686800000,METAR SBPA 200100Z 00000KT 9000 NSC 08/07 Q1020=,SBPA,2022-06-20 01:00:00
1655690400000,METAR SBPA 200200Z 00000KT 9000 NSC 07/07 Q1021=,SBPA,2022-06-20 02:00:00
1655694000000,METAR SBPA 200300Z 00000KT 9000 NSC 08/08 Q1021=,SBPA,2022-06-20 03:00:00
1655697600000,METAR SBPA 200400Z VRB02KT 9000 NSC 07/07 Q1020=,SBPA,2022-06-20 04:00:00
1655701200000,METAR SBPA 200500Z VRB01KT 6000 NSC 06/06 Q1020=,SBPA,2022-06-20 05:00:00
1655704800000,METAR SBPA 200600Z VRB02KT 6000 NSC 06/06 Q1020=,SBPA,2022-06-20 06:00:00
1655708400000,METAR SBPA 200700Z 27003KT 9000 NSC 08/07 Q1019=,SBPA,2022-06-20 07:00:00
1655712000000,METAR SBPA 200800Z 30002KT 1500 R29///// R11/P2000 BR NSC 06/06 Q1019=,SBPA,2022-06-20 08:00:00
1655712180000,SPECI SBPA 200803Z 30003KT 0350 R29///// R11/0550D FG VV001 07/07 Q1019=,SBPA,2022-06-20 08:03:00
1655715600000,METAR SBPA 200900Z 28002KT 0100 R29///// R11/0400N FG VV001 07/07 Q1019=,SBPA,2022-06-20 09:00:00
1655719200000,METAR SBPA 201000Z 00000KT 0150 R29///// R11/0500N FG VV001 06/06 Q1020=,SBPA,2022-06-20 10:00:00
1655721360000,SPECI SBPA 201036Z 00000KT 0150 R29///// R11/0275 FG VV001 06/06 Q1020=,SBPA,2022-06-20 10:36:00
1655722800000,METAR SBPA 201100Z VRB02KT 0150 R29///// R11/0275D FG BKN001 06/06 Q1020=,SBPA,2022-06-20 11:00:00
1655723880000,SPECI SBPA 201118Z 25001KT 0300 R29///// R11/0400 FG BKN002 07/07 Q1020=,SBPA,2022-06-20 11:18:00
1655725380000,SPECI SBPA 201143Z VRB01KT 4000 BR BCFG SCT003 08/08 Q1021=,SBPA,2022-06-20 11:43:00
1655726400000,METAR SBPA 201200Z VRB01KT 8000 FEW003 09/09 Q1020=,SBPA,2022-06-20 12:00:00
1655730000000,METAR SBPA 201300Z VRB02KT 9999 FEW005 11/11 Q1021=,SBPA,2022-06-20 13:00:00
1655733600000,METAR SBPA 201400Z VRB01KT CAVOK 15/10 Q1020=,SBPA,2022-06-20 14:00:00
1655737200000,METAR SBPA 201500Z VRB01KT CAVOK 16/11 Q1019=,SBPA,2022-06-20 15:00:00
1655740800000,METAR SBPA 201600Z VRB02KT CAVOK 18/11 Q1018=,SBPA,2022-06-20 16:00:00
1655744400000,METAR SBPA 201700Z 08003KT 040V110 CAVOK 20/12 Q1017=,SBPA,2022-06-20 17:00:00
1655748000000,METAR SBPA 201800Z 07004KT 020V120 CAVOK 20/11 Q1017=,SBPA,2022-06-20 18:00:00
1655751600000,METAR SBPA 201900Z 10007KT 050V120 CAVOK 20/13 Q1016=,SBPA,2022-06-20 19:00:00
1655755200000,METAR SBPA 202000Z 11007KT CAVOK 18/13 Q1017=,SBPA,2022-06-20 20:00:00
1655758800000,METAR SBPA 202100Z 12008KT CAVOK 16/12 Q1017=,SBPA,2022-06-20 21:00:00
1655762400000,METAR SBPA 202200Z 11010KT CAVOK 15/12 Q1017=,SBPA,2022-06-20 22:00:00
1655766000000,METAR SBPA 202300Z 11008KT CAVOK 13/10 Q1018=,SBPA,2022-06-20 23:00:00
1655683200000,METAR SBRF 200000Z 21003KT 9999 FEW023 26/23 Q1015=,SBRF,2022-06-20 00:00:00
1655686800000,METAR SBRF 200100Z 15003KT 9999 VCSH FEW014 BKN017 BKN060 25/23 Q1015=,SBRF,2022-06-20 01:00:00
1655690400000,METAR SBRF 200200Z 20005KT 9999 SCT014 24/23 Q1015=,SBRF,2022-06-20 02:00:00
1655690820000,SPECI SBRF 200207Z 19007KT 3000 RA BR SCT010 SCT040 24/23 Q1015=,SBRF,2022-06-20 02:07:00
1655691900000,SPECI SBRF 200225Z 17007KT 4000 -RA BR BKN009 SCT040 24/23 Q1015 RERA=,SBRF,2022-06-20 02:25:00
1655692560000,SPECI SBRF 200236Z 20006KT 9999 VCSH BKN009 SCT030 24/23 Q1015=,SBRF,2022-06-20 02:36:00
1655694000000,METAR COR SBRF 200300Z 21004KT 3000 RA BR BKN008 SCT014 BKN020 24/23 Q1015=,SBRF,2022-06-20 03:00:00
1655695200000,SPECI SBRF 200320Z 22006KT 5000 -RA BR SCT008 BKN016 BKN020 23/23 Q1014 RERA=,SBRF,2022-06-20 03:20:00
1655696460000,SPECI SBRF 200341Z 15011KT 5000 -RA BR FEW008 SCT014 OVC030 23/21 Q1014 RERA=,SBRF,2022-06-20 03:41:00
1655697600000,METAR SBRF 200400Z 20004KT 9999 FEW008 SCT011 BKN030 24/24 Q1014=,SBRF,2022-06-20 04:00:00
1655701200000,METAR SBRF 200500Z 22004KT 5000 BR FEW011 BKN030 24/23 Q1014=,SBRF,2022-06-20 05:00:00
1655704800000,METAR SBRF 200600Z 22004KT 3000 RA BR BKN014 BKN017 BKN030 24/23 Q1014=,SBRF,2022-06-20 06:00:00
1655705820000,SPECI SBRF 200617Z 18009KT 5000 -RA BR BKN006 OVC016 23/23 Q1014 RERA=,SBRF,2022-06-20 06:17:00
1655708400000,METAR SBRF 200700Z 17004KT 2000 RA BR BKN006 OVC011 24/24 Q1014=,SBRF,2022-06-20 07:00:00
1655712000000,METAR SBRF 200800Z 13005KT 4000 -RA BR BKN009 SCT014 OVC030 23/22 Q1014 RERA=,SBRF,2022-06-20 08:00:00
1655713320000,SPECI SBRF 200822Z 11006KT 6000 -RA BKN008 BKN017 OVC030 23/23 Q1014=,SBRF,2022-06-20 08:22:00
1655714160000,SPECI SBRF 200836Z 11006KT 3000 RA BR BKN009 BKN012 OVC020 24/23 Q1014=,SBRF,2022-06-20 08:36:00
1655715600000,METAR SBRF 200900Z 12012G24KT 2000 RA BR SCT006 OVC012 23/22 Q1015=,SBRF,2022-06-20 09:00:00
1655716560000,SPECI SBRF 200916Z 14011KT 5000 -RA BR SCT006 BKN012 OVC040 23/22 Q1015 RERA=,SBRF,2022-06-20 09:16:00
1655719200000,METAR SBRF 201000Z 11002KT 8000 SCT007 BKN030 OVC040 23/23 Q1015=,SBRF,2022-06-20 10:00:00
1655722800000,METAR SBRF 201100Z 26003KT 9999 FEW012 SCT023 BKN060 24/23 Q1015=,SBRF,2022-06-20 11:00:00
1655726400000,METAR SBRF 201200Z 15003KT 9999 FEW010 SCT023 BKN070 26/23 Q1015=,SBRF,2022-06-20 12:00:00
1655730000000,METAR SBRF 201300Z 14008KT 9000 VCSH FEW010 BKN023 BKN070 27/23 Q1015=,SBRF,2022-06-20 13:00:00
1655733600000,METAR SBRF 201400Z 12012KT 9999 SCT023 FEW025TCU BKN070 29/22 Q1015=,SBRF,2022-06-20 14:00:00
1655737200000,METAR SBRF 201500Z 13010KT 060V170 9999 SCT023 FEW025TCU BKN070 29/22 Q1014=,SBRF,2022-06-20 15:00:00
1655740800000,METAR SBRF 201600Z 12012KT 080V150 9999 SCT023 FEW025TCU 29/23 Q1014=,SBRF,2022-06-20 16:00:00
1655744400000,METAR SBRF 201700Z 12011KT 090V160 9999 SCT023 FEW025TCU 29/21 Q1013=,SBRF,2022-06-20 17:00:00
1655748000000,METAR SBRF 201800Z 13011KT 9999 SCT025 28/22 Q1013=,SBRF,2022-06-20 18:00:00
1655751600000,METAR SBRF 201900Z 12007KT 9999 SCT025 27/22 Q1013=,SBRF,2022-06-20 19:00:00
1655755200000,METAR SBRF 202000Z 13009KT 100V160 9999 FEW025 27/22 Q1013=,SBRF,2022-06-20 20:00:00
1655758800000,METAR SBRF 202100Z 14007KT 080V170 9999 FEW025 27/22 Q1014=,SBRF,2022-06-20 21:00:00
1655762400000,METAR SBRF 202200Z 14008KT 9999 SCT025 27/22 Q1014=,SBRF,2022-06-20 22:00:00
1655766000000,METAR SBRF 202300Z 13007KT 9999 FEW025 SCT050 26/22 Q1014=,SBRF,2022-06-20 23:00:00
1655683200000,METAR SBRJ 200000Z 12003KT 9999 OVC040 20/16 Q1022=,SBRJ,2022-06-20 00:00:00
1655686800000,METAR SBRJ 200100Z 13002KT 9999 OVC040 20/17 Q1022=,SBRJ,2022-06-20 01:00:00
1655690400000,METAR SBRJ 200200Z 31002KT 9999 SCT040 20/16 Q1022=,SBRJ,2022-06-20 02:00:00
1655715000000,SPECI SBRJ 200850Z 31001KT 9999 FEW015 SCT060 18/17 Q1020=,SBRJ,2022-06-20 08:50:00
1655715600000,METAR SBRJ 200900Z 32002KT 9999 FEW015 SCT060 18/17 Q1020=,SBRJ,2022-06-20 09:00:00
1655719200000,METAR SBRJ 201000Z 05005KT 9999 FEW015 SCT050 18/17 Q1021=,SBRJ,2022-06-20 10:00:00
1655721900000,SPECI SBRJ 201045Z 05007KT 9999 BKN010 BKN050 19/17 Q1021=,SBRJ,2022-06-20 10:45:00
1655722800000,METAR SBRJ 201100Z 03006KT 360V060 9999 BKN010 BKN050 18/17 Q1021=,SBRJ,2022-06-20 11:00:00
1655726400000,METAR SBRJ 201200Z 03006KT 8000 FEW007 BKN010 19/18 Q1021=,SBRJ,2022-06-20 12:00:00
1655727600000,SPECI SBRJ 201220Z 04005KT 8000 SCT010 19/17 Q1021=,SBRJ,2022-06-20 12:20:00
1655730000000,METAR SBRJ 201300Z 36006KT 320V030 8000 FEW010 19/17 Q1021=,SBRJ,2022-06-20 13:00:00
1655733600000,METAR SBRJ 201400Z 33007KT CAVOK 19/17 Q1021=,SBRJ,2022-06-20 14:00:00
1655737200000,METAR SBRJ 201500Z 33004KT 270V040 CAVOK 21/17 Q1020=,SBRJ,2022-06-20 15:00:00
1655740800000,METAR SBRJ 201600Z 04003KT 350V080 CAVOK 22/18 Q1018=,SBRJ,2022-06-20 16:00:00
1655744400000,METAR SBRJ 201700Z 15005KT CAVOK 22/19 Q1018=,SBRJ,2022-06-20 17:00:00
1655748000000,METAR SBRJ 201800Z 18008KT CAVOK 24/18 Q1017=,SBRJ,2022-06-20 18:00:00
1655751600000,METAR SBRJ 201900Z 18007KT 9999 FEW030 SCT100 23/19 Q1018=,SBRJ,2022-06-20 19:00:00
1655755200000,METAR SBRJ 202000Z 18007KT 9999 FEW030 SCT060 BKN100 23/20 Q1018=,SBRJ,2022-06-20 20:00:00
1655758800000,METAR SBRJ 202100Z 15004KT 9999 FEW040 BKN100 22/20 Q1018=,SBRJ,2022-06-20 21:00:00
1655762400000,METAR SBRJ 202200Z 16004KT 9999 FEW030 SCT060 BKN100 22/19 Q1018=,SBRJ,2022-06-20 22:00:00
1655766000000,METAR SBRJ 202300Z 14003KT 9999 FEW030 BKN080 22/20 Q1019=,SBRJ,2022-06-20 23:00:00
1655683200000,METAR SBSP 200000Z VRB04KT 5000 BR SCT004 OVC006 13/12 Q1024=,SBSP,2022-06-20 00:00:00
1655686800000,METAR SBSP 200100Z 15003KT 110V170 5000 BR SCT005 OVC007 13/12 Q1024=,SBSP,2022-06-20 01:00:00
1655690400000,METAR SBSP 200200Z 05005KT 020V080 9000 SCT006 OVC009 14/12 Q1023=,SBSP,2022-06-20 02:00:00
1655690460000,SPECI SBSP 200201Z 05006KT 9999 SCT006 OVC009 14/12 Q1023=,SBSP,2022-06-20 02:01:00
1655694000000,METAR SBSP 200300Z AUTO 07005KT 030V120 9999 SCT007 OVC009 14/12 Q1022=,SBSP,2022-06-20 03:00:00
1655697600000,METAR SBSP 200400Z AUTO 08006KT 040V110 9999 SCT007 OVC009 14/12 Q1022=,SBSP,2022-06-20 04:00:00
1655701200000,METAR SBSP 200500Z AUTO 07005KT 020V110 9999 OVC008 14/12 Q1022=,SBSP,2022-06-20 05:00:00
1655704800000,METAR SBSP 200600Z AUTO 08004KT 040V110 9999 OVC008 14/12 Q1022=,SBSP,2022-06-20 06:00:00
1655708400000,METAR SBSP 200700Z AUTO 02004KT 9999 BKN008 14/12 Q1022=,SBSP,2022-06-20 07:00:00
1655711100000,SPECI SBSP 200745Z AUTO 03009KT 9999 SCT007 14/12 Q1021=,SBSP,2022-06-20 07:45:00
1655712000000,METAR SBSP 200800Z AUTO 04009KT 010V070 9999 FEW006 14/12 Q1020=,SBSP,2022-06-20 08:00:00
1655715600000,METAR SBSP 200900Z 19003KT 9999 BKN009 14/12 Q1022=,SBSP,2022-06-20 09:00:00
1655719200000,METAR SBSP 201000Z 08005KT 040V110 9999 FEW009 14/12 Q1022=,SBSP,2022-06-20 10:00:00
1655722800000,METAR SBSP 201100Z VRB02KT 9999 FEW008 14/12 Q1023=,SBSP,2022-06-20 11:00:00
1655726400000,METAR SBSP 201200Z 04003KT 9999 FEW009 15/13 Q1024=,SBSP,2022-06-20 12:00:00
1655730000000,METAR SBSP 201300Z 02004KT 9999 FEW008 16/13 Q1024=,SBSP,2022-06-20 13:00:00
1655733600000,METAR SBSP 201400Z 32005KT 9999 FEW015 18/13 Q1024=,SBSP,2022-06-20 14:00:00
1655737200000,METAR SBSP 201500Z 33006KT 9999 FEW021 19/13 Q1023=,SBSP,2022-06-20 15:00:00
1655740800000,METAR SBSP 201600Z 35007KT 300V020 9999 FEW025 19/13 Q1022=,SBSP,2022-06-20 16:00:00
1655744400000,METAR SBSP 201700Z 33009KT 290V360 CAVOK 20/13 Q1022=,SBSP,2022-06-20 17:00:00
1655748000000,METAR SBSP 201800Z 33008KT 300V010 CAVOK 21/12 Q1021=,SBSP,2022-06-20 18:00:00
1655751600000,METAR SBSP 201900Z 01006KT CAVOK 20/12 Q1021=,SBSP,2022-06-20 19:00:00
1655755200000,METAR SBSP 202000Z 25003KT 190V290 CAVOK 20/11 Q1021=,SBSP,2022-06-20 20:00:00
1655758800000,METAR SBSP 202100Z 31004KT 220V020 CAVOK 19/12 Q1022=,SBSP,2022-06-20 21:00:00
1655762400000,METAR SBSP 202200Z 18005KT 080V210 CAVOK 18/13 Q1022=,SBSP,2022-06-20 22:00:00
1655766000000,METAR SBSP 202300Z 09003KT 060V130 CAVOK 16/14 Q1022=,SBSP,2022-06-20 23:00:00
1655683200000,METAR SBSV 200000Z 18013KT 9999 FEW023 SCT050 27/21 Q1017=,SBSV,2022-06-20 00:00:00
1655686800000,METAR SBSV 200100Z 18011KT 9999 BKN020 27/22 Q1017=,SBSV,2022-06-20 01:00:00
1655690400000,METAR SBSV 200200Z 17013KT 9999 SCT020 BKN080 26/22 Q1017=,SBSV,2022-06-20 02:00:00
1655694000000,METAR SBSV 200300Z 17011KT 9999 SCT020 SCT080 26/22 Q1017=,SBSV,2022-06-20 03:00:00
1655697600000,METAR SBSV 200400Z 16013KT 9999 BKN015 FEW023TCU BKN080 26/22 Q1017=,SBSV,2022-06-20 04:00:00
1655701200000,METAR SBSV 200500Z 14010KT 9999 SCT020 FEW023TCU BKN080 26/22 Q1016=,SBSV,2022-06-20 05:00:00
1655704800000,METAR SBSV 200600Z 14011KT 9999 VCSH SCT015 FEW023TCU BKN080 26/22 Q1016=,SBSV,2022-06-20 06:00:00
1655708400000,METAR SBSV 200700Z 14010KT 9999 SCT015 FEW023TCU BKN080 26/22 Q1016=,SBSV,2022-06-20 07:00:00
1655712000000,METAR SBSV 200800Z 13012KT 100V160 9999 SCT017 FEW023TCU BKN080 26/22 Q1016=,SBSV,2022-06-20 08:00:00
1655715600000,METAR SBSV 200900Z 14013KT 9999 BKN015 FEW023TCU BKN080 26/22 Q1016=,SBSV,2022-06-20 09:00:00
1655719200000,METAR SBSV 201000Z 13010KT 9999 SCT023 FEW026TCU BKN060 26/22 Q1017=,SBSV,2022-06-20 10:00:00
1655722800000,METAR SBSV 201100Z 14011KT 8000 VCSH BKN020 FEW023TCU BKN060 25/22 Q1018=,SBSV,2022-06-20 11:00:00
1655726400000,METAR SBSV 201200Z 13010KT 9000 VCSH SCT020 FEW023TCU BKN060 28/22 Q1018=,SBSV,2022-06-20 12:00:00
1655730000000,METAR SBSV 201300Z 12011KT 9999 SCT023 FEW026TCU SCT070 29/22 Q1018=,SBSV,2022-06-20 13:00:00
1655733600000,METAR SBSV 201400Z 13010KT 9999 SCT023 FEW026TCU 29/22 Q1018=,SBSV,2022-06-20 14:00:00
1655737200000,METAR SBSV 201500Z 12012KT 090V190 9999 SCT023 FEW026TCU 29/22 Q1017=,SBSV,2022-06-20 15:00:00
1655740800000,METAR SBSV 201600Z 14014KT 110V180 9000 VCSH SCT023 FEW026TCU 27/22 Q1017=,SBSV,2022-06-20 16:00:00
1655744400000,METAR SBSV 201700Z 13011KT 8000 VCSH BKN020 FEW023TCU BKN050 27/21 Q1016=,SBSV,2022-06-20 17:00:00
1655748000000,METAR SBSV 201800Z 11014KT 9999 VCSH BKN020 FEW023TCU BKN060 26/21 Q1016=,SBSV,2022-06-20 18:00:00
1655751600000,METAR SBSV 201900Z 13012KT 9999 VCSH BKN020 FEW023TCU BKN060 27/21 Q1016=,SBSV,2022-06-20 19:00:00
1655755200000,METAR SBSV 202000Z 09007KT 8000 VCSH SCT020 FEW023TCU OVC060 24/22 Q1017=,SBSV,2022-06-20 20:00:00
1655758800000,METAR SBSV 202100Z 13011G21KT 9999 SCT030 OVC060 27/20 Q1017=,SBSV,2022-06-20 21:00:00
1655762400000,METAR SBSV 202200Z 14011KT 9999 SCT030 OVC060 27/20 Q1017=,SBSV,2022-06-20 22:00:00
1655766000000,METAR SBSV 202300Z 14012KT 9999 FEW030 BKN060 27/20 Q1017=,SBSV,2022-06-20 23:00:00
1655769600000,METAR SBBR 210000Z 11006KT 9999 FEW045 20/12 Q1022=,SBBR,2022-06-21 00:00:00
1655773200000,METAR SBBR 210100Z 11006KT CAVOK 19/12 Q1023=,SBBR,2022-06-21 01:00:00
1655776800000,METAR SBBR 210200Z 10005KT CAVOK 18/12 Q1022=,SBBR,2022-06-21 02:00:00
1655780400000,METAR SBBR 210300Z VRB02KT CAVOK 18/12 Q1022=,SBBR,2022-06-21 03:00:00
1655784000000,METAR COR SBBR 210400Z 05002KT CAVOK 14/11 Q1021=,SBBR,2022-06-21 04:00:00
1655787600000,METAR SBBR 210500Z 13002KT CAVOK 17/12 Q1021=,SBBR,2022-06-21 05:00:00
1655791200000,METAR SBBR 210600Z 05001KT CAVOK 14/11 Q1021=,SBBR,2022-06-21 06:00:00
1655794800000,METAR SBBR 210700Z 07003KT 020V110 CAVOK 15/12 Q1021=,SBBR,2022-06-21 07:00:00
1655798400000,METAR SBBR 210800Z 00000KT CAVOK 15/12 Q1021=,SBBR,2022-06-21 08:00:00
1655802000000,METAR SBBR 210900Z 09004KT CAVOK 14/12 Q1022=,SBBR,2022-06-21 09:00:00
1655805600000,METAR SBBR 211000Z 11005KT CAVOK 15/12 Q1022=,SBBR,2022-06-21 10:00:00
1655809200000,METAR SBBR 211100Z 10008KT CAVOK 17/13 Q1023=,SBBR,2022-06-21 11:00:00
1655812800000,METAR SBBR 211200Z 10011KT CAVOK 19/13 Q1023=,SBBR,2022-06-21 12:00:00
1655816400000,METAR SBBR 211300Z 08012KT 050V110 CAVOK 21/12 Q1023=,SBBR,2022-06-21 13:00:00
1655820000000,METAR SBBR 211400Z 09013KT CAVOK 23/11 Q1023=,SBBR,2022-06-21 14:00:00
1655823600000,METAR SBBR 211500Z 09012KT 050V130 CAVOK 24/12 Q1022=,SBBR,2022-06-21 15:00:00
1655827200000,METAR SBBR 211600Z 10014KT CAVOK 26/11 Q1021=,SBBR,2022-06-21 16:00:00
1655830800000,METAR SBBR 211700Z 09012KT 070V130 CAVOK 26/11 Q1020=,SBBR,2022-06-21 17:00:00
1655834400000,METAR SBBR 211800Z 11012KT 070V140 CAVOK 26/09 Q1020=,SBBR,2022-06-21 18:00:00
1655838000000,METAR SBBR 211900Z 09012KT CAVOK 26/09 Q1020=,SBBR,2022-06-21 19:00:00
1655841600000,METAR SBBR 212000Z 11011KT CAVOK 25/10 Q1019=,SBBR,2022-06-21 20:00:00
1655845200000,METAR SBBR 212100Z 08007KT CAVOK 23/10 Q1020=,SBBR,2022-06-21 21:00:00
1655848800000,METAR SBBR 212200Z 12006KT CAVOK 22/10 Q1020=,SBBR,2022-06-21 22:00:00
1655852400000,METAR SBBR 212300Z 12006KT CAVOK 21/10 Q1021=,SBBR,2022-06-21 23:00:00
1655769600000,METAR SBCF 210000Z 09008KT CAVOK 19/13 Q1023=,SBCF,2022-06-21 00:00:00
1655773200000,METAR SBCF 210100Z 10006KT CAVOK 18/12 Q1023=,SBCF,2022-06-21 01:00:00
1655776800000,METAR SBCF 210200Z 13005KT CAVOK 17/13 Q1023=,SBCF,2022-06-21 02:00:00
1655780400000,METAR SBCF 210300Z 12005KT CAVOK 16/13 Q1023=,SBCF,2022-06-21 03:00:00
1655784000000,METAR SBCF 210400Z 09006KT CAVOK 17/12 Q1023=,SBCF,2022-06-21 04:00:00
1655787600000,METAR SBCF 210500Z 12004KT CAVOK 15/12 Q1023=,SBCF,2022-06-21 05:00:00
1655791200000,METAR SBCF 210600Z 13005KT CAVOK 15/12 Q1022=,SBCF,2022-06-21 06:00:00
1655794800000,METAR SBCF 210700Z 12005KT CAVOK 15/12 Q1022=,SBCF,2022-06-21 07:00:00
1655798400000,METAR SBCF 210800Z 09009KT CAVOK 16/13 Q1022=,SBCF,2022-06-21 08:00:00
1655802000000,METAR SBCF 210900Z 11006KT CAVOK 15/12 Q1023=,SBCF,2022-06-21 09:00:00
1655805600000,METAR SBCF 211000Z 10005KT CAVOK 15/13 Q1023=,SBCF,2022-06-21 10:00:00
1655809200000,METAR SBCF 211100Z 14003KT CAVOK 15/13 Q1023=,SBCF,2022-06-21 11:00:00
1655812800000,METAR SBCF 211200Z 00000KT CAVOK 19/13 Q1022=,SBCF,2022-06-21 12:00:00
1655816400000,METAR SBCF 211300Z 04006KT CAVOK 20/13 Q1024=,SBCF,2022-06-21 13:00:00
1655820000000,METAR SBCF 211400Z 03006KT 9999 FEW020 21/13 Q1024=,SBCF,2022-06-21 14:00:00
1655823600000,METAR SBCF 211500Z 05008KT 9999 SCT025 22/13 Q1023=,SBCF,2022-06-21 15:00:00
1655827200000,METAR SBCF 211600Z 05005KT 9999 SCT040 23/13 Q1022=,SBCF,2022-06-21 16:00:00
1655830800000,METAR SBCF 211700Z 03005KT 9999 SCT040 24/12 Q1021=,SBCF,2022-06-21 17:00:00
1655834400000,METAR SBCF 211800Z 03006KT 9999 SCT040 24/12 Q1021=,SBCF,2022-06-21 18:00:00
1655838000000,METAR SBCF 211900Z 01007KT 9999 SCT040 24/12 Q1021=,SBCF,2022-06-21 19:00:00
1655841600000,METAR SBCF 212000Z 07008KT CAVOK 23/12 Q1021=,SBCF,2022-06-21 20:00:00
1655845200000,METAR SBCF 212100Z 06007KT CAVOK 21/12 Q1021=,SBCF,2022-06-21 21:00:00
1655848800000,METAR SBCF 212200Z 06006KT CAVOK 19/12 Q1021=,SBCF,2022-06-21 22:00:00
1655852400000,METAR SBCF 212300Z 07006KT CAVOK 19/12 Q1022=,SBCF,2022-06-21 23:00:00
1655769600000,METAR SBCT 210000Z 06004KT 9999 FEW005 SCT083 13/12 Q1021=,SBCT,2022-06-21 00:00:00
1655773200000,METAR SBCT 210100Z 03003KT 8000 NSC 12/12 Q1022=,SBCT,2022-06-21 01:00:00
1655776800000,METAR SBCT 210200Z 03002KT 6000 NSC 11/11 Q1022=,SBCT,2022-06-21 02:00:00
1655780400000,METAR SBCT 210300Z 36001KT 8000 NSC 12/12 Q1022=,SBCT,2022-06-21 03:00:00
1655784000000,METAR SBCT 210400Z 03003KT 6000 NSC 11/11 Q1021=,SBCT,2022-06-21 04:00:00
1655787600000,METAR SBCT 210500Z 04005KT 6000 NSC 11/11 Q1021=,SBCT,2022-06-21 05:00:00
1655791200000,METAR SBCT 210600Z 06006KT 9000 NSC 12/12 Q1020=,SBCT,2022-06-21 06:00:00
1655794800000,METAR SBCT 210700Z 04005KT CAVOK 12/12 Q1020=,SBCT,2022-06-21 07:00:00
1655798400000,METAR SBCT 210800Z 34002KT CAVOK 12/12 Q1020=,SBCT,2022-06-21 08:00:00
1655802000000,METAR SBCT 210900Z 18001KT CAVOK 12/12 Q1020=,SBCT,2022-06-21 09:00:00
1655805600000,METAR SBCT 211000Z 07004KT 9000 NSC 10/10 Q1020=,SBCT,2022-06-21 10:00:00
1655809200000,METAR SBCT 211100Z 01003KT CAVOK 12/12 Q1020=,SBCT,2022-06-21 11:00:00
1655812800000,METAR SBCT 211200Z 01005KT 9999 FEW040 BKN100 14/13 Q1020=,SBCT,2022-06-21 12:00:00
1655816400000,METAR SBCT 211300Z 01007KT 9999 FEW040 BKN080 17/13 Q1020=,SBCT,2022-06-21 13:00:00
1655820000000,METAR SBCT 211400Z 35007KT 9999 FEW040 BKN100 20/14 Q1020=,SBCT,2022-06-21 14:00:00
1655823600000,METAR SBCT 211500Z 35010KT 9999 FEW040 23/14 Q1019=,SBCT,2022-06-21 15:00:00
1655827200000,METAR SBCT 211600Z 34013KT CAVOK 24/14 Q1018=,SBCT,2022-06-21 16:00:00
1655830800000,METAR SBCT 211700Z 32015KT 9999 FEW030 24/14 Q1017=,SBCT,2022-06-21 17:00:00
1655834400000,METAR SBCT 211800Z 34013KT 9999 BKN035 23/15 Q1017=,SBCT,2022-06-21 18:00:00
1655838000000,METAR SBCT 211900Z 34012KT 9999 FEW035 23/15 Q1017=,SBCT,2022-06-21 19:00:00
1655841600000,METAR SBCT 212000Z 35011KT 9999 FEW030 22/14 Q1016=,SBCT,2022-06-21 20:00:00
1655845200000,METAR SBCT 212100Z 34008KT 9999 FEW016 20/14 Q1017=,SBCT,2022-06-21 21:00:00
1655848800000,METAR SBCT 212200Z 35005KT CAVOK 19/15 Q1018=,SBCT,2022-06-21 22:00:00
1655852400000,METAR SBCT 212300Z 02004KT CAVOK 18/15 Q1018=,SBCT,2022-06-21 23:00:00
1655769600000,METAR SBFL 210000Z 21001KT CAVOK 15/13 Q1019=,SBFL,2022-06-21 00:00:00
1655773200000,METAR SBFL 210100Z 29003KT CAVOK 15/14 Q1019=,SBFL,2022-06-21 01:00:00
1655776800000,METAR SBFL 210200Z 36002KT CAVOK 15/13 Q1019=,SBFL,2022-06-21 02:00:00
1655780400000,METAR SBFL 210300Z 34004KT CAVOK 16/15 Q1019=,SBFL,2022-06-21 03:00:00
1655784000000,METAR SBFL 210400Z 31002KT CAVOK 15/14 Q1019=,SBFL,2022-06-21 04:00:00
1655787600000,METAR SBFL 210500Z 28006KT CAVOK 14/13 Q1018=,SBFL,2022-06-21 05:00:00
1655791200000,METAR SBFL 210600Z 28003KT CAVOK 14/13 Q1018=,SBFL,2022-06-21 06:00:00
1655794800000,METAR SBFL 210700Z 26002KT CAVOK 14/14 Q1018=,SBFL,2022-06-21 07:00:00
1655798400000,METAR SBFL 210800Z 31004KT CAVOK 14/13 Q1017=,SBFL,2022-06-21 08:00:00
1655802000000,METAR SBFL 210900Z 33007KT CAVOK 15/14 Q1017=,SBFL,2022-06-21 09:00:00
1655805600000,METAR SBFL 211000Z 33012KT CAVOK 15/15 Q1017=,SBFL,2022-06-21 10:00:00
1655809200000,METAR SBFL 211100Z 35009KT 9999 FEW020 SCT050 16/14 Q1017=,SBFL,2022-06-21 11:00:00
1655812800000,METAR SBFL 211200Z 33012KT 9999 FEW025 SCT050 16/14 Q1017=,SBFL,2022-06-21 12:00:00
1655816400000,METAR SBFL 211300Z 34013KT 9999 TS FEW025 FEW030CB SCT050 16/14 Q1016=,SBFL,2022-06-21 13:00:00
1655818560000,SPECI SBFL 211336Z 33011KT 4000 TSRA FEW025 FEW030CB BKN050 OVC100 16/15 Q1018=,SBFL,2022-06-21 13:36:00
1655820000000,METAR COR SBFL 211400Z 10012KT 5000 -TSRA FEW020 FEW030CB BKN040 OVC100 16/15 Q1016 RERA=,SBFL,2022-06-21 14:00:00
1655823600000,METAR SBFL 211500Z 33011KT 8000 FEW020 FEW030TCU SCT040 OVC100 18/16 Q1016 RETS=,SBFL,2022-06-21 15:00:00
1655827200000,METAR SBFL 211600Z 34011KT 9999 FEW020 SCT040 BKN100 18/16 Q1015=,SBFL,2022-06-21 16:00:00
1655830800000,METAR SBFL 211700Z 35010KT 9999 FEW025 BKN040 BKN100 19/16 Q1014=,SBFL,2022-06-21 17:00:00
1655834400000,METAR SBFL 211800Z 35003KT 9999 FEW025 BKN040 BKN100 18/16 Q1015=,SBFL,2022-06-21 18:00:00
1655836080000,SPECI SBFL 211828Z 09005KT 9999 TS VCSH FEW025 FEW033CB BKN040 BKN100 18/16 Q1014=,SBFL,2022-06-21 18:28:00
1655836920000,SPECI SBFL 211842Z 27011KT 2500 TSRA BKN012 FEW033CB BKN040 BKN100 18/16 Q1016=,SBFL,2022-06-21 18:42:00
1655837100000,SPECI SBFL 211845Z 25009KT 1200 R14/1000 R32/1500 +TSRA BKN012 FEW033CB BKN040 BKN100 18/16 Q1015 RERA=,SBFL,2022-06-21 18:45:00
1655838000000,METAR SBFL 211900Z 20003KT 5000 -TSRA BKN014 FEW033CB BKN040 BKN100 17/17 Q1015 RERA=,SBFL,2022-06-21 19:00:00
1655841600000,METAR SBFL 212000Z 15002KT 9999 SCT014 FEW033TCU BKN040 17/17 Q1014 RETS=,SBFL,2022-06-21 20:00:00
1655845200000,METAR SBFL 212100Z 18001KT 9999 SCT014 FEW033TCU BKN080 17/16 Q1014=,SBFL,2022-06-21 21:00:00
1655848800000,METAR SBFL 212200Z 21003KT 9999 SCT014 FEW033TCU BKN050 17/16 Q1014=,SBFL,2022-06-21 22:00:00
1655852400000,METAR SBFL 212300Z 32004KT 9999 SCT014 BKN100 17/16 Q1015=,SBFL,2022-06-21 23:00:00
1655854800000,SPECI SBFL 212340Z 27003KT 5000 -TSRA BKN009 FEW030CB BKN060 17/16 Q1015=,SBFL,2022-06-21 23:40:00
1655769600000,METAR SBGL 210000Z 07003KT 9999 FEW030 BKN100 20/18 Q1019=,SBGL,2022-06-21 00:00:00
1655773200000,METAR SBGL 210100Z 08003KT 9999 FEW030 BKN100 20/18 Q1020=,SBGL,2022-06-21 01:00:00
1655776800000,METAR SBGL 210200Z 14003KT CAVOK 19/18 Q1020=,SBGL,2022-06-21 02:00:00
1655780400000,METAR SBGL 210300Z 09003KT CAVOK 19/18 Q1020=,SBGL,2022-06-21 03:00:00
1655784000000,METAR SBGL 210400Z 07004KT CAVOK 19/17 Q1020=,SBGL,2022-06-21 04:00:00
1655787600000,METAR SBGL 210500Z 06003KT CAVOK 18/17 Q1019=,SBGL,2022-06-21 05:00:00
1655791200000,METAR SBGL 210600Z 04002KT CAVOK 17/16 Q1019=,SBGL,2022-06-21 06:00:00
1655794800000,METAR COR SBGL 210700Z 35003KT 8000 SCT005 17/16 Q1018=,SBGL,2022-06-21 07:00:00
1655796000000,SPECI SBGL 210720Z 32003KT 8000 BKN005 18/16 Q1019=,SBGL,2022-06-21 07:20:00
1655798400000,METAR SBGL 210800Z 31002KT 7000 OVC005 18/17 Q1019=,SBGL,2022-06-21 08:00:00
1655802000000,METAR SBGL 210900Z 08002KT 5000 BR OVC005 19/18 Q1019=,SBGL,2022-06-21 09:00:00
1655804400000,SPECI SBGL 210940Z 06002KT 2500 BR OVC005 19/18 Q1019=,SBGL,2022-06-21 09:40:00
1655805600000,METAR SBGL 211000Z 00000KT 2000 BR OVC005 19/18 Q1019=,SBGL,2022-06-21 10:00:00
1655809200000,METAR SBGL 211100Z VRB01KT 2000 BR OVC003 19/18 Q1020=,SBGL,2022-06-21 11:00:00
1655812800000,METAR SBGL 211200Z VRB01KT 2000 R28/1400D R10/2000N R15/2000N R33/2000N BR OVC004 19/18 Q1020=,SBGL,2022-06-21 12:00:00
1655816400000,METAR SBGL 211300Z 36003KT 320V040 2000 BR OVC004 20/19 Q1020=,SBGL,2022-06-21 13:00:00
1655820000000,METAR SBGL 211400Z 35003KT 320V020 3000 BR BKN003 BKN006 OVC085 20/19 Q1019=,SBGL,2022-06-21 14:00:00
1655823600000,METAR SBGL 211500Z 04003KT 340V120 5000 BR SCT006 22/19 Q1018=,SBGL,2022-06-21 15:00:00
1655827200000,METAR SBGL 211600Z 36005KT 8000 FEW010 24/19 Q1017=,SBGL,2022-06-21 16:00:00
1655830800000,METAR SBGL 211700Z 36004KT 8000 NSC 25/18 Q1016=,SBGL,2022-06-21 17:00:00
1655834400000,METAR SBGL 211800Z 03005KT CAVOK 26/18 Q1016=,SBGL,2022-06-21 18:00:00
1655838000000,METAR SBGL 211900Z 04005KT CAVOK 26/17 Q1016=,SBGL,2022-06-21 19:00:00
1655841600000,METAR SBGL 212000Z 13008KT CAVOK 23/19 Q1016=,SBGL,2022-06-21 20:00:00
1655845200000,METAR SBGL 212100Z 13005KT CAVOK 22/19 Q1016=,SBGL,2022-06-21 21:00:00
1655848800000,METAR SBGL 212200Z 12005KT CAVOK 21/18 Q1016=,SBGL,2022-06-21 22:00:00
1655852400000,METAR SBGL 212300Z 12004KT CAVOK 22/20 Q1016=,SBGL,2022-06-21 23:00:00
1655769600000,METAR SBGR 210000Z 08005KT CAVOK 16/15 Q1022=,SBGR,2022-06-21 00:00:00
1655773200000,METAR SBGR 210100Z 08007KT CAVOK 15/14 Q1022=,SBGR,2022-06-21 01:00:00
1655776800000,METAR SBGR 210200Z 07006KT CAVOK 14/14 Q1022=,SBGR,2022-06-21 02:00:00
1655780400000,METAR SBGR 210300Z 07006KT CAVOK 14/14 Q1022=,SBGR,2022-06-21 03:00:00
1655784000000,METAR SBGR 210400Z 08006KT 8000 NSC 14/14 Q1022=,SBGR,2022-06-21 04:00:00
1655787600000,METAR SBGR 210500Z 07006KT 8000 NSC 14/14 Q1022=,SBGR,2022-06-21 05:00:00
1655791200000,METAR SBGR 210600Z 08006KT 0600 R09R/1800N R09L/1800N R27R/1800N R27L/1800N FG BKN002 14/14 Q1022=,SBGR,2022-06-21 06:00:00
1655794800000,METAR SBGR 210700Z 07009KT 0500 R09R/0700N R09L/0700N R27R/0700N R27L/0700N FG OVC002 14/14 Q1021=,SBGR,2022-06-21 07:00:00
1655798400000,METAR SBGR 210800Z 08009KT 0200 R09R/0500N R09L/0500N R27R/0500N R27L/0500N FG OVC002 14/14 Q1021=,SBGR,2022-06-21 08:00:00
1655802000000,METAR SBGR 210900Z 07010KT 1000 R09R/1300N R09L/1300N R27R/1300N R27L/1300N BR BKN002 14/14 Q1021=,SBGR,2022-06-21 09:00:00
1655805600000,METAR SBGR 211000Z 06009KT 0500 R09R/1300N R09L/1300N R27R/1300N R27L/1300N FG OVC002 14/14 Q1022=,SBGR,2022-06-21 10:00:00
1655809200000,METAR SBGR 211100Z 06007KT 0600 R09R/0800N R09L/0800N R27R/1000N R27L/1000N FG OVC002 14/14 Q1022=,SBGR,2022-06-21 11:00:00
1655812800000,METAR COR SBGR 211200Z 07011KT 2000 BR BCFG OVC002 14/14 Q1022=,SBGR,2022-06-21 12:00:00
1655813700000,SPECI COR SBGR 211215Z 08009KT 5000 2000E BR BCFG OVC003 14/14 Q1022=,SBGR,2022-06-21 12:15:00
1655816400000,METAR SBGR 211300Z 07010KT 7000 FEW005 BKN007 16/14 Q1022=,SBGR,2022-06-21 13:00:00
1655816760000,SPECI SBGR 211306Z 08009KT 9000 FEW005 SCT007 16/14 Q1022=,SBGR,2022-06-21 13:06:00
1655820000000,METAR SBGR 211400Z 06007KT CAVOK 19/15 Q1022=,SBGR,2022-06-21 14:00:00
1655823600000,METAR SBGR 211500Z 06008KT CAVOK 20/15 Q1020=,SBGR,2022-06-21 15:00:00
1655827200000,METAR SBGR 211600Z 06006KT CAVOK 23/16 Q1020=,SBGR,2022-06-21 16:00:00
1655830800000,METAR SBGR 211700Z 04005KT 9999 SCT043 25/16 Q1019=,SBGR,2022-06-21 17:00:00
1655834400000,METAR SBGR 211800Z 09005KT 9999 SCT046 SCT050 25/16 Q1018=,SBGR,2022-06-21 18:00:00
1655838000000,METAR SBGR 211900Z 35008KT 9999 SCT045 SCT050 26/14 Q1018=,SBGR,2022-06-21 19:00:00
1655841600000,METAR SBGR 212000Z 08008KT CAVOK 23/17 Q1018=,SBGR,2022-06-21 20:00:00
1655845200000,METAR SBGR 212100Z 08005KT CAVOK 20/17 Q1018=,SBGR,2022-06-21 21:00:00
1655848800000,METAR SBGR 212200Z 10002KT CAVOK 19/16 Q1019=,SBGR,2022-06-21 22:00:00
1655852400000,METAR SBGR 212300Z 06004KT CAVOK 19/16 Q1019=,SBGR,2022-06-21 23:00:00
1655769600000,METAR SBKP 210000Z 11006KT CAVOK 16/13 Q1021=,SBKP,2022-06-21 00:00:00
1655773200000,METAR SBKP 210100Z 13006KT CAVOK 16/13 Q1021=,SBKP,2022-06-21 01:00:00
1655776800000,METAR SBKP 210200Z 12007KT CAVOK 16/13 Q1021=,SBKP,2022-06-21 02:00:00
1655780400000,METAR SBKP 210300Z 12008KT CAVOK 15/13 Q1021=,SBKP,2022-06-21 03:00:00
1655784000000,METAR SBKP 210400Z 11007KT CAVOK 15/13 Q1021=,SBKP,2022-06-21 04:00:00
1655787600000,METAR SBKP 210500Z 11008KT CAVOK 15/13 Q1021=,SBKP,2022-06-21 05:00:00
1655791200000,METAR SBKP 210600Z 12008KT CAVOK 15/13 Q1021=,SBKP,2022-06-21 06:00:00
1655794800000,METAR SBKP 210700Z 11006KT CAVOK 15/13 Q1020=,SBKP,2022-06-21 07:00:00
1655798400000,METAR SBKP 210800Z 11005KT CAVOK 14/13 Q1020=,SBKP,2022-06-21 08:00:00
1655802000000,METAR SBKP 210900Z 12006KT CAVOK 14/13 Q1020=,SBKP,2022-06-21 09:00:00
1655805600000,METAR SBKP 211000Z 12006KT 9000 NSC 14/13 Q1020=,SBKP,2022-06-21 10:00:00
1655809200000,METAR SBKP 211100Z 11006KT CAVOK 15/13 Q1020=,SBKP,2022-06-21 11:00:00
1655812800000,METAR SBKP 211200Z 10004KT CAVOK 18/14 Q1021=,SBKP,2022-06-21 12:00:00
1655816400000,METAR COR SBKP 211300Z 01009KT 330V050 9999 FEW030 26/15 Q1019=,SBKP,2022-06-21 13:00:00
1655820000000,METAR SBKP 211400Z 36005KT 330V040 CAVOK 23/15 Q1021=,SBKP,2022-06-21 14:00:00
1655823600000,METAR SBKP 211500Z 02010KT 340V040 CAVOK 24/15 Q1020=,SBKP,2022-06-21 15:00:00
1655827200000,METAR SBKP 211600Z 01009KT 330V050 9999 FEW030 26/15 Q1019=,SBKP,2022-06-21 16:00:00
1655830800000,METAR SBKP 211700Z 01010KT 9999 FEW035 26/15 Q1018=,SBKP,2022-06-21 17:00:00
1655834400000,METAR SBKP 211800Z 33008KT 9999 SCT040 26/15 Q1018=,SBKP,2022-06-21 18:00:00
1655838000000,METAR SBKP 211900Z 03007KT 9999 FEW045 26/15 Q1017=,SBKP,2022-06-21 19:00:00
1655841600000,METAR SBKP 212000Z 01005KT CAVOK 26/14 Q1017=,SBKP,2022-06-21 20:00:00
1655845200000,METAR SBKP 212100Z 01004KT CAVOK 25/14 Q1018=,SBKP,2022-06-21 21:00:00
1655848800000,METAR SBKP 212200Z 05004KT CAVOK 24/14 Q1018=,SBKP,2022-06-21 22:00:00
1655852400000,METAR SBKP 212300Z 09004KT CAVOK 22/15 Q1019=,SBKP,2022-06-21 23:00:00
1655769600000,METAR SBPA 210000Z 11006KT CAVOK 12/10 Q1017=,SBPA,2022-06-21 00:00:00
1655773200000,METAR SBPA 210100Z 11007KT CAVOK 12/10 Q1017=,SBPA,2022-06-21 01:00:00
1655776800000,METAR SBPA 210200Z 11005KT CAVOK 11/11 Q1017=,SBPA,2022-06-21 02:00:00
1655780400000,METAR SBPA 210300Z 09005KT CAVOK 12/11 Q1016=,SBPA,2022-06-21 03:00:00
1655784000000,METAR SBPA 210400Z 11005KT 9000 FEW003 12/11 Q1016=,SBPA,2022-06-21 04:00:00
1655787600000,METAR SBPA 210500Z 31003KT 8000 FEW004 11/10 Q1016=,SBPA,2022-06-21 05:00:00
1655791200000,METAR SBPA 210600Z VRB02KT 5000 BR FEW004 BKN080 11/10 Q1016=,SBPA,2022-06-21 06:00:00
1655793480000,SPECI SBPA 210638Z 10002KT 3000 BR BCFG NSC 10/10 Q1015=,SBPA,2022-06-21 06:38:00
1655794800000,METAR SBPA 210700Z 07003KT 3000 BR BCFG SCT004 10/10 Q1015=,SBPA,2022-06-21 07:00:00
1655798400000,METAR SBPA 210800Z 07004KT 4000 BR BCFG FEW004 10/10 Q1013=,SBPA,2022-06-21 08:00:00
1655802000000,METAR SBPA 210900Z 06003KT 4000 BR BCFG NSC 10/10 Q1012=,SBPA,2022-06-21 09:00:00
1655805600000,METAR SBPA 211000Z VRB01KT 8000 NSC 10/10 Q1013=,SBPA,2022-06-21 10:00:00
1655809200000,METAR SBPA 211100Z 28006KT 5000 BR FEW020 BKN080 12/11 Q1014=,SBPA,2022-06-21 11:00:00
1655812800000,METAR SBPA 211200Z 08007KT 5000 BR FEW040TCU BKN100 11/11 Q1014=,SBPA,2022-06-21 12:00:00
1655816400000,METAR SBPA 211300Z 11006KT 080V160 7000 -RA FEW040TCU BKN100 13/12 Q1014=,SBPA,2022-06-21 13:00:00
1655818440000,SPECI SBPA 211334Z VRB03KT 4000 -RA BR FEW010 FEW040TCU OVC090 14/13 Q1015=,SBPA,2022-06-21 13:34:00
1655820000000,METAR SBPA 211400Z VRB02KT 4000 -RA BR FEW010 FEW040TCU BKN070 14/13 Q1014=,SBPA,2022-06-21 14:00:00
1655823600000,METAR SBPA 211500Z VRB01KT 4000 -RA BR FEW005 FEW040TCU OVC100 15/14 Q1013=,SBPA,2022-06-21 15:00:00
1655824740000,SPECI SBPA 211519Z 33005KT 7000 FEW012 FEW040TCU BKN100 17/16 Q1013=,SBPA,2022-06-21 15:19:00
1655827200000,METAR SBPA 211600Z 27006KT 240V320 7000 FEW012 FEW040TCU BKN100 16/15 Q1012=,SBPA,2022-06-21 16:00:00
1655828580000,SPECI SBPA 211623Z 24012KT 200V300 7000 -RA BKN010 FEW040TCU BKN100 16/15 Q1014=,SBPA,2022-06-21 16:23:00
1655830800000,METAR SBPA 211700Z 29006KT 250V330 7000 -RA BKN010 FEW040TCU BKN100 17/16 Q1012=,SBPA,2022-06-21 17:00:00
1655834400000,METAR SBPA 211800Z 35007KT 9999 SCT010 BKN080 17/16 Q1012=,SBPA,2022-06-21 18:00:00
1655838000000,METAR SBPA 211900Z 32009KT 8000 -RA SCT010 BKN100 17/16 Q1012=,SBPA,2022-06-21 19:00:00
1655841600000,METAR SBPA 212000Z 35011KT 7000 -RA FEW010 BKN100 17/16 Q1013=,SBPA,2022-06-21 20:00:00
1655845200000,METAR SBPA 212100Z 30006KT 7000 -RA FEW010 OVC090 16/15 Q1014=,SBPA,2022-06-21 21:00:00
1655848800000,METAR SBPA 212200Z VRB02KT 7000 -RA FEW010 OVC100 16/15 Q1013=,SBPA,2022-06-21 22:00:00
1655852400000,METAR SBPA 212300Z 24003KT 7000 FEW010 BKN100 15/15 Q1013=,SBPA,2022-06-21 23:00:00
1655769600000,METAR SBRF 210000Z 12009KT 090V150 9999 FEW025 SCT050 27/22 Q1015=,SBRF,2022-06-21 00:00:00
1655773200000,METAR SBRF 210100Z 13006KT 9999 FEW025 SCT050 27/22 Q1015=,SBRF,2022-06-21 01:00:00
1655776800000,METAR SBRF 210200Z 12007KT 030V180 9999 FEW025 28/22 Q1015=,SBRF,2022-06-21 02:00:00
1655780400000,METAR SBRF 210300Z 13008KT 9999 SCT025 27/22 Q1014=,SBRF,2022-06-21 03:00:00
1655784000000,METAR SBRF 210400Z 13008KT 9999 SCT023 26/22 Q1014=,SBRF,2022-06-21 04:00:00
1655787600000,METAR SBRF 210500Z 13009KT 9999 SCT023 26/22 Q1013=,SBRF,2022-06-21 05:00:00
1655791200000,METAR SBRF 210600Z 13008KT 9999 SCT023 26/22 Q1013=,SBRF,2022-06-21 06:00:00
1655794800000,METAR SBRF 210700Z 13007KT 9999 SCT023 26/21 Q1013=,SBRF,2022-06-21 07:00:00
1655798400000,METAR SBRF 210800Z 13010KT 9999 SCT023 26/21 Q1013=,SBRF,2022-06-21 08:00:00
1655802000000,METAR SBRF 210900Z 13009KT 9999 SCT023 26/21 Q1014=,SBRF,2022-06-21 09:00:00
1655805600000,METAR SBRF 211000Z 12011KT 9999 SCT025 27/21 Q1014=,SBRF,2022-06-21 10:00:00
1655809200000,METAR SBRF 211100Z 12011KT 9999 SCT025 28/21 Q1015=,SBRF,2022-06-21 11:00:00
1655812800000,METAR SBRF 211200Z 12010KT 080V150 9999 SCT025 28/22 Q1015=,SBRF,2022-06-21 12:00:00
1655816400000,METAR SBRF 211300Z 13011KT 9999 SCT025 29/22 Q1015=,SBRF,2022-06-21 13:00:00
1655820000000,METAR SBRF 211400Z 13010KT 9999 BKN023 28/23 Q1015=,SBRF,2022-06-21 14:00:00
1655823600000,METAR SBRF 211500Z 12013KT 080V150 9999 SCT025 29/21 Q1014=,SBRF,2022-06-21 15:00:00
1655827200000,METAR SBRF 211600Z 14012KT 110V170 9999 FEW025 29/20 Q1014=,SBRF,2022-06-21 16:00:00
1655830800000,METAR SBRF 211700Z 14011KT 110V170 9999 FEW025 29/20 Q1013=,SBRF,2022-06-21 17:00:00
1655834400000,METAR SBRF 211800Z 14009KT 9999 FEW025 29/19 Q1013=,SBRF,2022-06-21 18:00:00
1655838000000,METAR SBRF 211900Z 15011KT 9999 FEW025 28/20 Q1013=,SBRF,2022-06-21 19:00:00
1655841600000,METAR SBRF 212000Z 14007KT 9999 FEW025 SCT040 27/20 Q1013=,SBRF,2022-06-21 20:00:00
1655845200000,METAR SBRF 212100Z 15008KT 9999 SCT040 27/21 Q1013=,SBRF,2022-06-21 21:00:00
1655848800000,METAR SBRF 212200Z 18006KT 9999 SCT048 26/21 Q1013=,SBRF,2022-06-21 22:00:00
1655852400000,METAR SBRF 212300Z 21003KT 9999 SCT025 25/21 Q1014=,SBRF,2022-06-21 23:00:00
1655769600000,METAR SBRJ 210000Z 07003KT 9999 FEW030 SCT090 22/20 Q1018=,SBRJ,2022-06-21 00:00:00
1655773200000,METAR SBRJ 210100Z 32003KT 290V360 9999 FEW030 SCT100 22/20 Q1019=,SBRJ,2022-06-21 01:00:00
1655776800000,METAR SBRJ 210200Z 31004KT 250V330 CAVOK 22/20 Q1019=,SBRJ,2022-06-21 02:00:00
1655801400000,SPECI SBRJ 210850Z 01004KT CAVOK 19/18 Q1018=,SBRJ,2022-06-21 08:50:00
1655802000000,METAR SBRJ 210900Z 01004KT CAVOK 20/19 Q1018=,SBRJ,2022-06-21 09:00:00
1655805600000,METAR SBRJ 211000Z 36006KT 9999 SCT007 19/19 Q1019=,SBRJ,2022-06-21 10:00:00
1655807700000,SPECI SBRJ 211035Z 36006KT 330V030 7000 BKN007 20/19 Q1019=,SBRJ,2022-06-21 10:35:00
1655809200000,METAR SBRJ 211100Z 01004KT 7000 BKN007 20/19 Q1019=,SBRJ,2022-06-21 11:00:00
1655812800000,METAR SBRJ 211200Z 03006KT 7000 FEW005 OVC007 20/19 Q1020=,SBRJ,2022-06-21 12:00:00
1655816400000,METAR SBRJ 211300Z 01005KT 6000 SCT005 BKN007 20/19 Q1020=,SBRJ,2022-06-21 13:00:00
1655820000000,METAR SBRJ 211400Z 36006KT 5000 BR SCT004 BKN007 20/20 Q1019=,SBRJ,2022-06-21 14:00:00
1655823600000,METAR SBRJ 211500Z 36006KT 4000 BR FEW004 21/19 Q1018=,SBRJ,2022-06-21 15:00:00
1655825700000,SPECI SBRJ 211535Z 34005KT 300V360 5000 BR NSC 22/20 Q1017=,SBRJ,2022-06-21 15:35:00
1655827200000,METAR SBRJ 211600Z 34005KT 300V360 7000 NSC 22/19 Q1017=,SBRJ,2022-06-21 16:00:00
1655830800000,METAR SBRJ 211700Z 14006KT CAVOK 23/20 Q1016=,SBRJ,2022-06-21 17:00:00
1655834400000,METAR SBRJ 211800Z 15005KT CAVOK 24/20 Q1016=,SBRJ,2022-06-21 18:00:00
1655838000000,METAR SBRJ 211900Z 15005KT CAVOK 24/20 Q1016=,SBRJ,2022-06-21 19:00:00
1655841600000,METAR SBRJ 212000Z 17005KT CAVOK 23/20 Q1015=,SBRJ,2022-06-21 20:00:00
1655845200000,METAR SBRJ 212100Z 18004KT CAVOK 23/20 Q1015=,SBRJ,2022-06-21 21:00:00
1655848800000,METAR SBRJ 212200Z 12003KT CAVOK 22/21 Q1015=,SBRJ,2022-06-21 22:00:00
1655852400000,METAR SBRJ 212300Z 20003KT 170V230 CAVOK 23/20 Q1016=,SBRJ,2022-06-21 23:00:00
1655769600000,METAR SBSP 210000Z 06003KT CAVOK 16/14 Q1023=,SBSP,2022-06-21 00:00:00
1655773200000,METAR SBSP 210100Z VRB02KT CAVOK 15/13 Q1023=,SBSP,2022-06-21 01:00:00
1655776800000,METAR SBSP 210200Z 05004KT CAVOK 16/14 Q1023=,SBSP,2022-06-21 02:00:00
1655776980000,SPECI SBSP 210203Z 05005KT 030V090 CAVOK 16/13 Q1022=,SBSP,2022-06-21 02:03:00
1655780400000,METAR SBSP 210300Z AUTO 05004KT CAVOK 16/14 Q1023=,SBSP,2022-06-21 03:00:00
1655784000000,METAR SBSP 210400Z AUTO VRB02KT CAVOK 16/14 Q1022=,SBSP,2022-06-21 04:00:00
1655787600000,METAR SBSP 210500Z AUTO 06003KT 020V100 CAVOK 15/13 Q1022=,SBSP,2022-06-21 05:00:00
1655791200000,METAR SBSP 210600Z AUTO VRB02KT CAVOK 15/13 Q1022=,SBSP,2022-06-21 06:00:00
1655794800000,METAR SBSP 210700Z AUTO 06003KT 030V090 CAVOK 15/13 Q1022=,SBSP,2022-06-21 07:00:00
1655798400000,METAR SBSP 210800Z AUTO 05004KT 020V090 8000 NCD 15/13 Q1021=,SBSP,2022-06-21 08:00:00
1655800500000,SPECI SBSP 210835Z AUTO 06006KT 6000 SCT002 BKN005 14/13 Q1021=,SBSP,2022-06-21 08:35:00
1655801160000,SPECI SBSP 210846Z AUTO 05006KT 7000 SCT002 BKN004 14/13 Q1021=,SBSP,2022-06-21 08:46:00
1655802000000,METAR SBSP 210900Z 06006KT 9999 BKN004 14/13 Q1021=,SBSP,2022-06-21 09:00:00
1655805600000,METAR SBSP 211000Z 06006KT 7000 FEW002 BKN005 14/13 Q1022=,SBSP,2022-06-21 10:00:00
1655808360000,SPECI SBSP 211046Z 06008KT 9999 SCT003 14/13 Q1022=,SBSP,2022-06-21 10:46:00
1655809200000,METAR SBSP 211100Z 06006KT 9999 FEW003 14/13 Q1022=,SBSP,2022-06-21 11:00:00
1655812800000,METAR SBSP 211200Z 06004KT 360V100 CAVOK 16/14 Q1022=,SBSP,2022-06-21 12:00:00
1655816400000,METAR SBSP 211300Z 08003KT 020V120 CAVOK 18/14 Q1023=,SBSP,2022-06-21 13:00:00
1655820000000,METAR SBSP 211400Z 03005KT 340V080 CAVOK 19/14 Q1022=,SBSP,2022-06-21 14:00:00
1655823600000,METAR SBSP 211500Z 04007KT CAVOK 21/14 Q1021=,SBSP,2022-06-21 15:00:00
1655827200000,METAR SBSP 211600Z 02004KT 330V140 CAVOK 23/15 Q1020=,SBSP,2022-06-21 16:00:00
1655830800000,METAR SBSP 211700Z 35010KT 9999 FEW043 24/14 Q1019=,SBSP,2022-06-21 17:00:00
1655834400000,METAR SBSP 211800Z 32011KT 9999 SCT046 25/13 Q1019=,SBSP,2022-06-21 18:00:00
1655838000000,METAR SBSP 211900Z 33009KT 9999 FEW046 25/14 Q1019=,SBSP,2022-06-21 19:00:00
1655841600000,METAR SBSP 212000Z 34006KT 9999 FEW046 24/14 Q1019=,SBSP,2022-06-21 20:00:00
1655845200000,METAR SBSP 212100Z 35006KT CAVOK 22/14 Q1019=,SBSP,2022-06-21 21:00:00
1655848800000,METAR SBSP 212200Z 03002KT CAVOK 22/14 Q1020=,SBSP,2022-06-21 22:00:00
1655852400000,METAR SBSP 212300Z 04004KT CAVOK 21/14 Q1020=,SBSP,2022-06-21 23:00:00
1655769600000,METAR SBSV 210000Z 14011KT 9999 FEW030 BKN060 27/20 Q1018=,SBSV,2022-06-21 00:00:00
1655773200000,METAR SBSV 210100Z 15012KT 9999 FEW030 BKN060 27/20 Q1018=,SBSV,2022-06-21 01:00:00
1655776800000,METAR SBSV 210200Z 15010KT 9999 FEW030 27/20 Q1018=,SBSV,2022-06-21 02:00:00
1655780400000,METAR SBSV 210300Z 14010KT 9999 FEW030 27/21 Q1017=,SBSV,2022-06-21 03:00:00
1655784000000,METAR SBSV 210400Z 15010KT 9999 FEW030 26/20 Q1017=,SBSV,2022-06-21 04:00:00
1655787600000,METAR SBSV 210500Z 15011KT 9999 FEW025 27/21 Q1016=,SBSV,2022-06-21 05:00:00
1655791200000,METAR SBSV 210600Z 16011KT 9999 FEW025 26/21 Q1016=,SBSV,2022-06-21 06:00:00
1655794800000,METAR SBSV 210700Z 15011KT 9999 FEW025 26/21 Q1016=,SBSV,2022-06-21 07:00:00
1655798400000,METAR SBSV 210800Z 16011KT 9999 FEW025 26/21 Q1016=,SBSV,2022-06-21 08:00:00
1655802000000,METAR SBSV 210900Z 16014KT 9999 SCT020 SCT060 26/21 Q1016=,SBSV,2022-06-21 09:00:00
1655805600000,METAR SBSV 211000Z 14013G23KT 8000 VCSH BKN017 FEW020TCU 26/22 Q1017=,SBSV,2022-06-21 10:00:00
1655809200000,METAR SBSV 211100Z 11013KT 8000 VCSH BKN015 FEW020TCU 25/22 Q1018=,SBSV,2022-06-21 11:00:00
1655812800000,METAR SBSV 211200Z 11012KT 9999 SCT015 FEW020TCU BKN060 27/22 Q1018=,SBSV,2022-06-21 12:00:00
1655816400000,METAR SBSV 211300Z 16013KT 9999 SCT015 FEW020TCU 27/23 Q1018=,SBSV,2022-06-21 13:00:00
1655820000000,METAR SBSV 211400Z 10011KT 9999 SCT020 FEW023TCU 26/21 Q1017=,SBSV,2022-06-21 14:00:00
1655823600000,METAR SBSV 211500Z 11012KT 9999 VCSH SCT020 FEW023TCU 29/23 Q1017=,SBSV,2022-06-21 15:00:00
1655827200000,METAR SBSV 211600Z 13012KT 9999 SCT020 SCT060 28/22 Q1016=,SBSV,2022-06-21 16:00:00
1655830800000,METAR SBSV 211700Z 07014KT 8000 VCSH BKN020 27/22 Q1015=,SBSV,2022-06-21 17:00:00
1655834400000,METAR SBSV 211800Z 13011KT 9999 VCSH BKN020 FEW023TCU 28/23 Q1015=,SBSV,2022-06-21 18:00:00
1655838000000,METAR SBSV 211900Z 12011KT 9999 VCSH FEW010 BKN020 FEW023TCU 25/22 Q1015=,SBSV,2022-06-21 19:00:00
1655841600000,METAR SBSV 212000Z 13008KT 9999 BKN020 FEW023TCU 26/21 Q1015=,SBSV,2022-06-21 20:00:00
1655845200000,METAR SBSV 212100Z 12009KT 9999 SCT020 FEW023TCU 27/21 Q1016=,SBSV,2022-06-21 21:00:00
1655848800000,METAR SBSV 212200Z 11010KT 9999 SCT020 FEW023TCU 27/22 Q1016=,SBSV,2022-06-21 22:00:00
1655852400000,METAR SBSV 212300Z 13011KT 9999 SCT020 27/22 Q1017=,SBSV,2022-06-21 23:00:00
1655856000000,METAR SBBR 220000Z 14006KT 120V180 CAVOK 21/11 Q1021=,SBBR,2022-06-22 00:00:00
1655859600000,METAR SBBR 220100Z 13004KT 110V190 CAVOK 19/11 Q1022=,SBBR,2022-06-22 01:00:00
1655863200000,METAR SBBR 220200Z VRB02KT CAVOK 18/11 Q1021=,SBBR,2022-06-22 02:00:00
1655866800000,METAR SBBR 220300Z 09001KT CAVOK 16/11 Q1021=,SBBR,2022-06-22 03:00:00
1655870400000,METAR SBBR 220400Z VRB02KT CAVOK 16/10 Q1021=,SBBR,2022-06-22 04:00:00
1655874000000,METAR SBBR 220500Z 00000KT CAVOK 13/10 Q1021=,SBBR,2022-06-22 05:00:00
1655877600000,METAR SBBR 220600Z VRB01KT CAVOK 12/09 Q1020=,SBBR,2022-06-22 06:00:00
1655881200000,METAR SBBR 220700Z 21001KT CAVOK 12/09 Q1021=,SBBR,2022-06-22 07:00:00
1655884800000,METAR SBBR 220800Z 00000KT CAVOK 11/09 Q1021=,SBBR,2022-06-22 08:00:00
1655888400000,METAR SBBR 220900Z 00000KT CAVOK 12/10 Q1021=,SBBR,2022-06-22 09:00:00
1655892000000,METAR SBBR 221000Z VRB02KT CAVOK 13/10 Q1022=,SBBR,2022-06-22 10:00:00
1655895600000,METAR SBBR 221100Z VRB02KT CAVOK 15/11 Q1022=,SBBR,2022-06-22 11:00:00
1655899200000,METAR SBBR 221200Z VRB05KT CAVOK 17/12 Q1023=,SBBR,2022-06-22 12:00:00
1655902800000,METAR SBBR 221300Z 07011KT CAVOK 20/12 Q1023=,SBBR,2022-06-22 13:00:00
1655906400000,METAR SBBR 221400Z 06010KT 030V100 CAVOK 22/12 Q1023=,SBBR,2022-06-22 14:00:00
1655910000000,METAR SBBR 221500Z 09009KT 020V130 CAVOK 24/12 Q1022=,SBBR,2022-06-22 15:00:00
1655913600000,METAR SBBR 221600Z 05005KT 020V100 CAVOK 25/12 Q1021=,SBBR,2022-06-22 16:00:00
1655917200000,METAR SBBR 221700Z 07006KT 030V120 CAVOK 25/10 Q1019=,SBBR,2022-06-22 17:00:00
1655920800000,METAR SBBR 221800Z 12006KT 080V220 CAVOK 26/11 Q1019=,SBBR,2022-06-22 18:00:00
1655924400000,METAR SBBR 221900Z 10007KT 060V130 CAVOK 26/10 Q1019=,SBBR,2022-06-22 19:00:00
1655928000000,METAR SBBR 222000Z 10005KT 060V150 CAVOK 26/09 Q1019=,SBBR,2022-06-22 20:00:00
1655931600000,METAR SBBR 222100Z 11006KT CAVOK 25/09 Q1019=,SBBR,2022-06-22 21:00:00
1655935200000,METAR SBBR 222200Z 13007KT CAVOK 23/11 Q1020=,SBBR,2022-06-22 22:00:00
1655938800000,METAR SBBR 222300Z 11005KT 030V140 CAVOK 21/11 Q1020=,SBBR,2022-06-22 23:00:00
1655856000000,METAR SBCF 220000Z 08009KT CAVOK 18/13 Q1022=,SBCF,2022-06-22 00:00:00
1655859600000,METAR SBCF 220100Z 06006KT CAVOK 17/13 Q1022=,SBCF,2022-06-22 01:00:00
1655863200000,METAR SBCF 220200Z 12004KT CAVOK 17/12 Q1022=,SBCF,2022-06-22 02:00:00
1655866800000,METAR SBCF 220300Z 09004KT CAVOK 17/12 Q1022=,SBCF,2022-06-22 03:00:00
1655870400000,METAR COR SBCF 220400Z 00000KT CAVOK 14/12 Q1021=,SBCF,2022-06-22 04:00:00
1655874000000,METAR SBCF 220500Z 08004KT CAVOK 16/11 Q1021=,SBCF,2022-06-22 05:00:00
1655877600000,METAR SBCF 220600Z 15002KT CAVOK 15/12 Q1021=,SBCF,2022-06-22 06:00:00
1655881200000,METAR SBCF 220700Z 00000KT CAVOK 14/11 Q1021=,SBCF,2022-06-22 07:00:00
1655884800000,METAR SBCF 220800Z 15002KT CAVOK 13/11 Q1021=,SBCF,2022-06-22 08:00:00
1655888400000,METAR SBCF 220900Z 16002KT CAVOK 14/11 Q1022=,SBCF,2022-06-22 09:00:00
1655892000000,METAR SBCF 221000Z 17003KT CAVOK 13/11 Q1022=,SBCF,2022-06-22 10:00:00
1655895600000,METAR SBCF 221100Z 14002KT CAVOK 14/11 Q1023=,SBCF,2022-06-22 11:00:00
1655899200000,METAR SBCF 221200Z VRB02KT CAVOK 16/13 Q1023=,SBCF,2022-06-22 12:00:00
1655902800000,METAR SBCF 221300Z 05006KT 360V090 CAVOK 20/12 Q1023=,SBCF,2022-06-22 13:00:00
1655906400000,METAR SBCF 221400Z 03005KT 330V080 9999 FEW030 22/12 Q1023=,SBCF,2022-06-22 14:00:00
1655910000000,METAR SBCF 221500Z 09003KT 020V140 9999 FEW035 24/11 Q1022=,SBCF,2022-06-22 15:00:00
1655913600000,METAR SBCF 221600Z VRB02KT 9999 FEW035 25/11 Q1021=,SBCF,2022-06-22 16:00:00
1655917200000,METAR SBCF 221700Z 17004KT 9999 FEW035 25/11 Q1020=,SBCF,2022-06-22 17:00:00
1655920800000,METAR SBCF 221800Z 09004KT CAVOK 25/10 Q1020=,SBCF,2022-06-22 18:00:00
1655924400000,METAR SBCF 221900Z 12003KT CAVOK 25/09 Q1020=,SBCF,2022-06-22 19:00:00
1655928000000,METAR SBCF 222000Z 14005KT CAVOK 24/10 Q1020=,SBCF,2022-06-22 20:00:00
1655931600000,METAR SBCF 222100Z 08007KT CAVOK 23/11 Q1020=,SBCF,2022-06-22 21:00:00
1655935200000,METAR SBCF 222200Z 06007KT CAVOK 20/13 Q1020=,SBCF,2022-06-22 22:00:00
1655938800000,METAR SBCF 222300Z 07004KT CAVOK 19/13 Q1021=,SBCF,2022-06-22 23:00:00
1655856000000,METAR SBCT 220000Z 02003KT CAVOK 17/15 Q1018=,SBCT,2022-06-22 00:00:00
1655859600000,METAR SBCT 220100Z 03004KT CAVOK 17/15 Q1018=,SBCT,2022-06-22 01:00:00
1655863200000,METAR SBCT 220200Z 04005KT CAVOK 16/15 Q1018=,SBCT,2022-06-22 02:00:00
1655866800000,METAR SBCT 220300Z 04004KT CAVOK 15/15 Q1017=,SBCT,2022-06-22 03:00:00
1655870400000,METAR SBCT 220400Z 06003KT CAVOK 15/15 Q1017=,SBCT,2022-06-22 04:00:00
1655874000000,METAR SBCT 220500Z 00000KT CAVOK 15/14 Q1017=,SBCT,2022-06-22 05:00:00
1655877600000,METAR SBCT 220600Z 08004KT CAVOK 14/14 Q1017=,SBCT,2022-06-22 06:00:00
1655881200000,METAR SBCT 220700Z 05004KT CAVOK 15/15 Q1017=,SBCT,2022-06-22 07:00:00
1655884800000,METAR SBCT 220800Z 05002KT CAVOK 13/13 Q1018=,SBCT,2022-06-22 08:00:00
1655888400000,METAR SBCT 220900Z 07005KT CAVOK 13/13 Q1018=,SBCT,2022-06-22 09:00:00
1655892000000,METAR SBCT 221000Z 05005KT 9999 BKN040 14/14 Q1018=,SBCT,2022-06-22 10:00:00
1655895600000,METAR SBCT 221100Z 02005KT 9999 BKN045 16/15 Q1019=,SBCT,2022-06-22 11:00:00
1655899200000,METAR SBCT 221200Z 03007KT CAVOK 18/15 Q1019=,SBCT,2022-06-22 12:00:00
1655902800000,METAR SBCT 221300Z 02008KT 340V050 CAVOK 21/15 Q1019=,SBCT,2022-06-22 13:00:00
1655906400000,METAR SBCT 221400Z 35011KT 320V020 CAVOK 23/14 Q1019=,SBCT,2022-06-22 14:00:00
1655910000000,METAR SBCT 221500Z 33015KT 300V360 CAVOK 25/14 Q1018=,SBCT,2022-06-22 15:00:00
1655913600000,METAR SBCT 221600Z 33014KT 9999 SCT045 25/14 Q1017=,SBCT,2022-06-22 16:00:00
1655917200000,METAR SBCT 221700Z 32016KT 300V360 9999 BKN045 25/14 Q1016=,SBCT,2022-06-22 17:00:00
1655920800000,METAR SBCT 221800Z 33013KT 280V360 9999 SCT040 25/14 Q1016=,SBCT,2022-06-22 18:00:00
1655924400000,METAR SBCT 221900Z 33012KT 9999 SCT040 24/14 Q1015=,SBCT,2022-06-22 19:00:00
1655928000000,METAR SBCT 222000Z 34010KT 9999 FEW040 23/14 Q1016=,SBCT,2022-06-22 20:00:00
1655931600000,METAR SBCT 222100Z 36007KT CAVOK 22/15 Q1016=,SBCT,2022-06-22 21:00:00
1655935200000,METAR SBCT 222200Z 02007KT CAVOK 20/15 Q1016=,SBCT,2022-06-22 22:00:00
1655938800000,METAR SBCT 222300Z 02007KT CAVOK 19/15 Q1016=,SBCT,2022-06-22 23:00:00
1655856000000,METAR SBFL 220000Z 30004KT 3500 TSRA BKN009 FEW030CB BKN060 17/16 Q1014=,SBFL,2022-06-22 00:00:00
1655856720000,SPECI SBFL 220012Z 35007KT 2000 +TSRA BKN009 FEW030CB BKN060 17/16 Q1014 RERA=,SBFL,2022-06-22 00:12:00
1655859600000,METAR SBFL 220100Z 30004KT 4000 TSRA BKN009 FEW030CB BKN060 16/16 Q1014 RERA=,SBFL,2022-06-22 01:00:00
1655863200000,METAR SBFL 220200Z 31006KT 4000 RA BKN005 BKN060 17/16 Q1013 RETS=,SBFL,2022-06-22 02:00:00
1655866800000,METAR SBFL 220300Z 34007KT 4000 TSRA BKN007 FEW030CB BKN060 17/16 Q1013=,SBFL,2022-06-22 03:00:00
1655870400000,METAR SBFL 220400Z 36007KT 5000 BR TS BKN010 FEW030CB BKN060 17/16 Q1013 RERA=,SBFL,2022-06-22 04:00:00
1655874000000,METAR SBFL 220500Z 24003KT 5000 BR TS BKN010 FEW030CB BKN060 17/16 Q1014=,SBFL,2022-06-22 05:00:00
1655877600000,METAR SBFL 220600Z 19013KT 3000 +TSRA BKN010 FEW030CB BKN060 18/15 Q1014=,SBFL,2022-06-22 06:00:00
1655881200000,METAR SBFL 220700Z 36009KT 3500 TSRA BKN010 FEW030CB BKN070 17/16 Q1013 RERA=,SBFL,2022-06-22 07:00:00
1655884800000,METAR SBFL 220800Z 35017KT 4500 -TSRA BKN010 FEW030CB BKN070 18/16 Q1012 RERA=,SBFL,2022-06-22 08:00:00
1655888400000,METAR SBFL 220900Z 34016KT 6000 -TSRA BKN012 FEW030CB BKN070 19/16 Q1012=,SBFL,2022-06-22 09:00:00
1655892000000,METAR SBFL 221000Z 35014KT 9999 BKN016 BKN070 19/16 Q1012 RETS=,SBFL,2022-06-22 10:00:00
1655895600000,METAR SBFL 221100Z 36014KT 9999 VCSH BKN020 FEW030TCU BKN070 19/16 Q1013=,SBFL,2022-06-22 11:00:00
1655899200000,METAR SBFL 221200Z 07006KT 5000 -RA BKN020 FEW030TCU BKN100 19/16 Q1015=,SBFL,2022-06-22 12:00:00
1655902800000,METAR SBFL 221300Z 07003KT 5000 -RA BKN020 FEW030TCU BKN080 19/16 Q1014=,SBFL,2022-06-22 13:00:00
1655903100000,SPECI SBFL 221305Z 32006KT 5000 -TSRA BKN020 FEW030CB BKN080 18/17 Q1013=,SBFL,2022-06-22 13:05:00
1655903700000,SPECI SBFL 221315Z 32006KT 4000 TSRA BKN020 FEW030CB BKN080 18/17 Q1014=,SBFL,2022-06-22 13:15:00
1655906400000,METAR SBFL 221400Z 34009KT 4000 TSRA BKN020 FEW030CB BKN080 18/17 Q1015=,SBFL,2022-06-22 14:00:00
1655910000000,METAR SBFL 221500Z 02005KT 2500 TSRA BKN020 FEW030CB BKN080 18/17 Q1016=,SBFL,2022-06-22 15:00:00
1655912400000,SPECI SBFL 221540Z 34011KT 9999 -RA BKN020 FEW030TCU BKN080 18/17 Q1013 RETSRA=,SBFL,2022-06-22 15:40:00
1655913600000,METAR SBFL 221600Z 36009KT 9999 VCSH BKN020 FEW030TCU BKN080 19/17 Q1013 RETSRA=,SBFL,2022-06-22 16:00:00
1655917200000,METAR SBFL 221700Z 14003KT 9999 VCSH SCT025 FEW030TCU BKN070 18/17 Q1012=,SBFL,2022-06-22 17:00:00
1655920800000,METAR SBFL 221800Z VRB02KT 9999 FEW005 SCT050 18/17 Q1012=,SBFL,2022-06-22 18:00:00
1655921820000,SPECI SBFL 221817Z VRB04KT 9999 BKN009 BKN059 18/17 Q1012=,SBFL,2022-06-22 18:17:00
1655924400000,METAR SBFL 221900Z 17003KT 100V220 9999 BKN007 SCT062 18/17 Q1012=,SBFL,2022-06-22 19:00:00
1655928000000,METAR SBFL 222000Z VRB01KT 9999 SCT005 BKN013 18/17 Q1012=,SBFL,2022-06-22 20:00:00
1655931600000,METAR SBFL 222100Z 09003KT 9999 SCT005 BKN012 17/16 Q1012=,SBFL,2022-06-22 21:00:00
1655932200000,SPECI SBFL 222110Z 11003KT 9999 SCT015 BKN030 17/16 Q1012=,SBFL,2022-06-22 21:10:00
1655935200000,METAR SBFL 222200Z 02003KT 9999 SCT030 BKN050 17/17 Q1012=,SBFL,2022-06-22 22:00:00
1655938800000,METAR SBFL 222300Z 36006KT CAVOK 19/17 Q1012=,SBFL,2022-06-22 23:00:00
1655856000000,METAR SBGL 220000Z 13004KT CAVOK 21/20 Q1016=,SBGL,2022-06-22 00:00:00
1655859600000,METAR SBGL 220100Z 06003KT CAVOK 20/19 Q1016=,SBGL,2022-06-22 01:00:00
1655863200000,METAR SBGL 220200Z 00000KT CAVOK 20/19 Q1016=,SBGL,2022-06-22 02:00:00
1655866800000,METAR SBGL 220300Z VRB02KT CAVOK 20/19 Q1016=,SBGL,2022-06-22 03:00:00
1655870400000,METAR SBGL 220400Z 08002KT CAVOK 19/18 Q1016=,SBGL,2022-06-22 04:00:00
1655874000000,METAR SBGL 220500Z 09002KT CAVOK 19/18 Q1015=,SBGL,2022-06-22 05:00:00
1655877600000,METAR SBGL 220600Z 21002KT CAVOK 18/18 Q1015=,SBGL,2022-06-22 06:00:00
1655881200000,METAR SBGL 220700Z 22002KT CAVOK 18/17 Q1015=,SBGL,2022-06-22 07:00:00
1655884800000,METAR SBGL 220800Z 19002KT CAVOK 18/17 Q1015=,SBGL,2022-06-22 08:00:00
1655888400000,METAR SBGL 220900Z 20002KT CAVOK 18/17 Q1015=,SBGL,2022-06-22 09:00:00
1655892000000,METAR SBGL 221000Z 16002KT CAVOK 18/17 Q1015=,SBGL,2022-06-22 10:00:00
1655895600000,METAR SBGL 221100Z 21003KT CAVOK 20/19 Q1016=,SBGL,2022-06-22 11:00:00
1655899200000,METAR SBGL 221200Z 22003KT CAVOK 23/18 Q1016=,SBGL,2022-06-22 12:00:00
1655902800000,METAR SBGL 221300Z 30005KT CAVOK 27/18 Q1016=,SBGL,2022-06-22 13:00:00
1655906400000,METAR SBGL 221400Z 31003KT CAVOK 29/16 Q1016=,SBGL,2022-06-22 14:00:00
1655910000000,METAR SBGL 221500Z 32005KT CAVOK 30/17 Q1015=,SBGL,2022-06-22 15:00:00
1655913600000,METAR SBGL 221600Z 02006KT CAVOK 29/17 Q1014=,SBGL,2022-06-22 16:00:00
1655917200000,METAR SBGL 221700Z 05004KT CAVOK 30/16 Q1014=,SBGL,2022-06-22 17:00:00
1655920800000,METAR SBGL 221800Z 04005KT CAVOK 30/17 Q1014=,SBGL,2022-06-22 18:00:00
1655924400000,METAR SBGL 221900Z 12006KT CAVOK 28/18 Q1014=,SBGL,2022-06-22 19:00:00
1655928000000,METAR SBGL 222000Z 08002KT CAVOK 25/18 Q1015=,SBGL,2022-06-22 20:00:00
1655931600000,METAR SBGL 222100Z 12003KT CAVOK 23/18 Q1015=,SBGL,2022-06-22 21:00:00
1655935200000,METAR SBGL 222200Z VRB01KT CAVOK 22/17 Q1015=,SBGL,2022-06-22 22:00:00
1655938800000,METAR SBGL 222300Z 08003KT 050V110 CAVOK 21/17 Q1016=,SBGL,2022-06-22 23:00:00
1655856000000,METAR SBGR 220000Z 07003KT CAVOK 17/15 Q1020=,SBGR,2022-06-22 00:00:00
1655859600000,METAR SBGR 220100Z 09003KT CAVOK 18/14 Q1020=,SBGR,2022-06-22 01:00:00
1655863200000,METAR SBGR 220200Z 09005KT CAVOK 19/14 Q1020=,SBGR,2022-06-22 02:00:00
1655866800000,METAR SBGR 220300Z 09002KT CAVOK 16/14 Q1020=,SBGR,2022-06-22 03:00:00
1655870400000,METAR SBGR 220400Z 08007KT CAVOK 17/14 Q1019=,SBGR,2022-06-22 04:00:00
1655874000000,METAR SBGR 220500Z 07006KT CAVOK 17/13 Q1019=,SBGR,2022-06-22 05:00:00
1655877600000,METAR SBGR 220600Z 02010KT CAVOK 18/13 Q1018=,SBGR,2022-06-22 06:00:00
1655881200000,METAR SBGR 220700Z 01006KT CAVOK 18/12 Q1018=,SBGR,2022-06-22 07:00:00
1655884800000,METAR SBGR 220800Z 07007KT CAVOK 15/13 Q1018=,SBGR,2022-06-22 08:00:00
1655888400000,METAR SBGR 220900Z 10004KT CAVOK 15/13 Q1019=,SBGR,2022-06-22 09:00:00
1655892000000,METAR SBGR 221000Z 08003KT 7000 NSC 14/13 Q1020=,SBGR,2022-06-22 10:00:00
1655895600000,METAR SBGR 221100Z 07004KT CAVOK 16/14 Q1021=,SBGR,2022-06-22 11:00:00
1655899200000,METAR SBGR 221200Z 07005KT CAVOK 18/16 Q1021=,SBGR,2022-06-22 12:00:00
1655902800000,METAR SBGR 221300Z 00000KT CAVOK 22/13 Q1021=,SBGR,2022-06-22 13:00:00
1655906400000,METAR SBGR 221400Z 35008KT CAVOK 25/12 Q1020=,SBGR,2022-06-22 14:00:00
1655910000000,METAR SBGR 221500Z 33011KT CAVOK 26/12 Q1020=,SBGR,2022-06-22 15:00:00
1655913600000,METAR SBGR 221600Z 31011KT CAVOK 26/13 Q1019=,SBGR,2022-06-22 16:00:00
1655917200000,METAR SBGR 221700Z 32009KT CAVOK 27/13 Q1018=,SBGR,2022-06-22 17:00:00
1655920800000,METAR SBGR 221800Z 33008KT CAVOK 28/12 Q1018=,SBGR,2022-06-22 18:00:00
1655924400000,METAR SBGR 221900Z 32009KT CAVOK 27/12 Q1017=,SBGR,2022-06-22 19:00:00
1655928000000,METAR SBGR 222000Z 35005KT CAVOK 26/12 Q1018=,SBGR,2022-06-22 20:00:00
1655931600000,METAR SBGR 222100Z 35005KT CAVOK 22/13 Q1018=,SBGR,2022-06-22 21:00:00
1655935200000,METAR SBGR 222200Z 00000KT CAVOK 18/14 Q1018=,SBGR,2022-06-22 22:00:00
1655938800000,METAR SBGR 222300Z 07003KT CAVOK 19/14 Q1019=,SBGR,2022-06-22 23:00:00
1655856000000,METAR SBKP 220000Z 07004KT CAVOK 21/15 Q1019=,SBKP,2022-06-22 00:00:00
1655859600000,METAR SBKP 220100Z 08005KT CAVOK 21/15 Q1019=,SBKP,2022-06-22 01:00:00
1655863200000,METAR SBKP 220200Z 08004KT CAVOK 20/14 Q1019=,SBKP,2022-06-22 02:00:00
1655866800000,METAR SBKP 220300Z 09005KT CAVOK 19/14 Q1019=,SBKP,2022-06-22 03:00:00
1655870400000,METAR SBKP 220400Z 07004KT CAVOK 19/14 Q1019=,SBKP,2022-06-22 04:00:00
1655874000000,METAR SBKP 220500Z 06006KT CAVOK 18/13 Q1018=,SBKP,2022-06-22 05:00:00
1655877600000,METAR SBKP 220600Z 05005KT CAVOK 18/13 Q1018=,SBKP,2022-06-22 06:00:00
1655881200000,METAR SBKP 220700Z 04006KT CAVOK 19/13 Q1017=,SBKP,2022-06-22 07:00:00
1655884800000,METAR SBKP 220800Z 03004KT CAVOK 17/13 Q1018=,SBKP,2022-06-22 08:00:00
1655888400000,METAR SBKP 220900Z 01005KT CAVOK 17/12 Q1019=,SBKP,2022-06-22 09:00:00
1655892000000,METAR SBKP 221000Z 04006KT 9000 4000SE NSC 16/12 Q1019=,SBKP,2022-06-22 10:00:00
1655895600000,METAR SBKP 221100Z 09003KT 9000 NSC 16/13 Q1020=,SBKP,2022-06-22 11:00:00
1655899200000,METAR SBKP 221200Z 03005KT 360V060 9000 NSC 19/13 Q1020=,SBKP,2022-06-22 12:00:00
1655902800000,METAR SBKP 221300Z 02008KT CAVOK 21/13 Q1021=,SBKP,2022-06-22 13:00:00
1655906400000,METAR SBKP 221400Z 04009KT CAVOK 23/13 Q1020=,SBKP,2022-06-22 14:00:00
1655910000000,METAR SBKP 221500Z 03012KT CAVOK 25/13 Q1020=,SBKP,2022-06-22 15:00:00
1655913600000,METAR SBKP 221600Z 36010KT CAVOK 26/12 Q1019=,SBKP,2022-06-22 16:00:00
1655917200000,METAR SBKP 221700Z 01011KT 9999 FEW040 27/11 Q1018=,SBKP,2022-06-22 17:00:00
1655920800000,METAR SBKP 221800Z 35010KT 9999 FEW040 27/11 Q1017=,SBKP,2022-06-22 18:00:00
1655924400000,METAR SBKP 221900Z 02010KT CAVOK 27/11 Q1017=,SBKP,2022-06-22 19:00:00
1655928000000,METAR SBKP 222000Z 01008KT CAVOK 26/11 Q1017=,SBKP,2022-06-22 20:00:00
1655931600000,METAR SBKP 222100Z 02007KT CAVOK 25/11 Q1017=,SBKP,2022-06-22 21:00:00
1655935200000,METAR SBKP 222200Z 05005KT CAVOK 23/11 Q1018=,SBKP,2022-06-22 22:00:00
1655938800000,METAR SBKP 222300Z 03006KT CAVOK 23/11 Q1018=,SBKP,2022-06-22 23:00:00
1655856000000,METAR SBPA 220000Z VRB01KT 7000 -RA FEW003 FEW040TCU BKN080 15/15 Q1012=,SBPA,2022-06-22 00:00:00
1655859600000,METAR SBPA 220100Z 10004KT 060V140 5000 -RA BR FEW007 FEW040TCU BKN100 15/14 Q1012=,SBPA,2022-06-22 01:00:00
1655861880000,SPECI SBPA 220138Z 24010KT 3000 RA BR FEW007 BKN040 FEW045TCU OVC070 15/15 Q1015=,SBPA,2022-06-22 01:38:00
1655863200000,METAR SBPA 220200Z 26007KT 4000 -RA BR FEW007 BKN040 FEW045TCU OVC100 15/15 Q1015 RERA=,SBPA,2022-06-22 02:00:00
1655866800000,METAR SBPA 220300Z 11005KT 060V220 4500 -RA SCT005 BKN090 15/15 Q1014=,SBPA,2022-06-22 03:00:00
1655870400000,METAR SBPA 220400Z 04012KT 4500 -RA BR SCT005 BKN080 15/15 Q1011=,SBPA,2022-06-22 04:00:00
1655874000000,METAR SBPA 220500Z 19004KT 4500 BR SCT005 BKN080 14/14 Q1012=,SBPA,2022-06-22 05:00:00
1655877600000,METAR SBPA 220600Z 21004KT 4500 BR SCT005 BKN100 15/14 Q1012=,SBPA,2022-06-22 06:00:00
1655881200000,METAR SBPA 220700Z VRB02KT 4500 BR FEW005 14/14 Q1012=,SBPA,2022-06-22 07:00:00
1655884800000,METAR SBPA 220800Z VRB02KT 9000 FEW005 14/14 Q1012=,SBPA,2022-06-22 08:00:00
1655888400000,METAR SBPA 220900Z 14003KT 9000 FEW005 14/13 Q1013=,SBPA,2022-06-22 09:00:00
1655892000000,METAR SBPA 221000Z 07005KT 9999 FEW009 SCT100 12/12 Q1013=,SBPA,2022-06-22 10:00:00
1655893500000,SPECI SBPA 221025Z 12003KT 7000 BKN009 SCT050 12/12 Q1014=,SBPA,2022-06-22 10:25:00
1655895600000,METAR SBPA 221100Z 05006KT 7000 BKN008 FEW020TCU BKN025 13/13 Q1014=,SBPA,2022-06-22 11:00:00
1655899200000,METAR SBPA 221200Z 09007KT 7000 BKN008 FEW020TCU OVC040 14/13 Q1013=,SBPA,2022-06-22 12:00:00
1655902800000,METAR SBPA 221300Z 09007KT 060V120 6000 BKN008 FEW025TCU OVC040 14/14 Q1013=,SBPA,2022-06-22 13:00:00
1655906400000,METAR SBPA 221400Z 10005KT 030V130 5000 BR BKN006 FEW025TCU OVC040 14/14 Q1014=,SBPA,2022-06-22 14:00:00
1655908320000,SPECI SBPA 221432Z 09003KT 020V150 4500 BR BKN004 FEW025TCU OVC040 14/14 Q1014=,SBPA,2022-06-22 14:32:00
1655910000000,METAR SBPA 221500Z 12005KT 090V150 4500 BR BKN004 FEW025TCU OVC035 14/14 Q1014=,SBPA,2022-06-22 15:00:00
1655913600000,METAR SBPA 221600Z 17004KT 4500 BR BKN007 OVC046 15/14 Q1012=,SBPA,2022-06-22 16:00:00
1655917200000,METAR SBPA 221700Z 18002KT 4000 BR BKN009 OVC040 15/14 Q1012=,SBPA,2022-06-22 17:00:00
1655920800000,METAR SBPA 221800Z 09004KT 4500 BR BKN009 OVC040 16/14 Q1011=,SBPA,2022-06-22 18:00:00
1655924400000,METAR SBPA 221900Z 28004KT 4500 -TSRA BKN009 FEW045CB OVC070 15/14 Q1011=,SBPA,2022-06-22 19:00:00
1655928000000,METAR SBPA 222000Z 15006KT 4000 -TSRA BKN009 FEW045CB OVC070 15/14 Q1010=,SBPA,2022-06-22 20:00:00
1655929620000,SPECI SBPA 222027Z 15004KT 2500 TSRA BR BKN008 FEW040CB OVC090 14/14 Q1011=,SBPA,2022-06-22 20:27:00
1655931600000,METAR SBPA 222100Z 13004KT 4000 -TSRA BKN008 FEW040CB OVC090 14/14 Q1010 RERA=,SBPA,2022-06-22 21:00:00
1655935200000,METAR SBPA 222200Z VRB07KT 3800 -TSRA BR BKN009 FEW040CB OVC080 15/14 Q1010=,SBPA,2022-06-22 22:00:00
1655938800000,METAR SBPA 222300Z VRB04KT 3500 -TSRA BKN008 FEW040CB OVC090 15/14 Q1011=,SBPA,2022-06-22 23:00:00
1655856000000,METAR SBRF 220000Z 17010KT 9999 FEW025 26/21 Q1014=,SBRF,2022-06-22 00:00:00
1655859600000,METAR SBRF 220100Z 17010KT 9999 FEW025 26/21 Q1014=,SBRF,2022-06-22 01:00:00
1655863200000,METAR SBRF 220200Z 20007KT 9999 SCT025 BKN050 26/22 Q1014=,SBRF,2022-06-22 02:00:00
1655866800000,METAR SBRF 220300Z 21006KT 9999 SCT025 BKN050 25/22 Q1013=,SBRF,2022-06-22 03:00:00
1655870400000,METAR COR SBRF 220400Z 20006KT 8000 VCSH SCT025 OVC050 24/22 Q1013=,SBRF,2022-06-22 04:00:00
1655871180000,SPECI SBRF 220413Z 18003KT 4000 -RA BKN012 OVC023 24/23 Q1013=,SBRF,2022-06-22 04:13:00
1655874000000,METAR SBRF 220500Z 08007KT 3500 -RA BKN009 OVC020 23/23 Q1013=,SBRF,2022-06-22 05:00:00
1655877600000,METAR SBRF 220600Z 17009KT 4000 -RA SCT005 BKN009 OVC015 24/23 Q1012=,SBRF,2022-06-22 06:00:00
1655881200000,METAR SBRF 220700Z 17014KT 4000 -RA SCT006 BKN008 OVC015 23/23 Q1013=,SBRF,2022-06-22 07:00:00
1655884800000,METAR SBRF 220800Z 16012KT 130V200 5000 -RA BKN007 BKN009 OVC015 24/23 Q1013=,SBRF,2022-06-22 08:00:00
1655888400000,METAR SBRF 220900Z 16012KT 5000 -RA BR SCT010 BKN011 OVC015 24/23 Q1013=,SBRF,2022-06-22 09:00:00
1655892000000,METAR SBRF 221000Z 19011KT 9999 VCSH SCT010 BKN015 BKN050 24/23 Q1013=,SBRF,2022-06-22 10:00:00
1655895600000,METAR SBRF 221100Z 18011KT 9999 VCSH SCT010 BKN015 OVC050 24/22 Q1014=,SBRF,2022-06-22 11:00:00
1655899200000,METAR SBRF 221200Z 20011KT 9999 VCSH FEW013 SCT023 FEW025TCU BKN040 25/23 Q1014=,SBRF,2022-06-22 12:00:00
1655902800000,METAR SBRF 221300Z 17011KT 4000 -RA SCT008 BKN011 OVC030 24/23 Q1013=,SBRF,2022-06-22 13:00:00
1655906400000,METAR SBRF 221400Z 20012KT 5000 -RA FEW010 BKN040 OVC070 23/22 Q1014=,SBRF,2022-06-22 14:00:00
1655910000000,METAR SBRF 221500Z 20011KT 4000 -RA BR SCT013 SCT023 OVC040 23/22 Q1013=,SBRF,2022-06-22 15:00:00
1655913600000,METAR SBRF 221600Z 21008KT 4000 -RA BR SCT007 SCT018 OVC025 23/22 Q1013=,SBRF,2022-06-22 16:00:00
1655917200000,METAR SBRF 221700Z 20010KT 4000 -RA BR SCT007 BKN018 OVC023 23/23 Q1012=,SBRF,2022-06-22 17:00:00
1655917920000,SPECI SBRF 221712Z 20008KT 9999 -RA SCT007 SCT015 OVC025 23/23 Q1012=,SBRF,2022-06-22 17:12:00
1655920800000,METAR SBRF 221800Z 22007KT 9999 VCSH FEW009 SCT022 OVC030 23/22 Q1012=,SBRF,2022-06-22 18:00:00
1655923020000,SPECI SBRF 221837Z 26003KT 2000 RA BR FEW017 BKN022 OVC030 23/22 Q1013=,SBRF,2022-06-22 18:37:00
1655924400000,METAR SBRF 221900Z 29003KT 2000 RA BR FEW009 BKN013 OVC022 23/22 Q1013=,SBRF,2022-06-22 19:00:00
1655924520000,SPECI SBRF 221902Z 36003KT 1500 R36/1100 R18/1400 +RA BR SCT004 BKN007 OVC011 23/23 Q1014 RERA=,SBRF,2022-06-22 19:02:00
1655928000000,METAR SBRF 222000Z 22005KT 3000 RA BR FEW008 SCT013 OVC020 20/20 Q1014 RERA=,SBRF,2022-06-22 20:00:00
1655928840000,SPECI SBRF 222014Z 20006KT 5000 -RA BR SCT025 OVC040 21/21 Q1014 RERA=,SBRF,2022-06-22 20:14:00
1655931600000,METAR SBRF 222100Z 24005KT 5000 -RA BR SCT020 BKN027 OVC070 21/20 Q1015=,SBRF,2022-06-22 21:00:00
1655935200000,METAR SBRF 222200Z 24005KT 9999 -RA FEW020 SCT040 BKN100 21/20 Q1015=,SBRF,2022-06-22 22:00:00
1655938800000,METAR SBRF 222300Z 29005KT 9999 -RA FEW023 SCT040 BKN090 21/20 Q1015=,SBRF,2022-06-22 23:00:00
1655856000000,METAR SBRJ 220000Z 07002KT CAVOK 23/20 Q1016=,SBRJ,2022-06-22 00:00:00
1655859600000,METAR SBRJ 220100Z 31005KT CAVOK 22/20 Q1016=,SBRJ,2022-06-22 01:00:00
1655863200000,METAR SBRJ 220200Z 31008KT CAVOK 22/20 Q1016=,SBRJ,2022-06-22 02:00:00
1655887800000,SPECI SBRJ 220850Z 32005KT CAVOK 20/19 Q1014=,SBRJ,2022-06-22 08:50:00
1655888400000,METAR SBRJ 220900Z 31005KT CAVOK 20/18 Q1014=,SBRJ,2022-06-22 09:00:00
1655892000000,METAR SBRJ 221000Z 33004KT CAVOK 21/17 Q1015=,SBRJ,2022-06-22 10:00:00
1655895600000,METAR SBRJ 221100Z 33005KT CAVOK 21/18 Q1015=,SBRJ,2022-06-22 11:00:00
1655899200000,METAR SBRJ 221200Z 35005KT CAVOK 22/18 Q1016=,SBRJ,2022-06-22 12:00:00
1655902800000,METAR SBRJ 221300Z 35007KT CAVOK 23/19 Q1016=,SBRJ,2022-06-22 13:00:00
1655906400000,METAR SBRJ 221400Z 36007KT CAVOK 24/19 Q1015=,SBRJ,2022-06-22 14:00:00
1655910000000,METAR SBRJ 221500Z 35004KT CAVOK 26/19 Q1015=,SBRJ,2022-06-22 15:00:00
1655913600000,METAR SBRJ 221600Z 01004KT CAVOK 27/20 Q1014=,SBRJ,2022-06-22 16:00:00
1655917200000,METAR SBRJ 221700Z 04007KT CAVOK 27/20 Q1014=,SBRJ,2022-06-22 17:00:00
1655918400000,SPECI SBRJ 221720Z 14006KT CAVOK 28/18 Q1014=,SBRJ,2022-06-22 17:20:00
1655920800000,METAR SBRJ 221800Z 15009KT 120V180 CAVOK 25/19 Q1014=,SBRJ,2022-06-22 18:00:00
1655924400000,METAR SBRJ 221900Z 15008KT CAVOK 24/20 Q1014=,SBRJ,2022-06-22 19:00:00
1655928000000,METAR SBRJ 222000Z 15006KT CAVOK 24/19 Q1014=,SBRJ,2022-06-22 20:00:00
1655931600000,METAR SBRJ 222100Z 16007KT CAVOK 24/18 Q1015=,SBRJ,2022-06-22 21:00:00
1655935200000,METAR SBRJ 222200Z 16007KT CAVOK 23/18 Q1015=,SBRJ,2022-06-22 22:00:00
1655938800000,METAR SBRJ 222300Z 19007KT CAVOK 23/17 Q1015=,SBRJ,2022-06-22 23:00:00
1655856000000,METAR SBSP 220000Z 04004KT CAVOK 21/14 Q1020=,SBSP,2022-06-22 00:00:00
1655859600000,METAR SBSP 220100Z 36003KT CAVOK 19/14 Q1020=,SBSP,2022-06-22 01:00:00
1655863200000,METAR SBSP 220200Z 36005KT CAVOK 18/13 Q1021=,SBSP,2022-06-22 02:00:00
1655863260000,SPECI SBSP 220201Z 36004KT CAVOK 18/14 Q1020=,SBSP,2022-06-22 02:01:00
1655866800000,METAR SBSP 220300Z AUTO 02005KT CAVOK 19/13 Q1020=,SBSP,2022-06-22 03:00:00
1655870400000,METAR SBSP 220400Z AUTO 01006KT CAVOK 18/13 Q1019=,SBSP,2022-06-22 04:00:00
1655874000000,METAR SBSP 220500Z AUTO 01005KT CAVOK 18/12 Q1019=,SBSP,2022-06-22 05:00:00
1655877600000,METAR SBSP 220600Z AUTO 04003KT CAVOK 18/12 Q1018=,SBSP,2022-06-22 06:00:00
1655881200000,METAR SBSP 220700Z AUTO 08004KT CAVOK 18/12 Q1018=,SBSP,2022-06-22 07:00:00
1655884800000,METAR SBSP 220800Z AUTO 05005KT CAVOK 17/12 Q1019=,SBSP,2022-06-22 08:00:00
1655888400000,METAR SBSP 220900Z 07003KT 030V140 CAVOK 17/12 Q1020=,SBSP,2022-06-22 09:00:00
1655892000000,METAR SBSP 221000Z 09004KT 060V120 CAVOK 15/13 Q1021=,SBSP,2022-06-22 10:00:00
1655895600000,METAR SBSP 221100Z 02007KT CAVOK 16/13 Q1021=,SBSP,2022-06-22 11:00:00
1655899200000,METAR SBSP 221200Z 36008KT CAVOK 20/12 Q1021=,SBSP,2022-06-22 12:00:00
1655902800000,METAR SBSP 221300Z 36009KT 330V030 CAVOK 21/12 Q1022=,SBSP,2022-06-22 13:00:00
1655906400000,METAR SBSP 221400Z 01009KT CAVOK 22/12 Q1021=,SBSP,2022-06-22 14:00:00
1655910000000,METAR SBSP 221500Z 34011KT 300V360 CAVOK 24/12 Q1021=,SBSP,2022-06-22 15:00:00
1655913600000,METAR SBSP 221600Z 32011KT 280V010 CAVOK 24/11 Q1020=,SBSP,2022-06-22 16:00:00
1655917200000,METAR SBSP 221700Z 32012KT CAVOK 25/11 Q1019=,SBSP,2022-06-22 17:00:00
1655920800000,METAR SBSP 221800Z 33011KT CAVOK 25/11 Q1018=,SBSP,2022-06-22 18:00:00
1655924400000,METAR SBSP 221900Z 34011KT CAVOK 25/10 Q1018=,SBSP,2022-06-22 19:00:00
1655928000000,METAR SBSP 222000Z 35008KT CAVOK 24/11 Q1019=,SBSP,2022-06-22 20:00:00
1655931600000,METAR SBSP 222100Z 35005KT CAVOK 23/11 Q1019=,SBSP,2022-06-22 21:00:00
1655935200000,METAR SBSP 222200Z 02005KT CAVOK 22/11 Q1019=,SBSP,2022-06-22 22:00:00
1655938800000,METAR SBSP 222300Z 02005KT CAVOK 21/11 Q1019=,SBSP,2022-06-22 23:00:00
1655856000000,METAR SBSV 220000Z 08011KT 9999 BKN020 24/22 Q1017=,SBSV,2022-06-22 00:00:00
1655859600000,METAR SBSV 220100Z 13008KT 9999 SCT020 26/21 Q1017=,SBSV,2022-06-22 01:00:00
1655863200000,METAR SBSV 220200Z 13007KT 9999 SCT023 26/22 Q1017=,SBSV,2022-06-22 02:00:00
1655866800000,METAR SBSV 220300Z 13008KT 9999 FEW023 26/21 Q1016=,SBSV,2022-06-22 03:00:00
1655870400000,METAR SBSV 220400Z 12007KT 9999 FEW023 26/21 Q1016=,SBSV,2022-06-22 04:00:00
1655874000000,METAR SBSV 220500Z 14009KT 9999 SCT017 26/22 Q1015=,SBSV,2022-06-22 05:00:00
1655877600000,METAR SBSV 220600Z 15009KT 9999 SCT017 26/22 Q1015=,SBSV,2022-06-22 06:00:00
1655881200000,METAR SBSV 220700Z 15003KT 9999 SCT020 25/22 Q1015=,SBSV,2022-06-22 07:00:00
1655884800000,METAR SBSV 220800Z 13007KT 9999 VCSH BKN020 26/22 Q1016=,SBSV,2022-06-22 08:00:00
1655888400000,METAR SBSV 220900Z 16011KT 9999 BKN020 26/22 Q1016=,SBSV,2022-06-22 09:00:00
1655892000000,METAR SBSV 221000Z 14010KT 9999 SCT023 FEW025TCU 26/21 Q1016=,SBSV,2022-06-22 10:00:00
1655895600000,METAR SBSV 221100Z 15010KT 9999 SCT020 FEW025TCU 27/22 Q1017=,SBSV,2022-06-22 11:00:00
1655899200000,METAR SBSV 221200Z 10010KT 9999 VCSH BKN023 FEW025TCU 27/22 Q1017=,SBSV,2022-06-22 12:00:00
1655902800000,METAR SBSV 221300Z 15010KT 5000 -RA BKN020 FEW023TCU 25/22 Q1018=,SBSV,2022-06-22 13:00:00
1655906400000,METAR SBSV 221400Z 16013KT 9999 FEW020 SCT060 27/22 Q1017=,SBSV,2022-06-22 14:00:00
1655910000000,METAR SBSV 221500Z 16009KT 140V210 9999 FEW023 27/22 Q1017=,SBSV,2022-06-22 15:00:00
1655913600000,METAR SBSV 221600Z 18011KT 160V220 9999 FEW023 27/22 Q1016=,SBSV,2022-06-22 16:00:00
1655917200000,METAR SBSV 221700Z 19010KT 150V220 9999 FEW020 27/22 Q1015=,SBSV,2022-06-22 17:00:00
1655920800000,METAR SBSV 221800Z 19009KT 9999 FEW011 SCT021 27/22 Q1015=,SBSV,2022-06-22 18:00:00
1655924400000,METAR SBSV 221900Z 17009KT 150V210 9999 FEW015 SCT025 27/22 Q1015=,SBSV,2022-06-22 19:00:00
1655928000000,METAR SBSV 222000Z 17007KT 9999 FEW023 27/22 Q1015=,SBSV,2022-06-22 20:00:00
1655931600000,METAR SBSV 222100Z 17008KT 9999 FEW020 FEW025TCU 26/22 Q1016=,SBSV,2022-06-22 21:00:00
1655935200000,METAR SBSV 222200Z 17006KT 9999 FEW015 26/22 Q1016=,SBSV,2022-06-22 22:00:00
1655938800000,METAR SBSV 222300Z 16005KT 130V190 9999 FEW015 26/22 Q1017=,SBSV,2022-06-22 23:00:00
1655942400000,METAR SBBR 230000Z 10003KT CAVOK 20/11 Q1021=,SBBR,2022-06-23 00:00:00
1655946000000,METAR SBBR 230100Z 12003KT 070V150 CAVOK 20/11 Q1022=,SBBR,2022-06-23 01:00:00
1655949600000,METAR SBBR 230200Z 19002KT CAVOK 18/10 Q1022=,SBBR,2022-06-23 02:00:00
1655953200000,METAR SBBR 230300Z 22002KT CAVOK 16/11 Q1021=,SBBR,2022-06-23 03:00:00
1655956800000,METAR SBBR 230400Z VRB01KT CAVOK 14/10 Q1021=,SBBR,2022-06-23 04:00:00
1655960400000,METAR SBBR 230500Z VRB01KT CAVOK 14/10 Q1021=,SBBR,2022-06-23 05:00:00
1655964000000,METAR SBBR 230600Z VRB01KT CAVOK 14/10 Q1021=,SBBR,2022-06-23 06:00:00
1655967600000,METAR SBBR 230700Z 31002KT 9999 SCT045 14/11 Q1021=,SBBR,2022-06-23 07:00:00
1655971200000,METAR SBBR 230800Z VRB03KT 9999 SCT045 15/11 Q1021=,SBBR,2022-06-23 08:00:00
1655974800000,METAR SBBR 230900Z VRB01KT 9999 FEW035 SCT070 16/11 Q1021=,SBBR,2022-06-23 09:00:00
1655978400000,METAR SBBR 231000Z 00000KT CAVOK 16/11 Q1022=,SBBR,2022-06-23 10:00:00
1655982000000,METAR SBBR 231100Z 19003KT 170V240 CAVOK 17/11 Q1023=,SBBR,2022-06-23 11:00:00
1655985600000,METAR SBBR 231200Z 10007KT CAVOK 19/11 Q1024=,SBBR,2022-06-23 12:00:00
1655989200000,METAR SBBR 231300Z 08011KT CAVOK 21/12 Q1024=,SBBR,2022-06-23 13:00:00
1655992800000,METAR SBBR 231400Z 08010KT CAVOK 23/13 Q1024=,SBBR,2022-06-23 14:00:00
1655996400000,METAR SBBR 231500Z 07006KT 030V120 9999 SCT040 25/12 Q1023=,SBBR,2022-06-23 15:00:00
1656000000000,METAR SBBR 231600Z 06007KT 9999 FEW040 25/11 Q1022=,SBBR,2022-06-23 16:00:00
1656003600000,METAR SBBR 231700Z VRB05KT 9999 FEW040 25/11 Q1021=,SBBR,2022-06-23 17:00:00
1656007200000,METAR SBBR 231800Z 08007KT 040V110 9999 FEW045 26/11 Q1021=,SBBR,2022-06-23 18:00:00
1656010800000,METAR SBBR 231900Z 09006KT 040V130 CAVOK 27/10 Q1020=,SBBR,2022-06-23 19:00:00
1656014400000,METAR SBBR 232000Z 13005KT 080V190 CAVOK 26/10 Q1020=,SBBR,2022-06-23 20:00:00
1656018000000,METAR SBBR 232100Z 12005KT CAVOK 25/10 Q1021=,SBBR,2022-06-23 21:00:00
1656021600000,METAR SBBR 232200Z 16005KT CAVOK 23/11 Q1021=,SBBR,2022-06-23 22:00:00
1656025200000,METAR SBBR 232300Z 15005KT CAVOK 22/11 Q1022=,SBBR,2022-06-23 23:00:00
1655942400000,METAR SBCF 230000Z 00000KT CAVOK 18/13 Q1021=,SBCF,2022-06-23 00:00:00
1655946000000,METAR SBCF 230100Z VRB02KT CAVOK 17/13 Q1022=,SBCF,2022-06-23 01:00:00
1655949600000,METAR SBCF 230200Z 12003KT CAVOK 17/13 Q1022=,SBCF,2022-06-23 02:00:00
1655953200000,METAR SBCF 230300Z 14003KT CAVOK 16/13 Q1022=,SBCF,2022-06-23 03:00:00
1655956800000,METAR SBCF 230400Z 14003KT CAVOK 16/12 Q1022=,SBCF,2022-06-23 04:00:00
1655960400000,METAR SBCF 230500Z 08007KT CAVOK 16/12 Q1021=,SBCF,2022-06-23 05:00:00
1655964000000,METAR SBCF 230600Z 14003KT 090V170 CAVOK 14/12 Q1021=,SBCF,2022-06-23 06:00:00
1655967600000,METAR SBCF 230700Z 10004KT CAVOK 14/12 Q1021=,SBCF,2022-06-23 07:00:00
1655971200000,METAR SBCF 230800Z 13003KT CAVOK 13/12 Q1022=,SBCF,2022-06-23 08:00:00
1655974800000,METAR SBCF 230900Z 18002KT CAVOK 13/12 Q1022=,SBCF,2022-06-23 09:00:00
1655978400000,METAR SBCF 231000Z 14003KT CAVOK 13/12 Q1022=,SBCF,2022-06-23 10:00:00
1655982000000,METAR SBCF 231100Z 16001KT CAVOK 15/12 Q1023=,SBCF,2022-06-23 11:00:00
1655985600000,METAR SBCF 231200Z 17002KT CAVOK 16/13 Q1024=,SBCF,2022-06-23 12:00:00
1655989200000,METAR SBCF 231300Z 02005KT CAVOK 20/13 Q1024=,SBCF,2022-06-23 13:00:00
1655992800000,METAR SBCF 231400Z 10003KT CAVOK 22/12 Q1024=,SBCF,2022-06-23 14:00:00
1655996400000,METAR SBCF 231500Z 17004KT CAVOK 24/11 Q1023=,SBCF,2022-06-23 15:00:00
1656000000000,METAR SBCF 231600Z 21004KT CAVOK 24/11 Q1022=,SBCF,2022-06-23 16:00:00
1656003600000,METAR SBCF 231700Z 19003KT CAVOK 25/10 Q1022=,SBCF,2022-06-23 17:00:00
1656007200000,METAR SBCF 231800Z 17003KT CAVOK 25/10 Q1021=,SBCF,2022-06-23 18:00:00
1656010800000,METAR SBCF 231900Z 17003KT CAVOK 25/09 Q1021=,SBCF,2022-06-23 19:00:00
1656014400000,METAR SBCF 232000Z 14002KT CAVOK 24/10 Q1021=,SBCF,2022-06-23 20:00:00
1656018000000,METAR SBCF 232100Z 12005KT CAVOK 23/09 Q1021=,SBCF,2022-06-23 21:00:00
1656021600000,METAR SBCF 232200Z 10003KT CAVOK 23/08 Q1021=,SBCF,2022-06-23 22:00:00
1656025200000,METAR SBCF 232300Z 21002KT CAVOK 19/10 Q1022=,SBCF,2022-06-23 23:00:00
1655942400000,METAR SBCT 230000Z 36004KT 9999 FEW009 18/15 Q1017=,SBCT,2022-06-23 00:00:00
1655946000000,METAR SBCT 230100Z 02005KT CAVOK 17/15 Q1017=,SBCT,2022-06-23 01:00:00
1655949600000,METAR SBCT 230200Z 35005KT CAVOK 18/15 Q1018=,SBCT,2022-06-23 02:00:00
1655953200000,METAR SBCT 230300Z 35004KT CAVOK 17/15 Q1018=,SBCT,2022-06-23 03:00:00
1655956800000,METAR SBCT 230400Z 34003KT 300V040 CAVOK 17/14 Q1017=,SBCT,2022-06-23 04:00:00
1655960400000,METAR SBCT 230500Z 31005KT CAVOK 17/14 Q1017=,SBCT,2022-06-23 05:00:00
1655964000000,METAR SBCT 230600Z 32008KT CAVOK 18/14 Q1017=,SBCT,2022-06-23 06:00:00
1655967600000,METAR SBCT 230700Z 32007KT CAVOK 18/14 Q1018=,SBCT,2022-06-23 07:00:00
1655971200000,METAR SBCT 230800Z 33007KT CAVOK 17/14 Q1018=,SBCT,2022-06-23 08:00:00
1655974800000,METAR SBCT 230900Z 33007KT CAVOK 17/13 Q1018=,SBCT,2022-06-23 09:00:00
1655978400000,METAR SBCT 231000Z 32007KT CAVOK 17/13 Q1019=,SBCT,2022-06-23 10:00:00
1655982000000,METAR SBCT 231100Z 32006KT CAVOK 17/14 Q1020=,SBCT,2022-06-23 11:00:00
1655985600000,METAR SBCT 231200Z 32008KT CAVOK 20/14 Q1021=,SBCT,2022-06-23 12:00:00
1655989200000,METAR SBCT 231300Z 32012KT CAVOK 22/14 Q1021=,SBCT,2022-06-23 13:00:00
1655992800000,METAR SBCT 231400Z 32018KT CAVOK 24/13 Q1020=,SBCT,2022-06-23 14:00:00
1655996400000,METAR SBCT 231500Z 32016KT CAVOK 25/14 Q1020=,SBCT,2022-06-23 15:00:00
1656000000000,METAR SBCT 231600Z 31018G28KT CAVOK 25/14 Q1019=,SBCT,2022-06-23 16:00:00
1656003600000,METAR SBCT 231700Z 31017KT CAVOK 26/14 Q1018=,SBCT,2022-06-23 17:00:00
1656007200000,METAR SBCT 231800Z 31018KT CAVOK 26/13 Q1018=,SBCT,2022-06-23 18:00:00
1656010800000,METAR SBCT 231900Z 31017KT 280V340 CAVOK 25/12 Q1018=,SBCT,2022-06-23 19:00:00
1656014400000,METAR SBCT 232000Z 31014KT CAVOK 24/12 Q1019=,SBCT,2022-06-23 20:00:00
1656018000000,METAR SBCT 232100Z 31008KT 290V350 CAVOK 22/13 Q1019=,SBCT,2022-06-23 21:00:00
1656021600000,METAR SBCT 232200Z 32005KT CAVOK 21/13 Q1020=,SBCT,2022-06-23 22:00:00
1656025200000,METAR SBCT 232300Z 03003KT CAVOK 20/14 Q1020=,SBCT,2022-06-23 23:00:00
1655942400000,METAR SBFL 230000Z 35007KT CAVOK 19/17 Q1012=,SBFL,2022-06-23 00:00:00
1655946000000,METAR SBFL 230100Z 35005KT 9999 OVC043 18/16 Q1012=,SBFL,2022-06-23 01:00:00
1655949600000,METAR SBFL 230200Z 34007KT 9999 OVC043 19/16 Q1013=,SBFL,2022-06-23 02:00:00
1655953200000,METAR SBFL 230300Z 10002KT 9999 BKN040 18/16 Q1012=,SBFL,2022-06-23 03:00:00
1655956800000,METAR SBFL 230400Z 12004KT 9999 BKN040 17/16 Q1013=,SBFL,2022-06-23 04:00:00
1655960400000,METAR SBFL 230500Z 20002KT 9999 BKN040 18/16 Q1013=,SBFL,2022-06-23 05:00:00
1655964000000,METAR SBFL 230600Z 05003KT 9999 BKN040 18/16 Q1013=,SBFL,2022-06-23 06:00:00
1655965020000,SPECI SBFL 230617Z 32005KT 6000 -TSRA SCT012 FEW030CB BKN040 17/17 Q1013=,SBFL,2022-06-23 06:17:00
1655967600000,METAR SBFL 230700Z 27005KT 6000 -TSRA SCT012 FEW030CB BKN040 17/16 Q1013=,SBFL,2022-06-23 07:00:00
1655971200000,METAR SBFL 230800Z 31005KT 9999 SCT012 BKN040 17/16 Q1012 RETS=,SBFL,2022-06-23 08:00:00
1655974800000,METAR SBFL 230900Z 35006KT 9999 SCT012 BKN050 18/17 Q1013=,SBFL,2022-06-23 09:00:00
1655978400000,METAR SBFL 231000Z 34007KT 9999 FEW012 SCT080 17/16 Q1013=,SBFL,2022-06-23 10:00:00
1655982000000,METAR SBFL 231100Z 30005KT CAVOK 18/17 Q1014=,SBFL,2022-06-23 11:00:00
1655985600000,METAR SBFL 231200Z 29007KT 240V310 9999 BKN050 FEW050TCU 18/17 Q1014=,SBFL,2022-06-23 12:00:00
1655989200000,METAR SBFL 231300Z 32006KT CAVOK 18/17 Q1015=,SBFL,2022-06-23 13:00:00
1655991420000,SPECI SBFL 231337Z 33005KT 9999 TS VCSH BKN050 FEW050CB BKN083 19/17 Q1015=,SBFL,2022-06-23 13:37:00
1655992800000,METAR SBFL 231400Z VRB02KT 9999 BKN050 FEW050TCU BKN083 19/18 Q1015 RETS=,SBFL,2022-06-23 14:00:00
1655996400000,METAR SBFL 231500Z 34007KT CAVOK 20/18 Q1015=,SBFL,2022-06-23 15:00:00
1656000000000,METAR SBFL 231600Z 30006KT 260V320 CAVOK 22/18 Q1013=,SBFL,2022-06-23 16:00:00
1656003600000,METAR SBFL 231700Z VRB02KT CAVOK 21/18 Q1013=,SBFL,2022-06-23 17:00:00
1656007200000,METAR SBFL 231800Z 10007KT CAVOK 18/17 Q1013=,SBFL,2022-06-23 18:00:00
1656009900000,SPECI SBFL 231845Z 22009KT 3000 -TSRA BKN014 FEW035CB SCT083 18/17 Q1015=,SBFL,2022-06-23 18:45:00
1656010800000,METAR SBFL 231900Z 20006KT 4000 TSRA BKN014 FEW035CB SCT083 18/17 Q1014=,SBFL,2022-06-23 19:00:00
1656014400000,METAR SBFL 232000Z 13010KT 9999 SCT014 17/17 Q1013 RETSRA=,SBFL,2022-06-23 20:00:00
1656018000000,METAR SBFL 232100Z 08008KT 9999 SCT014 17/16 Q1015=,SBFL,2022-06-23 21:00:00
1656021600000,METAR SBFL 232200Z 09006KT 9999 SCT014 17/16 Q1015=,SBFL,2022-06-23 22:00:00
1656022380000,SPECI SBFL 232213Z 15003KT 4000 -TSRA SCT014 FEW035CB 17/16 Q1016=,SBFL,2022-06-23 22:13:00
1656025200000,METAR SBFL 232300Z 20004KT 5000 -TSRA SCT014 FEW035CB 17/16 Q1016=,SBFL,2022-06-23 23:00:00
1655942400000,METAR SBGL 230000Z VRB02KT CAVOK 20/17 Q1016=,SBGL,2022-06-23 00:00:00
1655946000000,METAR SBGL 230100Z 02003KT 360V060 CAVOK 19/17 Q1016=,SBGL,2022-06-23 01:00:00
1655949600000,METAR SBGL 230200Z 07002KT CAVOK 18/16 Q1016=,SBGL,2022-06-23 02:00:00
1655953200000,METAR SBGL 230300Z 02003KT CAVOK 17/15 Q1015=,SBGL,2022-06-23 03:00:00
1655956800000,METAR SBGL 230400Z VRB01KT CAVOK 18/16 Q1015=,SBGL,2022-06-23 04:00:00
1655960400000,METAR SBGL 230500Z 06003KT CAVOK 17/15 Q1015=,SBGL,2022-06-23 05:00:00
1655964000000,METAR SBGL 230600Z 00000KT 9000 NSC 16/15 Q1015=,SBGL,2022-06-23 06:00:00
1655967600000,METAR SBGL 230700Z 00000KT 9000 NSC 16/14 Q1015=,SBGL,2022-06-23 07:00:00
1655971200000,METAR SBGL 230800Z VRB02KT 8000 NSC 16/14 Q1016=,SBGL,2022-06-23 08:00:00
1655974800000,METAR SBGL 230900Z 04003KT 010V070 6000 NSC 16/14 Q1016=,SBGL,2022-06-23 09:00:00
1655978400000,METAR SBGL 231000Z 06002KT 7000 NSC 16/15 Q1017=,SBGL,2022-06-23 10:00:00
1655982000000,METAR SBGL 231100Z VRB01KT 7000 NSC 20/18 Q1018=,SBGL,2022-06-23 11:00:00
1655985600000,METAR SBGL 231200Z 36003KT 330V030 8000 NSC 21/18 Q1019=,SBGL,2022-06-23 12:00:00
1655989200000,METAR SBGL 231300Z 03003KT 340V060 9000 NSC 23/18 Q1019=,SBGL,2022-06-23 13:00:00
1655992800000,METAR SBGL 231400Z 01003KT 320V050 9000 NSC 26/18 Q1018=,SBGL,2022-06-23 14:00:00
1655996400000,METAR SBGL 231500Z VRB02KT CAVOK 29/16 Q1017=,SBGL,2022-06-23 15:00:00
1656000000000,METAR SBGL 231600Z 04003KT 340V100 CAVOK 30/16 Q1016=,SBGL,2022-06-23 16:00:00
1656003600000,METAR SBGL 231700Z 04005KT CAVOK 29/17 Q1015=,SBGL,2022-06-23 17:00:00
1656007200000,METAR SBGL 231800Z 07005KT CAVOK 30/15 Q1015=,SBGL,2022-06-23 18:00:00
1656010800000,METAR SBGL 231900Z 05006KT CAVOK 29/13 Q1015=,SBGL,2022-06-23 19:00:00
1656014400000,METAR SBGL 232000Z 09004KT CAVOK 26/17 Q1015=,SBGL,2022-06-23 20:00:00
1656018000000,METAR SBGL 232100Z 15004KT CAVOK 22/17 Q1015=,SBGL,2022-06-23 21:00:00
1656021600000,METAR SBGL 232200Z 13002KT CAVOK 21/17 Q1016=,SBGL,2022-06-23 22:00:00
1656025200000,METAR SBGL 232300Z 02003KT CAVOK 20/17 Q1016=,SBGL,2022-06-23 23:00:00
1655942400000,METAR SBGR 230000Z 07003KT CAVOK 17/14 Q1019=,SBGR,2022-06-23 00:00:00
1655946000000,METAR SBGR 230100Z 09002KT CAVOK 17/14 Q1019=,SBGR,2022-06-23 01:00:00
1655949600000,METAR SBGR 230200Z 04008KT CAVOK 20/13 Q1019=,SBGR,2022-06-23 02:00:00
1655953200000,METAR SBGR 230300Z 07007KT CAVOK 17/13 Q1019=,SBGR,2022-06-23 03:00:00
1655956800000,METAR SBGR 230400Z 08008KT CAVOK 19/12 Q1019=,SBGR,2022-06-23 04:00:00
1655960400000,METAR SBGR 230500Z 09006KT CAVOK 16/12 Q1019=,SBGR,2022-06-23 05:00:00
1655964000000,METAR SBGR 230600Z 09003KT CAVOK 15/13 Q1019=,SBGR,2022-06-23 06:00:00
1655967600000,METAR SBGR 230700Z 09001KT CAVOK 13/13 Q1020=,SBGR,2022-06-23 07:00:00
1655971200000,METAR SBGR 230800Z 10001KT CAVOK 13/13 Q1020=,SBGR,2022-06-23 08:00:00
1655974800000,METAR COR SBGR 230900Z 08004KT CAVOK 14/14 Q1021=,SBGR,2022-06-23 09:00:00
1655978400000,METAR SBGR 231000Z 08003KT 8000 NSC 14/13 Q1021=,SBGR,2022-06-23 10:00:00
1655982000000,METAR SBGR 231100Z 08003KT CAVOK 16/14 Q1022=,SBGR,2022-06-23 11:00:00
1655985600000,METAR SBGR 231200Z 05005KT CAVOK 20/13 Q1022=,SBGR,2022-06-23 12:00:00
1655989200000,METAR SBGR 231300Z 02005KT CAVOK 24/11 Q1022=,SBGR,2022-06-23 13:00:00
1655992800000,METAR SBGR 231400Z 35003KT CAVOK 26/10 Q1022=,SBGR,2022-06-23 14:00:00
1655996400000,METAR SBGR 231500Z 36006KT CAVOK 27/09 Q1022=,SBGR,2022-06-23 15:00:00
1656000000000,METAR SBGR 231600Z 33006KT CAVOK 28/08 Q1021=,SBGR,2022-06-23 16:00:00
1656003600000,METAR SBGR 231700Z 31006KT CAVOK 28/09 Q1020=,SBGR,2022-06-23 17:00:00
1656007200000,METAR SBGR 231800Z 31006KT CAVOK 28/09 Q1019=,SBGR,2022-06-23 18:00:00
1656010800000,METAR SBGR 231900Z 33005KT CAVOK 28/09 Q1019=,SBGR,2022-06-23 19:00:00
1656014400000,METAR SBGR 232000Z 30005KT CAVOK 26/09 Q1019=,SBGR,2022-06-23 20:00:00
1656018000000,METAR SBGR 232100Z 00000KT CAVOK 21/12 Q1020=,SBGR,2022-06-23 21:00:00
1656021600000,METAR SBGR 232200Z 07001KT CAVOK 18/13 Q1020=,SBGR,2022-06-23 22:00:00
1656025200000,METAR SBGR 232300Z 09001KT CAVOK 17/13 Q1021=,SBGR,2022-06-23 23:00:00
1655942400000,METAR SBKP 230000Z 04005KT CAVOK 21/11 Q1018=,SBKP,2022-06-23 00:00:00
1655946000000,METAR SBKP 230100Z 05006KT CAVOK 20/11 Q1019=,SBKP,2022-06-23 01:00:00
1655949600000,METAR SBKP 230200Z 07005KT CAVOK 20/12 Q1019=,SBKP,2022-06-23 02:00:00
1655953200000,METAR SBKP 230300Z 08005KT CAVOK 18/12 Q1019=,SBKP,2022-06-23 03:00:00
1655956800000,METAR SBKP 230400Z 13003KT CAVOK 16/12 Q1019=,SBKP,2022-06-23 04:00:00
1655960400000,METAR SBKP 230500Z 04002KT CAVOK 17/12 Q1019=,SBKP,2022-06-23 05:00:00
1655964000000,METAR SBKP 230600Z 05003KT CAVOK 17/12 Q1019=,SBKP,2022-06-23 06:00:00
1655967600000,METAR SBKP 230700Z 10005KT CAVOK 15/12 Q1019=,SBKP,2022-06-23 07:00:00
1655971200000,METAR SBKP 230800Z 12007KT CAVOK 15/12 Q1019=,SBKP,2022-06-23 08:00:00
1655974800000,METAR SBKP 230900Z 11006KT CAVOK 14/11 Q1020=,SBKP,2022-06-23 09:00:00
1655978400000,METAR SBKP 231000Z 12004KT 9000 NSC 14/11 Q1020=,SBKP,2022-06-23 10:00:00
1655982000000,METAR SBKP 231100Z 11005KT 9000 NSC 16/11 Q1021=,SBKP,2022-06-23 11:00:00
1655985600000,METAR SBKP 231200Z 11005KT 9000 NSC 19/12 Q1022=,SBKP,2022-06-23 12:00:00
1655989200000,METAR SBKP 231300Z 08004KT 030V120 9000 NSC 22/12 Q1022=,SBKP,2022-06-23 13:00:00
1655992800000,METAR SBKP 231400Z 01007KT 340V040 CAVOK 24/12 Q1022=,SBKP,2022-06-23 14:00:00
1655996400000,METAR SBKP 231500Z 03009KT 350V060 CAVOK 26/10 Q1022=,SBKP,2022-06-23 15:00:00
1656000000000,METAR SBKP 231600Z 01007KT 320V060 CAVOK 27/11 Q1020=,SBKP,2022-06-23 16:00:00
1656003600000,METAR SBKP 231700Z 34008KT 300V020 CAVOK 28/08 Q1019=,SBKP,2022-06-23 17:00:00
1656007200000,METAR SBKP 231800Z 36007KT 310V040 CAVOK 28/06 Q1019=,SBKP,2022-06-23 18:00:00
1656010800000,METAR SBKP 231900Z 01005KT 330V040 CAVOK 28/07 Q1019=,SBKP,2022-06-23 19:00:00
1656014400000,METAR SBKP 232000Z 30005KT CAVOK 26/09 Q1019=,SBKP,2022-06-23 20:00:00
1656018000000,METAR SBKP 232100Z 31004KT CAVOK 25/08 Q1019=,SBKP,2022-06-23 21:00:00
1656021600000,METAR SBKP 232200Z 00000KT CAVOK 24/08 Q1019=,SBKP,2022-06-23 22:00:00
1656025200000,METAR SBKP 232300Z 13005KT CAVOK 20/10 Q1020=,SBKP,2022-06-23 23:00:00
1655942400000,METAR SBPA 230000Z 22006KT 170V280 8000 -TSRA OVC011 //////CB 15/14 Q1013=,SBPA,2022-06-23 00:00:00
1655946000000,METAR SBPA 230100Z 13004KT 8000 BKN011 FEW030TCU 15/14 Q1012 RETS=,SBPA,2022-06-23 01:00:00
1655949600000,METAR SBPA 230200Z VRB02KT 8000 OVC009 15/14 Q1012=,SBPA,2022-06-23 02:00:00
1655953200000,METAR SBPA 230300Z VRB02KT 5000 BR OVC005 15/14 Q1013=,SBPA,2022-06-23 03:00:00
1655954760000,SPECI SBPA 230326Z VRB02KT 2700 -DZ BR OVC004 15/14 Q1013=,SBPA,2022-06-23 03:26:00
1655956800000,METAR SBPA 230400Z 00000KT 2000 -DZ BR OVC003 14/14 Q1013=,SBPA,2022-06-23 04:00:00
1655958060000,SPECI COR SBPA 230421Z VRB02KT 1200 R29///// R11/P2000 BR OVC002 15/14 Q1012=,SBPA,2022-06-23 04:21:00
1655960400000,METAR SBPA 230500Z 00000KT 1200 R29///// R11/P2000 BR OVC002 15/14 Q1013=,SBPA,2022-06-23 05:00:00
1655964000000,METAR SBPA 230600Z VRB02KT 0500 R29///// R11/P2000 FG OVC002 14/14 Q1013=,SBPA,2022-06-23 06:00:00
1655967600000,METAR SBPA 230700Z 26002KT 0500 R29///// R11/P2000 FG OVC002 14/14 Q1013=,SBPA,2022-06-23 07:00:00
1655971200000,METAR SBPA 230800Z 27005KT 0500 R29///// R11/P2000 FG OVC002 14/14 Q1013=,SBPA,2022-06-23 08:00:00
1655974800000,METAR SBPA 230900Z 31004KT 240V340 0500 R29///// R11/P2000 FG VV002 14/14 Q1013=,SBPA,2022-06-23 09:00:00
1655978400000,METAR SBPA 231000Z 29005KT 260V320 0600 R29///// R11/P2000 FG OVC002 14/14 Q1014=,SBPA,2022-06-23 10:00:00
1655982000000,METAR SBPA 231100Z VRB02KT 0800 R29///// R11/2000 FG OVC002 14/14 Q1014=,SBPA,2022-06-23 11:00:00
1655985600000,METAR SBPA 231200Z VRB02KT 0800 R29///// R11/2000 FG OVC002 15/15 Q1015=,SBPA,2022-06-23 12:00:00
1655989200000,METAR SBPA 231300Z 29007KT 1200 R29///// R11/2000 -DZ BR OVC003 15/15 Q1016=,SBPA,2022-06-23 13:00:00
1655992800000,METAR SBPA 231400Z 24007KT 2000 -DZ BR BKN004 OVC012 15/15 Q1017=,SBPA,2022-06-23 14:00:00
1655996400000,METAR SBPA 231500Z 21004KT 150V270 3800 BR OVC007 15/14 Q1017=,SBPA,2022-06-23 15:00:00
1656000000000,METAR SBPA 231600Z 22007KT 190V260 4500 BR OVC006 15/14 Q1016=,SBPA,2022-06-23 16:00:00
1656003600000,METAR SBPA 231700Z 23005KT 8000 3000SW SHRA BKN006 OVC011 15/14 Q1015=,SBPA,2022-06-23 17:00:00
1656007200000,METAR SBPA 231800Z 22004KT 160V260 9999 VCSH SCT007 OVC009 15/14 Q1016 RESHRA=,SBPA,2022-06-23 18:00:00
1656010800000,METAR SBPA 231900Z 24003KT 8000 VCSH FEW007 OVC009 15/14 Q1016=,SBPA,2022-06-23 19:00:00
1656014400000,METAR SBPA 232000Z 18003KT 110V240 8000 VCSH BKN009 OVC017 15/14 Q1016=,SBPA,2022-06-23 20:00:00
1656018000000,METAR SBPA 232100Z VRB01KT 8000 -DZ BKN008 OVC019 15/14 Q1017=,SBPA,2022-06-23 21:00:00
1656021600000,METAR SBPA 232200Z 00000KT 8000 SHRA FEW005 BKN008 OVC022 15/14 Q1017=,SBPA,2022-06-23 22:00:00
1656025200000,METAR SBPA 232300Z 18003KT 150V210 7000 SHRA FEW005 OVC008 15/14 Q1017=,SBPA,2022-06-23 23:00:00
1655942400000,METAR SBRF 230000Z 35001KT 9999 SCT040 BKN100 21/20 Q1015=,SBRF,2022-06-23 00:00:00
1655946000000,METAR SBRF 230100Z 10002KT 9999 FEW024 21/21 Q1015=,SBRF,2022-06-23 01:00:00
1655949600000,METAR SBRF 230200Z 29005KT CAVOK 21/21 Q1015=,SBRF,2022-06-23 02:00:00
1655953200000,METAR SBRF 230300Z 19004KT CAVOK 21/20 Q1015=,SBRF,2022-06-23 03:00:00
1655956800000,METAR SBRF 230400Z 21003KT CAVOK 21/20 Q1014=,SBRF,2022-06-23 04:00:00
1655960400000,METAR SBRF 230500Z 18003KT CAVOK 21/20 Q1014=,SBRF,2022-06-23 05:00:00
1655964000000,METAR SBRF 230600Z 00000KT CAVOK 21/20 Q1014=,SBRF,2022-06-23 06:00:00
1655967600000,METAR SBRF 230700Z 23002KT CAVOK 22/20 Q1014=,SBRF,2022-06-23 07:00:00
1655971200000,METAR SBRF 230800Z 25003KT 9999 FEW020 BKN060 22/21 Q1014=,SBRF,2022-06-23 08:00:00
1655974800000,METAR SBRF 230900Z 22002KT 9999 FEW020 SCT060 22/20 Q1014=,SBRF,2022-06-23 09:00:00
1655978400000,METAR SBRF 231000Z 21002KT 9999 FEW023 23/21 Q1014=,SBRF,2022-06-23 10:00:00
1655982000000,METAR SBRF 231100Z 18007KT 9999 FEW040 SCT070 25/21 Q1015=,SBRF,2022-06-23 11:00:00
1655985600000,METAR SBRF 231200Z 18009KT 9999 FEW040 27/23 Q1015=,SBRF,2022-06-23 12:00:00
1655989200000,METAR SBRF 231300Z 16013KT 9999 SCT018 SCT080 27/23 Q1015=,SBRF,2022-06-23 13:00:00
1655992800000,METAR SBRF 231400Z 16013KT 9999 SCT017 BKN060 27/23 Q1015=,SBRF,2022-06-23 14:00:00
1655996400000,METAR SBRF 231500Z 16014KT 9999 VCSH SCT013 BKN018 BKN070 26/23 Q1014=,SBRF,2022-06-23 15:00:00
1656000000000,METAR SBRF 231600Z 13011KT 9999 FEW015 SCT025 BKN100 27/24 Q1014=,SBRF,2022-06-23 16:00:00
1656003600000,METAR SBRF 231700Z 14009KT 9999 FEW016 SCT100 27/23 Q1013=,SBRF,2022-06-23 17:00:00
1656007200000,METAR SBRF 231800Z 15012KT 9999 SCT018 SCT070 28/23 Q1013=,SBRF,2022-06-23 18:00:00
1656010800000,METAR SBRF 231900Z 15014KT 9999 FEW018 SCT070 27/23 Q1013=,SBRF,2022-06-23 19:00:00
1656014400000,METAR SBRF 232000Z 14010KT 9999 SCT020 27/22 Q1013=,SBRF,2022-06-23 20:00:00
1656018000000,METAR SBRF 232100Z 14010KT 080V170 9999 BKN018 27/23 Q1014=,SBRF,2022-06-23 21:00:00
1656021600000,METAR SBRF 232200Z 13007KT 9999 BKN018 27/23 Q1014=,SBRF,2022-06-23 22:00:00
1656025200000,METAR SBRF 232300Z 13007KT 9000 VCSH SCT020 27/23 Q1014=,SBRF,2022-06-23 23:00:00
1655942400000,METAR SBRJ 230000Z 05004KT CAVOK 23/20 Q1015=,SBRJ,2022-06-23 00:00:00
1655946000000,METAR SBRJ 230100Z 33005KT 290V010 CAVOK 23/19 Q1015=,SBRJ,2022-06-23 01:00:00
1655949600000,METAR SBRJ 230200Z 32006KT CAVOK 22/20 Q1015=,SBRJ,2022-06-23 02:00:00
1655974200000,SPECI SBRJ 230850Z 34006KT CAVOK 20/19 Q1016=,SBRJ,2022-06-23 08:50:00
1655974800000,METAR SBRJ 230900Z 35007KT CAVOK 20/19 Q1016=,SBRJ,2022-06-23 09:00:00
1655978400000,METAR SBRJ 231000Z 34007KT CAVOK 20/19 Q1016=,SBRJ,2022-06-23 10:00:00
1655982000000,METAR SBRJ 231100Z 35007KT 8000 NSC 20/19 Q1017=,SBRJ,2022-06-23 11:00:00
1655985600000,METAR SBRJ 231200Z 34008KT 8000 NSC 21/19 Q1018=,SBRJ,2022-06-23 12:00:00
1655989200000,METAR SBRJ 231300Z 34007KT 8000 NSC 22/18 Q1018=,SBRJ,2022-06-23 13:00:00
1655992800000,METAR SBRJ 231400Z 35007KT CAVOK 23/19 Q1018=,SBRJ,2022-06-23 14:00:00
1655996400000,METAR SBRJ 231500Z 36006KT CAVOK 24/19 Q1017=,SBRJ,2022-06-23 15:00:00
1656000000000,METAR SBRJ 231600Z 36005KT CAVOK 25/19 Q1016=,SBRJ,2022-06-23 16:00:00
1656003600000,METAR SBRJ 231700Z 35003KT CAVOK 28/17 Q1015=,SBRJ,2022-06-23 17:00:00
1656007200000,METAR SBRJ 231800Z VRB02KT CAVOK 27/19 Q1015=,SBRJ,2022-06-23 18:00:00
1656010800000,METAR SBRJ 231900Z VRB02KT CAVOK 26/21 Q1015=,SBRJ,2022-06-23 19:00:00
1656014400000,METAR SBRJ 232000Z VRB02KT CAVOK 24/21 Q1015=,SBRJ,2022-06-23 20:00:00
1656018000000,METAR SBRJ 232100Z 19004KT 150V230 CAVOK 24/19 Q1015=,SBRJ,2022-06-23 21:00:00
1656021600000,METAR SBRJ 232200Z 17004KT CAVOK 23/18 Q1015=,SBRJ,2022-06-23 22:00:00
1656025200000,METAR SBRJ 232300Z 12003KT CAVOK 23/21 Q1015=,SBRJ,2022-06-23 23:00:00
1655942400000,METAR SBSP 230000Z 01005KT CAVOK 21/11 Q1020=,SBSP,2022-06-23 00:00:00
1655946000000,METAR SBSP 230100Z 01003KT CAVOK 20/11 Q1020=,SBSP,2022-06-23 01:00:00
1655949600000,SPECI SBSP 230200Z 04006KT CAVOK 20/11 Q1019=,SBSP,2022-06-23 02:00:00
1655949600000,METAR SBSP 230200Z 04006KT CAVOK 21/11 Q1023=,SBSP,2022-06-23 02:00:00
1655953200000,METAR SBSP 230300Z AUTO 02006KT CAVOK 20/11 Q1019=,SBSP,2022-06-23 03:00:00
1655956800000,METAR SBSP 230400Z AUTO 01004KT CAVOK 19/11 Q1020=,SBSP,2022-06-23 04:00:00
1655960400000,METAR SBSP 230500Z AUTO 33003KT CAVOK 18/11 Q1019=,SBSP,2022-06-23 05:00:00
1655964000000,METAR SBSP 230600Z AUTO 33003KT CAVOK 17/11 Q1020=,SBSP,2022-06-23 06:00:00
1655967600000,METAR SBSP 230700Z AUTO 11003KT CAVOK 16/11 Q1020=,SBSP,2022-06-23 07:00:00
1655971200000,METAR SBSP 230800Z AUTO 07002KT CAVOK 16/11 Q1020=,SBSP,2022-06-23 08:00:00
1655974800000,METAR SBSP 230900Z VRB02KT CAVOK 16/11 Q1021=,SBSP,2022-06-23 09:00:00
1655978400000,METAR SBSP 231000Z 01006KT CAVOK 16/11 Q1021=,SBSP,2022-06-23 10:00:00
1655982000000,METAR SBSP 231100Z 04003KT 360V080 CAVOK 18/12 Q1023=,SBSP,2022-06-23 11:00:00
1655985600000,METAR SBSP 231200Z 34004KT 300V010 CAVOK 20/12 Q1023=,SBSP,2022-06-23 12:00:00
1655989200000,METAR SBSP 231300Z 32005KT 270V360 CAVOK 22/12 Q1024=,SBSP,2022-06-23 13:00:00
1655992800000,METAR SBSP 231400Z 36005KT 280V040 CAVOK 24/10 Q1023=,SBSP,2022-06-23 14:00:00
1655996400000,METAR SBSP 231500Z 33010KT 290V360 CAVOK 25/09 Q1023=,SBSP,2022-06-23 15:00:00
1656000000000,METAR SBSP 231600Z 32009KT 280V360 CAVOK 27/09 Q1022=,SBSP,2022-06-23 16:00:00
1656003600000,METAR SBSP 231700Z 35010KT 300V020 CAVOK 27/07 Q1021=,SBSP,2022-06-23 17:00:00
1656007200000,METAR SBSP 231800Z 36007KT 310V060 CAVOK 27/08 Q1020=,SBSP,2022-06-23 18:00:00
1656010800000,METAR SBSP 231900Z 34007KT 300V020 CAVOK 26/07 Q1020=,SBSP,2022-06-23 19:00:00
1656014400000,METAR SBSP 232000Z 01005KT 350V060 CAVOK 25/08 Q1020=,SBSP,2022-06-23 20:00:00
1656018000000,METAR SBSP 232100Z 34004KT CAVOK 24/07 Q1021=,SBSP,2022-06-23 21:00:00
1656021600000,METAR SBSP 232200Z 31004KT CAVOK 24/07 Q1021=,SBSP,2022-06-23 22:00:00
1656025200000,METAR SBSP 232300Z VRB02KT CAVOK 22/08 Q1022=,SBSP,2022-06-23 23:00:00
1655942400000,METAR SBSV 230000Z 13008KT 9999 FEW020 27/21 Q1018=,SBSV,2022-06-23 00:00:00
1655946000000,METAR SBSV 230100Z 13007KT CAVOK 26/21 Q1018=,SBSV,2022-06-23 01:00:00
1655949600000,METAR SBSV 230200Z 14007KT 9999 FEW023 SCT050 27/21 Q1018=,SBSV,2022-06-23 02:00:00
1655953200000,METAR SBSV 230300Z 13006KT 9999 FEW023 SCT050 26/21 Q1017=,SBSV,2022-06-23 03:00:00
1655956800000,METAR SBSV 230400Z 13006KT 9999 FEW023 SCT050 26/22 Q1017=,SBSV,2022-06-23 04:00:00
1655960400000,METAR SBSV 230500Z 13007KT 9999 FEW023 SCT050 26/20 Q1016=,SBSV,2022-06-23 05:00:00
1655964000000,METAR SBSV 230600Z 13007KT 9999 SCT023 27/21 Q1016=,SBSV,2022-06-23 06:00:00
1655967600000,METAR SBSV 230700Z 07011KT 9999 SCT023 24/22 Q1016=,SBSV,2022-06-23 07:00:00
1655971200000,METAR SBSV 230800Z 09004KT 340V140 9999 SCT023 25/22 Q1016=,SBSV,2022-06-23 08:00:00
1655974800000,METAR SBSV 230900Z 28003KT 9999 FEW023 24/22 Q1016=,SBSV,2022-06-23 09:00:00
1655978400000,METAR SBSV 231000Z 23002KT 9999 FEW023 25/23 Q1016=,SBSV,2022-06-23 10:00:00
1655982000000,METAR SBSV 231100Z 16009KT 9999 SCT023 27/23 Q1017=,SBSV,2022-06-23 11:00:00
1655985600000,METAR SBSV 231200Z 15010KT 9999 SCT023 28/23 Q1018=,SBSV,2022-06-23 12:00:00
1655989200000,METAR SBSV 231300Z 16011KT 9999 SCT023 28/23 Q1018=,SBSV,2022-06-23 13:00:00
1655992800000,METAR SBSV 231400Z 13010KT 9999 BKN023 29/22 Q1017=,SBSV,2022-06-23 14:00:00
1655996400000,METAR SBSV 231500Z 13012KT 9999 BKN023 29/22 Q1017=,SBSV,2022-06-23 15:00:00
1656000000000,METAR SBSV 231600Z 13013KT 9999 SCT023 29/22 Q1016=,SBSV,2022-06-23 16:00:00
1656003600000,METAR SBSV 231700Z 13010KT 9999 SCT023 29/22 Q1016=,SBSV,2022-06-23 17:00:00
1656007200000,METAR SBSV 231800Z 12012KT 9999 SCT023 29/22 Q1015=,SBSV,2022-06-23 18:00:00
1656010800000,METAR SBSV 231900Z 12011KT 100V170 9999 SCT023 28/22 Q1015=,SBSV,2022-06-23 19:00:00
1656014400000,METAR SBSV 232000Z 12009KT 9999 SCT023 28/22 Q1016=,SBSV,2022-06-23 20:00:00
1656018000000,METAR SBSV 232100Z 12011KT 9999 SCT025 27/22 Q1016=,SBSV,2022-06-23 21:00:00
1656021600000,METAR SBSV 232200Z 12011KT 9999 SCT023 27/22 Q1017=,SBSV,2022-06-23 22:00:00
1656025200000,METAR SBSV 232300Z 12011KT 090V150 9999 SCT023 27/22 Q1017=,SBSV,2022-06-23 23:00:00
1656028800000,METAR SBBR 240000Z VRB02KT CAVOK 20/11 Q1022=,SBBR,2022-06-24 00:00:00
1656032400000,METAR SBBR 240100Z 12003KT 100V170 CAVOK 19/11 Q1022=,SBBR,2022-06-24 01:00:00
1656036000000,METAR SBBR 240200Z 00000KT CAVOK 16/10 Q1022=,SBBR,2022-06-24 02:00:00
1656039600000,METAR SBBR 240300Z 00000KT CAVOK 16/11 Q1022=,SBBR,2022-06-24 03:00:00
1656043200000,METAR SBBR 240400Z 30002KT CAVOK 14/10 Q1022=,SBBR,2022-06-24 04:00:00
1656046800000,METAR SBBR 240500Z VRB01KT CAVOK 13/10 Q1021=,SBBR,2022-06-24 05:00:00
1656050400000,METAR SBBR 240600Z 25001KT CAVOK 12/10 Q1021=,SBBR,2022-06-24 06:00:00
1656054000000,METAR SBBR 240700Z 28002KT CAVOK 12/10 Q1021=,SBBR,2022-06-24 07:00:00
1656057600000,METAR SBBR 240800Z 29002KT CAVOK 12/10 Q1021=,SBBR,2022-06-24 08:00:00
1656061200000,METAR SBBR 240900Z 00000KT CAVOK 12/10 Q1022=,SBBR,2022-06-24 09:00:00
1656064800000,METAR SBBR 241000Z VRB02KT CAVOK 11/09 Q1022=,SBBR,2022-06-24 10:00:00
1656068400000,METAR SBBR 241100Z VRB01KT CAVOK 16/11 Q1023=,SBBR,2022-06-24 11:00:00
1656072000000,METAR SBBR 241200Z 11005KT 080V170 CAVOK 20/11 Q1024=,SBBR,2022-06-24 12:00:00
1656075600000,METAR SBBR 241300Z 10008KT CAVOK 21/12 Q1024=,SBBR,2022-06-24 13:00:00
1656079200000,METAR SBBR 241400Z 08009KT CAVOK 23/12 Q1024=,SBBR,2022-06-24 14:00:00
1656082800000,METAR SBBR 241500Z 11009KT CAVOK 25/11 Q1023=,SBBR,2022-06-24 15:00:00
1656086400000,METAR SBBR 241600Z 08005KT 9999 FEW040 25/11 Q1022=,SBBR,2022-06-24 16:00:00
1656090000000,METAR SBBR 241700Z 36005KT 280V090 9999 FEW040 26/11 Q1021=,SBBR,2022-06-24 17:00:00
1656093600000,METAR SBBR 241800Z 01006KT 9999 FEW045 26/11 Q1020=,SBBR,2022-06-24 18:00:00
1656097200000,METAR SBBR 241900Z 06008KT CAVOK 26/11 Q1020=,SBBR,2022-06-24 19:00:00
1656100800000,METAR SBBR 242000Z 07005KT 020V110 CAVOK 26/11 Q1020=,SBBR,2022-06-24 20:00:00
1656104400000,METAR SBBR 242100Z 10005KT CAVOK 24/11 Q1021=,SBBR,2022-06-24 21:00:00
1656108000000,METAR SBBR 242200Z 12007KT CAVOK 23/11 Q1021=,SBBR,2022-06-24 22:00:00
1656111600000,METAR SBBR 242300Z 07003KT CAVOK 21/11 Q1022=,SBBR,2022-06-24 23:00:00
1656028800000,METAR SBCF 240000Z 17002KT CAVOK 18/10 Q1022=,SBCF,2022-06-24 00:00:00
1656032400000,METAR SBCF 240100Z 16002KT CAVOK 17/10 Q1023=,SBCF,2022-06-24 01:00:00
1656036000000,METAR SBCF 240200Z 13003KT CAVOK 17/10 Q1023=,SBCF,2022-06-24 02:00:00
1656039600000,METAR SBCF 240300Z 14002KT CAVOK 16/10 Q1023=,SBCF,2022-06-24 03:00:00
1656043200000,METAR SBCF 240400Z 11002KT CAVOK 15/10 Q1022=,SBCF,2022-06-24 04:00:00
1656046800000,METAR SBCF 240500Z 15002KT CAVOK 15/11 Q1022=,SBCF,2022-06-24 05:00:00
1656050400000,METAR SBCF 240600Z 13002KT CAVOK 14/11 Q1022=,SBCF,2022-06-24 06:00:00
1656054000000,METAR SBCF 240700Z 13001KT CAVOK 14/11 Q1022=,SBCF,2022-06-24 07:00:00
1656057600000,METAR SBCF 240800Z 16003KT CAVOK 13/11 Q1022=,SBCF,2022-06-24 08:00:00
1656061200000,METAR SBCF 240900Z 16001KT CAVOK 13/11 Q1022=,SBCF,2022-06-24 09:00:00
1656064800000,METAR SBCF 241000Z 16003KT 9999 PRFG NSC 12/10 Q1023=,SBCF,2022-06-24 10:00:00
1656068400000,METAR SBCF 241100Z 00000KT CAVOK 14/11 Q1023=,SBCF,2022-06-24 11:00:00
1656072000000,METAR SBCF 241200Z 15002KT CAVOK 15/12 Q1024=,SBCF,2022-06-24 12:00:00
1656075600000,METAR SBCF 241300Z 01005KT CAVOK 21/12 Q1024=,SBCF,2022-06-24 13:00:00
1656079200000,METAR SBCF 241400Z 34003KT CAVOK 23/10 Q1023=,SBCF,2022-06-24 14:00:00
1656082800000,METAR SBCF 241500Z 05004KT CAVOK 24/08 Q1023=,SBCF,2022-06-24 15:00:00
1656086400000,METAR SBCF 241600Z 16005KT CAVOK 24/09 Q1022=,SBCF,2022-06-24 16:00:00
1656090000000,METAR SBCF 241700Z 13004KT 040V180 CAVOK 25/08 Q1021=,SBCF,2022-06-24 17:00:00
1656093600000,METAR SBCF 241800Z 17004KT 070V220 CAVOK 26/07 Q1020=,SBCF,2022-06-24 18:00:00
1656097200000,METAR SBCF 241900Z 10004KT 360V150 CAVOK 25/08 Q1020=,SBCF,2022-06-24 19:00:00
1656100800000,METAR SBCF 242000Z 16003KT CAVOK 23/08 Q1021=,SBCF,2022-06-24 20:00:00
1656104400000,METAR SBCF 242100Z 08008KT CAVOK 22/10 Q1021=,SBCF,2022-06-24 21:00:00
1656108000000,METAR SBCF 242200Z 07007KT CAVOK 21/10 Q1022=,SBCF,2022-06-24 22:00:00
1656111600000,METAR SBCF 242300Z 05005KT CAVOK 21/08 Q1022=,SBCF,2022-06-24 23:00:00
1656028800000,METAR SBCT 240000Z 05004KT CAVOK 18/13 Q1020=,SBCT,2022-06-24 00:00:00
1656032400000,METAR SBCT 240100Z 03004KT CAVOK 18/13 Q1021=,SBCT,2022-06-24 01:00:00
1656036000000,METAR SBCT 240200Z 03004KT CAVOK 17/14 Q1021=,SBCT,2022-06-24 02:00:00
1656039600000,METAR SBCT 240300Z 03004KT CAVOK 17/14 Q1021=,SBCT,2022-06-24 03:00:00
1656043200000,METAR SBCT 240400Z 06003KT CAVOK 15/14 Q1021=,SBCT,2022-06-24 04:00:00
1656046800000,METAR SBCT 240500Z 04003KT CAVOK 15/13 Q1021=,SBCT,2022-06-24 05:00:00
1656050400000,METAR SBCT 240600Z 04005KT CAVOK 15/13 Q1021=,SBCT,2022-06-24 06:00:00
1656054000000,METAR SBCT 240700Z 05004KT CAVOK 14/13 Q1020=,SBCT,2022-06-24 07:00:00
1656057600000,METAR SBCT 240800Z 06003KT CAVOK 13/13 Q1021=,SBCT,2022-06-24 08:00:00
1656061200000,METAR SBCT 240900Z 04004KT CAVOK 13/13 Q1021=,SBCT,2022-06-24 09:00:00
1656064800000,METAR SBCT 241000Z VRB02KT CAVOK 13/12 Q1021=,SBCT,2022-06-24 10:00:00
1656068400000,METAR SBCT 241100Z 06003KT CAVOK 13/12 Q1023=,SBCT,2022-06-24 11:00:00
1656072000000,METAR SBCT 241200Z 03003KT CAVOK 17/13 Q1023=,SBCT,2022-06-24 12:00:00
1656075600000,METAR SBCT 241300Z 35005KT CAVOK 20/14 Q1024=,SBCT,2022-06-24 13:00:00
1656079200000,METAR SBCT 241400Z 32007KT CAVOK 23/13 Q1024=,SBCT,2022-06-24 14:00:00
1656082800000,METAR SBCT 241500Z 32010KT CAVOK 24/12 Q1023=,SBCT,2022-06-24 15:00:00
1656086400000,METAR SBCT 241600Z 31011KT CAVOK 25/11 Q1022=,SBCT,2022-06-24 16:00:00
1656090000000,METAR SBCT 241700Z 31011KT CAVOK 25/12 Q1021=,SBCT,2022-06-24 17:00:00
1656093600000,METAR SBCT 241800Z 29007KT CAVOK 25/12 Q1021=,SBCT,2022-06-24 18:00:00
1656097200000,METAR SBCT 241900Z 30009KT CAVOK 24/11 Q1020=,SBCT,2022-06-24 19:00:00
1656100800000,METAR SBCT 242000Z 30008KT CAVOK 23/12 Q1021=,SBCT,2022-06-24 20:00:00
1656104400000,METAR SBCT 242100Z 25003KT CAVOK 22/13 Q1021=,SBCT,2022-06-24 21:00:00
1656108000000,METAR SBCT 242200Z 26003KT CAVOK 21/13 Q1021=,SBCT,2022-06-24 22:00:00
1656111600000,METAR SBCT 242300Z 00000KT CAVOK 18/13 Q1022=,SBCT,2022-06-24 23:00:00
1656028800000,METAR SBFL 240000Z 16005KT 9999 -TSRA SCT014 FEW035CB 17/16 Q1016=,SBFL,2022-06-24 00:00:00
1656032400000,METAR SBFL 240100Z 15004KT 9999 SCT012 FEW035TCU BKN070 18/16 Q1017 RETS=,SBFL,2022-06-24 01:00:00
1656036000000,METAR SBFL 240200Z 20006KT 9999 SCT015 BKN070 18/15 Q1017=,SBFL,2022-06-24 02:00:00
1656039600000,METAR SBFL 240300Z 21005KT 170V240 9999 SCT015 BKN070 18/16 Q1017=,SBFL,2022-06-24 03:00:00
1656043200000,METAR SBFL 240400Z 16005KT 9999 SCT015 BKN060 BKN100 19/16 Q1018=,SBFL,2022-06-24 04:00:00
1656046800000,METAR SBFL 240500Z 20007KT 9999 SCT015 BKN060 BKN100 19/16 Q1018=,SBFL,2022-06-24 05:00:00
1656050400000,METAR SBFL 240600Z 18004KT 9999 SCT015 BKN050 BKN090 19/16 Q1017=,SBFL,2022-06-24 06:00:00
1656054000000,METAR COR SBFL 240700Z 05004KT 9999 TS BKN018 FEW030CB BKN050 BKN090 18/16 Q1017=,SBFL,2022-06-24 07:00:00
1656057600000,METAR SBFL 240800Z 17004KT 9999 TS BKN016 FEW030CB BKN050 OVC090 17/16 Q1017=,SBFL,2022-06-24 08:00:00
1656061200000,METAR SBFL 240900Z 21002KT 9999 VCTS SCT016 FEW030CB BKN040 BKN090 17/16 Q1018 RETS=,SBFL,2022-06-24 09:00:00
1656064800000,METAR SBFL 241000Z 36003KT 8000 SCT016 BKN035 OVC080 17/16 Q1018=,SBFL,2022-06-24 10:00:00
1656068400000,METAR SBFL 241100Z 34002KT 4500 BR SCT016 BKN030 17/17 Q1019=,SBFL,2022-06-24 11:00:00
1656072000000,METAR SBFL 241200Z 33003KT 4500 BR FEW003 OVC026 18/17 Q1020=,SBFL,2022-06-24 12:00:00
1656075600000,METAR SBFL 241300Z 34003KT 6000 FEW004 OVC030 19/17 Q1020=,SBFL,2022-06-24 13:00:00
1656079200000,METAR SBFL 241400Z VRB02KT 9000 FEW005 OVC026 20/17 Q1019=,SBFL,2022-06-24 14:00:00
1656082800000,METAR SBFL 241500Z 01004KT 330V060 9000 FEW005 OVC023 20/17 Q1018=,SBFL,2022-06-24 15:00:00
1656086400000,METAR SBFL 241600Z 12004KT 090V150 9999 FEW010 OVC023 20/17 Q1018=,SBFL,2022-06-24 16:00:00
1656090000000,METAR SBFL 241700Z 17003KT 130V220 9999 SCT026 20/17 Q1017=,SBFL,2022-06-24 17:00:00
1656093600000,METAR SBFL 241800Z 35005KT 9999 FEW010 SCT025 21/18 Q1016=,SBFL,2022-06-24 18:00:00
1656097200000,METAR SBFL 241900Z 13007KT 9999 FEW010 BKN017 19/17 Q1016=,SBFL,2022-06-24 19:00:00
1656097500000,SPECI SBFL 241905Z 13006KT 9999 FEW010 BKN014 19/17 Q1016=,SBFL,2022-06-24 19:05:00
1656100800000,METAR SBFL 242000Z 14007KT 9999 FEW010 BKN014 18/17 Q1017=,SBFL,2022-06-24 20:00:00
1656102840000,SPECI SBFL 242034Z 13007KT 9999 BKN007 OVC014 18/16 Q1017=,SBFL,2022-06-24 20:34:00
1656104400000,METAR SBFL 242100Z 12007KT 9999 BKN007 OVC014 18/16 Q1017=,SBFL,2022-06-24 21:00:00
1656108000000,METAR SBFL 242200Z 11005KT 8000 BKN007 OVC014 17/17 Q1018=,SBFL,2022-06-24 22:00:00
1656108900000,SPECI SBFL 242215Z 12005KT 4900 BR BKN005 OVC014 17/17 Q1018=,SBFL,2022-06-24 22:15:00
1656111000000,SPECI SBFL 242250Z 11004KT 3500 BR OVC003 17/17 Q1018=,SBFL,2022-06-24 22:50:00
1656111600000,METAR SBFL 242300Z 11004KT 3500 -DZ BR SCT002 BKN003 OVC007 17/17 Q1018=,SBFL,2022-06-24 23:00:00
1656112500000,SPECI SBFL 242315Z 13002KT 3000 -DZ BR TS SCT002 BKN003 BKN007 FEW030CB 17/17 Q1018=,SBFL,2022-06-24 23:15:00
1656114000000,SPECI SBFL 242340Z 04006KT 9999 -DZ VCTS FEW002 BKN006 FEW030CB 17/17 Q1018 RETS=,SBFL,2022-06-24 23:40:00
1656028800000,METAR SBGL 240000Z 11003KT 7000 NSC 19/16 Q1016=,SBGL,2022-06-24 00:00:00
1656032400000,METAR SBGL 240100Z 00000KT 7000 NSC 18/16 Q1017=,SBGL,2022-06-24 01:00:00
1656036000000,METAR SBGL 240200Z 03002KT 7000 NSC 18/16 Q1017=,SBGL,2022-06-24 02:00:00
1656039600000,METAR SBGL 240300Z 05002KT 7000 NSC 17/16 Q1017=,SBGL,2022-06-24 03:00:00
1656043200000,METAR SBGL 240400Z 06002KT 7000 NSC 17/16 Q1017=,SBGL,2022-06-24 04:00:00
1656046800000,METAR SBGL 240500Z 04002KT 6000 NSC 17/16 Q1016=,SBGL,2022-06-24 05:00:00
1656050400000,METAR SBGL 240600Z 36002KT 6000 NSC 17/16 Q1016=,SBGL,2022-06-24 06:00:00
1656054000000,METAR SBGL 240700Z 30002KT 5000 BR NSC 17/16 Q1016=,SBGL,2022-06-24 07:00:00
1656057600000,METAR SBGL 240800Z 29002KT 5000 BR NSC 16/15 Q1016=,SBGL,2022-06-24 08:00:00
1656061200000,METAR SBGL 240900Z 00000KT 7000 NSC 16/14 Q1017=,SBGL,2022-06-24 09:00:00
1656064800000,METAR SBGL 241000Z 04003KT 5000 BR NSC 15/14 Q1017=,SBGL,2022-06-24 10:00:00
1656068400000,METAR SBGL 241100Z 01004KT 5000 BR NSC 18/16 Q1018=,SBGL,2022-06-24 11:00:00
1656072000000,METAR SBGL 241200Z 01002KT 8000 NSC 21/16 Q1019=,SBGL,2022-06-24 12:00:00
1656075600000,METAR SBGL 241300Z 03002KT 9000 NSC 24/16 Q1019=,SBGL,2022-06-24 13:00:00
1656079200000,METAR SBGL 241400Z 20002KT CAVOK 26/17 Q1018=,SBGL,2022-06-24 14:00:00
1656082800000,METAR SBGL 241500Z 25002KT CAVOK 29/14 Q1017=,SBGL,2022-06-24 15:00:00
1656086400000,METAR SBGL 241600Z 02004KT CAVOK 28/15 Q1016=,SBGL,2022-06-24 16:00:00
1656090000000,METAR SBGL 241700Z VRB03KT CAVOK 30/15 Q1016=,SBGL,2022-06-24 17:00:00
1656093600000,METAR SBGL 241800Z 02004KT CAVOK 30/16 Q1016=,SBGL,2022-06-24 18:00:00
1656097200000,METAR SBGL 241900Z 20007KT CAVOK 27/17 Q1016=,SBGL,2022-06-24 19:00:00
1656100800000,METAR SBGL 242000Z 27008KT CAVOK 25/18 Q1016=,SBGL,2022-06-24 20:00:00
1656104400000,METAR SBGL 242100Z 26006KT CAVOK 24/18 Q1017=,SBGL,2022-06-24 21:00:00
1656108000000,METAR SBGL 242200Z 26006KT CAVOK 23/18 Q1017=,SBGL,2022-06-24 22:00:00
1656111600000,METAR SBGL 242300Z 30005KT CAVOK 21/18 Q1018=,SBGL,2022-06-24 23:00:00
1656028800000,METAR SBGR 240000Z 00000KT CAVOK 15/14 Q1021=,SBGR,2022-06-24 00:00:00
1656032400000,METAR SBGR 240100Z 12001KT CAVOK 15/13 Q1021=,SBGR,2022-06-24 01:00:00
1656036000000,METAR SBGR 240200Z 08002KT CAVOK 14/13 Q1021=,SBGR,2022-06-24 02:00:00
1656039600000,METAR SBGR 240300Z 07003KT CAVOK 14/13 Q1021=,SBGR,2022-06-24 03:00:00
1656043200000,METAR SBGR 240400Z 09002KT CAVOK 12/12 Q1021=,SBGR,2022-06-24 04:00:00
1656046800000,METAR SBGR 240500Z 10003KT CAVOK 13/13 Q1021=,SBGR,2022-06-24 05:00:00
1656050400000,METAR SBGR 240600Z 08004KT CAVOK 12/12 Q1021=,SBGR,2022-06-24 06:00:00
1656054000000,METAR SBGR 240700Z 17003KT CAVOK 11/11 Q1021=,SBGR,2022-06-24 07:00:00
1656057600000,METAR SBGR 240800Z 12002KT CAVOK 11/11 Q1021=,SBGR,2022-06-24 08:00:00
1656061200000,METAR SBGR 240900Z 08003KT CAVOK 12/12 Q1021=,SBGR,2022-06-24 09:00:00
1656064800000,METAR SBGR 241000Z 06003KT CAVOK 11/11 Q1022=,SBGR,2022-06-24 10:00:00
1656068400000,METAR SBGR 241100Z 07003KT CAVOK 14/12 Q1022=,SBGR,2022-06-24 11:00:00
1656072000000,METAR SBGR 241200Z 00000KT CAVOK 18/13 Q1023=,SBGR,2022-06-24 12:00:00
1656075600000,METAR SBGR 241300Z 04001KT CAVOK 21/12 Q1023=,SBGR,2022-06-24 13:00:00
1656079200000,METAR SBGR 241400Z 13002KT CAVOK 24/13 Q1023=,SBGR,2022-06-24 14:00:00
1656082800000,METAR SBGR 241500Z 34002KT CAVOK 26/12 Q1022=,SBGR,2022-06-24 15:00:00
1656086400000,METAR SBGR 241600Z 01004KT CAVOK 27/10 Q1021=,SBGR,2022-06-24 16:00:00
1656090000000,METAR SBGR 241700Z 03004KT CAVOK 27/10 Q1020=,SBGR,2022-06-24 17:00:00
1656093600000,METAR SBGR 241800Z 13004KT CAVOK 27/11 Q1020=,SBGR,2022-06-24 18:00:00
1656097200000,METAR SBGR 241900Z 05005KT CAVOK 27/08 Q1020=,SBGR,2022-06-24 19:00:00
1656100800000,METAR SBGR 242000Z 06006KT CAVOK 25/10 Q1020=,SBGR,2022-06-24 20:00:00
1656104400000,METAR SBGR 242100Z 06003KT 8000 NSC 22/12 Q1020=,SBGR,2022-06-24 21:00:00
1656108000000,METAR SBGR 242200Z 16003KT CAVOK 19/13 Q1020=,SBGR,2022-06-24 22:00:00
1656111600000,METAR SBGR 242300Z 04001KT CAVOK 17/13 Q1021=,SBGR,2022-06-24 23:00:00
1656028800000,METAR SBKP 240000Z 12007KT CAVOK 19/10 Q1020=,SBKP,2022-06-24 00:00:00
1656032400000,METAR SBKP 240100Z 11007KT CAVOK 18/11 Q1021=,SBKP,2022-06-24 01:00:00
1656036000000,METAR SBKP 240200Z 12009KT CAVOK 18/11 Q1021=,SBKP,2022-06-24 02:00:00
1656039600000,METAR SBKP 240300Z 10006KT CAVOK 17/11 Q1020=,SBKP,2022-06-24 03:00:00
1656043200000,METAR SBKP 240400Z 12006KT CAVOK 16/11 Q1020=,SBKP,2022-06-24 04:00:00
1656046800000,METAR SBKP 240500Z 12007KT CAVOK 15/11 Q1020=,SBKP,2022-06-24 05:00:00
1656050400000,METAR SBKP 240600Z 11009KT CAVOK 15/10 Q1020=,SBKP,2022-06-24 06:00:00
1656054000000,METAR SBKP 240700Z 09007KT CAVOK 14/11 Q1020=,SBKP,2022-06-24 07:00:00
1656057600000,METAR SBKP 240800Z 11006KT CAVOK 14/11 Q1020=,SBKP,2022-06-24 08:00:00
1656061200000,METAR SBKP 240900Z 11006KT CAVOK 14/11 Q1020=,SBKP,2022-06-24 09:00:00
1656064800000,METAR SBKP 241000Z 11007KT CAVOK 14/11 Q1021=,SBKP,2022-06-24 10:00:00
1656068400000,METAR SBKP 241100Z 11006KT 8000 NSC 15/11 Q1022=,SBKP,2022-06-24 11:00:00
1656072000000,METAR SBKP 241200Z 11004KT 060V140 8000 NSC 18/12 Q1023=,SBKP,2022-06-24 12:00:00
1656075600000,METAR SBKP 241300Z VRB02KT 8000 NSC 22/11 Q1023=,SBKP,2022-06-24 13:00:00
1656079200000,METAR SBKP 241400Z 04003KT 360V100 9000 NSC 24/11 Q1023=,SBKP,2022-06-24 14:00:00
1656082800000,METAR SBKP 241500Z VRB03KT CAVOK 25/09 Q1022=,SBKP,2022-06-24 15:00:00
1656086400000,METAR SBKP 241600Z 32003KT 260V070 CAVOK 26/09 Q1021=,SBKP,2022-06-24 16:00:00
1656090000000,METAR SBKP 241700Z VRB04KT CAVOK 27/10 Q1020=,SBKP,2022-06-24 17:00:00
1656093600000,METAR SBKP 241800Z 27005KT 190V310 CAVOK 27/09 Q1020=,SBKP,2022-06-24 18:00:00
1656097200000,METAR SBKP 241900Z VRB02KT CAVOK 27/09 Q1019=,SBKP,2022-06-24 19:00:00
1656100800000,METAR SBKP 242000Z 21005KT 190V250 CAVOK 26/09 Q1019=,SBKP,2022-06-24 20:00:00
1656104400000,METAR SBKP 242100Z 19003KT CAVOK 25/09 Q1019=,SBKP,2022-06-24 21:00:00
1656108000000,METAR SBKP 242200Z 17004KT CAVOK 23/10 Q1019=,SBKP,2022-06-24 22:00:00
1656111600000,METAR SBKP 242300Z 18004KT CAVOK 23/09 Q1020=,SBKP,2022-06-24 23:00:00
1656028800000,METAR SBPA 240000Z 13005KT 7000 OVC007 15/14 Q1018 RESHRA=,SBPA,2022-06-24 00:00:00
1656032400000,METAR SBPA 240100Z VRB01KT 7000 OVC006 14/14 Q1018=,SBPA,2022-06-24 01:00:00
1656036000000,METAR SBPA 240200Z 15003KT 8000 OVC009 14/14 Q1018=,SBPA,2022-06-24 02:00:00
1656039600000,METAR SBPA 240300Z 04004KT 350V090 6000 OVC006 14/14 Q1019=,SBPA,2022-06-24 03:00:00
1656043200000,METAR SBPA 240400Z 10003KT 7000 OVC006 14/14 Q1018=,SBPA,2022-06-24 04:00:00
1656046020000,SPECI SBPA 240447Z 00000KT 4000 BR OVC004 14/14 Q1018=,SBPA,2022-06-24 04:47:00
1656046800000,METAR SBPA 240500Z 17004KT 4000 BR OVC004 14/14 Q1018=,SBPA,2022-06-24 05:00:00
1656050400000,METAR SBPA 240600Z 17003KT 4200 BR OVC004 14/14 Q1018=,SBPA,2022-06-24 06:00:00
1656054000000,METAR SBPA 240700Z 17005KT 5000 BR OVC007 14/14 Q1018=,SBPA,2022-06-24 07:00:00
1656057600000,METAR SBPA 240800Z 17005KT 7000 OVC008 14/14 Q1017=,SBPA,2022-06-24 08:00:00
1656061200000,METAR SBPA 240900Z 16004KT 8000 OVC009 14/14 Q1017=,SBPA,2022-06-24 09:00:00
1656064800000,METAR SBPA 241000Z 15002KT 8000 OVC009 14/14 Q1018=,SBPA,2022-06-24 10:00:00
1656068400000,METAR SBPA 241100Z 21003KT 160V250 8000 BKN009 OVC036 15/14 Q1019=,SBPA,2022-06-24 11:00:00
1656072000000,METAR SBPA 241200Z 16003KT 8000 BKN009 OVC036 15/15 Q1019=,SBPA,2022-06-24 12:00:00
1656075600000,METAR SBPA 241300Z 16004KT 120V190 8000 BKN009 OVC023 16/15 Q1019=,SBPA,2022-06-24 13:00:00
1656079200000,METAR SBPA 241400Z 17004KT 130V220 8000 -RA BKN009 OVC023 16/15 Q1020=,SBPA,2022-06-24 14:00:00
1656082800000,METAR SBPA 241500Z 18004KT 8000 BKN009 OVC017 16/15 Q1019=,SBPA,2022-06-24 15:00:00
1656084600000,SPECI SBPA 241530Z 13004KT 080V190 8000 OVC012 17/16 Q1019=,SBPA,2022-06-24 15:30:00
1656086400000,METAR SBPA 241600Z 12006KT 080V150 8000 OVC009 17/16 Q1018=,SBPA,2022-06-24 16:00:00
1656090000000,METAR SBPA 241700Z 11004KT 080V140 4000 -RA BR OVC008 17/16 Q1018=,SBPA,2022-06-24 17:00:00
1656091380000,SPECI SBPA 241723Z 13003KT 3000 -RA BR OVC004 17/16 Q1018=,SBPA,2022-06-24 17:23:00
1656093600000,METAR SBPA 241800Z 18004KT 120V240 3000 -RA BR OVC004 16/16 Q1018=,SBPA,2022-06-24 18:00:00
1656095160000,SPECI SBPA 241826Z 19005KT 160V220 4000 -RA BR OVC006 16/15 Q1018=,SBPA,2022-06-24 18:26:00
1656097200000,METAR SBPA 241900Z 22003KT 190V260 4500 -RA BR BKN006 OVC012 16/15 Q1018=,SBPA,2022-06-24 19:00:00
1656100800000,METAR SBPA 242000Z 19006KT 150V210 5000 BR BKN006 OVC015 16/15 Q1018=,SBPA,2022-06-24 20:00:00
1656104400000,METAR SBPA 242100Z 21004KT 180V250 5000 -RA BR BKN006 OVC015 15/15 Q1019=,SBPA,2022-06-24 21:00:00
1656104940000,SPECI SBPA 242109Z 20005KT 170V230 5000 -RA BR BKN004 OVC015 15/15 Q1019=,SBPA,2022-06-24 21:09:00
1656108000000,METAR SBPA 242200Z 19006KT 160V220 6000 BKN007 OVC020 15/15 Q1019=,SBPA,2022-06-24 22:00:00
1656111600000,METAR SBPA 242300Z 20006KT 160V220 5000 -RA BR BKN007 OVC020 15/15 Q1020=,SBPA,2022-06-24 23:00:00
1656028800000,METAR SBRF 240000Z 13008KT 9000 VCSH SCT012 BKN015 26/23 Q1015=,SBRF,2022-06-24 00:00:00
1656032400000,METAR SBRF 240100Z 11009KT 8000 VCSH FEW008 BKN015 OVC050 25/23 Q1015=,SBRF,2022-06-24 01:00:00
1656033600000,SPECI SBRF 240120Z 13006KT 4000 -RA BR FEW009 BKN017 OVC040 25/22 Q1015=,SBRF,2022-06-24 01:20:00
1656034800000,SPECI SBRF 240140Z 14004KT 9000 VCSH SCT030 BKN050 25/22 Q1015=,SBRF,2022-06-24 01:40:00
1656036000000,METAR SBRF 240200Z 15003KT 9999 VCSH FEW018 SCT030 BKN050 25/22 Q1015=,SBRF,2022-06-24 02:00:00
1656039600000,METAR SBRF 240300Z 17004KT 9999 4000NE FEW015 BKN020 BKN060 25/23 Q1014=,SBRF,2022-06-24 03:00:00
1656041760000,SPECI SBRF 240336Z 23003KT 4000 BR FEW013 BKN020 BKN100 24/23 Q1014=,SBRF,2022-06-24 03:36:00
1656043200000,METAR SBRF 240400Z 12007G17KT 3000 RA BR FEW010 BKN016 BKN100 24/23 Q1014=,SBRF,2022-06-24 04:00:00
1656043860000,SPECI SBRF 240411Z 12006KT 9000 VCSH FEW012 BKN017 BKN100 25/22 Q1013 RERA=,SBRF,2022-06-24 04:11:00
1656046800000,METAR SBRF 240500Z 12010KT 7000 -RA FEW013 BKN020 BKN100 25/21 Q1013=,SBRF,2022-06-24 05:00:00
1656050400000,METAR SBRF 240600Z 15004KT 9999 VCSH SCT015 BKN020 BKN100 25/24 Q1013=,SBRF,2022-06-24 06:00:00
1656054000000,METAR COR SBRF 240700Z 14009G23KT 5000 -RA BR BKN012 BKN017 OVC030 25/23 Q1013=,SBRF,2022-06-24 07:00:00
1656055080000,SPECI SBRF 240718Z 14013KT 5000 -RA BR FEW008 BKN018 OVC030 24/23 Q1014=,SBRF,2022-06-24 07:18:00
1656057600000,METAR SBRF 240800Z 13006KT 9999 SCT020 BKN030 BKN060 24/22 Q1013=,SBRF,2022-06-24 08:00:00
1656061200000,METAR SBRF 240900Z 17002KT 9999 VCSH SCT017 BKN025 BKN080 24/23 Q1014=,SBRF,2022-06-24 09:00:00
1656064800000,METAR SBRF 241000Z 21006KT 9999 VCSH SCT020 BKN060 25/23 Q1014=,SBRF,2022-06-24 10:00:00
1656068400000,METAR SBRF 241100Z 15013KT 9999 FEW022 SCT070 27/23 Q1015=,SBRF,2022-06-24 11:00:00
1656072000000,METAR SBRF 241200Z 15014KT 9999 SCT023 SCT070 28/23 Q1015=,SBRF,2022-06-24 12:00:00
1656075600000,METAR SBRF 241300Z 16016KT 9999 VCSH SCT022 28/23 Q1015=,SBRF,2022-06-24 13:00:00
1656079200000,METAR SBRF 241400Z 16015KT 9999 SCT023 FEW025TCU 28/22 Q1015=,SBRF,2022-06-24 14:00:00
1656082800000,METAR SBRF 241500Z 17016KT 9999 SCT020 29/22 Q1013=,SBRF,2022-06-24 15:00:00
1656083760000,SPECI SBRF 241516Z 14012G23KT 9000 -SHRA BKN021 FEW024TCU 26/19 Q1013=,SBRF,2022-06-24 15:16:00
1656086400000,METAR SBRF 241600Z 19006KT 9999 SCT023 FEW025TCU SCT060 27/21 Q1013=,SBRF,2022-06-24 16:00:00
1656087480000,SPECI SBRF 241618Z 19014KT 4500 -SHRA SCT014 BKN023 FEW025TCU BKN060 26/22 Q1013=,SBRF,2022-06-24 16:18:00
1656088740000,SPECI SBRF 241639Z 14013KT 8000 VCSH BKN020 FEW025TCU SCT060 25/23 Q1012=,SBRF,2022-06-24 16:39:00
1656090000000,METAR SBRF 241700Z 14010KT 9999 SCT015 BKN022 26/23 Q1012=,SBRF,2022-06-24 17:00:00
1656093600000,METAR SBRF 241800Z 16015KT 9999 FEW013 BKN022 FEW025TCU 27/21 Q1012=,SBRF,2022-06-24 18:00:00
1656097200000,METAR SBRF 241900Z 17015KT 9000 VCSH FEW013 BKN022 FEW025TCU 27/21 Q1012=,SBRF,2022-06-24 19:00:00
1656100800000,METAR SBRF 242000Z 15012KT 9999 BKN022 FEW025TCU 26/21 Q1013=,SBRF,2022-06-24 20:00:00
1656104400000,METAR SBRF 242100Z 17014KT 8000 -SHRA SCT022 FEW025TCU 25/21 Q1013=,SBRF,2022-06-24 21:00:00
1656108000000,METAR SBRF 242200Z 16011KT 9999 SCT022 25/20 Q1014=,SBRF,2022-06-24 22:00:00
1656111600000,METAR SBRF 242300Z 16010KT 9999 VCSH BKN022 25/21 Q1014=,SBRF,2022-06-24 23:00:00
1656028800000,METAR SBRJ 240000Z VRB02KT CAVOK 23/20 Q1016=,SBRJ,2022-06-24 00:00:00
1656032400000,METAR SBRJ 240100Z VRB02KT CAVOK 24/19 Q1016=,SBRJ,2022-06-24 01:00:00
1656036000000,METAR SBRJ 240200Z 33003KT CAVOK 23/21 Q1016=,SBRJ,2022-06-24 02:00:00
1656060600000,SPECI SBRJ 240850Z 34006KT CAVOK 20/18 Q1016=,SBRJ,2022-06-24 08:50:00
1656061200000,METAR SBRJ 240900Z 33007KT CAVOK 20/18 Q1016=,SBRJ,2022-06-24 09:00:00
1656064800000,METAR SBRJ 241000Z 33005KT CAVOK 20/18 Q1017=,SBRJ,2022-06-24 10:00:00
1656068400000,METAR SBRJ 241100Z 35008KT CAVOK 20/19 Q1017=,SBRJ,2022-06-24 11:00:00
1656072000000,METAR SBRJ 241200Z 02007KT CAVOK 20/19 Q1018=,SBRJ,2022-06-24 12:00:00
1656075600000,METAR SBRJ 241300Z 36006KT CAVOK 22/19 Q1018=,SBRJ,2022-06-24 13:00:00
1656079200000,METAR SBRJ 241400Z 35006KT CAVOK 23/19 Q1018=,SBRJ,2022-06-24 14:00:00
1656082800000,METAR SBRJ 241500Z 02004KT 320V040 CAVOK 24/18 Q1017=,SBRJ,2022-06-24 15:00:00
1656086400000,METAR SBRJ 241600Z 35005KT 300V010 CAVOK 26/19 Q1016=,SBRJ,2022-06-24 16:00:00
1656090000000,METAR SBRJ 241700Z 08003KT 030V140 CAVOK 26/20 Q1015=,SBRJ,2022-06-24 17:00:00
1656093600000,METAR SBRJ 241800Z 15005KT CAVOK 26/18 Q1015=,SBRJ,2022-06-24 18:00:00
1656097200000,METAR SBRJ 241900Z 18012KT CAVOK 26/17 Q1015=,SBRJ,2022-06-24 19:00:00
1656100800000,METAR SBRJ 242000Z 19012KT CAVOK 25/18 Q1015=,SBRJ,2022-06-24 20:00:00
1656104400000,METAR COR SBRJ 242100Z 17008KT CAVOK 23/19 Q1016 WS R20=,SBRJ,2022-06-24 21:00:00
1656108000000,METAR SBRJ 242200Z 17009KT CAVOK 22/20 Q1017=,SBRJ,2022-06-24 22:00:00
1656111600000,METAR SBRJ 242300Z 16007KT CAVOK 21/20 Q1017=,SBRJ,2022-06-24 23:00:00
1656028800000,METAR SBSP 240000Z 10002KT CAVOK 20/09 Q1022=,SBSP,2022-06-24 00:00:00
1656032400000,METAR SBSP 240100Z 00000KT CAVOK 19/09 Q1022=,SBSP,2022-06-24 01:00:00
1656036000000,METAR SBSP 240200Z 32003KT CAVOK 18/11 Q1022=,SBSP,2022-06-24 02:00:00
1656036120000,SPECI SBSP 240202Z 32003KT CAVOK 18/11 Q1022=,SBSP,2022-06-24 02:02:00
1656039600000,METAR SBSP 240300Z AUTO VRB02KT CAVOK 17/11 Q1021=,SBSP,2022-06-24 03:00:00
1656043200000,METAR SBSP 240400Z AUTO 36002KT CAVOK 17/10 Q1021=,SBSP,2022-06-24 04:00:00
1656046800000,METAR SBSP 240500Z AUTO 34002KT CAVOK 16/11 Q1021=,SBSP,2022-06-24 05:00:00
1656050400000,METAR SBSP 240600Z AUTO 13001KT CAVOK 16/11 Q1021=,SBSP,2022-06-24 06:00:00
1656054000000,METAR SBSP 240700Z AUTO 02001KT CAVOK 15/11 Q1021=,SBSP,2022-06-24 07:00:00
1656057600000,METAR SBSP 240800Z AUTO 36002KT CAVOK 15/11 Q1021=,SBSP,2022-06-24 08:00:00
1656061200000,METAR SBSP 240900Z VRB01KT CAVOK 14/11 Q1022=,SBSP,2022-06-24 09:00:00
1656064800000,METAR SBSP 241000Z 00000KT CAVOK 14/10 Q1023=,SBSP,2022-06-24 10:00:00
1656068400000,METAR SBSP 241100Z VRB02KT CAVOK 16/12 Q1023=,SBSP,2022-06-24 11:00:00
1656072000000,METAR SBSP 241200Z 33004KT 280V010 CAVOK 18/12 Q1024=,SBSP,2022-06-24 12:00:00
1656075600000,METAR SBSP 241300Z 31003KT CAVOK 21/11 Q1024=,SBSP,2022-06-24 13:00:00
1656079200000,METAR SBSP 241400Z 01003KT 250V050 CAVOK 23/10 Q1024=,SBSP,2022-06-24 14:00:00
1656082800000,METAR COR SBSP 241500Z VRB04KT CAVOK 25/09 Q1023=,SBSP,2022-06-24 15:00:00
1656086400000,METAR SBSP 241600Z VRB04KT CAVOK 26/09 Q1022=,SBSP,2022-06-24 16:00:00
1656090000000,METAR SBSP 241700Z 34004KT 290V070 CAVOK 26/09 Q1021=,SBSP,2022-06-24 17:00:00
1656093600000,METAR SBSP 241800Z 32004KT 260V020 CAVOK 27/09 Q1021=,SBSP,2022-06-24 18:00:00
1656097200000,METAR SBSP 241900Z VRB03KT CAVOK 27/09 Q1020=,SBSP,2022-06-24 19:00:00
1656100800000,METAR SBSP 242000Z 15007KT CAVOK 24/11 Q1021=,SBSP,2022-06-24 20:00:00
1656104400000,METAR SBSP 242100Z 16005KT CAVOK 21/12 Q1021=,SBSP,2022-06-24 21:00:00
1656108000000,METAR SBSP 242200Z 02006KT 170V240 CAVOK 21/11 Q1022=,SBSP,2022-06-24 22:00:00
1656111600000,METAR SBSP 242300Z 21004KT 170V240 CAVOK 20/12 Q1022=,SBSP,2022-06-24 23:00:00
1656028800000,METAR SBSV 240000Z 11010KT 080V140 9999 SCT023 27/22 Q1017=,SBSV,2022-06-24 00:00:00
1656032400000,METAR SBSV 240100Z 12010KT 9999 SCT023 27/22 Q1018=,SBSV,2022-06-24 01:00:00
1656036000000,METAR SBSV 240200Z 12011KT 9999 SCT023 FEW025TCU 27/22 Q1017=,SBSV,2022-06-24 02:00:00
1656039600000,METAR SBSV 240300Z 12010KT 9999 SCT023 FEW025TCU 27/22 Q1017=,SBSV,2022-06-24 03:00:00
1656043200000,METAR SBSV 240400Z 11011KT 9999 SCT023 FEW025TCU 27/21 Q1017=,SBSV,2022-06-24 04:00:00
1656046800000,METAR SBSV 240500Z 09011KT 9999 SCT023 FEW025TCU 26/21 Q1016=,SBSV,2022-06-24 05:00:00
1656050400000,METAR SBSV 240600Z 09009KT 9999 SCT023 FEW025TCU 26/21 Q1016=,SBSV,2022-06-24 06:00:00
1656054000000,METAR SBSV 240700Z 09007KT 9999 SCT023 26/22 Q1016=,SBSV,2022-06-24 07:00:00
1656057600000,METAR SBSV 240800Z 11011KT 9999 SCT023 27/21 Q1016=,SBSV,2022-06-24 08:00:00
1656061200000,METAR SBSV 240900Z 12011KT 9999 SCT023 26/21 Q1016=,SBSV,2022-06-24 09:00:00
1656064800000,METAR SBSV 241000Z 11010KT 090V150 9999 FEW025 27/21 Q1017=,SBSV,2022-06-24 10:00:00
1656068400000,METAR SBSV 241100Z 12011KT 090V150 9999 FEW025 28/20 Q1018=,SBSV,2022-06-24 11:00:00
1656072000000,METAR SBSV 241200Z 13010KT 090V160 9999 SCT025 28/21 Q1018=,SBSV,2022-06-24 12:00:00
1656075600000,METAR SBSV 241300Z 12010KT 090V150 9999 SCT025 29/21 Q1018=,SBSV,2022-06-24 13:00:00
1656079200000,METAR SBSV 241400Z 14010KT 100V180 9999 SCT027 29/21 Q1018=,SBSV,2022-06-24 14:00:00
1656082800000,METAR SBSV 241500Z 15012KT 9999 SCT027 29/21 Q1017=,SBSV,2022-06-24 15:00:00
1656086400000,METAR SBSV 241600Z 16010KT 130V190 9999 VCSH SCT021 FEW025TCU 29/21 Q1016=,SBSV,2022-06-24 16:00:00
1656090000000,METAR SBSV 241700Z 16008KT 130V200 9999 SCT020 FEW025TCU 28/22 Q1016=,SBSV,2022-06-24 17:00:00
1656093600000,METAR SBSV 241800Z 15011KT 9999 SCT020 FEW025TCU 29/22 Q1015=,SBSV,2022-06-24 18:00:00
1656097200000,METAR SBSV 241900Z 15010KT 9999 VCSH SCT020 FEW025TCU 28/22 Q1016=,SBSV,2022-06-24 19:00:00
1656100800000,METAR SBSV 242000Z 13007KT 9999 FEW020 27/21 Q1016=,SBSV,2022-06-24 20:00:00
1656104400000,METAR SBSV 242100Z 13008KT 9999 SCT020 FEW023TCU SCT080 27/22 Q1016=,SBSV,2022-06-24 21:00:00
1656108000000,METAR SBSV 242200Z 15006KT 9999 FEW020 27/20 Q1016=,SBSV,2022-06-24 22:00:00
1656111600000,METAR SBSV 242300Z 13006KT 9999 FEW020 27/21 Q1017=,SBSV,2022-06-24 23:00:00
1656115200000,METAR SBBR 250000Z 14005KT CAVOK 22/11 Q1022=,SBBR,2022-06-25 00:00:00
1656118800000,METAR SBBR 250100Z 09002KT CAVOK 19/12 Q1023=,SBBR,2022-06-25 01:00:00
1656122400000,METAR SBBR 250200Z 15003KT CAVOK 19/11 Q1023=,SBBR,2022-06-25 02:00:00
1656126000000,METAR SBBR 250300Z 10006KT CAVOK 18/11 Q1023=,SBBR,2022-06-25 03:00:00
1656129600000,METAR SBBR 250400Z 28002KT CAVOK 17/11 Q1022=,SBBR,2022-06-25 04:00:00
1656133200000,METAR SBBR 250500Z 00000KT CAVOK 14/10 Q1022=,SBBR,2022-06-25 05:00:00
1656136800000,METAR SBBR 250600Z 28002KT CAVOK 13/10 Q1021=,SBBR,2022-06-25 06:00:00
1656140400000,METAR SBBR 250700Z 26002KT CAVOK 12/10 Q1021=,SBBR,2022-06-25 07:00:00
1656144000000,METAR SBBR 250800Z 28002KT CAVOK 12/09 Q1021=,SBBR,2022-06-25 08:00:00
1656147600000,METAR SBBR 250900Z 26004KT CAVOK 12/10 Q1021=,SBBR,2022-06-25 09:00:00
1656151200000,METAR SBBR 251000Z 00000KT CAVOK 12/09 Q1022=,SBBR,2022-06-25 10:00:00
1656154800000,METAR SBBR 251100Z 00000KT CAVOK 16/11 Q1023=,SBBR,2022-06-25 11:00:00
1656158400000,METAR SBBR 251200Z VRB01KT CAVOK 18/11 Q1023=,SBBR,2022-06-25 12:00:00
1656162000000,METAR SBBR 251300Z 08008KT CAVOK 22/09 Q1023=,SBBR,2022-06-25 13:00:00
1656165600000,METAR SBBR 251400Z 12010KT CAVOK 24/08 Q1023=,SBBR,2022-06-25 14:00:00
1656169200000,METAR SBBR 251500Z 16008KT CAVOK 24/08 Q1022=,SBBR,2022-06-25 15:00:00
1656172800000,METAR SBBR 251600Z 13009KT CAVOK 26/08 Q1021=,SBBR,2022-06-25 16:00:00
1656176400000,METAR SBBR 251700Z 18009KT CAVOK 26/07 Q1021=,SBBR,2022-06-25 17:00:00
1656180000000,METAR SBBR 251800Z 15007KT 100V210 CAVOK 26/07 Q1020=,SBBR,2022-06-25 18:00:00
1656183600000,METAR SBBR 251900Z 12009KT 100V170 CAVOK 26/07 Q1019=,SBBR,2022-06-25 19:00:00
1656187200000,METAR SBBR 252000Z 14006KT 120V180 CAVOK 25/08 Q1019=,SBBR,2022-06-25 20:00:00
1656190800000,METAR SBBR 252100Z 17005KT CAVOK 24/07 Q1020=,SBBR,2022-06-25 21:00:00
1656194400000,METAR SBBR 252200Z 13005KT 100V160 CAVOK 21/08 Q1020=,SBBR,2022-06-25 22:00:00
1656198000000,METAR SBBR 252300Z 12006KT CAVOK 21/08 Q1021=,SBBR,2022-06-25 23:00:00
1656115200000,METAR SBCF 250000Z 00000KT CAVOK 18/09 Q1022=,SBCF,2022-06-25 00:00:00
1656118800000,METAR SBCF 250100Z 15002KT CAVOK 17/09 Q1023=,SBCF,2022-06-25 01:00:00
1656122400000,METAR SBCF 250200Z 22002KT CAVOK 15/09 Q1022=,SBCF,2022-06-25 02:00:00
1656126000000,METAR SBCF 250300Z 23002KT CAVOK 14/09 Q1022=,SBCF,2022-06-25 03:00:00
1656129600000,METAR SBCF 250400Z 17002KT CAVOK 14/09 Q1022=,SBCF,2022-06-25 04:00:00
1656133200000,METAR SBCF 250500Z 16006KT CAVOK 14/10 Q1022=,SBCF,2022-06-25 05:00:00
1656136800000,METAR SBCF 250600Z 19002KT CAVOK 13/10 Q1021=,SBCF,2022-06-25 06:00:00
1656140400000,METAR SBCF 250700Z 15002KT CAVOK 13/10 Q1022=,SBCF,2022-06-25 07:00:00
1656144000000,METAR SBCF 250800Z 18002KT CAVOK 13/10 Q1021=,SBCF,2022-06-25 08:00:00
1656147600000,METAR SBCF 250900Z 18003KT CAVOK 12/09 Q1022=,SBCF,2022-06-25 09:00:00
1656151200000,METAR SBCF 251000Z 16003KT 9999 PRFG NSC 12/10 Q1022=,SBCF,2022-06-25 10:00:00
1656154800000,METAR SBCF 251100Z 16003KT CAVOK 13/10 Q1022=,SBCF,2022-06-25 11:00:00
1656158400000,METAR SBCF 251200Z 13002KT CAVOK 16/11 Q1023=,SBCF,2022-06-25 12:00:00
1656162000000,METAR SBCF 251300Z 10002KT CAVOK 20/12 Q1023=,SBCF,2022-06-25 13:00:00
1656165600000,METAR SBCF 251400Z 16006KT CAVOK 23/09 Q1023=,SBCF,2022-06-25 14:00:00
1656169200000,METAR SBCF 251500Z 19004KT CAVOK 24/09 Q1022=,SBCF,2022-06-25 15:00:00
1656172800000,METAR SBCF 251600Z 12005KT CAVOK 25/08 Q1020=,SBCF,2022-06-25 16:00:00
1656176400000,METAR SBCF 251700Z 20006KT 160V230 CAVOK 26/09 Q1020=,SBCF,2022-06-25 17:00:00
1656180000000,METAR SBCF 251800Z VRB03KT CAVOK 26/09 Q1019=,SBCF,2022-06-25 18:00:00
1656183600000,METAR SBCF 251900Z 07003KT 030V150 CAVOK 26/09 Q1019=,SBCF,2022-06-25 19:00:00
1656187200000,METAR SBCF 252000Z 21003KT CAVOK 25/09 Q1019=,SBCF,2022-06-25 20:00:00
1656190800000,METAR SBCF 252100Z 25002KT CAVOK 23/09 Q1019=,SBCF,2022-06-25 21:00:00
1656194400000,METAR SBCF 252200Z 07006KT CAVOK 22/10 Q1020=,SBCF,2022-06-25 22:00:00
1656198000000,METAR SBCF 252300Z 10006KT CAVOK 22/10 Q1020=,SBCF,2022-06-25 23:00:00
1656115200000,METAR SBCT 250000Z 03005KT CAVOK 17/13 Q1022=,SBCT,2022-06-25 00:00:00
1656118800000,METAR SBCT 250100Z 02002KT 5000 BR NSC 15/13 Q1023=,SBCT,2022-06-25 01:00:00
1656122400000,METAR SBCT 250200Z 00000KT 5000 BR NSC 15/14 Q1023=,SBCT,2022-06-25 02:00:00
1656126000000,METAR SBCT 250300Z 31001KT 5000 BR NSC 14/14 Q1023=,SBCT,2022-06-25 03:00:00
1656129600000,METAR SBCT 250400Z 08002KT 5000 BR NSC 13/13 Q1023=,SBCT,2022-06-25 04:00:00
1656133200000,METAR SBCT 250500Z 10001KT 5000 BR NSC 13/13 Q1023=,SBCT,2022-06-25 05:00:00
1656136800000,METAR SBCT 250600Z 00000KT 5000 BR NSC 12/12 Q1022=,SBCT,2022-06-25 06:00:00
1656140400000,METAR SBCT 250700Z 09002KT 5000 BR NSC 11/11 Q1022=,SBCT,2022-06-25 07:00:00
1656144000000,METAR SBCT 250800Z 06002KT 5000 2000SE BR NSC 11/11 Q1022=,SBCT,2022-06-25 08:00:00
1656147600000,METAR SBCT 250900Z 06002KT 5000 2000SE BR NSC 11/11 Q1023=,SBCT,2022-06-25 09:00:00
1656151200000,METAR SBCT 251000Z VRB01KT 5000 1500NE R15/1500 R33/2000 BR MIFG NSC 11/11 Q1023=,SBCT,2022-06-25 10:00:00
1656154800000,METAR SBCT 251100Z 00000KT 5000 BR NSC 13/13 Q1024=,SBCT,2022-06-25 11:00:00
1656158400000,METAR SBCT 251200Z 04002KT 5000 BR NSC 15/14 Q1025=,SBCT,2022-06-25 12:00:00
1656162000000,METAR SBCT 251300Z 13004KT 8000 FEW009 SCT020 18/14 Q1025=,SBCT,2022-06-25 13:00:00
1656165600000,METAR SBCT 251400Z 12008KT 9999 SCT006 BKN025 17/15 Q1025=,SBCT,2022-06-25 14:00:00
1656169200000,METAR SBCT 251500Z 11007KT 9999 SCT009 BKN025 18/15 Q1025=,SBCT,2022-06-25 15:00:00
1656170400000,SPECI SBCT 251520Z 11007KT 9999 BKN013 18/14 Q1025=,SBCT,2022-06-25 15:20:00
1656172800000,METAR SBCT 251600Z 09007KT 9999 BKN013 18/14 Q1024=,SBCT,2022-06-25 16:00:00
1656176400000,METAR SBCT 251700Z 10006KT 9999 SCT017 SCT020 19/14 Q1024=,SBCT,2022-06-25 17:00:00
1656180000000,METAR SBCT 251800Z 09009KT 9999 SCT012 BKN016 17/14 Q1023=,SBCT,2022-06-25 18:00:00
1656180600000,SPECI SBCT 251810Z 10009KT 9999 BKN011 BKN017 17/14 Q1024=,SBCT,2022-06-25 18:10:00
1656182280000,SPECI SBCT 251838Z 11009KT 080V140 9999 BKN007 BKN011 OVC019 16/14 Q1024=,SBCT,2022-06-25 18:38:00
1656183600000,METAR SBCT 251900Z 10009KT 9000 BKN007 BKN020 15/14 Q1023=,SBCT,2022-06-25 19:00:00
1656187200000,METAR SBCT 252000Z 09009KT 9999 BKN007 OVC020 14/12 Q1024=,SBCT,2022-06-25 20:00:00
1656190800000,METAR SBCT 252100Z 07008KT 9999 BKN006 OVC010 13/12 Q1024=,SBCT,2022-06-25 21:00:00
1656194400000,METAR SBCT 252200Z 13008KT 9999 BKN004 OVC009 13/12 Q1025=,SBCT,2022-06-25 22:00:00
1656198000000,METAR SBCT 252300Z 12011KT 6000 -DZ BKN004 OVC009 12/12 Q1025=,SBCT,2022-06-25 23:00:00
1656115200000,METAR SBFL 250000Z 06007KT 9999 FEW002 SCT006 BKN014 17/17 Q1018 RETS=,SBFL,2022-06-25 00:00:00
1656118800000,METAR SBFL 250100Z 00000KT 9999 FEW002 SCT006 BKN014 17/17 Q1018=,SBFL,2022-06-25 01:00:00
1656122400000,METAR SBFL 250200Z 32003KT 9999 FEW002 SCT006 BKN014 17/17 Q1019=,SBFL,2022-06-25 02:00:00
1656126000000,METAR SBFL 250300Z 25004KT 9999 FEW002 SCT006 BKN014 17/17 Q1019=,SBFL,2022-06-25 03:00:00
1656129600000,METAR SBFL 250400Z 14002KT 2000 -RA FEW002 SCT006 BKN010 17/17 Q1019=,SBFL,2022-06-25 04:00:00
1656133200000,METAR SBFL 250500Z 12005KT 4000 -RA FEW002 SCT006 BKN010 17/17 Q1019=,SBFL,2022-06-25 05:00:00
1656136800000,METAR SBFL 250600Z 20002KT 9999 FEW002 SCT006 BKN010 17/17 Q1019=,SBFL,2022-06-25 06:00:00
1656140400000,METAR SBFL 250700Z 19005KT 9999 FEW002 SCT006 BKN010 17/17 Q1019=,SBFL,2022-06-25 07:00:00
1656144000000,METAR SBFL 250800Z 17010KT 9999 FEW002 SCT006 BKN010 18/17 Q1019=,SBFL,2022-06-25 08:00:00
1656147600000,METAR SBFL 250900Z 16010KT 9999 FEW002 SCT006 BKN010 18/15 Q1020=,SBFL,2022-06-25 09:00:00
1656151200000,METAR SBFL 251000Z 17010KT 9999 SCT014 BKN030 18/15 Q1021=,SBFL,2022-06-25 10:00:00
1656154800000,METAR SBFL 251100Z 17013G23KT 9999 SCT020 BKN090 18/15 Q1022=,SBFL,2022-06-25 11:00:00
1656158400000,METAR SBFL 251200Z 18013G27KT 9999 SCT025 BKN090 18/14 Q1023=,SBFL,2022-06-25 12:00:00
1656162000000,METAR SBFL 251300Z 19015KT 9999 BKN025 18/14 Q1023=,SBFL,2022-06-25 13:00:00
1656165600000,METAR SBFL 251400Z 19011KT 9999 SCT030 18/14 Q1023=,SBFL,2022-06-25 14:00:00
1656169200000,METAR SBFL 251500Z 19013KT 9999 SCT030 18/14 Q1024=,SBFL,2022-06-25 15:00:00
1656172800000,METAR SBFL 251600Z 19015KT 9999 SCT035 19/14 Q1023=,SBFL,2022-06-25 16:00:00
1656176400000,METAR SBFL 251700Z 19013KT 9999 SCT040 19/14 Q1022=,SBFL,2022-06-25 17:00:00
1656180000000,METAR SBFL 251800Z 18014G24KT 9999 FEW033 SCT066 18/13 Q1022=,SBFL,2022-06-25 18:00:00
1656183600000,METAR SBFL 251900Z 17013KT 140V200 9999 FEW033 18/13 Q1022=,SBFL,2022-06-25 19:00:00
1656187200000,METAR SBFL 252000Z 16007KT 090V210 9999 FEW015 SCT066 17/13 Q1023=,SBFL,2022-06-25 20:00:00
1656190800000,METAR SBFL 252100Z 16012KT 130V190 9999 FEW017 BKN050 16/11 Q1024=,SBFL,2022-06-25 21:00:00
1656194400000,METAR SBFL 252200Z 16011KT 130V190 9999 FEW017 BKN050 16/10 Q1024=,SBFL,2022-06-25 22:00:00
1656198000000,METAR SBFL 252300Z 15011KT 9999 FEW017 BKN050 16/10 Q1024=,SBFL,2022-06-25 23:00:00
1656115200000,METAR SBGL 250000Z 29004KT 8000 NSC 20/18 Q1018=,SBGL,2022-06-25 00:00:00
1656118800000,METAR SBGL 250100Z 30004KT 8000 NSC 20/18 Q1019=,SBGL,2022-06-25 01:00:00
1656122400000,METAR SBGL 250200Z 29006KT 7000 FEW010 19/18 Q1019=,SBGL,2022-06-25 02:00:00
1656126000000,METAR SBGL 250300Z 28005KT 6000 FEW010 19/18 Q1019=,SBGL,2022-06-25 03:00:00
1656129600000,METAR SBGL 250400Z 29004KT 6000 OVC010 19/18 Q1018=,SBGL,2022-06-25 04:00:00
1656133200000,METAR SBGL 250500Z 27005KT 6000 OVC008 19/17 Q1018=,SBGL,2022-06-25 05:00:00
1656136800000,METAR SBGL 250600Z 29004KT 6000 OVC009 19/18 Q1017=,SBGL,2022-06-25 06:00:00
1656140400000,METAR SBGL 250700Z 32005KT 6000 OVC009 19/17 Q1017=,SBGL,2022-06-25 07:00:00
1656144000000,METAR SBGL 250800Z 33003KT 5000 BR OVC006 19/17 Q1017=,SBGL,2022-06-25 08:00:00
1656147600000,METAR SBGL 250900Z 36004KT 320V020 3000 BR OVC005 18/17 Q1017=,SBGL,2022-06-25 09:00:00
1656151200000,METAR SBGL 251000Z 01003KT 2000 BR OVC003 18/17 Q1018=,SBGL,2022-06-25 10:00:00
1656154800000,METAR SBGL 251100Z 03003KT 2000 BR OVC003 18/17 Q1019=,SBGL,2022-06-25 11:00:00
1656158400000,METAR SBGL 251200Z 01004KT 2000 BR OVC003 19/17 Q1019=,SBGL,2022-06-25 12:00:00
1656162000000,METAR SBGL 251300Z VRB02KT 3000 BR BKN005 20/17 Q1019=,SBGL,2022-06-25 13:00:00
1656163800000,SPECI SBGL 251330Z 13002KT 4000 HZ SCT008 22/18 Q1019=,SBGL,2022-06-25 13:30:00
1656165600000,METAR SBGL 251400Z 10004KT 4000 HZ SCT010 23/18 Q1019=,SBGL,2022-06-25 14:00:00
1656169200000,METAR SBGL 251500Z 10006KT 4000 HZ SCT012 23/18 Q1019=,SBGL,2022-06-25 15:00:00
1656172800000,METAR SBGL 251600Z 16004KT 120V250 5000 HZ NSC 25/19 Q1018=,SBGL,2022-06-25 16:00:00
1656176400000,METAR SBGL 251700Z 21012KT 9999 SCT025 24/17 Q1018=,SBGL,2022-06-25 17:00:00
1656180000000,METAR SBGL 251800Z 21017KT 9999 BKN025 23/16 Q1018=,SBGL,2022-06-25 18:00:00
1656183600000,METAR SBGL 251900Z 21013KT 9999 BKN030 22/16 Q1019=,SBGL,2022-06-25 19:00:00
1656187200000,METAR SBGL 252000Z 21012KT 9999 BKN030 22/16 Q1020=,SBGL,2022-06-25 20:00:00
1656190800000,METAR SBGL 252100Z 23008KT 210V270 9999 BKN030 OVC040 22/15 Q1020=,SBGL,2022-06-25 21:00:00
1656194400000,METAR SBGL 252200Z 30003KT 9999 BKN030 OVC040 22/16 Q1020=,SBGL,2022-06-25 22:00:00
1656198000000,METAR SBGL 252300Z 30005KT 9999 BKN030 OVC040 22/16 Q1021=,SBGL,2022-06-25 23:00:00
1656115200000,METAR SBGR 250000Z 00000KT CAVOK 16/13 Q1022=,SBGR,2022-06-25 00:00:00
1656118800000,METAR SBGR 250100Z 00000KT CAVOK 15/13 Q1022=,SBGR,2022-06-25 01:00:00
1656122400000,METAR SBGR 250200Z 13001KT CAVOK 15/14 Q1022=,SBGR,2022-06-25 02:00:00
1656126000000,METAR SBGR 250300Z 00000KT 8000 NSC 14/14 Q1022=,SBGR,2022-06-25 03:00:00
1656129600000,METAR SBGR 250400Z 08002KT 8000 NSC 13/13 Q1022=,SBGR,2022-06-25 04:00:00
1656133200000,METAR SBGR 250500Z 08002KT 8000 NSC 13/13 Q1022=,SBGR,2022-06-25 05:00:00
1656136800000,METAR SBGR 250600Z 09002KT 8000 NSC 12/12 Q1021=,SBGR,2022-06-25 06:00:00
1656140400000,METAR SBGR 250700Z 00000KT CAVOK 12/12 Q1021=,SBGR,2022-06-25 07:00:00
1656144000000,METAR SBGR 250800Z 09002KT CAVOK 12/12 Q1021=,SBGR,2022-06-25 08:00:00
1656147600000,METAR SBGR 250900Z 00000KT CAVOK 11/11 Q1022=,SBGR,2022-06-25 09:00:00
1656151200000,METAR SBGR 251000Z 13001KT 9000 3500E NSC 10/10 Q1022=,SBGR,2022-06-25 10:00:00
1656154800000,METAR SBGR 251100Z 00000KT 8000 3000E NSC 13/13 Q1023=,SBGR,2022-06-25 11:00:00
1656158400000,METAR SBGR 251200Z 01002KT 8000 3000E NSC 17/13 Q1023=,SBGR,2022-06-25 12:00:00
1656162000000,METAR SBGR 251300Z 13001KT 7000 NSC 20/13 Q1024=,SBGR,2022-06-25 13:00:00
1656165600000,METAR SBGR 251400Z VRB02KT 8000 NSC 23/13 Q1023=,SBGR,2022-06-25 14:00:00
1656169200000,METAR SBGR 251500Z 18006KT 120V240 6000 BKN029 22/14 Q1023=,SBGR,2022-06-25 15:00:00
1656172800000,METAR SBGR 251600Z 19006KT 130V250 CAVOK 21/14 Q1023=,SBGR,2022-06-25 16:00:00
1656176400000,METAR SBGR 251700Z 18007KT CAVOK 21/14 Q1022=,SBGR,2022-06-25 17:00:00
1656180000000,METAR SBGR 251800Z 19007KT 130V260 9999 BKN021 21/15 Q1022=,SBGR,2022-06-25 18:00:00
1656183600000,METAR SBGR 251900Z 17009KT 140V230 9999 BKN013 BKN017 18/16 Q1023=,SBGR,2022-06-25 19:00:00
1656187200000,METAR SBGR 252000Z 18008KT 9999 BKN011 BKN013 OVC017 17/16 Q1023=,SBGR,2022-06-25 20:00:00
1656190800000,METAR SBGR 252100Z 19005KT 9999 BKN011 BKN013 OVC017 17/16 Q1023=,SBGR,2022-06-25 21:00:00
1656194400000,METAR SBGR 252200Z 17007KT 9999 OVC011 17/16 Q1024=,SBGR,2022-06-25 22:00:00
1656198000000,METAR SBGR 252300Z 19005KT 9999 BKN011 BKN015 OVC017 16/16 Q1024=,SBGR,2022-06-25 23:00:00
1656115200000,METAR SBKP 250000Z 19002KT CAVOK 19/11 Q1021=,SBKP,2022-06-25 00:00:00
1656118800000,METAR SBKP 250100Z 12005KT CAVOK 18/12 Q1021=,SBKP,2022-06-25 01:00:00
1656122400000,METAR SBKP 250200Z 12004KT CAVOK 18/12 Q1021=,SBKP,2022-06-25 02:00:00
1656126000000,METAR SBKP 250300Z 13005KT CAVOK 17/12 Q1021=,SBKP,2022-06-25 03:00:00
1656129600000,METAR SBKP 250400Z 15006KT CAVOK 17/13 Q1021=,SBKP,2022-06-25 04:00:00
1656133200000,METAR SBKP 250500Z 15006KT CAVOK 16/12 Q1021=,SBKP,2022-06-25 05:00:00
1656136800000,METAR SBKP 250600Z 12005KT 9000 NSC 16/12 Q1020=,SBKP,2022-06-25 06:00:00
1656140400000,METAR SBKP 250700Z 10003KT 9000 NSC 16/12 Q1020=,SBKP,2022-06-25 07:00:00
1656144000000,METAR SBKP 250800Z 13002KT 9000 NSC 16/12 Q1020=,SBKP,2022-06-25 08:00:00
1656147600000,METAR SBKP 250900Z 12002KT 8000 NSC 15/12 Q1021=,SBKP,2022-06-25 09:00:00
1656151200000,METAR SBKP 251000Z 12005KT 8000 3000SE NSC 14/11 Q1021=,SBKP,2022-06-25 10:00:00
1656154800000,METAR SBKP 251100Z 14006KT 8000 3500SE NSC 14/12 Q1022=,SBKP,2022-06-25 11:00:00
1656158400000,METAR SBKP 251200Z 13004KT 8000 NSC 18/13 Q1022=,SBKP,2022-06-25 12:00:00
1656162000000,METAR SBKP 251300Z 13005KT 9000 NSC 21/11 Q1023=,SBKP,2022-06-25 13:00:00
1656165600000,METAR SBKP 251400Z 25003KT 170V290 CAVOK 23/12 Q1023=,SBKP,2022-06-25 14:00:00
1656169200000,METAR SBKP 251500Z VRB04KT CAVOK 24/12 Q1022=,SBKP,2022-06-25 15:00:00
1656172800000,METAR SBKP 251600Z 22004KT 160V290 CAVOK 25/11 Q1021=,SBKP,2022-06-25 16:00:00
1656176400000,METAR SBKP 251700Z 19007KT 150V240 CAVOK 27/10 Q1020=,SBKP,2022-06-25 17:00:00
1656180000000,METAR SBKP 251800Z 17008KT 130V200 9999 SCT045 27/13 Q1020=,SBKP,2022-06-25 18:00:00
1656183600000,METAR SBKP 251900Z 15015KT 9999 FEW045 24/14 Q1020=,SBKP,2022-06-25 19:00:00
1656187200000,METAR SBKP 252000Z 18014KT 9999 FEW045 22/15 Q1020=,SBKP,2022-06-25 20:00:00
1656190800000,METAR SBKP 252100Z 14014KT 9999 FEW025 19/14 Q1022=,SBKP,2022-06-25 21:00:00
1656194400000,METAR SBKP 252200Z 15010KT 9999 FEW025 19/14 Q1022=,SBKP,2022-06-25 22:00:00
1656198000000,METAR SBKP 252300Z 14012KT 9999 FEW025 18/14 Q1022=,SBKP,2022-06-25 23:00:00
1656115200000,METAR SBPA 250000Z 18007KT 160V220 5000 SHRA BR BKN006 OVC020 15/14 Q1021=,SBPA,2022-06-25 00:00:00
1656118800000,METAR SBPA 250100Z 19009KT 160V220 5000 SHRA BR BKN006 OVC026 15/15 Q1022=,SBPA,2022-06-25 01:00:00
1656122400000,METAR SBPA 250200Z 21006KT 180V250 8000 SHRA BKN006 BKN012 OVC030 15/14 Q1023=,SBPA,2022-06-25 02:00:00
1656126000000,METAR SBPA 250300Z 21005KT 130V250 8000 SHRA BKN007 BKN012 OVC038 14/13 Q1023 WS R11=,SBPA,2022-06-25 03:00:00
1656129600000,METAR SBPA 250400Z 18007KT 120V230 8000 SHRA BKN008 OVC038 13/12 Q1024=,SBPA,2022-06-25 04:00:00
1656133200000,METAR SBPA 250500Z 22004KT 140V280 8000 BKN009 BKN018 13/11 Q1024 RESHRA=,SBPA,2022-06-25 05:00:00
1656136800000,METAR SBPA 250600Z 22006KT 170V300 8000 BKN012 BKN021 13/11 Q1024=,SBPA,2022-06-25 06:00:00
1656140400000,METAR SBPA 250700Z 30003KT 240V030 8000 BKN012 BKN020 13/11 Q1024=,SBPA,2022-06-25 07:00:00
1656144000000,METAR SBPA 250800Z 23004KT 190V290 8000 BKN012 BKN020 13/11 Q1025=,SBPA,2022-06-25 08:00:00
1656147600000,METAR SBPA 250900Z 20003KT 150V260 8000 BKN011 BKN019 13/11 Q1025=,SBPA,2022-06-25 09:00:00
1656151200000,METAR SBPA 251000Z 20005KT 170V230 9000 BKN011 BKN021 13/11 Q1026=,SBPA,2022-06-25 10:00:00
1656154800000,METAR SBPA 251100Z 22004KT 180V250 9999 BKN014 BKN040 12/10 Q1026=,SBPA,2022-06-25 11:00:00
1656158400000,METAR SBPA 251200Z 20005KT 140V240 9999 BKN014 BKN040 12/10 Q1027=,SBPA,2022-06-25 12:00:00
1656162000000,METAR SBPA 251300Z 17007KT 130V240 9999 BKN013 BKN050 13/10 Q1028=,SBPA,2022-06-25 13:00:00
1656165600000,METAR SBPA 251400Z 19007KT 160V240 9999 BKN014 BKN050 13/10 Q1028=,SBPA,2022-06-25 14:00:00
1656169200000,METAR SBPA 251500Z 18007KT 150V220 9999 BKN016 BKN050 13/10 Q1028=,SBPA,2022-06-25 15:00:00
1656172800000,METAR SBPA 251600Z 21004KT 140V260 9999 SCT020 BKN050 14/09 Q1027=,SBPA,2022-06-25 16:00:00
1656176400000,METAR SBPA 251700Z 20007KT 160V230 9999 FEW023 BKN045 14/10 Q1026=,SBPA,2022-06-25 17:00:00
1656180000000,METAR SBPA 251800Z 18004KT 120V240 9999 BKN023 14/09 Q1026=,SBPA,2022-06-25 18:00:00
1656183600000,METAR SBPA 251900Z 16007KT 130V200 9999 BKN023 14/09 Q1026=,SBPA,2022-06-25 19:00:00
1656187200000,METAR SBPA 252000Z 17009KT 140V210 9999 FEW025 BKN040 13/08 Q1027=,SBPA,2022-06-25 20:00:00
1656190800000,METAR SBPA 252100Z 17005KT 140V220 9999 FEW025 BKN040 12/09 Q1027=,SBPA,2022-06-25 21:00:00
1656194400000,METAR SBPA 252200Z 18005KT 150V210 9999 FEW025 BKN040 12/09 Q1027=,SBPA,2022-06-25 22:00:00
1656198000000,METAR SBPA 252300Z 20005KT 9999 FEW025 BKN040 12/09 Q1028=,SBPA,2022-06-25 23:00:00
1656115200000,METAR SBRF 250000Z 13006KT 9000 VCSH BKN022 25/19 Q1015=,SBRF,2022-06-25 00:00:00
1656118800000,METAR SBRF 250100Z 15010KT 9999 SCT021 26/20 Q1015=,SBRF,2022-06-25 01:00:00
1656122400000,METAR SBRF 250200Z 16009KT 9999 SCT023 25/19 Q1015=,SBRF,2022-06-25 02:00:00
1656126000000,METAR SBRF 250300Z 24004KT 9999 FEW025 23/21 Q1014=,SBRF,2022-06-25 03:00:00
1656129600000,METAR SBRF 250400Z 00000KT 9999 FEW025 22/20 Q1014=,SBRF,2022-06-25 04:00:00
1656133200000,METAR SBRF 250500Z 23006KT CAVOK 22/20 Q1013=,SBRF,2022-06-25 05:00:00
1656136800000,METAR SBRF 250600Z 22005KT 9999 SCT025 22/20 Q1013=,SBRF,2022-06-25 06:00:00
1656140400000,METAR SBRF 250700Z 22006KT CAVOK 22/21 Q1013=,SBRF,2022-06-25 07:00:00
1656144000000,METAR SBRF 250800Z VRB01KT 9999 FEW025 SCT080 22/20 Q1013=,SBRF,2022-06-25 08:00:00
1656147600000,METAR SBRF 250900Z 23003KT 9999 FEW023 22/20 Q1013=,SBRF,2022-06-25 09:00:00
1656151200000,METAR SBRF 251000Z 21006KT 9999 FEW023 23/21 Q1014=,SBRF,2022-06-25 10:00:00
1656154800000,METAR SBRF 251100Z 22007KT 9999 SCT023 FEW025TCU 24/21 Q1014=,SBRF,2022-06-25 11:00:00
1656158400000,METAR SBRF 251200Z 20007KT 9999 SCT023 FEW025TCU 25/22 Q1015=,SBRF,2022-06-25 12:00:00
1656162000000,METAR SBRF 251300Z 20006KT 160V240 9999 SCT023 27/21 Q1014=,SBRF,2022-06-25 13:00:00
1656165600000,METAR SBRF 251400Z 18008KT 9999 SCT025 27/21 Q1013=,SBRF,2022-06-25 14:00:00
1656169200000,METAR SBRF 251500Z 17007KT 9999 SCT025 28/21 Q1013=,SBRF,2022-06-25 15:00:00
1656172800000,METAR SBRF 251600Z 14011KT 090V170 9999 FEW025 28/19 Q1012=,SBRF,2022-06-25 16:00:00
1656176400000,METAR SBRF 251700Z 15011KT 120V180 9999 FEW025 28/20 Q1011=,SBRF,2022-06-25 17:00:00
1656180000000,METAR SBRF 251800Z 15012KT 9999 FEW025 27/21 Q1011=,SBRF,2022-06-25 18:00:00
1656183600000,METAR SBRF 251900Z 17012KT CAVOK 27/21 Q1012=,SBRF,2022-06-25 19:00:00
1656187200000,METAR SBRF 252000Z 17010KT CAVOK 26/21 Q1012=,SBRF,2022-06-25 20:00:00
1656190800000,METAR SBRF 252100Z 18008KT CAVOK 26/22 Q1012=,SBRF,2022-06-25 21:00:00
1656194400000,METAR SBRF 252200Z 20005KT 9999 FEW025 25/22 Q1013=,SBRF,2022-06-25 22:00:00
1656198000000,METAR SBRF 252300Z 20006KT 9999 FEW025 25/22 Q1013=,SBRF,2022-06-25 23:00:00
1656115200000,METAR SBRJ 250000Z 15003KT CAVOK 21/19 Q1018=,SBRJ,2022-06-25 00:00:00
1656118800000,METAR SBRJ 250100Z 17005KT CAVOK 21/19 Q1018=,SBRJ,2022-06-25 01:00:00
1656122400000,METAR SBRJ 250200Z 17005KT 9000 NSC 20/19 Q1018=,SBRJ,2022-06-25 02:00:00
1656147000000,SPECI SBRJ 250850Z 36006KT 4000 BR BKN008 19/18 Q1017=,SBRJ,2022-06-25 08:50:00
1656147600000,METAR SBRJ 250900Z 36007KT 4000 BR BKN008 19/18 Q1017=,SBRJ,2022-06-25 09:00:00
1656149400000,SPECI SBRJ 250930Z 35005KT 300V040 3000 BR OVC007 19/18 Q1017=,SBRJ,2022-06-25 09:30:00
1656151200000,METAR SBRJ 251000Z VRB02KT 2500 BR OVC007 19/18 Q1018=,SBRJ,2022-06-25 10:00:00
1656154800000,METAR SBRJ 251100Z 01003KT 320V050 2500 BR OVC007 19/18 Q1018=,SBRJ,2022-06-25 11:00:00
1656158400000,METAR SBRJ 251200Z 33006KT 310V010 2500 BR BKN007 19/18 Q1018=,SBRJ,2022-06-25 12:00:00
1656162000000,METAR SBRJ 251300Z 03003KT 2500 BR BKN008 20/18 Q1019=,SBRJ,2022-06-25 13:00:00
1656164100000,SPECI SBRJ 251335Z VRB02KT 3000 BR SCT009 21/19 Q1019=,SBRJ,2022-06-25 13:35:00
1656165600000,METAR SBRJ 251400Z 12004KT 070V150 4000 BR FEW009 BKN010 21/19 Q1019=,SBRJ,2022-06-25 14:00:00
1656166200000,SPECI SBRJ 251410Z 15007KT 6000 SCT010 22/19 Q1019=,SBRJ,2022-06-25 14:10:00
1656169200000,METAR SBRJ 251500Z 15008KT 7000 FEW015 23/19 Q1018=,SBRJ,2022-06-25 15:00:00
1656172800000,METAR SBRJ 251600Z 17012KT 9999 FEW020 24/19 Q1018=,SBRJ,2022-06-25 16:00:00
1656176400000,METAR SBRJ 251700Z 20015KT 9999 BKN020 23/18 Q1018=,SBRJ,2022-06-25 17:00:00
1656180000000,METAR SBRJ 251800Z 20012KT 9999 FEW018 BKN030 23/17 Q1018=,SBRJ,2022-06-25 18:00:00
1656183600000,METAR SBRJ 251900Z 21012KT 9999 FEW015 BKN030 22/17 Q1018=,SBRJ,2022-06-25 19:00:00
1656187200000,METAR SBRJ 252000Z 23011KT 180V250 9999 FEW018 BKN030 22/16 Q1019=,SBRJ,2022-06-25 20:00:00
1656190800000,METAR SBRJ 252100Z 21006KT 180V280 9999 FEW018 BKN030 22/17 Q1020=,SBRJ,2022-06-25 21:00:00
1656194400000,METAR SBRJ 252200Z 24009KT 200V280 9999 FEW020 BKN030 23/17 Q1020=,SBRJ,2022-06-25 22:00:00
1656198000000,METAR SBRJ 252300Z 26007KT 210V310 9999 FEW020 BKN030 23/17 Q1020=,SBRJ,2022-06-25 23:00:00
1656115200000,METAR SBSP 250000Z 19006KT CAVOK 19/12 Q1023=,SBSP,2022-06-25 00:00:00
1656118800000,METAR SBSP 250100Z VRB02KT CAVOK 19/12 Q1023=,SBSP,2022-06-25 01:00:00
1656122400000,METAR SBSP 250200Z VRB01KT CAVOK 17/12 Q1023=,SBSP,2022-06-25 02:00:00
1656122460000,SPECI SBSP 250201Z VRB01KT 7000 NSC 17/12 Q1023=,SBSP,2022-06-25 02:01:00
1656126000000,METAR SBSP 250300Z AUTO VRB02KT 8000 NCD 18/12 Q1023=,SBSP,2022-06-25 03:00:00
1656129600000,METAR SBSP 250400Z AUTO 00000KT 8000 NCD 16/12 Q1023=,SBSP,2022-06-25 04:00:00
1656133200000,METAR SBSP 250500Z AUTO 03001KT 7000 NCD 16/12 Q1022=,SBSP,2022-06-25 05:00:00
1656136800000,METAR SBSP 250600Z AUTO 31001KT 7000 NCD 15/11 Q1022=,SBSP,2022-06-25 06:00:00
1656140400000,METAR SBSP 250700Z AUTO 18001KT 7000 NCD 15/11 Q1022=,SBSP,2022-06-25 07:00:00
1656144000000,METAR SBSP 250800Z AUTO 00000KT 5000 BR NCD 15/12 Q1022=,SBSP,2022-06-25 08:00:00
1656147600000,METAR SBSP 250900Z 01002KT 7000 NSC 15/12 Q1022=,SBSP,2022-06-25 09:00:00
1656151200000,METAR SBSP 251000Z 31003KT 260V010 CAVOK 15/11 Q1023=,SBSP,2022-06-25 10:00:00
1656154800000,METAR SBSP 251100Z 34003KT CAVOK 16/11 Q1023=,SBSP,2022-06-25 11:00:00
1656158400000,METAR SBSP 251200Z VRB02KT CAVOK 18/12 Q1024=,SBSP,2022-06-25 12:00:00
1656162000000,METAR SBSP 251300Z VRB01KT CAVOK 22/12 Q1024=,SBSP,2022-06-25 13:00:00
1656165600000,METAR SBSP 251400Z 18010KT CAVOK 22/12 Q1024=,SBSP,2022-06-25 14:00:00
1656169200000,METAR SBSP 251500Z 17012KT 9999 SCT009 SCT012 18/14 Q1025=,SBSP,2022-06-25 15:00:00
1656172800000,METAR SBSP 251600Z 17008KT 130V240 9999 FEW010 19/14 Q1024=,SBSP,2022-06-25 16:00:00
1656176400000,METAR SBSP 251700Z 19010KT 9999 SCT013 BKN015 19/14 Q1024=,SBSP,2022-06-25 17:00:00
1656180000000,METAR SBSP 251800Z 19010KT 9999 SCT011 OVC013 18/14 Q1023=,SBSP,2022-06-25 18:00:00
1656183600000,METAR SBSP 251900Z 19010KT 150V240 7000 SCT006 OVC009 17/13 Q1023=,SBSP,2022-06-25 19:00:00
1656187200000,METAR SBSP 252000Z 18011KT 9999 SCT007 OVC009 17/13 Q1024=,SBSP,2022-06-25 20:00:00
1656190800000,METAR SBSP 252100Z 19010KT 9999 SCT008 OVC010 17/13 Q1024=,SBSP,2022-06-25 21:00:00
1656194400000,METAR SBSP 252200Z 18012KT 9999 SCT007 OVC009 16/13 Q1025=,SBSP,2022-06-25 22:00:00
1656198000000,METAR SBSP 252300Z 19011KT 9999 SCT005 OVC008 15/13 Q1025=,SBSP,2022-06-25 23:00:00
1656115200000,METAR SBSV 250000Z 08009KT 9999 FEW020 25/20 Q1017=,SBSV,2022-06-25 00:00:00
1656118800000,METAR SBSV 250100Z 16007KT 120V180 9999 FEW019 SCT060 26/19 Q1017=,SBSV,2022-06-25 01:00:00
1656122400000,METAR SBSV 250200Z 20007KT 9999 FEW018 SCT056 24/18 Q1017=,SBSV,2022-06-25 02:00:00
1656126000000,METAR SBSV 250300Z 20003KT 9999 FEW018 SCT060 24/20 Q1017=,SBSV,2022-06-25 03:00:00
1656129600000,METAR SBSV 250400Z 24003KT 210V290 9999 FEW020 SCT080 24/21 Q1016=,SBSV,2022-06-25 04:00:00
1656133200000,METAR SBSV 250500Z 19006KT 160V230 9999 SCT041 24/21 Q1016=,SBSV,2022-06-25 05:00:00
1656136800000,METAR SBSV 250600Z 20003KT 160V230 9999 FEW029 24/21 Q1015=,SBSV,2022-06-25 06:00:00
1656140400000,METAR SBSV 250700Z 10008KT 2000 RA SCT018 23/22 Q1015=,SBSV,2022-06-25 07:00:00
1656140940000,SPECI SBSV 250709Z 09011KT 8000 -RA FEW006 SCT018 23/22 Q1015 RERA=,SBSV,2022-06-25 07:09:00
1656144000000,METAR SBSV 250800Z 14004KT 9999 FEW014 SCT034 24/20 Q1015 RERA=,SBSV,2022-06-25 08:00:00
1656147600000,METAR SBSV 250900Z 14007KT 9999 FEW016 BKN060 25/21 Q1016=,SBSV,2022-06-25 09:00:00
1656151200000,METAR SBSV 251000Z 14008KT 9999 SCT017 BKN060 26/22 Q1016=,SBSV,2022-06-25 10:00:00
1656154800000,METAR SBSV 251100Z 14008KT 9999 SCT020 BKN060 27/22 Q1017=,SBSV,2022-06-25 11:00:00
1656158400000,METAR SBSV 251200Z 15010KT 9999 SCT020 28/22 Q1017=,SBSV,2022-06-25 12:00:00
1656162000000,METAR SBSV 251300Z 11011KT 9999 SCT020 28/20 Q1017=,SBSV,2022-06-25 13:00:00
1656165600000,METAR SBSV 251400Z 11012KT 9999 SCT020 28/22 Q1017=,SBSV,2022-06-25 14:00:00
1656169200000,METAR SBSV 251500Z 12009KT 9999 SCT023 29/21 Q1016=,SBSV,2022-06-25 15:00:00
1656172800000,METAR SBSV 251600Z 14008KT 9999 SCT023 29/20 Q1015=,SBSV,2022-06-25 16:00:00
1656176400000,METAR SBSV 251700Z 15006KT 9999 SCT023 28/20 Q1014=,SBSV,2022-06-25 17:00:00
1656180000000,METAR SBSV 251800Z 13006KT 9999 SCT023 FEW025TCU 29/20 Q1014=,SBSV,2022-06-25 18:00:00
1656183600000,METAR SBSV 251900Z 14008KT 9999 SCT023 FEW025TCU 27/21 Q1014=,SBSV,2022-06-25 19:00:00
1656187200000,METAR SBSV 252000Z 14007KT 9999 FEW023 27/20 Q1014=,SBSV,2022-06-25 20:00:00
1656190800000,METAR SBSV 252100Z 15008KT 9999 FEW023 26/21 Q1015=,SBSV,2022-06-25 21:00:00
1656194400000,METAR SBSV 252200Z 15007KT 9999 FEW023 27/21 Q1015=,SBSV,2022-06-25 22:00:00
1656198000000,METAR SBSV 252300Z 15008KT 9999 FEW023 27/20 Q1015=,SBSV,2022-06-25 23:00:00
1656201600000,METAR SBBR 260000Z 16004KT 070V220 CAVOK 20/08 Q1021=,SBBR,2022-06-26 00:00:00
1656205200000,METAR SBBR 260100Z 27002KT CAVOK 16/08 Q1022=,SBBR,2022-06-26 01:00:00
1656208800000,METAR SBBR 260200Z VRB02KT CAVOK 15/08 Q1021=,SBBR,2022-06-26 02:00:00
1656212400000,METAR SBBR 260300Z 28002KT CAVOK 14/08 Q1021=,SBBR,2022-06-26 03:00:00
1656216000000,METAR SBBR 260400Z 19002KT CAVOK 15/09 Q1021=,SBBR,2022-06-26 04:00:00
1656219600000,METAR SBBR 260500Z 27003KT CAVOK 13/08 Q1020=,SBBR,2022-06-26 05:00:00
1656223200000,METAR SBBR 260600Z 00000KT CAVOK 12/08 Q1020=,SBBR,2022-06-26 06:00:00
1656226800000,METAR SBBR 260700Z 34001KT CAVOK 11/08 Q1019=,SBBR,2022-06-26 07:00:00
1656230400000,METAR SBBR 260800Z 25001KT CAVOK 10/08 Q1019=,SBBR,2022-06-26 08:00:00
1656234000000,METAR SBBR 260900Z VRB02KT CAVOK 11/08 Q1020=,SBBR,2022-06-26 09:00:00
1656237600000,METAR SBBR 261000Z 10001KT CAVOK 10/08 Q1021=,SBBR,2022-06-26 10:00:00
1656241200000,METAR SBBR 261100Z VRB02KT CAVOK 12/09 Q1021=,SBBR,2022-06-26 11:00:00
1656244800000,METAR SBBR 261200Z VRB01KT CAVOK 17/09 Q1022=,SBBR,2022-06-26 12:00:00
1656248400000,METAR SBBR 261300Z 08004KT 040V130 CAVOK 22/09 Q1022=,SBBR,2022-06-26 13:00:00
1656252000000,METAR SBBR 261400Z 10012KT CAVOK 23/09 Q1022=,SBBR,2022-06-26 14:00:00
1656255600000,METAR SBBR 261500Z 07008KT 040V110 CAVOK 24/09 Q1021=,SBBR,2022-06-26 15:00:00
1656259200000,METAR SBBR 261600Z 08005KT 010V140 CAVOK 25/09 Q1020=,SBBR,2022-06-26 16:00:00
1656262800000,METAR SBBR 261700Z 07005KT 350V130 CAVOK 25/09 Q1019=,SBBR,2022-06-26 17:00:00
1656266400000,METAR SBBR 261800Z VRB05KT CAVOK 26/09 Q1018=,SBBR,2022-06-26 18:00:00
1656270000000,METAR SBBR 261900Z 08005KT 020V130 CAVOK 26/09 Q1018=,SBBR,2022-06-26 19:00:00
1656273600000,METAR SBBR 262000Z 11007KT 070V160 CAVOK 26/09 Q1018=,SBBR,2022-06-26 20:00:00
1656277200000,METAR SBBR 262100Z 16008KT CAVOK 24/11 Q1019=,SBBR,2022-06-26 21:00:00
1656280800000,METAR SBBR 262200Z 14009KT CAVOK 22/10 Q1019=,SBBR,2022-06-26 22:00:00
1656284400000,METAR SBBR 262300Z 13007KT CAVOK 21/10 Q1020=,SBBR,2022-06-26 23:00:00
1656201600000,METAR SBCF 260000Z 10004KT CAVOK 21/10 Q1020=,SBCF,2022-06-26 00:00:00
1656205200000,METAR SBCF 260100Z 12005KT CAVOK 21/10 Q1021=,SBCF,2022-06-26 01:00:00
1656208800000,METAR SBCF 260200Z 12002KT CAVOK 18/10 Q1021=,SBCF,2022-06-26 02:00:00
1656212400000,METAR SBCF 260300Z 14005KT CAVOK 17/10 Q1021=,SBCF,2022-06-26 03:00:00
1656216000000,METAR SBCF 260400Z 14005KT CAVOK 16/10 Q1020=,SBCF,2022-06-26 04:00:00
1656219600000,METAR SBCF 260500Z 12005KT CAVOK 21/10 Q1020=,SBCF,2022-06-26 05:00:00
1656223200000,METAR SBCF 260600Z 10003KT CAVOK 16/10 Q1020=,SBCF,2022-06-26 06:00:00
1656226800000,METAR SBCF 260700Z 10003KT CAVOK 16/10 Q1019=,SBCF,2022-06-26 07:00:00
1656230400000,METAR SBCF 260800Z 14006KT CAVOK 15/10 Q1019=,SBCF,2022-06-26 08:00:00
1656234000000,METAR SBCF 260900Z 14006KT CAVOK 15/10 Q1019=,SBCF,2022-06-26 09:00:00
1656237600000,METAR SBCF 261000Z 11007KT CAVOK 14/10 Q1021=,SBCF,2022-06-26 10:00:00
1656241200000,METAR SBCF 261100Z 11007KT CAVOK 16/11 Q1022=,SBCF,2022-06-26 11:00:00
1656244800000,METAR SBCF 261200Z 15006KT 110V180 CAVOK 17/11 Q1023=,SBCF,2022-06-26 12:00:00
1656248400000,METAR SBCF 261300Z 09006KT 050V140 9999 FEW030 20/12 Q1023=,SBCF,2022-06-26 13:00:00
1656252000000,METAR SBCF 261400Z 11011KT 070V150 9999 SCT035 21/12 Q1023=,SBCF,2022-06-26 14:00:00
1656255600000,METAR SBCF 261500Z 06012KT 030V090 9999 SCT035 22/12 Q1022=,SBCF,2022-06-26 15:00:00
1656259200000,METAR SBCF 261600Z 09012KT 9999 SCT040 23/11 Q1021=,SBCF,2022-06-26 16:00:00
1656262800000,METAR SBCF 261700Z 03007KT 9999 SCT040 23/11 Q1020=,SBCF,2022-06-26 17:00:00
1656266400000,METAR SBCF 261800Z 07008KT 9999 SCT045 23/11 Q1020=,SBCF,2022-06-26 18:00:00
1656270000000,METAR SBCF 261900Z 07006KT 9999 FEW045 23/10 Q1019=,SBCF,2022-06-26 19:00:00
1656273600000,METAR SBCF 262000Z 06005KT 9999 FEW045 23/10 Q1019=,SBCF,2022-06-26 20:00:00
1656277200000,METAR SBCF 262100Z 09009KT 9999 FEW045 21/11 Q1020=,SBCF,2022-06-26 21:00:00
1656280800000,METAR SBCF 262200Z 08009KT 9999 FEW045 20/11 Q1021=,SBCF,2022-06-26 22:00:00
1656284400000,METAR SBCF 262300Z 09009KT 9999 FEW045 20/11 Q1021=,SBCF,2022-06-26 23:00:00
1656201600000,METAR SBCT 260000Z 12009KT 7000 BKN005 OVC009 12/12 Q1026=,SBCT,2022-06-26 00:00:00
1656205200000,METAR SBCT 260100Z 13011KT 5000 BR OVC005 11/11 Q1025=,SBCT,2022-06-26 01:00:00
1656208800000,METAR SBCT 260200Z 11008KT 9000 OVC004 11/11 Q1025=,SBCT,2022-06-26 02:00:00
1656212400000,METAR SBCT 260300Z 12009KT 6000 OVC004 11/11 Q1025=,SBCT,2022-06-26 03:00:00
1656216000000,METAR SBCT 260400Z 12008KT 9999 OVC006 11/11 Q1024=,SBCT,2022-06-26 04:00:00
1656219600000,METAR SBCT 260500Z 10007KT 9999 OVC006 11/11 Q1025=,SBCT,2022-06-26 05:00:00
1656223200000,METAR SBCT 260600Z 10007KT 9999 OVC006 11/10 Q1024=,SBCT,2022-06-26 06:00:00
1656226800000,METAR SBCT 260700Z 12006KT 9999 OVC004 10/10 Q1024=,SBCT,2022-06-26 07:00:00
1656230400000,METAR SBCT 260800Z 12005KT 9999 OVC004 10/10 Q1024=,SBCT,2022-06-26 08:00:00
1656234000000,METAR SBCT 260900Z 13007KT 9999 OVC004 10/10 Q1024=,SBCT,2022-06-26 09:00:00
1656237600000,METAR SBCT 261000Z 13007KT 8000 OVC003 09/09 Q1025=,SBCT,2022-06-26 10:00:00
1656241200000,METAR SBCT 261100Z 13006KT 5000 BR OVC003 10/10 Q1025=,SBCT,2022-06-26 11:00:00
1656244800000,METAR SBCT 261200Z 13006KT 8000 OVC003 10/10 Q1026=,SBCT,2022-06-26 12:00:00
1656248400000,METAR SBCT 261300Z 12007KT 9000 OVC004 11/10 Q1026=,SBCT,2022-06-26 13:00:00
1656252000000,METAR SBCT 261400Z 09005KT 050V130 9999 BKN005 OVC010 12/10 Q1026=,SBCT,2022-06-26 14:00:00
1656255600000,METAR SBCT 261500Z 04006KT 010V090 9999 OVC010 13/10 Q1025=,SBCT,2022-06-26 15:00:00
1656259200000,METAR SBCT 261600Z 06008KT 010V100 9999 BKN013 OVC020 14/09 Q1024=,SBCT,2022-06-26 16:00:00
1656262800000,METAR SBCT 261700Z 05006KT 340V100 9999 BKN013 OVC020 14/09 Q1024=,SBCT,2022-06-26 17:00:00
1656266400000,METAR SBCT 261800Z 07006KT 9999 BKN012 OVC019 13/10 Q1023=,SBCT,2022-06-26 18:00:00
1656270000000,METAR SBCT 261900Z 07005KT 9999 BKN012 OVC019 13/10 Q1023=,SBCT,2022-06-26 19:00:00
1656273600000,METAR SBCT 262000Z 08008KT 9999 BKN012 OVC019 12/10 Q1023=,SBCT,2022-06-26 20:00:00
1656277200000,METAR SBCT 262100Z 08004KT 9999 FEW008 SCT012 OVC019 12/10 Q1024=,SBCT,2022-06-26 21:00:00
1656280800000,METAR SBCT 262200Z 09005KT 9999 SCT007 BKN016 OVC019 12/10 Q1024=,SBCT,2022-06-26 22:00:00
1656284400000,METAR SBCT 262300Z 10005KT 9999 SCT007 OVC017 11/11 Q1025=,SBCT,2022-06-26 23:00:00
1656201600000,METAR SBFL 260000Z 17010KT 140V210 CAVOK 16/09 Q1024=,SBFL,2022-06-26 00:00:00
1656205200000,METAR SBFL 260100Z 17005KT CAVOK 16/10 Q1025=,SBFL,2022-06-26 01:00:00
1656208800000,METAR SBFL 260200Z 17006KT CAVOK 16/09 Q1025=,SBFL,2022-06-26 02:00:00
1656212400000,METAR SBFL 260300Z 17006KT CAVOK 16/09 Q1024=,SBFL,2022-06-26 03:00:00
1656216000000,METAR SBFL 260400Z 19012KT CAVOK 15/09 Q1024=,SBFL,2022-06-26 04:00:00
1656219600000,METAR SBFL 260500Z 19011KT CAVOK 15/09 Q1024=,SBFL,2022-06-26 05:00:00
1656223200000,METAR SBFL 260600Z 18010KT CAVOK 15/09 Q1024=,SBFL,2022-06-26 06:00:00
1656226800000,METAR SBFL 260700Z 17008KT CAVOK 15/09 Q1023=,SBFL,2022-06-26 07:00:00
1656230400000,METAR SBFL 260800Z 16009KT CAVOK 15/09 Q1024=,SBFL,2022-06-26 08:00:00
1656234000000,METAR SBFL 260900Z 19010KT 9999 FEW030 BKN050 15/10 Q1024=,SBFL,2022-06-26 09:00:00
1656237600000,METAR SBFL 261000Z 18008KT 9999 FEW030 BKN050 14/10 Q1024=,SBFL,2022-06-26 10:00:00
1656241200000,METAR SBFL 261100Z 19010KT 9999 FEW030 BKN050 15/10 Q1025=,SBFL,2022-06-26 11:00:00
1656244800000,METAR SBFL 261200Z 18009KT 9999 FEW030 BKN050 15/10 Q1015=,SBFL,2022-06-26 12:00:00
1656248400000,METAR SBFL 261300Z 20009KT 9999 FEW030 BKN050 16/10 Q1025=,SBFL,2022-06-26 13:00:00
1656252000000,METAR SBFL 261400Z 20008KT 9999 FEW030 BKN050 17/10 Q1025=,SBFL,2022-06-26 14:00:00
1656255600000,METAR SBFL 261500Z 21008KT 9999 FEW030 BKN080 18/10 Q1024=,SBFL,2022-06-26 15:00:00
1656259200000,METAR SBFL 261600Z 16008KT 9999 FEW030 BKN080 18/11 Q1024=,SBFL,2022-06-26 16:00:00
1656262800000,METAR SBFL 261700Z 14004KT 9999 FEW030 BKN080 19/11 Q1023=,SBFL,2022-06-26 17:00:00
1656266400000,METAR SBFL 261800Z 17005KT 9999 FEW030 SCT060 18/11 Q1022=,SBFL,2022-06-26 18:00:00
1656270000000,METAR SBFL 261900Z 12006KT 9999 BKN026 17/11 Q1022=,SBFL,2022-06-26 19:00:00
1656273600000,METAR SBFL 262000Z 09008KT 9999 BKN026 16/12 Q1023=,SBFL,2022-06-26 20:00:00
1656277200000,METAR SBFL 262100Z 09005KT 9999 BKN045 16/12 Q1023=,SBFL,2022-06-26 21:00:00
1656280800000,METAR SBFL 262200Z 09004KT 9999 BKN045 15/13 Q1024=,SBFL,2022-06-26 22:00:00
1656284400000,METAR SBFL 262300Z 08003KT 9999 BKN045 15/13 Q1024=,SBFL,2022-06-26 23:00:00
1656201600000,METAR SBGL 260000Z 31007KT 8000 OVC030 21/17 Q1021=,SBGL,2022-06-26 00:00:00
1656203100000,SPECI SBGL 260025Z 24008KT 4000 -RA BR SCT015 OVC030 21/18 Q1021=,SBGL,2022-06-26 00:25:00
1656205200000,METAR SBGL 260100Z 23005KT 4000 -RA BR FEW005 SCT015 OVC025 20/18 Q1021=,SBGL,2022-06-26 01:00:00
1656206100000,SPECI SBGL 260115Z 27002KT 6000 FEW005 SCT015 OVC020 20/18 Q1021=,SBGL,2022-06-26 01:15:00
1656208800000,METAR SBGL 260200Z 30004KT 6000 FEW005 SCT010 OVC018 20/18 Q1020=,SBGL,2022-06-26 02:00:00
1656210900000,SPECI SBGL 260235Z 25006KT 2500 -RA BR FEW005 BKN010 OVC018 20/19 Q1020=,SBGL,2022-06-26 02:35:00
1656212400000,METAR SBGL 260300Z 25003KT 4000 -RA BR FEW005 BKN010 OVC018 20/19 Q1020=,SBGL,2022-06-26 03:00:00
1656216000000,METAR SBGL 260400Z 22005KT 4000 -RA BR FEW005 BKN008 OVC018 20/18 Q1020=,SBGL,2022-06-26 04:00:00
1656219600000,METAR SBGL 260500Z 22002KT 8000 BKN012 OVC020 20/19 Q1019=,SBGL,2022-06-26 05:00:00
1656223200000,METAR SBGL 260600Z 00000KT 8000 SCT012 OVC040 20/17 Q1019=,SBGL,2022-06-26 06:00:00
1656226800000,METAR SBGL 260700Z 17002KT 8000 SCT012 OVC040 20/17 Q1019=,SBGL,2022-06-26 07:00:00
1656230400000,METAR SBGL 260800Z 14004KT 8000 SCT012 OVC040 20/16 Q1020=,SBGL,2022-06-26 08:00:00
1656234000000,METAR SBGL 260900Z 16004KT 8000 SCT012 OVC040 19/16 Q1020=,SBGL,2022-06-26 09:00:00
1656237600000,METAR SBGL 261000Z 18002KT 8000 SCT012 OVC040 20/15 Q1021=,SBGL,2022-06-26 10:00:00
1656241200000,METAR SBGL 261100Z 16005KT 3000 -RA BR SCT008 OVC030 19/16 Q1022=,SBGL,2022-06-26 11:00:00
1656242520000,SPECI SBGL 261122Z 12005KT 080V150 6000 SCT005 BKN030 OVC045 18/17 Q1022=,SBGL,2022-06-26 11:22:00
1656244800000,METAR SBGL 261200Z 22003KT 180V260 9999 SCT020 OVC035 19/17 Q1022=,SBGL,2022-06-26 12:00:00
1656248400000,METAR SBGL 261300Z 33004KT 300V360 9999 FEW007 SCT020 OVC060 20/18 Q1022=,SBGL,2022-06-26 13:00:00
1656252000000,METAR SBGL 261400Z 36004KT 330V030 8000 FEW005 BKN010 OVC050 19/17 Q1022=,SBGL,2022-06-26 14:00:00
1656252780000,SPECI SBGL 261413Z 35005KT 320V020 9999 FEW010 SCT020 BKN050 19/17 Q1022=,SBGL,2022-06-26 14:13:00
1656255600000,METAR SBGL 261500Z 35008KT 310V040 7000 -RA SCT009 OVC025 19/17 Q1022=,SBGL,2022-06-26 15:00:00
1656259200000,METAR SBGL 261600Z 33004KT 300V360 9999 SCT020 OVC050 19/16 Q1021=,SBGL,2022-06-26 16:00:00
1656262800000,METAR SBGL 261700Z 34004KT 9999 SCT025 OVC040 19/15 Q1021=,SBGL,2022-06-26 17:00:00
1656266400000,METAR SBGL 261800Z 35005KT 9999 SCT025 OVC040 19/16 Q1021=,SBGL,2022-06-26 18:00:00
1656270000000,METAR SBGL 261900Z 31004KT 9999 SCT025 OVC040 19/16 Q1021=,SBGL,2022-06-26 19:00:00
1656273600000,METAR SBGL 262000Z 32004KT 9999 FEW025 OVC040 19/16 Q1021=,SBGL,2022-06-26 20:00:00
1656277200000,METAR SBGL 262100Z 32003KT 9999 FEW025 OVC040 18/15 Q1021=,SBGL,2022-06-26 21:00:00
1656280800000,METAR SBGL 262200Z 29002KT 9999 FEW025 OVC040 19/16 Q1022=,SBGL,2022-06-26 22:00:00
1656284400000,METAR SBGL 262300Z 30002KT 9999 SCT018 OVC040 19/16 Q1022=,SBGL,2022-06-26 23:00:00
1656201600000,METAR SBGR 260000Z 17007KT 9999 OVC011 16/15 Q1025=,SBGR,2022-06-26 00:00:00
1656205200000,METAR SBGR 260100Z 17003KT 9999 OVC011 16/15 Q1025=,SBGR,2022-06-26 01:00:00
1656208800000,METAR SBGR 260200Z 18003KT 9999 OVC011 16/16 Q1024=,SBGR,2022-06-26 02:00:00
1656212400000,METAR SBGR 260300Z 16005KT 9999 OVC011 16/15 Q1024=,SBGR,2022-06-26 03:00:00
1656216000000,METAR SBGR 260400Z 14004KT 9999 OVC011 16/15 Q1024=,SBGR,2022-06-26 04:00:00
1656218100000,SPECI SBGR 260435Z 13003KT 5000 -RA BR BKN005 OVC011 15/15 Q1024=,SBGR,2022-06-26 04:35:00
1656219600000,METAR SBGR 260500Z 10006KT 7000 -RA BKN006 OVC010 15/15 Q1023=,SBGR,2022-06-26 05:00:00
1656223200000,METAR SBGR 260600Z 14004KT 9999 BKN010 OVC013 15/15 Q1023=,SBGR,2022-06-26 06:00:00
1656226800000,METAR SBGR 260700Z 14004KT 9999 OVC010 14/14 Q1023=,SBGR,2022-06-26 07:00:00
1656230400000,METAR SBGR 260800Z 11004KT 9999 OVC009 14/14 Q1023=,SBGR,2022-06-26 08:00:00
1656234000000,METAR SBGR 260900Z 12004KT 9999 OVC008 14/14 Q1023=,SBGR,2022-06-26 09:00:00
1656237600000,METAR SBGR 261000Z 09003KT 9999 BKN010 OVC015 14/14 Q1023=,SBGR,2022-06-26 10:00:00
1656241200000,METAR SBGR 261100Z 11005KT 9999 SCT009 BKN015 OVC023 14/14 Q1024=,SBGR,2022-06-26 11:00:00
1656244800000,METAR SBGR 261200Z 11005KT 9999 SCT013 BKN023 15/14 Q1025=,SBGR,2022-06-26 12:00:00
1656248400000,METAR SBGR 261300Z 12004KT 9999 BKN017 16/14 Q1025=,SBGR,2022-06-26 13:00:00
1656252000000,METAR SBGR 261400Z 13005KT 9999 BKN023 17/12 Q1025=,SBGR,2022-06-26 14:00:00
1656255600000,METAR SBGR 261500Z 12003KT 9999 SCT019 BKN040 17/13 Q1024=,SBGR,2022-06-26 15:00:00
1656259200000,METAR SBGR 261600Z 11004KT 9999 BKN023 17/13 Q1023=,SBGR,2022-06-26 16:00:00
1656262800000,METAR SBGR 261700Z 13006KT 9999 BKN030 16/15 Q1022=,SBGR,2022-06-26 17:00:00
1656266400000,METAR SBGR 261800Z 13004KT 9999 BKN013 BKN030 16/15 Q1022=,SBGR,2022-06-26 18:00:00
1656270000000,METAR SBGR 261900Z 11006KT 9999 BKN011 BKN023 16/15 Q1022=,SBGR,2022-06-26 19:00:00
1656273600000,METAR SBGR 262000Z 14009KT 9999 BKN012 BKN031 16/13 Q1022=,SBGR,2022-06-26 20:00:00
1656277200000,METAR SBGR 262100Z 13007KT 090V160 9999 BKN013 BKN033 15/13 Q1023=,SBGR,2022-06-26 21:00:00
1656280800000,METAR SBGR 262200Z 14008KT 110V180 9999 BKN009 BKN035 14/14 Q1023=,SBGR,2022-06-26 22:00:00
1656284400000,METAR SBGR 262300Z 13007KT 100V170 9999 BKN011 BKN033 14/13 Q1024=,SBGR,2022-06-26 23:00:00
1656201600000,METAR SBKP 260000Z 14014KT 9999 FEW020 18/14 Q1023=,SBKP,2022-06-26 00:00:00
1656205200000,METAR SBKP 260100Z 13013KT 9999 FEW020 17/14 Q1023=,SBKP,2022-06-26 01:00:00
1656208800000,METAR SBKP 260200Z 15013KT 9999 FEW021 17/13 Q1023=,SBKP,2022-06-26 02:00:00
1656212400000,METAR SBKP 260300Z 15012KT 9999 FEW020 17/13 Q1023=,SBKP,2022-06-26 03:00:00
1656216000000,METAR SBKP 260400Z 15010KT 9999 BKN020 17/13 Q1022=,SBKP,2022-06-26 04:00:00
1656219600000,METAR SBKP 260500Z 14007KT CAVOK 16/13 Q1022=,SBKP,2022-06-26 05:00:00
1656223200000,METAR SBKP 260600Z 18006KT 9999 BKN017 16/13 Q1021=,SBKP,2022-06-26 06:00:00
1656226800000,METAR SBKP 260700Z 15014KT 9999 FEW017 BKN020 17/13 Q1021=,SBKP,2022-06-26 07:00:00
1656230400000,METAR SBKP 260800Z 15007KT 9999 FEW020 16/13 Q1021=,SBKP,2022-06-26 08:00:00
1656234000000,METAR SBKP 260900Z 14011KT 9999 FEW017 BKN019 16/13 Q1022=,SBKP,2022-06-26 09:00:00
1656237600000,METAR SBKP 261000Z 13009KT 9999 FEW020 15/12 Q1022=,SBKP,2022-06-26 10:00:00
1656241200000,METAR SBKP 261100Z 13010KT 9999 BKN023 16/13 Q1023=,SBKP,2022-06-26 11:00:00
1656244800000,METAR SBKP 261200Z 13011KT 9999 BKN030 17/13 Q1024=,SBKP,2022-06-26 12:00:00
1656248400000,METAR SBKP 261300Z 13011KT 9999 BKN025 18/12 Q1024=,SBKP,2022-06-26 13:00:00
1656252000000,METAR SBKP 261400Z 14011KT 9999 SCT025 19/12 Q1024=,SBKP,2022-06-26 14:00:00
1656255600000,METAR SBKP 261500Z 13011KT 9999 SCT033 20/11 Q1023=,SBKP,2022-06-26 15:00:00
1656259200000,METAR SBKP 261600Z 11010KT 9999 SCT040 21/11 Q1022=,SBKP,2022-06-26 16:00:00
1656262800000,METAR SBKP 261700Z 13012KT 9999 SCT040 21/11 Q1021=,SBKP,2022-06-26 17:00:00
1656266400000,METAR SBKP 261800Z 14010KT 9999 SCT040 21/11 Q1020=,SBKP,2022-06-26 18:00:00
1656270000000,METAR SBKP 261900Z 14012KT 9999 SCT040 21/12 Q1020=,SBKP,2022-06-26 19:00:00
1656273600000,METAR SBKP 262000Z 14014KT 9999 FEW033 20/11 Q1020=,SBKP,2022-06-26 20:00:00
1656277200000,METAR SBKP 262100Z 13010KT 9999 FEW030 18/12 Q1021=,SBKP,2022-06-26 21:00:00
1656280800000,METAR SBKP 262200Z 13010KT CAVOK 17/12 Q1021=,SBKP,2022-06-26 22:00:00
1656284400000,METAR SBKP 262300Z 14014KT CAVOK 16/12 Q1022=,SBKP,2022-06-26 23:00:00
1656201600000,METAR SBPA 260000Z 19006KT 160V230 9999 FEW030 BKN040 12/09 Q1028=,SBPA,2022-06-26 00:00:00
1656205200000,METAR SBPA 260100Z 22003KT 180V270 9999 BKN040 11/09 Q1028=,SBPA,2022-06-26 01:00:00
1656208800000,METAR SBPA 260200Z VRB01KT 9999 FEW015 10/09 Q1028=,SBPA,2022-06-26 02:00:00
1656212400000,METAR SBPA 260300Z VRB01KT CAVOK 09/08 Q1027=,SBPA,2022-06-26 03:00:00
1656216000000,METAR SBPA 260400Z 00000KT 9999 FEW030 09/08 Q1027=,SBPA,2022-06-26 04:00:00
1656219600000,METAR SBPA 260500Z VRB02KT 9999 BKN030 10/08 Q1026=,SBPA,2022-06-26 05:00:00
1656223200000,METAR SBPA 260600Z 16003KT 100V200 9999 BKN035 09/08 Q1026=,SBPA,2022-06-26 06:00:00
1656226800000,METAR SBPA 260700Z VRB01KT 9999 BKN032 10/08 Q1026=,SBPA,2022-06-26 07:00:00
1656230400000,METAR SBPA 260800Z VRB02KT 9999 BKN032 10/08 Q1026=,SBPA,2022-06-26 08:00:00
1656234000000,METAR SBPA 260900Z VRB02KT 9999 BKN030 10/08 Q1026=,SBPA,2022-06-26 09:00:00
1656237600000,METAR SBPA 261000Z 13004KT 9999 BKN030 09/08 Q1027=,SBPA,2022-06-26 10:00:00
1656241200000,METAR SBPA 261100Z 17004KT 110V210 9999 BKN035 08/07 Q1027=,SBPA,2022-06-26 11:00:00
1656244800000,METAR SBPA 261200Z 19005KT 9999 BKN033 10/08 Q1026=,SBPA,2022-06-26 12:00:00
1656248400000,METAR SBPA 261300Z VRB02KT 9999 BKN033 11/08 Q1027=,SBPA,2022-06-26 13:00:00
1656252000000,METAR SBPA 261400Z 07005KT 9999 SCT017 SCT033 13/09 Q1026=,SBPA,2022-06-26 14:00:00
1656255600000,METAR SBPA 261500Z 11006KT 080V150 9999 FEW017 BKN033 13/09 Q1025=,SBPA,2022-06-26 15:00:00
1656259200000,METAR SBPA 261600Z 10007KT 9999 FEW020 BKN033 14/09 Q1024=,SBPA,2022-06-26 16:00:00
1656262800000,METAR SBPA 261700Z 08007KT 060V120 9999 FEW020 BKN033 14/09 Q1023=,SBPA,2022-06-26 17:00:00
1656266400000,METAR SBPA 261800Z 11007KT 9999 FEW020 OVC033 14/09 Q1022=,SBPA,2022-06-26 18:00:00
1656270000000,METAR SBPA 261900Z 12007KT 090V150 9999 FEW020 BKN033 14/09 Q1022=,SBPA,2022-06-26 19:00:00
1656273600000,METAR SBPA 262000Z 14006KT 9999 BKN036 14/09 Q1023=,SBPA,2022-06-26 20:00:00
1656277200000,METAR SBPA 262100Z 14005KT 9999 SCT036 13/09 Q1022=,SBPA,2022-06-26 21:00:00
1656280800000,METAR SBPA 262200Z VRB01KT CAVOK 11/09 Q1023=,SBPA,2022-06-26 22:00:00
1656284400000,METAR SBPA 262300Z 00000KT CAVOK 11/10 Q1023=,SBPA,2022-06-26 23:00:00
1656201600000,METAR SBRF 260000Z 20006KT CAVOK 24/22 Q1014=,SBRF,2022-06-26 00:00:00
1656205200000,METAR SBRF 260100Z VRB02KT 9999 FEW025 24/22 Q1014=,SBRF,2022-06-26 01:00:00
1656208800000,METAR SBRF 260200Z 22003KT 170V260 9999 FEW025 23/22 Q1014=,SBRF,2022-06-26 02:00:00
1656212400000,METAR SBRF 260300Z 20004KT 9000 VCSH SCT020 23/22 Q1013=,SBRF,2022-06-26 03:00:00
1656216000000,METAR SBRF 260400Z 22005KT 180V250 9999 SCT020 23/22 Q1013=,SBRF,2022-06-26 04:00:00
1656219600000,METAR SBRF 260500Z 23004KT 190V260 9000 VCSH SCT020 23/22 Q1013=,SBRF,2022-06-26 05:00:00
1656223200000,METAR SBRF 260600Z 24004KT 9999 SCT020 22/21 Q1012=,SBRF,2022-06-26 06:00:00
1656226800000,METAR SBRF 260700Z 24004KT 9999 FEW020 22/21 Q1012=,SBRF,2022-06-26 07:00:00
1656230400000,METAR SBRF 260800Z 23003KT 9999 FEW020 22/21 Q1013=,SBRF,2022-06-26 08:00:00
1656234000000,METAR SBRF 260900Z 23003KT 9999 FEW020 22/21 Q1013=,SBRF,2022-06-26 09:00:00
1656237600000,METAR SBRF 261000Z 22004KT 9999 FEW020 24/21 Q1014=,SBRF,2022-06-26 10:00:00
1656241200000,METAR SBRF 261100Z 20007KT 9999 FEW023 25/22 Q1014=,SBRF,2022-06-26 11:00:00
1656244800000,METAR SBRF 261200Z 22007KT 9999 FEW023 27/22 Q1014=,SBRF,2022-06-26 12:00:00
1656248400000,METAR SBRF 261300Z 19009KT 9999 SCT024 27/22 Q1014=,SBRF,2022-06-26 13:00:00
1656252000000,METAR SBRF 261400Z 16009KT 9999 SCT024 27/21 Q1014=,SBRF,2022-06-26 14:00:00
1656255600000,METAR SBRF 261500Z 15015KT 9999 SCT024 27/23 Q1013=,SBRF,2022-06-26 15:00:00
1656259200000,METAR SBRF 261600Z 17012KT 9999 FEW023 BKN040 27/23 Q1012=,SBRF,2022-06-26 16:00:00
1656262800000,METAR SBRF 261700Z 18011KT 9999 SCT018 BKN040 26/23 Q1012=,SBRF,2022-06-26 17:00:00
1656266400000,METAR SBRF 261800Z 20007KT 170V230 9999 SCT017 27/23 Q1012=,SBRF,2022-06-26 18:00:00
1656270000000,METAR SBRF 261900Z 18014KT 9999 FEW020 26/23 Q1012=,SBRF,2022-06-26 19:00:00
1656273600000,METAR SBRF 262000Z 21006KT 9999 SCT020 25/22 Q1012=,SBRF,2022-06-26 20:00:00
1656277200000,METAR SBRF 262100Z 20008KT 8000 VCSH SCT020 BKN050 25/22 Q1012=,SBRF,2022-06-26 21:00:00
1656280800000,METAR SBRF 262200Z 20008KT 9999 FEW020 24/21 Q1013=,SBRF,2022-06-26 22:00:00
1656284400000,METAR SBRF 262300Z 21006KT 9999 SCT025 24/21 Q1013=,SBRF,2022-06-26 23:00:00
1656201600000,METAR SBRJ 260000Z 25006KT 230V290 9000 -RA SCT018 OVC030 22/18 Q1020=,SBRJ,2022-06-26 00:00:00
1656205200000,METAR SBRJ 260100Z 27004KT 220V360 9000 -RA FEW013 BKN018 OVC030 21/19 Q1020=,SBRJ,2022-06-26 01:00:00
1656208800000,METAR SBRJ 260200Z 28004KT 250V320 8000 -RA FEW013 BKN018 OVC030 21/19 Q1020=,SBRJ,2022-06-26 02:00:00
1656233400000,SPECI SBRJ 260850Z 17012KT 6000 BKN018 OVC040 21/16 Q1020=,SBRJ,2022-06-26 08:50:00
1656234000000,METAR SBRJ 260900Z 16011KT 140V200 6000 BKN018 OVC040 21/16 Q1020=,SBRJ,2022-06-26 09:00:00
1656237600000,METAR SBRJ 261000Z 15012KT 6000 -RA FEW007 BKN018 OVC040 20/17 Q1020=,SBRJ,2022-06-26 10:00:00
1656241200000,METAR SBRJ 261100Z 17011KT 6000 FEW007 BKN018 OVC040 20/17 Q1021=,SBRJ,2022-06-26 11:00:00
1656244800000,METAR SBRJ 261200Z 18008KT 140V200 6000 FEW007 BKN018 OVC040 21/16 Q1022=,SBRJ,2022-06-26 12:00:00
1656248400000,METAR SBRJ 261300Z 15009KT 8000 FEW007 BKN018 OVC040 21/16 Q1022=,SBRJ,2022-06-26 13:00:00
1656252000000,METAR SBRJ 261400Z 17008KT 8000 FEW008 BKN020 BKN040 21/16 Q1022=,SBRJ,2022-06-26 14:00:00
1656255600000,METAR SBRJ 261500Z 16005KT 100V190 8000 FEW008 BKN020 BKN040 20/16 Q1021=,SBRJ,2022-06-26 15:00:00
1656259200000,METAR SBRJ 261600Z 12005KT 100V160 8000 -RA BKN020 BKN040 21/16 Q1021=,SBRJ,2022-06-26 16:00:00
1656262800000,METAR SBRJ 261700Z 16009KT 8000 BKN020 BKN040 21/15 Q1020=,SBRJ,2022-06-26 17:00:00
1656266400000,METAR SBRJ 261800Z 17008KT 9999 BKN035 21/15 Q1020=,SBRJ,2022-06-26 18:00:00
1656270000000,METAR SBRJ 261900Z 16008KT 9999 FEW020 BKN035 21/14 Q1020=,SBRJ,2022-06-26 19:00:00
1656273600000,METAR SBRJ 262000Z 15007KT 120V180 9999 FEW020 BKN040 20/14 Q1020=,SBRJ,2022-06-26 20:00:00
1656277200000,METAR SBRJ 262100Z 13004KT 090V180 9999 FEW020 BKN040 20/14 Q1021=,SBRJ,2022-06-26 21:00:00
1656280800000,METAR SBRJ 262200Z 16010KT 8000 -RA SCT020 OVC040 19/15 Q1021=,SBRJ,2022-06-26 22:00:00
1656284400000,METAR SBRJ 262300Z 13008KT 9999 FEW020 OVC040 20/16 Q1022=,SBRJ,2022-06-26 23:00:00
1656201600000,METAR SBSP 260000Z 19010KT 9999 OVC007 16/13 Q1025=,SBSP,2022-06-26 00:00:00
1656205200000,METAR SBSP 260100Z 18010KT 9999 SCT005 OVC008 15/13 Q1025=,SBSP,2022-06-26 01:00:00
1656208800000,METAR SBSP 260200Z 18009KT 9999 SCT004 OVC007 15/13 Q1025=,SBSP,2022-06-26 02:00:00
1656208860000,SPECI COR SBSP 260201Z AUTO 18009KT 4700 BR OVC004 15/13 Q1025=,SBSP,2022-06-26 02:01:00
1656209520000,SPECI SBSP 260212Z AUTO 18009KT 4000 BR SCT003 OVC006 15/13 Q1025=,SBSP,2022-06-26 02:12:00
1656210300000,SPECI SBSP 260225Z AUTO 18008KT 2700 BR SCT002 OVC005 15/13 Q1025=,SBSP,2022-06-26 02:25:00
1656210420000,SPECI SBSP 260227Z AUTO 18008KT 2600 BR SCT002 OVC004 15/13 Q1025=,SBSP,2022-06-26 02:27:00
1656212400000,METAR SBSP 260300Z AUTO 17008KT 3200 -DZ BR OVC002 15/13 Q1024=,SBSP,2022-06-26 03:00:00
1656216000000,METAR SBSP 260400Z AUTO 15010KT 4700 BR OVC005 15/13 Q1024=,SBSP,2022-06-26 04:00:00
1656218760000,SPECI SBSP 260446Z AUTO 14009KT 4500 BR BKN004 OVC010 14/13 Q1024=,SBSP,2022-06-26 04:46:00
1656219600000,METAR SBSP 260500Z AUTO 14009KT 4400 BR BKN004 OVC011 14/12 Q1024=,SBSP,2022-06-26 05:00:00
1656219900000,SPECI SBSP 260505Z AUTO 15008KT 4100 BR SCT003 OVC005 14/12 Q1024=,SBSP,2022-06-26 05:05:00
1656221040000,SPECI SBSP 260524Z AUTO 14007KT 5000 BR SCT004 BKN006 OVC010 14/13 Q1023=,SBSP,2022-06-26 05:24:00
1656221280000,SPECI SBSP 260528Z AUTO 13007KT 4700 BR SCT004 OVC006 14/13 Q1023=,SBSP,2022-06-26 05:28:00
1656222960000,SPECI SBSP 260556Z AUTO 13006KT 3500 -RA BKN002 BKN007 OVC013 14/12 Q1023=,SBSP,2022-06-26 05:56:00
1656223200000,METAR SBSP 260600Z AUTO 13006KT 3500 -RA BKN002 BKN007 OVC013 14/12 Q1023=,SBSP,2022-06-26 06:00:00
1656223500000,SPECI SBSP 260605Z AUTO 12006KT 2900 -RA BR SCT002 BKN005 OVC012 14/12 Q1023=,SBSP,2022-06-26 06:05:00
1656224280000,SPECI SBSP 260618Z AUTO 13006KT 3900 -RA SCT002 BKN005 OVC013 14/12 Q1023=,SBSP,2022-06-26 06:18:00
1656225420000,SPECI SBSP 260637Z AUTO 13007KT 3600 BR FEW002 BKN005 OVC015 14/12 Q1023=,SBSP,2022-06-26 06:37:00
1656226020000,SPECI SBSP 260647Z AUTO 13006KT 3600 BR SCT003 SCT006 OVC015 14/12 Q1023=,SBSP,2022-06-26 06:47:00
1656226800000,METAR SBSP 260700Z AUTO 13006KT 3700 BR SCT003 OVC016 14/12 Q1023=,SBSP,2022-06-26 07:00:00
1656226920000,SPECI SBSP 260702Z AUTO 13005KT 4000 BR SCT002 BKN005 OVC015 14/12 Q1023=,SBSP,2022-06-26 07:02:00
1656227340000,SPECI SBSP 260709Z AUTO 13005KT 3800 BR BKN002 BKN012 OVC016 14/12 Q1023=,SBSP,2022-06-26 07:09:00
1656228000000,SPECI SBSP 260720Z AUTO 13006KT 4000 BR SCT002 OVC012 14/12 Q1023=,SBSP,2022-06-26 07:20:00
1656228540000,SPECI SBSP 260729Z AUTO 13005KT 090V150 4200 BR SCT002 BKN005 OVC013 14/12 Q1023=,SBSP,2022-06-26 07:29:00
1656228840000,SPECI SBSP 260734Z AUTO 13005KT 090V150 4500 BR SCT002 BKN004 OVC013 14/12 Q1023=,SBSP,2022-06-26 07:34:00
1656229500000,SPECI SBSP 260745Z AUTO 11004KT 4100 BR SCT002 BKN005 OVC011 14/12 Q1023=,SBSP,2022-06-26 07:45:00
1656230400000,METAR SBSP 260800Z AUTO 14004KT 110V200 4300 BR SCT002 BKN005 OVC011 14/12 Q1023=,SBSP,2022-06-26 08:00:00
1656232020000,SPECI SBSP 260827Z AUTO 15008KT 5000 BR SCT003 BKN005 OVC011 14/12 Q1023=,SBSP,2022-06-26 08:27:00
1656232140000,SPECI SBSP 260829Z AUTO 15008KT 5000 BR SCT003 BKN005 OVC009 14/12 Q1023=,SBSP,2022-06-26 08:29:00
1656232200000,SPECI SBSP 260830Z AUTO 15008KT 4700 BR SCT003 BKN005 OVC007 14/12 Q1023=,SBSP,2022-06-26 08:30:00
1656234000000,METAR SBSP 260900Z 15008KT 6000 SCT004 BKN009 14/12 Q1024=,SBSP,2022-06-26 09:00:00
1656237600000,METAR SBSP 261000Z 16009KT 9999 SCT007 BKN008 14/12 Q1024=,SBSP,2022-06-26 10:00:00
1656241200000,METAR SBSP 261100Z 14010KT 9999 SCT005 BKN011 14/12 Q1025=,SBSP,2022-06-26 11:00:00
1656244800000,METAR SBSP 261200Z 14008KT 9999 FEW008 BKN009 15/12 Q1025=,SBSP,2022-06-26 12:00:00
1656248400000,METAR SBSP 261300Z 14007KT 100V170 9999 SCT011 BKN013 16/13 Q1026=,SBSP,2022-06-26 13:00:00
1656252000000,METAR COR SBSP 261400Z 15008KT 9999 -DZ SCT008 BKN013 16/12 Q1026=,SBSP,2022-06-26 14:00:00
1656255600000,METAR SBSP 261500Z 15008KT 9999 SCT013 BKN033 16/12 Q1025=,SBSP,2022-06-26 15:00:00
1656259200000,METAR SBSP 261600Z 15010KT 9999 FEW021 BKN026 17/12 Q1024=,SBSP,2022-06-26 16:00:00
1656262800000,METAR SBSP 261700Z 14009KT 9999 FEW015 SCT021 BKN026 17/11 Q1023=,SBSP,2022-06-26 17:00:00
1656266400000,METAR SBSP 261800Z 15011KT 9999 FEW015 BKN019 17/11 Q1023=,SBSP,2022-06-26 18:00:00
1656270000000,METAR SBSP 261900Z 16013KT 9999 FEW015 BKN017 15/11 Q1023=,SBSP,2022-06-26 19:00:00
1656273600000,METAR SBSP 262000Z 16011KT 9999 FEW008 BKN011 14/11 Q1023=,SBSP,2022-06-26 20:00:00
1656277200000,METAR SBSP 262100Z 14009KT 9999 SCT007 BKN011 14/11 Q1023=,SBSP,2022-06-26 21:00:00
1656280800000,METAR SBSP 262200Z 15009KT 9999 SCT008 BKN011 14/11 Q1024=,SBSP,2022-06-26 22:00:00
1656284400000,METAR SBSP 262300Z 13008KT 9999 FEW009 BKN013 14/11 Q1024=,SBSP,2022-06-26 23:00:00
1656286920000,SPECI SBSP 262342Z 13009KT 8000 BKN008 14/11 Q1025=,SBSP,2022-06-26 23:42:00
1656201600000,METAR SBSV 260000Z 14008KT 9999 FEW023 27/20 Q1016=,SBSV,2022-06-26 00:00:00
1656205200000,METAR SBSV 260100Z 15007KT 9999 FEW023 26/20 Q1016=,SBSV,2022-06-26 01:00:00
1656208800000,METAR SBSV 260200Z 14008KT 9999 FEW023 26/20 Q1016=,SBSV,2022-06-26 02:00:00
1656212400000,METAR SBSV 260300Z 15009KT 9999 FEW023 26/20 Q1016=,SBSV,2022-06-26 03:00:00
1656216000000,METAR SBSV 260400Z 15009KT 9999 FEW023 26/19 Q1015=,SBSV,2022-06-26 04:00:00
1656219600000,METAR SBSV 260500Z 15009KT 9999 FEW023 26/20 Q1015=,SBSV,2022-06-26 05:00:00
1656223200000,METAR SBSV 260600Z 15008KT 9999 FEW023 26/19 Q1014=,SBSV,2022-06-26 06:00:00
1656226800000,METAR SBSV 260700Z 16008KT CAVOK 26/19 Q1014=,SBSV,2022-06-26 07:00:00
1656230400000,METAR SBSV 260800Z 16009KT CAVOK 26/20 Q1014=,SBSV,2022-06-26 08:00:00
1656234000000,METAR SBSV 260900Z 16006KT CAVOK 26/20 Q1015=,SBSV,2022-06-26 09:00:00
1656237600000,METAR SBSV 261000Z 17009KT 9999 FEW020 26/20 Q1015=,SBSV,2022-06-26 10:00:00
1656241200000,METAR SBSV 261100Z 16010KT 9999 FEW020 27/19 Q1016=,SBSV,2022-06-26 11:00:00
1656244800000,METAR SBSV 261200Z 16010KT 9999 FEW020 28/19 Q1016=,SBSV,2022-06-26 12:00:00
1656248400000,METAR SBSV 261300Z 17012KT 9999 FEW020 28/19 Q1017=,SBSV,2022-06-26 13:00:00
1656252000000,METAR SBSV 261400Z 17013KT 9999 FEW020 28/19 Q1017=,SBSV,2022-06-26 14:00:00
1656255600000,METAR SBSV 261500Z 17012KT 9999 FEW020 29/19 Q1016=,SBSV,2022-06-26 15:00:00
1656259200000,METAR SBSV 261600Z 16013KT 9999 FEW020 29/19 Q1015=,SBSV,2022-06-26 16:00:00
1656262800000,METAR SBSV 261700Z 17011KT 9999 SCT026 28/19 Q1015=,SBSV,2022-06-26 17:00:00
1656266400000,METAR SBSV 261800Z 16013KT 130V190 9999 SCT026 28/20 Q1014=,SBSV,2022-06-26 18:00:00
1656270000000,METAR SBSV 261900Z 16010KT 9999 SCT030 27/19 Q1014=,SBSV,2022-06-26 19:00:00
1656273600000,METAR SBSV 262000Z 15010KT 9999 SCT030 27/19 Q1015=,SBSV,2022-06-26 20:00:00
1656277200000,METAR SBSV 262100Z 15008KT 9999 FEW030 27/19 Q1015=,SBSV,2022-06-26 21:00:00
1656280800000,METAR SBSV 262200Z 15010KT 9999 FEW026 27/20 Q1015=,SBSV,2022-06-26 22:00:00
1656284400000,METAR SBSV 262300Z 15011KT 9999 FEW026 27/19 Q1016=,SBSV,2022-06-26 23:00:00
1656288000000,METAR SBBR 270000Z 12004KT 050V140 CAVOK 20/11 Q1021=,SBBR,2022-06-27 00:00:00
1656291600000,METAR SBBR 270100Z 13006KT CAVOK 19/11 Q1021=,SBBR,2022-06-27 01:00:00
1656295200000,METAR SBBR 270200Z VRB02KT CAVOK 16/10 Q1021=,SBBR,2022-06-27 02:00:00
1656298800000,METAR SBBR 270300Z 33002KT CAVOK 14/10 Q1021=,SBBR,2022-06-27 03:00:00
1656302400000,METAR SBBR 270400Z 00000KT CAVOK 14/10 Q1021=,SBBR,2022-06-27 04:00:00
1656306000000,METAR SBBR 270500Z 00000KT CAVOK 13/10 Q1020=,SBBR,2022-06-27 05:00:00
1656309600000,METAR SBBR 270600Z 24001KT CAVOK 12/10 Q1020=,SBBR,2022-06-27 06:00:00
1656313200000,METAR SBBR 270700Z VRB02KT CAVOK 12/10 Q1020=,SBBR,2022-06-27 07:00:00
1656316800000,METAR SBBR 270800Z 00000KT CAVOK 12/10 Q1020=,SBBR,2022-06-27 08:00:00
1656320400000,METAR SBBR 270900Z 30002KT CAVOK 11/09 Q1021=,SBBR,2022-06-27 09:00:00
1656324000000,METAR SBBR 271000Z 28003KT CAVOK 12/09 Q1021=,SBBR,2022-06-27 10:00:00
1656327600000,METAR SBBR 271100Z VRB02KT CAVOK 16/11 Q1022=,SBBR,2022-06-27 11:00:00
1656331200000,METAR SBBR 271200Z 08006KT 360V130 CAVOK 19/11 Q1023=,SBBR,2022-06-27 12:00:00
1656334800000,METAR SBBR 271300Z 09011KT CAVOK 21/11 Q1023=,SBBR,2022-06-27 13:00:00
1656338400000,METAR SBBR 271400Z 09011KT 050V120 CAVOK 22/11 Q1023=,SBBR,2022-06-27 14:00:00
1656342000000,METAR SBBR 271500Z 10009KT 060V140 CAVOK 23/10 Q1022=,SBBR,2022-06-27 15:00:00
1656345600000,METAR SBBR 271600Z 12007KT 070V140 CAVOK 24/09 Q1021=,SBBR,2022-06-27 16:00:00
1656349200000,METAR SBBR 271700Z 09007KT 040V170 CAVOK 25/10 Q1020=,SBBR,2022-06-27 17:00:00
1656352800000,METAR SBBR 271800Z 11010KT 090V150 CAVOK 25/09 Q1020=,SBBR,2022-06-27 18:00:00
1656356400000,METAR SBBR 271900Z 12008KT CAVOK 25/08 Q1019=,SBBR,2022-06-27 19:00:00
1656360000000,METAR SBBR 272000Z 10009KT 060V120 CAVOK 25/10 Q1020=,SBBR,2022-06-27 20:00:00
1656363600000,METAR SBBR 272100Z 12007KT 100V160 CAVOK 23/10 Q1020=,SBBR,2022-06-27 21:00:00
1656367200000,METAR SBBR 272200Z 13009KT CAVOK 21/10 Q1021=,SBBR,2022-06-27 22:00:00
1656370800000,METAR SBBR 272300Z 12007KT CAVOK 20/10 Q1021=,SBBR,2022-06-27 23:00:00
1656288000000,METAR SBCF 270000Z 06006KT 9999 FEW045 18/11 Q1022=,SBCF,2022-06-27 00:00:00
1656291600000,METAR SBCF 270100Z 11006KT 9999 FEW048 18/11 Q1022=,SBCF,2022-06-27 01:00:00
1656295200000,METAR SBCF 270200Z 11006KT CAVOK 17/12 Q1022=,SBCF,2022-06-27 02:00:00
1656298800000,METAR SBCF 270300Z 12008KT CAVOK 16/12 Q1022=,SBCF,2022-06-27 03:00:00
1656302400000,METAR SBCF 270400Z 10007KT CAVOK 15/12 Q1022=,SBCF,2022-06-27 04:00:00
1656306000000,METAR SBCF 270500Z 13006KT CAVOK 14/12 Q1022=,SBCF,2022-06-27 05:00:00
1656309600000,METAR SBCF 270600Z 13007KT CAVOK 13/11 Q1021=,SBCF,2022-06-27 06:00:00
1656313200000,METAR SBCF 270700Z 13005KT CAVOK 13/11 Q1021=,SBCF,2022-06-27 07:00:00
1656316800000,METAR SBCF 270800Z 12007KT CAVOK 13/11 Q1022=,SBCF,2022-06-27 08:00:00
1656320400000,METAR SBCF 270900Z 11011KT CAVOK 13/11 Q1022=,SBCF,2022-06-27 09:00:00
1656324000000,METAR SBCF 271000Z 10010KT CAVOK 14/11 Q1023=,SBCF,2022-06-27 10:00:00
1656327600000,METAR SBCF 271100Z 10009KT CAVOK 15/11 Q1024=,SBCF,2022-06-27 11:00:00
1656331200000,METAR SBCF 271200Z 10013KT CAVOK 16/11 Q1025=,SBCF,2022-06-27 12:00:00
1656334800000,METAR SBCF 271300Z 08012KT CAVOK 18/11 Q1025=,SBCF,2022-06-27 13:00:00
1656338400000,METAR SBCF 271400Z 08011KT CAVOK 18/11 Q1024=,SBCF,2022-06-27 14:00:00
1656342000000,METAR SBCF 271500Z 09009KT CAVOK 20/10 Q1023=,SBCF,2022-06-27 15:00:00
1656345600000,METAR SBCF 271600Z 09007KT 9999 FEW030 21/11 Q1023=,SBCF,2022-06-27 16:00:00
1656349200000,METAR SBCF 271700Z 09009KT 9999 FEW035 21/10 Q1022=,SBCF,2022-06-27 17:00:00
1656352800000,METAR SBCF 271800Z 08008KT 9999 FEW035 21/10 Q1021=,SBCF,2022-06-27 18:00:00
1656356400000,METAR SBCF 271900Z 10009KT 9999 FEW035 21/11 Q1021=,SBCF,2022-06-27 19:00:00
1656360000000,METAR SBCF 272000Z 09011KT CAVOK 19/11 Q1021=,SBCF,2022-06-27 20:00:00
1656363600000,METAR SBCF 272100Z 09012KT CAVOK 18/11 Q1022=,SBCF,2022-06-27 21:00:00
1656367200000,METAR SBCF 272200Z 06010KT CAVOK 17/10 Q1022=,SBCF,2022-06-27 22:00:00
1656370800000,METAR SBCF 272300Z 07007KT 9999 FEW040 16/10 Q1023=,SBCF,2022-06-27 23:00:00
1656288000000,METAR SBCT 270000Z 09004KT 060V120 9999 SCT007 OVC017 11/10 Q1025=,SBCT,2022-06-27 00:00:00
1656291600000,METAR SBCT 270100Z 08005KT 9999 BKN009 11/10 Q1025=,SBCT,2022-06-27 01:00:00
1656295200000,METAR SBCT 270200Z 07005KT 9999 BKN009 OVC013 11/10 Q1025=,SBCT,2022-06-27 02:00:00
1656298800000,METAR SBCT 270300Z 03004KT 9999 BKN013 11/11 Q1025=,SBCT,2022-06-27 03:00:00
1656302400000,METAR SBCT 270400Z 03003KT 9999 BKN014 11/10 Q1025=,SBCT,2022-06-27 04:00:00
1656306000000,METAR SBCT 270500Z 12003KT 9999 BKN014 10/10 Q1024=,SBCT,2022-06-27 05:00:00
1656309600000,METAR SBCT 270600Z 10003KT 9999 BKN010 09/09 Q1024=,SBCT,2022-06-27 06:00:00
1656313200000,METAR SBCT 270700Z 00000KT 9999 BKN010 10/10 Q1023=,SBCT,2022-06-27 07:00:00
1656316800000,METAR SBCT 270800Z 15002KT 9999 OVC009 10/10 Q1023=,SBCT,2022-06-27 08:00:00
1656320400000,METAR SBCT 270900Z 00000KT 9999 OVC009 10/10 Q1023=,SBCT,2022-06-27 09:00:00
1656324000000,METAR SBCT 271000Z 00000KT 8000 OVC007 11/11 Q1024=,SBCT,2022-06-27 10:00:00
1656327600000,METAR SBCT 271100Z VRB02KT 9999 BKN007 BKN012 11/11 Q1025=,SBCT,2022-06-27 11:00:00
1656331200000,METAR SBCT 271200Z 06005KT 9999 BKN006 OVC012 12/11 Q1025=,SBCT,2022-06-27 12:00:00
1656334800000,METAR SBCT 271300Z 05006KT 020V080 9999 BKN008 OVC013 12/11 Q1025=,SBCT,2022-06-27 13:00:00
1656338400000,METAR SBCT 271400Z 03004KT 9999 SCT009 BKN012 OVC015 13/11 Q1024=,SBCT,2022-06-27 14:00:00
1656342000000,METAR SBCT 271500Z 03004KT 350V050 9999 BKN012 OVC015 13/10 Q1024=,SBCT,2022-06-27 15:00:00
1656345600000,METAR SBCT 271600Z 09005KT 9999 BKN013 OVC017 14/10 Q1023=,SBCT,2022-06-27 16:00:00
1656349200000,METAR SBCT 271700Z 07006KT 9999 BKN013 OVC019 15/11 Q1022=,SBCT,2022-06-27 17:00:00
1656352800000,METAR SBCT 271800Z 06007KT 9999 BKN014 OVC022 14/11 Q1022=,SBCT,2022-06-27 18:00:00
1656356400000,METAR SBCT 271900Z 07007KT 040V100 9999 BKN014 OVC022 14/11 Q1021=,SBCT,2022-06-27 19:00:00
1656360000000,METAR SBCT 272000Z 06005KT 040V100 9999 SCT014 OVC023 14/11 Q1021=,SBCT,2022-06-27 20:00:00
1656363600000,METAR SBCT 272100Z 08004KT 9999 OVC023 13/12 Q1021=,SBCT,2022-06-27 21:00:00
1656367200000,METAR SBCT 272200Z 09004KT 9999 OVC023 13/12 Q1021=,SBCT,2022-06-27 22:00:00
1656370800000,METAR SBCT 272300Z 11004KT 9999 FEW005 BKN025 12/12 Q1021=,SBCT,2022-06-27 23:00:00
1656288000000,METAR SBFL 270000Z 09003KT 9999 BKN043 15/13 Q1024=,SBFL,2022-06-27 00:00:00
1656291600000,METAR SBFL 270100Z VRB02KT CAVOK 14/13 Q1024=,SBFL,2022-06-27 01:00:00
1656295200000,METAR SBFL 270200Z VRB02KT CAVOK 14/13 Q1024=,SBFL,2022-06-27 02:00:00
1656298800000,METAR SBFL 270300Z 10002KT CAVOK 14/13 Q1024=,SBFL,2022-06-27 03:00:00
1656302400000,METAR SBFL 270400Z 00000KT 9999 BKN036 15/13 Q1023=,SBFL,2022-06-27 04:00:00
1656306000000,METAR SBFL 270500Z 35003KT 9999 BKN036 15/14 Q1023=,SBFL,2022-06-27 05:00:00
1656309600000,METAR SBFL 270600Z 32004KT 9999 BKN048 15/14 Q1022=,SBFL,2022-06-27 06:00:00
1656313200000,METAR SBFL 270700Z 34006KT 9999 BKN043 15/14 Q1022=,SBFL,2022-06-27 07:00:00
1656316800000,METAR SBFL 270800Z 35006KT 9999 BKN043 16/14 Q1022=,SBFL,2022-06-27 08:00:00
1656320400000,METAR SBFL 270900Z 03006KT 9999 SCT025 BKN049 15/13 Q1022=,SBFL,2022-06-27 09:00:00
1656324000000,METAR SBFL 271000Z 34005KT 280V360 9999 FEW014 BKN050 15/14 Q1022=,SBFL,2022-06-27 10:00:00
1656327600000,METAR SBFL 271100Z 34005KT 9999 FEW025 SCT060 15/14 Q1022=,SBFL,2022-06-27 11:00:00
1656331200000,METAR SBFL 271200Z 33008KT 9999 FEW028 17/15 Q1022=,SBFL,2022-06-27 12:00:00
1656334800000,METAR SBFL 271300Z 34011KT 9999 FEW028 18/14 Q1023=,SBFL,2022-06-27 13:00:00
1656338400000,METAR SBFL 271400Z 35014KT 9999 FEW028 19/13 Q1022=,SBFL,2022-06-27 14:00:00
1656342000000,METAR SBFL 271500Z 35014KT 9999 FEW030 20/14 Q1021=,SBFL,2022-06-27 15:00:00
1656345600000,METAR SBFL 271600Z 35015KT 9999 FEW030 20/14 Q1020=,SBFL,2022-06-27 16:00:00
1656349200000,METAR SBFL 271700Z 36015KT 9999 FEW030 20/14 Q1019=,SBFL,2022-06-27 17:00:00
1656352800000,METAR SBFL 271800Z 36013KT 9999 SCT030 21/13 Q1018=,SBFL,2022-06-27 18:00:00
1656356400000,METAR SBFL 271900Z 36014KT 9999 FEW030 20/14 Q1018=,SBFL,2022-06-27 19:00:00
1656360000000,METAR SBFL 272000Z 36014KT 9999 FEW030 18/14 Q1018=,SBFL,2022-06-27 20:00:00
1656363600000,METAR SBFL 272100Z 36013KT 9999 SCT030 BKN100 18/15 Q1018=,SBFL,2022-06-27 21:00:00
1656367200000,METAR SBFL 272200Z 36013KT 9999 FEW030 SCT100 17/15 Q1019=,SBFL,2022-06-27 22:00:00
1656370800000,METAR SBFL 272300Z 35013KT 9999 FEW030 17/15 Q1019=,SBFL,2022-06-27 23:00:00
1656288000000,METAR SBGL 270000Z 09005KT 4000 -RA BR BKN014 OVC030 18/16 Q1023=,SBGL,2022-06-27 00:00:00
1656291600000,METAR SBGL 270100Z 08004KT 6000 FEW010 BKN018 OVC030 18/16 Q1023=,SBGL,2022-06-27 01:00:00
1656295200000,METAR SBGL 270200Z 12004KT 8000 BKN016 OVC040 18/15 Q1023=,SBGL,2022-06-27 02:00:00
1656298800000,METAR SBGL 270300Z 13004KT 8000 SCT020 OVC040 18/15 Q1023=,SBGL,2022-06-27 03:00:00
1656302400000,METAR SBGL 270400Z 05002KT 8000 SCT020 OVC040 18/15 Q1023=,SBGL,2022-06-27 04:00:00
1656306000000,METAR SBGL 270500Z 35003KT 8000 BKN012 OVC030 17/16 Q1022=,SBGL,2022-06-27 05:00:00
1656309600000,METAR SBGL 270600Z 32003KT 7000 -RA BKN012 OVC030 17/15 Q1022=,SBGL,2022-06-27 06:00:00
1656313200000,METAR SBGL 270700Z 00000KT 8000 SCT015 OVC040 17/15 Q1022=,SBGL,2022-06-27 07:00:00
1656316800000,METAR SBGL 270800Z 03002KT 9999 FEW018 BKN040 17/15 Q1022=,SBGL,2022-06-27 08:00:00
1656320400000,METAR SBGL 270900Z 33002KT 9999 FEW020 BKN050 17/15 Q1022=,SBGL,2022-06-27 09:00:00
1656324000000,METAR SBGL 271000Z 30003KT 9999 SCT013 OVC035 17/15 Q1023=,SBGL,2022-06-27 10:00:00
1656327600000,METAR SBGL 271100Z 20003KT 9999 SCT009 BKN021 OVC030 17/15 Q1023=,SBGL,2022-06-27 11:00:00
1656331200000,METAR SBGL 271200Z 12002KT 9999 SCT009 BKN011 OVC040 18/16 Q1024=,SBGL,2022-06-27 12:00:00
1656334800000,METAR SBGL 271300Z 03004KT 9999 SCT013 OVC050 20/16 Q1024=,SBGL,2022-06-27 13:00:00
1656338400000,METAR SBGL 271400Z 06006KT 9999 SCT013 OVC050 21/14 Q1024=,SBGL,2022-06-27 14:00:00
1656342000000,METAR SBGL 271500Z 06006KT 9999 SCT020 BKN050 21/14 Q1022=,SBGL,2022-06-27 15:00:00
1656345600000,METAR SBGL 271600Z 05006KT 9999 SCT020 BKN050 23/13 Q1022=,SBGL,2022-06-27 16:00:00
1656349200000,METAR SBGL 271700Z 14004KT 060V180 9999 FEW020 BKN050 22/14 Q1021=,SBGL,2022-06-27 17:00:00
1656352800000,METAR SBGL 271800Z 13007KT 9999 FEW020 SCT050 22/14 Q1020=,SBGL,2022-06-27 18:00:00
1656356400000,METAR SBGL 271900Z 13006KT 9999 FEW020 21/14 Q1020=,SBGL,2022-06-27 19:00:00
1656360000000,METAR SBGL 272000Z 14006KT 9999 FEW020 20/14 Q1021=,SBGL,2022-06-27 20:00:00
1656363600000,METAR SBGL 272100Z 14007KT 9999 FEW020 19/13 Q1021=,SBGL,2022-06-27 21:00:00
1656367200000,METAR SBGL 272200Z 11005KT 9999 FEW020 18/14 Q1021=,SBGL,2022-06-27 22:00:00
1656370800000,METAR SBGL 272300Z 11010KT 070V140 CAVOK 18/14 Q1021=,SBGL,2022-06-27 23:00:00
1656288000000,METAR SBGR 270000Z 10006KT 9999 BKN011 14/13 Q1024=,SBGR,2022-06-27 00:00:00
1656291600000,METAR SBGR 270100Z 12006KT 070V170 9999 BKN011 14/13 Q1025=,SBGR,2022-06-27 01:00:00
1656295200000,METAR SBGR 270200Z 10007KT 9999 BKN011 13/12 Q1025=,SBGR,2022-06-27 02:00:00
1656298800000,METAR SBGR 270300Z 11005KT 9999 BKN009 14/13 Q1024=,SBGR,2022-06-27 03:00:00
1656302400000,METAR SBGR 270400Z 12005KT 9999 BKN010 BKN025 14/13 Q1024=,SBGR,2022-06-27 04:00:00
1656306000000,METAR SBGR 270500Z 10007KT 9999 OVC011 14/13 Q1024=,SBGR,2022-06-27 05:00:00
1656309600000,METAR SBGR 270600Z 11006KT 9999 BKN011 OVC015 14/13 Q1023=,SBGR,2022-06-27 06:00:00
1656313200000,METAR SBGR 270700Z 10006KT 9999 OVC011 14/13 Q1023=,SBGR,2022-06-27 07:00:00
1656316800000,METAR SBGR 270800Z 08006KT 9999 OVC011 14/13 Q1022=,SBGR,2022-06-27 08:00:00
1656320400000,METAR SBGR 270900Z 09006KT 9999 OVC011 14/13 Q1023=,SBGR,2022-06-27 09:00:00
1656324000000,METAR SBGR 271000Z 08007KT 9999 OVC011 14/13 Q1023=,SBGR,2022-06-27 10:00:00
1656327600000,METAR SBGR 271100Z 07008KT 9999 BKN011 OVC020 14/13 Q1024=,SBGR,2022-06-27 11:00:00
1656331200000,METAR SBGR 271200Z 06009KT 9999 OVC013 14/13 Q1024=,SBGR,2022-06-27 12:00:00
1656334800000,METAR SBGR 271300Z 07011KT 9999 OVC013 14/12 Q1025=,SBGR,2022-06-27 13:00:00
1656338400000,METAR SBGR 271400Z 08009KT 9999 BKN013 OVC015 15/12 Q1024=,SBGR,2022-06-27 14:00:00
1656342000000,METAR SBGR 271500Z 08008KT 9999 BKN013 OVC015 15/13 Q1023=,SBGR,2022-06-27 15:00:00
1656345600000,METAR SBGR 271600Z 08008KT 9999 OVC017 16/12 Q1023=,SBGR,2022-06-27 16:00:00
1656349200000,METAR SBGR 271700Z 07007KT 9999 OVC017 16/12 Q1022=,SBGR,2022-06-27 17:00:00
1656352800000,METAR SBGR 271800Z 09006KT 9999 OVC021 17/12 Q1021=,SBGR,2022-06-27 18:00:00
1656356400000,METAR SBGR 271900Z 05005KT 9999 FEW021 17/12 Q1021=,SBGR,2022-06-27 19:00:00
1656360000000,METAR SBGR 272000Z 06006KT CAVOK 18/12 Q1021=,SBGR,2022-06-27 20:00:00
1656363600000,METAR SBGR 272100Z 12003KT 8000 NSC 16/13 Q1021=,SBGR,2022-06-27 21:00:00
1656367200000,METAR SBGR 272200Z 09003KT CAVOK 15/14 Q1021=,SBGR,2022-06-27 22:00:00
1656370800000,METAR SBGR 272300Z 09003KT CAVOK 14/14 Q1021=,SBGR,2022-06-27 23:00:00
1656288000000,METAR SBKP 270000Z 13012KT 9999 FEW020 15/12 Q1022=,SBKP,2022-06-27 00:00:00
1656291600000,METAR SBKP 270100Z 12011KT 9999 FEW020 15/12 Q1022=,SBKP,2022-06-27 01:00:00
1656295200000,METAR SBKP 270200Z 13010KT 9999 FEW040 15/12 Q1022=,SBKP,2022-06-27 02:00:00
1656298800000,METAR SBKP 270300Z 12013KT CAVOK 15/11 Q1022=,SBKP,2022-06-27 03:00:00
1656302400000,METAR SBKP 270400Z 12016KT CAVOK 15/11 Q1022=,SBKP,2022-06-27 04:00:00
1656306000000,METAR SBKP 270500Z 12012KT CAVOK 14/11 Q1021=,SBKP,2022-06-27 05:00:00
1656309600000,METAR SBKP 270600Z 12012KT CAVOK 14/11 Q1021=,SBKP,2022-06-27 06:00:00
1656313200000,METAR SBKP 270700Z 12013KT CAVOK 14/11 Q1020=,SBKP,2022-06-27 07:00:00
1656316800000,METAR SBKP 270800Z 12014KT CAVOK 14/11 Q1020=,SBKP,2022-06-27 08:00:00
1656320400000,METAR SBKP 270900Z 12013KT CAVOK 14/11 Q1020=,SBKP,2022-06-27 09:00:00
1656324000000,METAR SBKP 271000Z 12011KT CAVOK 14/11 Q1021=,SBKP,2022-06-27 10:00:00
1656327600000,METAR SBKP 271100Z 12012KT 9999 FEW040 15/12 Q1022=,SBKP,2022-06-27 11:00:00
1656331200000,METAR SBKP 271200Z 11010KT 9999 FEW040 16/12 Q1023=,SBKP,2022-06-27 12:00:00
1656334800000,METAR SBKP 271300Z 12008KT CAVOK 18/12 Q1023=,SBKP,2022-06-27 13:00:00
1656338400000,METAR SBKP 271400Z 11005KT CAVOK 19/12 Q1023=,SBKP,2022-06-27 14:00:00
1656342000000,METAR SBKP 271500Z VRB05KT 9999 FEW020 21/12 Q1022=,SBKP,2022-06-27 15:00:00
1656345600000,METAR SBKP 271600Z 31003KT 9999 FEW020 22/12 Q1021=,SBKP,2022-06-27 16:00:00
1656349200000,METAR SBKP 271700Z 00000KT 9999 FEW030 23/12 Q1020=,SBKP,2022-06-27 17:00:00
1656352800000,METAR SBKP 271800Z VRB04KT 9999 SCT036 24/12 Q1019=,SBKP,2022-06-27 18:00:00
1656356400000,METAR SBKP 271900Z 25004KT 200V300 9999 FEW040 24/12 Q1019=,SBKP,2022-06-27 19:00:00
1656360000000,METAR SBKP 272000Z 22004KT 190V260 9999 FEW040 23/12 Q1019=,SBKP,2022-06-27 20:00:00
1656363600000,METAR SBKP 272100Z 12011KT CAVOK 19/13 Q1019=,SBKP,2022-06-27 21:00:00
1656367200000,METAR SBKP 272200Z 12011KT CAVOK 18/13 Q1019=,SBKP,2022-06-27 22:00:00
1656370800000,METAR SBKP 272300Z 12011KT CAVOK 17/13 Q1019=,SBKP,2022-06-27 23:00:00
1656288000000,METAR SBPA 270000Z 00000KT CAVOK 11/10 Q1023=,SBPA,2022-06-27 00:00:00
1656291600000,METAR SBPA 270100Z 08003KT CAVOK 11/10 Q1022=,SBPA,2022-06-27 01:00:00
1656295200000,METAR SBPA 270200Z 08003KT CAVOK 11/10 Q1022=,SBPA,2022-06-27 02:00:00
1656298800000,METAR SBPA 270300Z 07002KT 9000 NSC 10/10 Q1022=,SBPA,2022-06-27 03:00:00
1656302400000,METAR SBPA 270400Z VRB01KT 9000 NSC 09/09 Q1021=,SBPA,2022-06-27 04:00:00
1656306000000,METAR SBPA 270500Z VRB02KT 9000 NSC 10/10 Q1021=,SBPA,2022-06-27 05:00:00
1656309600000,METAR SBPA 270600Z 00000KT 9000 NSC 10/09 Q1021=,SBPA,2022-06-27 06:00:00
1656313200000,METAR SBPA 270700Z 00000KT 9000 NSC 10/10 Q1021=,SBPA,2022-06-27 07:00:00
1656316800000,METAR SBPA 270800Z VRB02KT 9000 NSC 10/10 Q1020=,SBPA,2022-06-27 08:00:00
1656320400000,METAR SBPA 270900Z VRB02KT 9000 NSC 10/10 Q1020=,SBPA,2022-06-27 09:00:00
1656322740000,SPECI SBPA 270939Z 08002KT 4000 BCFG SCT003 10/09 Q1020=,SBPA,2022-06-27 09:39:00
1656324000000,METAR SBPA 271000Z 07004KT 0900 R29///// R11/2000 FG VV002 10/10 Q1020=,SBPA,2022-06-27 10:00:00
1656325500000,SPECI SBPA 271025Z 14002KT 2500 BR FEW002 10/10 Q1020=,SBPA,2022-06-27 10:25:00
1656327600000,METAR SBPA 271100Z VRB01KT 6000 NSC 10/10 Q1020=,SBPA,2022-06-27 11:00:00
1656331200000,METAR SBPA 271200Z VRB02KT 6000 NSC 11/11 Q1020=,SBPA,2022-06-27 12:00:00
1656334800000,METAR SBPA 271300Z VRB02KT 6000 FEW036 13/12 Q1021=,SBPA,2022-06-27 13:00:00
1656338400000,METAR SBPA 271400Z 06005KT 6000 NSC 14/12 Q1019=,SBPA,2022-06-27 14:00:00
1656342000000,METAR SBPA 271500Z 10003KT 8000 NSC 15/13 Q1018=,SBPA,2022-06-27 15:00:00
1656345600000,METAR SBPA 271600Z 00000KT 8000 NSC 16/13 Q1017=,SBPA,2022-06-27 16:00:00
1656349200000,METAR SBPA 271700Z VRB01KT 8000 NSC 17/13 Q1016=,SBPA,2022-06-27 17:00:00
1656352800000,METAR SBPA 271800Z VRB02KT 8000 NSC 18/14 Q1016=,SBPA,2022-06-27 18:00:00
1656356400000,METAR SBPA 271900Z VRB01KT 8000 NSC 20/15 Q1016=,SBPA,2022-06-27 19:00:00
1656360000000,METAR SBPA 272000Z VRB02KT 8000 SCT035 18/14 Q1016=,SBPA,2022-06-27 20:00:00
1656363600000,METAR SBPA 272100Z 10005KT 8000 BKN038 17/15 Q1016=,SBPA,2022-06-27 21:00:00
1656367200000,METAR SBPA 272200Z 11006KT 8000 VCSH FEW030 SCT040 BKN067 17/14 Q1017=,SBPA,2022-06-27 22:00:00
1656370800000,METAR SBPA 272300Z 16002KT 8000 VCSH BKN034 BKN063 17/15 Q1017=,SBPA,2022-06-27 23:00:00
1656334800000,METAR SBRF 271300Z 17015KT 9999 BKN025 27/22 Q1015=,SBRF,2022-06-27 13:00:00
1656288000000,METAR SBRF 270000Z 21007KT 190V250 9000 VCSH SCT020 BKN050 24/22 Q1014=,SBRF,2022-06-27 00:00:00
1656291600000,METAR SBRF 270100Z 21007KT 9999 SCT025 BKN050 24/21 Q1014=,SBRF,2022-06-27 01:00:00
1656295200000,METAR SBRF 270200Z 21007KT 8000 VCSH SCT015 BKN050 24/22 Q1014=,SBRF,2022-06-27 02:00:00
1656298800000,METAR SBRF 270300Z 21006KT 8000 VCSH SCT023 BKN050 23/21 Q1014=,SBRF,2022-06-27 03:00:00
1656302400000,METAR SBRF 270400Z 21007KT 9999 FEW023 SCT070 23/21 Q1013=,SBRF,2022-06-27 04:00:00
1656306000000,METAR SBRF 270500Z 21007KT 9999 BKN020 23/21 Q1013=,SBRF,2022-06-27 05:00:00
1656309600000,METAR SBRF 270600Z 20007KT 9999 SCT020 SCT060 23/21 Q1012=,SBRF,2022-06-27 06:00:00
1656313200000,METAR SBRF 270700Z 21008KT 9000 VCSH SCT020 BKN050 23/21 Q1013=,SBRF,2022-06-27 07:00:00
1656316800000,METAR SBRF 270800Z 20009KT 170V230 9999 SCT020 BKN050 23/22 Q1013=,SBRF,2022-06-27 08:00:00
1656320400000,METAR SBRF 270900Z 20009KT 9999 BKN020 23/22 Q1013=,SBRF,2022-06-27 09:00:00
1656324000000,METAR SBRF 271000Z 20009KT 8000 VCSH BKN020 BKN050 23/22 Q1014=,SBRF,2022-06-27 10:00:00
1656327600000,METAR SBRF 271100Z 17010KT 7000 -RA BKN022 24/22 Q1015=,SBRF,2022-06-27 11:00:00
1656331200000,METAR SBRF 271200Z 19011KT 9999 SCT023 SCT040 26/22 Q1015=,SBRF,2022-06-27 12:00:00
1656338400000,METAR SBRF 271400Z 18017G28KT 9999 SCT025 BKN050 26/22 Q1014=,SBRF,2022-06-27 14:00:00
1656342000000,METAR SBRF 271500Z 17017KT 9999 BKN020 FEW023TCU 28/23 Q1014=,SBRF,2022-06-27 15:00:00
1656345600000,METAR SBRF 271600Z 18019KT 9999 BKN023 FEW024TCU 28/22 Q1013=,SBRF,2022-06-27 16:00:00
1656346920000,SPECI SBRF 271622Z 17019G32KT 9999 4000E VCSH BKN023 FEW024TCU 27/22 Q1013=,SBRF,2022-06-27 16:22:00
1656349200000,METAR SBRF 271700Z 18017KT 9999 VCSH BKN023 FEW024TCU 28/22 Q1012=,SBRF,2022-06-27 17:00:00
1656352800000,METAR SBRF 271800Z 18016KT 9000 VCSH BKN023 FEW027TCU BKN060 27/22 Q1013=,SBRF,2022-06-27 18:00:00
1656356400000,METAR SBRF 271900Z 19012KT 6000 -SHRA BKN020 FEW027TCU BKN060 26/23 Q1013=,SBRF,2022-06-27 19:00:00
1656360000000,METAR SBRF 272000Z 17018KT 5000 2300N -RA BR FEW009 BKN020 FEW027TCU BKN060 23/22 Q1013=,SBRF,2022-06-27 20:00:00
1656363600000,METAR SBRF 272100Z 15010KT 110V180 5000 2200N -RA BR FEW009 BKN020 FEW027TCU BKN060 24/22 Q1013=,SBRF,2022-06-27 21:00:00
1656367200000,METAR SBRF 272200Z 18006KT 140V210 6000 -RA FEW009 BKN020 BKN060 24/21 Q1014=,SBRF,2022-06-27 22:00:00
1656370800000,METAR SBRF 272300Z 20006KT 9999 FEW011 SCT020 BKN070 24/21 Q1015=,SBRF,2022-06-27 23:00:00
1656288000000,METAR SBRJ 270000Z 14012KT 9999 BKN020 OVC040 19/15 Q1022=,SBRJ,2022-06-27 00:00:00
1656291600000,METAR SBRJ 270100Z 16009KT 130V190 9999 BKN020 OVC040 19/15 Q1023=,SBRJ,2022-06-27 01:00:00
1656295200000,METAR SBRJ 270200Z 13007KT 9999 BKN020 OVC050 18/15 Q1023=,SBRJ,2022-06-27 02:00:00
1656319800000,SPECI SBRJ 270850Z 01004KT 9999 FEW012 BKN050 18/16 Q1021=,SBRJ,2022-06-27 08:50:00
1656320400000,METAR SBRJ 270900Z 01003KT 9999 FEW012 BKN050 18/15 Q1021=,SBRJ,2022-06-27 09:00:00
1656324000000,METAR SBRJ 271000Z 07002KT 9999 FEW008 SCT020 BKN040 18/15 Q1022=,SBRJ,2022-06-27 10:00:00
1656327600000,METAR SBRJ 271100Z 05004KT 9999 FEW010 SCT025 BKN040 18/16 Q1023=,SBRJ,2022-06-27 11:00:00
1656331200000,METAR SBRJ 271200Z 35003KT 9999 FEW010 BKN040 19/15 Q1023=,SBRJ,2022-06-27 12:00:00
1656334800000,METAR SBRJ 271300Z 34004KT 9999 FEW012 BKN050 20/16 Q1024=,SBRJ,2022-06-27 13:00:00
1656338400000,METAR SBRJ 271400Z 33005KT 270V360 9999 FEW015 BKN050 20/15 Q1023=,SBRJ,2022-06-27 14:00:00
1656342000000,METAR SBRJ 271500Z 33006KT 9999 FEW020 BKN050 20/15 Q1022=,SBRJ,2022-06-27 15:00:00
1656345600000,METAR SBRJ 271600Z 34004KT 9999 FEW020 BKN050 21/15 Q1021=,SBRJ,2022-06-27 16:00:00
1656349200000,METAR SBRJ 271700Z 16006KT 9999 FEW025 SCT050 22/15 Q1021=,SBRJ,2022-06-27 17:00:00
1656352800000,METAR SBRJ 271800Z 16009KT 9999 FEW025 SCT050 21/14 Q1020=,SBRJ,2022-06-27 18:00:00
1656356400000,METAR SBRJ 271900Z 16010KT 9999 FEW025 21/15 Q1020=,SBRJ,2022-06-27 19:00:00
1656360000000,METAR SBRJ 272000Z 15008KT 9999 FEW020 20/15 Q1020=,SBRJ,2022-06-27 20:00:00
1656363600000,METAR SBRJ 272100Z 12009KT 9999 FEW020 20/15 Q1021=,SBRJ,2022-06-27 21:00:00
1656367200000,METAR SBRJ 272200Z 10010KT 9999 FEW020 SCT040 20/16 Q1021=,SBRJ,2022-06-27 22:00:00
1656370800000,METAR SBRJ 272300Z 07005KT 9999 FEW020 SCT040 20/14 Q1021=,SBRJ,2022-06-27 23:00:00
1656288000000,METAR SBSP 270000Z 13008KT 9999 SCT008 BKN011 14/11 Q1025=,SBSP,2022-06-27 00:00:00
1656291600000,METAR SBSP 270100Z 15009KT 9999 BKN011 14/11 Q1025=,SBSP,2022-06-27 01:00:00
1656295200000,SPECI SBSP 270200Z 13007KT 100V170 8000 SCT009 BKN012 14/11 Q1025=,SBSP,2022-06-27 02:00:00
1656295200000,METAR SBSP 270200Z 12006KT 9999 BKN011 14/11 Q1025=,SBSP,2022-06-27 02:00:00
1656298800000,METAR SBSP 270300Z AUTO 13007KT 100V160 8000 SCT008 OVC012 14/11 Q1025=,SBSP,2022-06-27 03:00:00
1656302400000,METAR SBSP 270400Z AUTO 13008KT 7000 SCT008 BKN011 OVC030 14/11 Q1024=,SBSP,2022-06-27 04:00:00
1656306000000,METAR SBSP 270500Z AUTO 13006KT 7000 SCT007 OVC010 14/11 Q1024=,SBSP,2022-06-27 05:00:00
1656309600000,METAR SBSP 270600Z AUTO 13006KT 100V160 8000 SCT008 OVC011 14/11 Q1023=,SBSP,2022-06-27 06:00:00
1656313200000,METAR SBSP 270700Z AUTO 12008KT 8000 OVC011 14/10 Q1023=,SBSP,2022-06-27 07:00:00
1656316800000,METAR SBSP 270800Z AUTO 13006KT 9000 OVC011 13/10 Q1023=,SBSP,2022-06-27 08:00:00
1656320400000,METAR SBSP 270900Z 09006KT 060V130 9999 SCT009 BKN011 13/10 Q1023=,SBSP,2022-06-27 09:00:00
1656324000000,METAR SBSP 271000Z 11006KT 080V150 9999 SCT009 OVC013 13/10 Q1024=,SBSP,2022-06-27 10:00:00
1656327600000,METAR SBSP 271100Z 10006KT 070V140 9999 OVC013 14/10 Q1024=,SBSP,2022-06-27 11:00:00
1656331200000,METAR SBSP 271200Z 09006KT 040V130 9999 OVC011 14/10 Q1025=,SBSP,2022-06-27 12:00:00
1656334800000,METAR SBSP 271300Z 10008KT 080V150 9999 SCT013 OVC015 15/10 Q1025=,SBSP,2022-06-27 13:00:00
1656338400000,METAR SBSP 271400Z 11008KT 9999 OVC016 15/10 Q1025=,SBSP,2022-06-27 14:00:00
1656342000000,METAR SBSP 271500Z 07006KT 030V110 9999 SCT017 BKN021 16/10 Q1024=,SBSP,2022-06-27 15:00:00
1656345600000,METAR SBSP 271600Z 06005KT 010V120 9999 BKN021 17/10 Q1023=,SBSP,2022-06-27 16:00:00
1656349200000,METAR SBSP 271700Z 08006KT 040V130 9999 OVC021 17/10 Q1022=,SBSP,2022-06-27 17:00:00
1656352800000,METAR SBSP 271800Z 09005KT 020V140 9999 BKN023 18/11 Q1022=,SBSP,2022-06-27 18:00:00
1656356400000,METAR SBSP 271900Z 10005KT 040V160 9999 BKN023 18/10 Q1022=,SBSP,2022-06-27 19:00:00
1656360000000,METAR SBSP 272000Z 15008KT 9999 SCT021 16/12 Q1022=,SBSP,2022-06-27 20:00:00
1656363600000,METAR SBSP 272100Z 13004KT 9999 FEW021 15/12 Q1022=,SBSP,2022-06-27 21:00:00
1656367200000,METAR SBSP 272200Z 16005KT CAVOK 14/11 Q1022=,SBSP,2022-06-27 22:00:00
1656370800000,METAR SBSP 272300Z 14006KT 7000 SCT003 14/12 Q1022=,SBSP,2022-06-27 23:00:00
1656288000000,METAR SBSV 270000Z 15011KT 130V200 9999 FEW025 27/20 Q1016=,SBSV,2022-06-27 00:00:00
1656291600000,METAR SBSV 270100Z 14012KT 8000 VCSH SCT023 FEW025TCU 25/21 Q1017=,SBSV,2022-06-27 01:00:00
1656295200000,METAR SBSV 270200Z 15008KT 9999 SCT023 26/21 Q1016=,SBSV,2022-06-27 02:00:00
1656298800000,METAR SBSV 270300Z 17013KT 9999 BKN020 26/21 Q1016=,SBSV,2022-06-27 03:00:00
1656302400000,METAR SBSV 270400Z 18013KT 9999 BKN020 26/21 Q1016=,SBSV,2022-06-27 04:00:00
1656306000000,METAR SBSV 270500Z 18013KT 9999 SCT020 BKN060 26/21 Q1016=,SBSV,2022-06-27 05:00:00
1656309600000,METAR SBSV 270600Z 18015KT 9999 SCT020 BKN060 26/21 Q1015=,SBSV,2022-06-27 06:00:00
1656313200000,METAR SBSV 270700Z 19012KT 9999 BKN020 26/21 Q1015=,SBSV,2022-06-27 07:00:00
1656316800000,METAR SBSV 270800Z 18013KT 9999 VCSH BKN020 26/20 Q1016=,SBSV,2022-06-27 08:00:00
1656320400000,METAR SBSV 270900Z 19011KT 9999 BKN020 26/21 Q1016=,SBSV,2022-06-27 09:00:00
1656324000000,METAR SBSV 271000Z 18009KT 9999 BKN023 26/21 Q1017=,SBSV,2022-06-27 10:00:00
1656327600000,METAR SBSV 271100Z 17014KT 9999 BKN021 26/21 Q1018=,SBSV,2022-06-27 11:00:00
1656331200000,METAR SBSV 271200Z 18012KT 9999 SCT020 27/21 Q1018=,SBSV,2022-06-27 12:00:00
1656334800000,METAR SBSV 271300Z 17012KT 140V200 9999 SCT019 SCT060 27/21 Q1019=,SBSV,2022-06-27 13:00:00
1656338400000,METAR SBSV 271400Z 17010KT 140V200 9999 VCSH SCT019 FEW023TCU BKN040 26/20 Q1018=,SBSV,2022-06-27 14:00:00
1656342000000,METAR SBSV 271500Z 17012G26KT 140V200 5000 -RA VCSH SCT008 FEW020TCU BKN040 26/21 Q1018=,SBSV,2022-06-27 15:00:00
1656345600000,METAR SBSV 271600Z VRB02KT 9999 VCSH FEW008 FEW020TCU BKN040 25/21 Q1017=,SBSV,2022-06-27 16:00:00
1656345960000,SPECI SBSV 271606Z 18011G21KT 120V230 4000 -RA VCSH BKN010 FEW020TCU BKN040 24/21 Q1017=,SBSV,2022-06-27 16:06:00
1656346860000,SPECI SBSV 271621Z 16016KT 7000 VCSH BKN020 FEW025TCU 25/21 Q1017=,SBSV,2022-06-27 16:21:00
1656349200000,METAR SBSV 271700Z 17017KT 9999 VCSH BKN020 FEW025TCU 26/20 Q1016=,SBSV,2022-06-27 17:00:00
1656352800000,METAR SBSV 271800Z 16016KT 9999 VCSH BKN020 FEW025TCU BKN070 26/20 Q1016=,SBSV,2022-06-27 18:00:00
1656356400000,METAR SBSV 271900Z 16017KT 9999 VCSH BKN020 FEW025TCU BKN070 26/20 Q1016=,SBSV,2022-06-27 19:00:00
1656360000000,METAR SBSV 272000Z 16017KT 9999 BKN020 FEW025TCU BKN060 23/19 Q1016=,SBSV,2022-06-27 20:00:00
1656363600000,METAR SBSV 272100Z 16019KT 9999 BKN020 FEW025TCU BKN060 26/19 Q1017=,SBSV,2022-06-27 21:00:00
1656367200000,METAR SBSV 272200Z 16018KT 9999 BKN020 FEW025TCU BKN060 26/19 Q1017=,SBSV,2022-06-27 22:00:00
1656370800000,METAR SBSV 272300Z 16016KT 9999 BKN020 BKN060 26/19 Q1018=,SBSV,2022-06-27 23:00:00
1656374400000,METAR SBBR 280000Z 11006KT CAVOK 19/10 Q1021=,SBBR,2022-06-28 00:00:00
1656378000000,METAR SBBR 280100Z 11006KT CAVOK 19/11 Q1022=,SBBR,2022-06-28 01:00:00
1656381600000,METAR SBBR 280200Z 11004KT CAVOK 16/10 Q1022=,SBBR,2022-06-28 02:00:00
1656385200000,METAR SBBR 280300Z VRB02KT CAVOK 15/10 Q1021=,SBBR,2022-06-28 03:00:00
1656388800000,METAR SBBR 280400Z VRB01KT CAVOK 14/11 Q1021=,SBBR,2022-06-28 04:00:00
1656392400000,METAR SBBR 280500Z VRB01KT CAVOK 12/09 Q1020=,SBBR,2022-06-28 05:00:00
1656396000000,METAR SBBR 280600Z VRB01KT CAVOK 11/09 Q1020=,SBBR,2022-06-28 06:00:00
1656399600000,METAR SBBR 280700Z 10003KT CAVOK 12/09 Q1020=,SBBR,2022-06-28 07:00:00
1656403200000,METAR SBBR 280800Z 12005KT CAVOK 14/10 Q1020=,SBBR,2022-06-28 08:00:00
1656406800000,METAR SBBR 280900Z 10006KT CAVOK 13/10 Q1021=,SBBR,2022-06-28 09:00:00
1656410400000,METAR SBBR 281000Z VRB02KT CAVOK 13/10 Q1022=,SBBR,2022-06-28 10:00:00
1656414000000,METAR SBBR 281100Z VRB02KT CAVOK 15/11 Q1023=,SBBR,2022-06-28 11:00:00
1656417600000,METAR SBBR 281200Z 07008KT CAVOK 17/11 Q1024=,SBBR,2022-06-28 12:00:00
1656421200000,METAR SBBR 281300Z 06008KT 030V100 CAVOK 19/11 Q1024=,SBBR,2022-06-28 13:00:00
1656424800000,METAR SBBR 281400Z 08008KT CAVOK 21/11 Q1023=,SBBR,2022-06-28 14:00:00
1656428400000,METAR SBBR 281500Z VRB06KT CAVOK 22/11 Q1023=,SBBR,2022-06-28 15:00:00
1656432000000,METAR SBBR 281600Z 08006KT CAVOK 23/10 Q1022=,SBBR,2022-06-28 16:00:00
1656435600000,METAR SBBR 281700Z 09006KT 360V130 CAVOK 24/09 Q1021=,SBBR,2022-06-28 17:00:00
1656439200000,METAR SBBR 281800Z 09005KT 060V150 CAVOK 25/06 Q1021=,SBBR,2022-06-28 18:00:00
1656442800000,METAR SBBR 281900Z 06004KT 350V120 CAVOK 25/07 Q1021=,SBBR,2022-06-28 19:00:00
1656446400000,METAR SBBR 282000Z 03005KT CAVOK 25/07 Q1021=,SBBR,2022-06-28 20:00:00
1656450000000,METAR SBBR 282100Z 13005KT CAVOK 24/09 Q1021=,SBBR,2022-06-28 21:00:00
1656453600000,METAR SBBR 282200Z 10008KT CAVOK 21/10 Q1022=,SBBR,2022-06-28 22:00:00
1656457200000,METAR SBBR 282300Z 11003KT 080V140 CAVOK 20/09 Q1022=,SBBR,2022-06-28 23:00:00
1656374400000,METAR SBCF 280000Z 10010KT 9999 FEW040 16/10 Q1023=,SBCF,2022-06-28 00:00:00
1656378000000,METAR SBCF 280100Z 10007KT CAVOK 15/10 Q1023=,SBCF,2022-06-28 01:00:00
1656381600000,METAR SBCF 280200Z 11006KT CAVOK 14/10 Q1023=,SBCF,2022-06-28 02:00:00
1656385200000,METAR SBCF 280300Z 12006KT CAVOK 13/10 Q1023=,SBCF,2022-06-28 03:00:00
1656388800000,METAR SBCF 280400Z 14003KT CAVOK 13/10 Q1022=,SBCF,2022-06-28 04:00:00
1656392400000,METAR SBCF 280500Z 13004KT CAVOK 12/10 Q1022=,SBCF,2022-06-28 05:00:00
1656396000000,METAR SBCF 280600Z 12003KT CAVOK 12/10 Q1021=,SBCF,2022-06-28 06:00:00
1656399600000,METAR SBCF 280700Z 12005KT CAVOK 12/10 Q1021=,SBCF,2022-06-28 07:00:00
1656403200000,METAR SBCF 280800Z 16002KT CAVOK 11/10 Q1021=,SBCF,2022-06-28 08:00:00
1656406800000,METAR SBCF 280900Z 17002KT CAVOK 11/09 Q1021=,SBCF,2022-06-28 09:00:00
1656410400000,METAR SBCF 281000Z 13003KT CAVOK 12/10 Q1022=,SBCF,2022-06-28 10:00:00
1656414000000,METAR SBCF 281100Z 14003KT CAVOK 12/10 Q1023=,SBCF,2022-06-28 11:00:00
1656417600000,METAR SBCF 281200Z 17003KT CAVOK 14/11 Q1024=,SBCF,2022-06-28 12:00:00
1656421200000,METAR COR SBCF 281300Z 09004KT 9999 SCT023 18/11 Q1024=,SBCF,2022-06-28 13:00:00
1656424800000,METAR SBCF 281400Z 15003KT 9999 SCT030 19/11 Q1024=,SBCF,2022-06-28 14:00:00
1656428400000,METAR SBCF 281500Z 07005KT 9999 FEW030 20/10 Q1023=,SBCF,2022-06-28 15:00:00
1656432000000,METAR SBCF 281600Z 06005KT CAVOK 21/10 Q1022=,SBCF,2022-06-28 16:00:00
1656435600000,METAR SBCF 281700Z 33005KT 270V050 CAVOK 22/10 Q1021=,SBCF,2022-06-28 17:00:00
1656439200000,METAR SBCF 281800Z 03007KT 350V070 CAVOK 22/09 Q1021=,SBCF,2022-06-28 18:00:00
1656442800000,METAR SBCF 281900Z 02006KT 350V050 CAVOK 22/09 Q1021=,SBCF,2022-06-28 19:00:00
1656446400000,METAR SBCF 282000Z 03003KT 330V080 CAVOK 22/08 Q1021=,SBCF,2022-06-28 20:00:00
1656450000000,METAR SBCF 282100Z 05004KT CAVOK 20/08 Q1021=,SBCF,2022-06-28 21:00:00
1656453600000,METAR SBCF 282200Z 07009KT CAVOK 18/10 Q1022=,SBCF,2022-06-28 22:00:00
1656457200000,METAR SBCF 282300Z 14002KT CAVOK 16/10 Q1022=,SBCF,2022-06-28 23:00:00
1656374400000,METAR SBCT 280000Z 06003KT 010V090 9999 FEW005 BKN020 12/12 Q1021=,SBCT,2022-06-28 00:00:00
1656378000000,METAR SBCT 280100Z 07004KT 050V110 9999 FEW008 BKN017 12/12 Q1021=,SBCT,2022-06-28 01:00:00
1656381600000,METAR SBCT 280200Z 11003KT 070V140 9999 SCT008 BKN013 12/12 Q1021=,SBCT,2022-06-28 02:00:00
1656385200000,METAR SBCT 280300Z VRB02KT 9999 SCT008 BKN012 12/12 Q1021=,SBCT,2022-06-28 03:00:00
1656388800000,METAR SBCT 280400Z 02005KT 9999 OVC009 12/11 Q1021=,SBCT,2022-06-28 04:00:00
1656392400000,METAR SBCT 280500Z 35004KT 310V020 9999 OVC009 12/11 Q1021=,SBCT,2022-06-28 05:00:00
1656396000000,METAR SBCT 280600Z 01003KT 330V040 9999 OVC009 12/10 Q1020=,SBCT,2022-06-28 06:00:00
1656399600000,METAR SBCT 280700Z 34005KT 9999 SCT008 OVC010 12/10 Q1020=,SBCT,2022-06-28 07:00:00
1656403200000,METAR SBCT 280800Z 31005KT 280V340 9999 SCT008 BKN010 12/09 Q1020=,SBCT,2022-06-28 08:00:00
1656406800000,METAR SBCT 280900Z 31004KT 280V340 9999 SCT008 OVC011 11/10 Q1020=,SBCT,2022-06-28 09:00:00
1656409500000,SPECI SBCT 280945Z 32004KT 290V350 9999 BKN009 11/10 Q1020=,SBCT,2022-06-28 09:45:00
1656410400000,METAR SBCT 281000Z 32006KT 9999 OVC008 11/10 Q1020=,SBCT,2022-06-28 10:00:00
1656414000000,METAR SBCT 281100Z 32005KT 9999 OVC007 11/11 Q1021=,SBCT,2022-06-28 11:00:00
1656417600000,METAR SBCT 281200Z 22004KT 200V280 9999 SCT008 13/11 Q1021=,SBCT,2022-06-28 12:00:00
1656421200000,METAR SBCT 281300Z 31005KT CAVOK 15/11 Q1022=,SBCT,2022-06-28 13:00:00
1656424800000,METAR SBCT 281400Z 27006KT 240V310 CAVOK 16/10 Q1021=,SBCT,2022-06-28 14:00:00
1656428400000,METAR SBCT 281500Z 27008KT 240V300 CAVOK 18/11 Q1021=,SBCT,2022-06-28 15:00:00
1656432000000,METAR SBCT 281600Z 31011KT 280V340 CAVOK 21/11 Q1019=,SBCT,2022-06-28 16:00:00
1656435600000,METAR SBCT 281700Z 30016KT CAVOK 22/10 Q1018=,SBCT,2022-06-28 17:00:00
1656439200000,METAR SBCT 281800Z 30012KT CAVOK 22/11 Q1018=,SBCT,2022-06-28 18:00:00
1656442800000,METAR SBCT 281900Z 28013KT CAVOK 22/09 Q1018=,SBCT,2022-06-28 19:00:00
1656446400000,METAR SBCT 282000Z 27009KT CAVOK 21/10 Q1018=,SBCT,2022-06-28 20:00:00
1656450000000,METAR SBCT 282100Z 29005KT CAVOK 19/11 Q1018=,SBCT,2022-06-28 21:00:00
1656453600000,METAR SBCT 282200Z 28004KT CAVOK 18/12 Q1018=,SBCT,2022-06-28 22:00:00
1656457200000,METAR SBCT 282300Z 30006KT CAVOK 17/12 Q1019=,SBCT,2022-06-28 23:00:00
1656374400000,METAR SBFL 280000Z 35012KT 9999 FEW030 18/15 Q1019=,SBFL,2022-06-28 00:00:00
1656378000000,METAR SBFL 280100Z 35010KT 9999 FEW030 17/15 Q1019=,SBFL,2022-06-28 01:00:00
1656381600000,METAR SBFL 280200Z 35010KT 9999 SCT030 17/15 Q1019=,SBFL,2022-06-28 02:00:00
1656385200000,METAR SBFL 280300Z 34010KT 9999 SCT030 18/15 Q1019=,SBFL,2022-06-28 03:00:00
1656388800000,METAR SBFL 280400Z 34012KT 9999 SCT030 17/15 Q1018=,SBFL,2022-06-28 04:00:00
1656392400000,METAR SBFL 280500Z 13011KT 9999 SCT030 18/16 Q1018=,SBFL,2022-06-28 05:00:00
1656396000000,METAR SBFL 280600Z 33010KT 9999 SCT030 18/15 Q1018=,SBFL,2022-06-28 06:00:00
1656399600000,METAR SBFL 280700Z 34011KT 9999 SCT030 17/15 Q1018=,SBFL,2022-06-28 07:00:00
1656403200000,METAR SBFL 280800Z 34011KT 9999 SCT030 17/15 Q1018=,SBFL,2022-06-28 08:00:00
1656406800000,METAR SBFL 280900Z 34010KT 9999 SCT030 17/15 Q1017=,SBFL,2022-06-28 09:00:00
1656410400000,METAR SBFL 281000Z 35012KT 9999 FEW030 17/15 Q1017=,SBFL,2022-06-28 10:00:00
1656414000000,METAR SBFL 281100Z 35012KT 9999 FEW025 17/16 Q1017=,SBFL,2022-06-28 11:00:00
1656417600000,METAR SBFL 281200Z 35013KT 9999 FEW030 18/15 Q1017=,SBFL,2022-06-28 12:00:00
1656421200000,METAR SBFL 281300Z 34012KT 9999 FEW030 20/15 Q1017=,SBFL,2022-06-28 13:00:00
1656424800000,METAR SBFL 281400Z 35011KT 9999 FEW030 20/13 Q1016=,SBFL,2022-06-28 14:00:00
1656428400000,METAR SBFL 281500Z 35013KT 9999 FEW030 21/14 Q1015=,SBFL,2022-06-28 15:00:00
1656432000000,METAR SBFL 281600Z 35014KT 9999 FEW030 22/14 Q1014=,SBFL,2022-06-28 16:00:00
1656435600000,METAR SBFL 281700Z 36014KT CAVOK 22/15 Q1013=,SBFL,2022-06-28 17:00:00
1656439200000,METAR SBFL 281800Z 36013KT CAVOK 22/15 Q1012=,SBFL,2022-06-28 18:00:00
1656442800000,METAR SBFL 281900Z 36014KT CAVOK 21/14 Q1012=,SBFL,2022-06-28 19:00:00
1656446400000,METAR SBFL 282000Z 35014KT CAVOK 19/15 Q1012=,SBFL,2022-06-28 20:00:00
1656450000000,METAR SBFL 282100Z 03005KT CAVOK 18/15 Q1013=,SBFL,2022-06-28 21:00:00
1656453600000,METAR SBFL 282200Z 34015KT CAVOK 18/15 Q1013=,SBFL,2022-06-28 22:00:00
1656457200000,METAR SBFL 282300Z 34011KT CAVOK 18/16 Q1013=,SBFL,2022-06-28 23:00:00
1656374400000,METAR SBGL 280000Z 09008KT CAVOK 18/13 Q1021=,SBGL,2022-06-28 00:00:00
1656378000000,METAR SBGL 280100Z 11007KT CAVOK 17/13 Q1021=,SBGL,2022-06-28 01:00:00
1656381600000,METAR SBGL 280200Z 11005KT CAVOK 16/13 Q1021=,SBGL,2022-06-28 02:00:00
1656385200000,METAR SBGL 280300Z 12004KT CAVOK 15/13 Q1020=,SBGL,2022-06-28 03:00:00
1656388800000,METAR SBGL 280400Z 08004KT CAVOK 16/13 Q1020=,SBGL,2022-06-28 04:00:00
1656392400000,METAR SBGL 280500Z 07003KT CAVOK 14/12 Q1019=,SBGL,2022-06-28 05:00:00
1656396000000,METAR SBGL 280600Z 33004KT CAVOK 15/13 Q1019=,SBGL,2022-06-28 06:00:00
1656399600000,METAR SBGL 280700Z VRB02KT CAVOK 13/12 Q1018=,SBGL,2022-06-28 07:00:00
1656403200000,METAR SBGL 280800Z 00000KT CAVOK 13/12 Q1019=,SBGL,2022-06-28 08:00:00
1656406800000,METAR SBGL 280900Z 32003KT CAVOK 13/12 Q1019=,SBGL,2022-06-28 09:00:00
1656410400000,METAR SBGL 281000Z 32005KT 9999 FEW015 14/13 Q1020=,SBGL,2022-06-28 10:00:00
1656414000000,METAR SBGL 281100Z VRB01KT 8000 NSC 16/14 Q1020=,SBGL,2022-06-28 11:00:00
1656417600000,METAR SBGL 281200Z VRB02KT 9000 NSC 19/14 Q1020=,SBGL,2022-06-28 12:00:00
1656421200000,METAR SBGL 281300Z VRB02KT CAVOK 20/15 Q1020=,SBGL,2022-06-28 13:00:00
1656424800000,METAR SBGL 281400Z 02005KT 350V060 CAVOK 21/15 Q1020=,SBGL,2022-06-28 14:00:00
1656428400000,METAR SBGL 281500Z 06005KT 010V110 CAVOK 23/15 Q1019=,SBGL,2022-06-28 15:00:00
1656432000000,METAR SBGL 281600Z 05004KT 010V100 CAVOK 23/13 Q1018=,SBGL,2022-06-28 16:00:00
1656435600000,METAR SBGL 281700Z 05005KT 010V080 CAVOK 24/11 Q1017=,SBGL,2022-06-28 17:00:00
1656439200000,METAR SBGL 281800Z 01004KT CAVOK 24/14 Q1016=,SBGL,2022-06-28 18:00:00
1656442800000,METAR SBGL 281900Z 02004KT CAVOK 24/14 Q1016=,SBGL,2022-06-28 19:00:00
1656446400000,METAR SBGL 282000Z 05003KT CAVOK 22/15 Q1016=,SBGL,2022-06-28 20:00:00
1656450000000,METAR SBGL 282100Z 11003KT CAVOK 19/14 Q1017=,SBGL,2022-06-28 21:00:00
1656453600000,METAR SBGL 282200Z 10002KT CAVOK 18/15 Q1017=,SBGL,2022-06-28 22:00:00
1656457200000,METAR SBGL 282300Z 03002KT CAVOK 18/15 Q1018=,SBGL,2022-06-28 23:00:00
1656374400000,METAR SBGR 280000Z 09005KT CAVOK 14/13 Q1021=,SBGR,2022-06-28 00:00:00
1656378000000,METAR SBGR 280100Z 08009KT CAVOK 13/13 Q1021=,SBGR,2022-06-28 01:00:00
1656381600000,METAR SBGR 280200Z 07011KT CAVOK 13/13 Q1021=,SBGR,2022-06-28 02:00:00
1656385200000,METAR SBGR 280300Z 08012KT CAVOK 13/13 Q1021=,SBGR,2022-06-28 03:00:00
1656388800000,METAR SBGR 280400Z 08011KT CAVOK 13/13 Q1020=,SBGR,2022-06-28 04:00:00
1656392400000,METAR SBGR 280500Z 07007KT CAVOK 12/12 Q1020=,SBGR,2022-06-28 05:00:00
1656396000000,METAR SBGR 280600Z 08011KT 7000 SCT006 12/12 Q1020=,SBGR,2022-06-28 06:00:00
1656397500000,SPECI SBGR 280625Z 07010KT 7000 BKN005 12/12 Q1020=,SBGR,2022-06-28 06:25:00
1656399600000,METAR SBGR 280700Z 07011KT 5000 2000E BR OVC004 12/12 Q1020=,SBGR,2022-06-28 07:00:00
1656402000000,SPECI SBGR 280740Z 06009KT 3000 BR OVC003 12/12 Q1020=,SBGR,2022-06-28 07:40:00
1656403200000,METAR SBGR 280800Z 06011KT 2000 BR BCFG OVC003 12/12 Q1020=,SBGR,2022-06-28 08:00:00
1656405300000,SPECI COR SBGR 280835Z 06008KT 0900 R09R/P2000 R09L/P2000 R27R/P2000 R27L/P2000 FG OVC003 12/12 Q1020=,SBGR,2022-06-28 08:35:00
1656406800000,METAR COR SBGR 280900Z 05008KT 0900 R09R/P2000 R09L/P2000 R27R/P2000 R27L/P2000 FG OVC002 12/12 Q1021=,SBGR,2022-06-28 09:00:00
1656410400000,METAR COR SBGR 281000Z 05007KT 0600 R09L/1200D R27R/1200D R27L/1200D R09R/1700D FG OVC002 11/11 Q1021=,SBGR,2022-06-28 10:00:00
1656414000000,METAR SBGR 281100Z 09006KT 0400 R09R/0650D R27R/0700D R27L/0900D R09L/1100N FG OVC002 11/11 Q1022=,SBGR,2022-06-28 11:00:00
1656417600000,METAR SBGR 281200Z 06007KT 0800 R09R/P2000 R09L/P2000 R27R/P2000 R27L/P2000 FG OVC002 12/12 Q1022=,SBGR,2022-06-28 12:00:00
1656419700000,SPECI SBGR 281235Z 05008KT 3000 BR OVC003 13/13 Q1022=,SBGR,2022-06-28 12:35:00
1656421200000,METAR SBGR 281300Z 05009KT 7000 3000E OVC005 13/13 Q1022=,SBGR,2022-06-28 13:00:00
1656422880000,SPECI SBGR 281328Z 06008KT 8000 BKN006 14/13 Q1022=,SBGR,2022-06-28 13:28:00
1656424800000,METAR SBGR 281400Z 05008KT 9999 SCT010 15/13 Q1022=,SBGR,2022-06-28 14:00:00
1656428400000,METAR SBGR 281500Z 05008KT CAVOK 17/14 Q1021=,SBGR,2022-06-28 15:00:00
1656432000000,METAR SBGR 281600Z 06005KT CAVOK 20/14 Q1020=,SBGR,2022-06-28 16:00:00
1656435600000,METAR SBGR 281700Z 10002KT 9999 FEW040 23/14 Q1019=,SBGR,2022-06-28 17:00:00
1656439200000,METAR SBGR 281800Z 31007KT 9999 FEW040 24/12 Q1019=,SBGR,2022-06-28 18:00:00
1656442800000,METAR SBGR 281900Z 32007KT 9999 FEW045 24/12 Q1019=,SBGR,2022-06-28 19:00:00
1656446400000,METAR SBGR 282000Z 30005KT 9999 FEW045 23/13 Q1019=,SBGR,2022-06-28 20:00:00
1656450000000,METAR SBGR 282100Z 32002KT CAVOK 19/13 Q1019=,SBGR,2022-06-28 21:00:00
1656453600000,METAR SBGR 282200Z 07003KT CAVOK 17/14 Q1020=,SBGR,2022-06-28 22:00:00
1656457200000,METAR SBGR 282300Z 07004KT CAVOK 16/15 Q1020=,SBGR,2022-06-28 23:00:00
1656374400000,METAR SBKP 280000Z 12012KT CAVOK 16/12 Q1019=,SBKP,2022-06-28 00:00:00
1656378000000,METAR SBKP 280100Z 12011KT CAVOK 16/12 Q1020=,SBKP,2022-06-28 01:00:00
1656381600000,METAR SBKP 280200Z 12009KT CAVOK 15/12 Q1019=,SBKP,2022-06-28 02:00:00
1656385200000,METAR SBKP 280300Z 12009KT CAVOK 15/12 Q1019=,SBKP,2022-06-28 03:00:00
1656388800000,METAR SBKP 280400Z 11007KT CAVOK 14/12 Q1019=,SBKP,2022-06-28 04:00:00
1656392400000,METAR SBKP 280500Z 12007KT CAVOK 14/12 Q1019=,SBKP,2022-06-28 05:00:00
1656396000000,METAR SBKP 280600Z 12006KT CAVOK 14/12 Q1019=,SBKP,2022-06-28 06:00:00
1656399600000,METAR SBKP 280700Z 12006KT CAVOK 13/11 Q1019=,SBKP,2022-06-28 07:00:00
1656403200000,METAR SBKP 280800Z 12007KT CAVOK 13/11 Q1019=,SBKP,2022-06-28 08:00:00
1656406800000,METAR SBKP 280900Z 12009KT CAVOK 13/11 Q1019=,SBKP,2022-06-28 09:00:00
1656410400000,METAR SBKP 281000Z 12008KT 9000 4000SE NSC 13/11 Q1020=,SBKP,2022-06-28 10:00:00
1656414000000,METAR SBKP 281100Z 11008KT 9000 4000SE NSC 14/11 Q1020=,SBKP,2022-06-28 11:00:00
1656417600000,METAR SBKP 281200Z 10004KT 9000 NSC 16/12 Q1021=,SBKP,2022-06-28 12:00:00
1656421200000,METAR SBKP 281300Z 02004KT CAVOK 18/12 Q1022=,SBKP,2022-06-28 13:00:00
1656424800000,METAR SBKP 281400Z 02008KT CAVOK 21/12 Q1021=,SBKP,2022-06-28 14:00:00
1656428400000,METAR SBKP 281500Z 02009KT CAVOK 22/12 Q1021=,SBKP,2022-06-28 15:00:00
1656432000000,METAR SBKP 281600Z 35006KT CAVOK 24/13 Q1020=,SBKP,2022-06-28 16:00:00
1656435600000,METAR SBKP 281700Z 30009KT 9999 FEW020 25/12 Q1019=,SBKP,2022-06-28 17:00:00
1656439200000,METAR SBKP 281800Z 30008KT 9999 FEW030 25/12 Q1018=,SBKP,2022-06-28 18:00:00
1656442800000,METAR SBKP 281900Z 29009KT 9999 FEW045 26/12 Q1018=,SBKP,2022-06-28 19:00:00
1656446400000,METAR SBKP 282000Z 28006KT CAVOK 25/12 Q1018=,SBKP,2022-06-28 20:00:00
1656450000000,METAR SBKP 282100Z 26006KT 240V360 CAVOK 23/12 Q1019=,SBKP,2022-06-28 21:00:00
1656453600000,METAR SBKP 282200Z 23006KT 190V250 CAVOK 22/13 Q1019=,SBKP,2022-06-28 22:00:00
1656457200000,METAR SBKP 282300Z 27003KT 210V330 9999 FEW040 22/13 Q1019=,SBKP,2022-06-28 23:00:00
1656374400000,METAR SBPA 280000Z VRB02KT 9999 SCT034 BKN070 16/14 Q1016=,SBPA,2022-06-28 00:00:00
1656378000000,METAR SBPA 280100Z VRB02KT 9999 BKN034 BKN070 16/14 Q1016=,SBPA,2022-06-28 01:00:00
1656381600000,METAR SBPA 280200Z 08003KT 040V130 9999 SCT036 16/14 Q1016=,SBPA,2022-06-28 02:00:00
1656385200000,METAR SBPA 280300Z 04003KT 020V080 9999 FEW036 15/14 Q1016=,SBPA,2022-06-28 03:00:00
1656388800000,METAR SBPA 280400Z 00000KT 9000 NSC 15/14 Q1016=,SBPA,2022-06-28 04:00:00
1656392400000,METAR SBPA 280500Z 15004KT 9000 NSC 14/14 Q1015=,SBPA,2022-06-28 05:00:00
1656396000000,METAR SBPA 280600Z 14002KT 9000 NSC 13/13 Q1015=,SBPA,2022-06-28 06:00:00
1656399600000,METAR SBPA 280700Z 28003KT 8000 NSC 13/13 Q1014=,SBPA,2022-06-28 07:00:00
1656403200000,METAR SBPA 280800Z VRB01KT 6000 NSC 13/13 Q1014=,SBPA,2022-06-28 08:00:00
1656406800000,METAR SBPA 280900Z 00000KT 6000 NSC 13/13 Q1014=,SBPA,2022-06-28 09:00:00
1656410400000,METAR SBPA 281000Z VRB02KT 6000 NSC 13/13 Q1014=,SBPA,2022-06-28 10:00:00
1656414000000,METAR SBPA 281100Z VRB02KT 6000 NSC 13/13 Q1015=,SBPA,2022-06-28 11:00:00
1656416520000,SPECI SBPA 281142Z 08003KT 4000 BR NSC 14/14 Q1015=,SBPA,2022-06-28 11:42:00
1656417600000,METAR SBPA 281200Z 08003KT 4000 BR NSC 14/14 Q1015=,SBPA,2022-06-28 12:00:00
1656421200000,METAR SBPA 281300Z 00000KT 4000 BR NSC 16/15 Q1015=,SBPA,2022-06-28 13:00:00
1656422640000,SPECI SBPA 281324Z VRB02KT 6000 NSC 18/15 Q1015=,SBPA,2022-06-28 13:24:00
1656424800000,METAR SBPA 281400Z 35004KT 260V060 6000 NSC 19/15 Q1014=,SBPA,2022-06-28 14:00:00
1656428400000,METAR SBPA 281500Z VRB03KT 8000 NSC 21/16 Q1014=,SBPA,2022-06-28 15:00:00
1656432000000,METAR SBPA 281600Z 01005KT 320V050 CAVOK 22/15 Q1013=,SBPA,2022-06-28 16:00:00
1656435600000,METAR SBPA 281700Z 28005KT CAVOK 23/16 Q1012=,SBPA,2022-06-28 17:00:00
1656439200000,METAR SBPA 281800Z VRB02KT CAVOK 23/16 Q1011=,SBPA,2022-06-28 18:00:00
1656442800000,METAR SBPA 281900Z VRB02KT 9999 FEW040TCU BKN080 22/18 Q1010=,SBPA,2022-06-28 19:00:00
1656446400000,METAR SBPA 282000Z 22003KT 9999 FEW040TCU BKN070 21/17 Q1010=,SBPA,2022-06-28 20:00:00
1656450000000,METAR SBPA 282100Z VRB01KT 9999 FEW040TCU BKN070 20/17 Q1010=,SBPA,2022-06-28 21:00:00
1656453600000,METAR SBPA 282200Z VRB02KT 9999 BKN035 FEW040TCU OVC060 19/17 Q1010=,SBPA,2022-06-28 22:00:00
1656457200000,METAR SBPA 282300Z VRB02KT 8000 -RA BKN030 FEW040TCU OVC070 18/17 Q1010=,SBPA,2022-06-28 23:00:00
1656374400000,METAR SBRF 280000Z 21007KT 9999 SCT020 BKN070 24/21 Q1015=,SBRF,2022-06-28 00:00:00
1656378000000,METAR SBRF 280100Z 21006KT 9999 SCT021 BKN080 24/21 Q1015=,SBRF,2022-06-28 01:00:00
1656381600000,METAR SBRF 280200Z 19007KT 9000 VCSH FEW015 BKN021 BKN060 24/21 Q1015=,SBRF,2022-06-28 02:00:00
1656385200000,METAR SBRF 280300Z 21006KT 9999 SCT022 BKN060 24/21 Q1015=,SBRF,2022-06-28 03:00:00
1656388800000,METAR SBRF 280400Z 21006KT 9999 SCT022 BKN060 24/21 Q1014=,SBRF,2022-06-28 04:00:00
1656392400000,METAR SBRF 280500Z 22007KT 9999 SCT022 BKN060 23/21 Q1014=,SBRF,2022-06-28 05:00:00
1656396000000,METAR SBRF 280600Z 23006KT 9999 SCT022 BKN060 23/21 Q1013=,SBRF,2022-06-28 06:00:00
1656399600000,METAR SBRF 280700Z 21006KT 9999 SCT022 BKN060 23/21 Q1014=,SBRF,2022-06-28 07:00:00
1656403200000,METAR SBRF 280800Z 22004KT 9999 BKN023 23/21 Q1014=,SBRF,2022-06-28 08:00:00
1656406800000,METAR SBRF 280900Z 23005KT 9999 BKN023 23/21 Q1015=,SBRF,2022-06-28 09:00:00
1656410400000,METAR SBRF 281000Z 21006KT 9999 SCT023 23/22 Q1015=,SBRF,2022-06-28 10:00:00
1656414000000,METAR SBRF 281100Z 19006KT 9999 BKN023 25/22 Q1016=,SBRF,2022-06-28 11:00:00
1656417600000,METAR SBRF 281200Z 18011KT 9999 SCT022 27/22 Q1016=,SBRF,2022-06-28 12:00:00
1656421200000,METAR SBRF 281300Z 19011KT 9999 VCSH BKN018 26/23 Q1016=,SBRF,2022-06-28 13:00:00
1656424800000,METAR SBRF 281400Z 18015KT 8000 -RA BKN017 SCT023 27/23 Q1016=,SBRF,2022-06-28 14:00:00
1656428400000,METAR SBRF 281500Z 17014KT 9999 VCSH BKN020 27/23 Q1015=,SBRF,2022-06-28 15:00:00
1656432000000,METAR SBRF 281600Z 17015KT 8000 -RA BKN018 27/23 Q1014=,SBRF,2022-06-28 16:00:00
1656435600000,METAR SBRF 281700Z 17013KT 9999 SCT020 SCT050 27/22 Q1014=,SBRF,2022-06-28 17:00:00
1656439200000,METAR SBRF 281800Z 18014KT 9999 SCT020 SCT050 27/22 Q1014=,SBRF,2022-06-28 18:00:00
1656442800000,METAR SBRF 281900Z 18013KT 9999 SCT020 SCT050 26/22 Q1014=,SBRF,2022-06-28 19:00:00
1656446400000,METAR SBRF 282000Z 16015KT 9999 SCT012 BKN016 26/23 Q1015=,SBRF,2022-06-28 20:00:00
1656450000000,METAR SBRF 282100Z 17007KT 9999 SCT012 BKN016 24/23 Q1015=,SBRF,2022-06-28 21:00:00
1656450600000,SPECI SBRF 282110Z 16011KT 5000 -RA BKN011 OVC016 24/23 Q1015=,SBRF,2022-06-28 21:10:00
1656453600000,METAR SBRF 282200Z 02007KT 9000 -RA SCT012 BKN016 24/23 Q1016=,SBRF,2022-06-28 22:00:00
1656457200000,METAR SBRF 282300Z 19009KT 8000 -RA SCT012 BKN016 24/22 Q1016=,SBRF,2022-06-28 23:00:00
1656374400000,METAR SBRJ 280000Z 08008KT 9999 FEW020 19/14 Q1021=,SBRJ,2022-06-28 00:00:00
1656378000000,METAR SBRJ 280100Z 07008KT 9999 FEW020 19/14 Q1021=,SBRJ,2022-06-28 01:00:00
1656381600000,METAR SBRJ 280200Z 05004KT 030V130 CAVOK 19/14 Q1020=,SBRJ,2022-06-28 02:00:00
1656406200000,SPECI SBRJ 280850Z 02004KT CAVOK 17/13 Q1019=,SBRJ,2022-06-28 08:50:00
1656406800000,METAR SBRJ 280900Z 01004KT CAVOK 17/13 Q1019=,SBRJ,2022-06-28 09:00:00
1656410400000,METAR SBRJ 281000Z 01007KT 300V040 9999 FEW010 17/15 Q1019=,SBRJ,2022-06-28 10:00:00
1656414000000,METAR SBRJ 281100Z 32006KT 9999 FEW010 17/15 Q1019=,SBRJ,2022-06-28 11:00:00
1656417600000,METAR SBRJ 281200Z 36004KT 320V030 CAVOK 18/15 Q1020=,SBRJ,2022-06-28 12:00:00
1656421200000,METAR SBRJ 281300Z 36005KT CAVOK 19/16 Q1020=,SBRJ,2022-06-28 13:00:00
1656424800000,METAR SBRJ 281400Z 02005KT CAVOK 20/15 Q1019=,SBRJ,2022-06-28 14:00:00
1656428400000,METAR SBRJ 281500Z 36004KT 300V030 CAVOK 21/15 Q1019=,SBRJ,2022-06-28 15:00:00
1656432000000,METAR SBRJ 281600Z 34005KT 300V010 CAVOK 22/15 Q1017=,SBRJ,2022-06-28 16:00:00
1656435600000,METAR SBRJ 281700Z 02003KT 340V040 CAVOK 23/13 Q1017=,SBRJ,2022-06-28 17:00:00
1656439200000,METAR SBRJ 281800Z 36005KT CAVOK 23/13 Q1016=,SBRJ,2022-06-28 18:00:00
1656442800000,METAR SBRJ 281900Z 02002KT CAVOK 23/14 Q1016=,SBRJ,2022-06-28 19:00:00
1656443700000,SPECI SBRJ 281915Z 15004KT CAVOK 23/15 Q1016=,SBRJ,2022-06-28 19:15:00
1656446400000,METAR SBRJ 282000Z 15004KT CAVOK 22/16 Q1016=,SBRJ,2022-06-28 20:00:00
1656450000000,METAR SBRJ 282100Z 18003KT CAVOK 21/16 Q1016=,SBRJ,2022-06-28 21:00:00
1656453600000,METAR SBRJ 282200Z 00000KT CAVOK 21/17 Q1017=,SBRJ,2022-06-28 22:00:00
1656457200000,METAR SBRJ 282300Z 14002KT CAVOK 21/17 Q1017=,SBRJ,2022-06-28 23:00:00
1656374400000,METAR SBSP 280000Z 13006KT 5000 BR FEW003 14/12 Q1022=,SBSP,2022-06-28 00:00:00
1656378000000,METAR SBSP 280100Z 07005KT 030V120 7000 NSC 14/12 Q1022=,SBSP,2022-06-28 01:00:00
1656381600000,METAR SBSP 280200Z 07006KT 040V110 9000 NSC 14/11 Q1022=,SBSP,2022-06-28 02:00:00
1656381720000,SPECI SBSP 280202Z 07007KT 040V110 7000 NSC 14/11 Q1021=,SBSP,2022-06-28 02:02:00
1656385200000,METAR SBSP 280300Z AUTO 06007KT 7000 NCD 14/11 Q1021=,SBSP,2022-06-28 03:00:00
1656388800000,METAR SBSP 280400Z AUTO 07008KT 8000 NCD 14/10 Q1021=,SBSP,2022-06-28 04:00:00
1656392400000,METAR SBSP 280500Z AUTO 07007KT 030V100 7000 NCD 14/11 Q1020=,SBSP,2022-06-28 05:00:00
1656396000000,METAR SBSP 280600Z AUTO 07007KT 040V100 6000 NCD 13/11 Q1020=,SBSP,2022-06-28 06:00:00
1656399600000,METAR SBSP 280700Z AUTO 05006KT 5000 BR NCD 13/10 Q1020=,SBSP,2022-06-28 07:00:00
1656403200000,METAR SBSP 280800Z AUTO 05005KT 5000 BR NCD 13/10 Q1020=,SBSP,2022-06-28 08:00:00
1656405540000,SPECI SBSP 280839Z AUTO 06004KT 4900 BR NCD 13/10 Q1021=,SBSP,2022-06-28 08:39:00
1656406800000,METAR SBSP 280900Z 06005KT 5000 BR FEW046 12/10 Q1021=,SBSP,2022-06-28 09:00:00
1656410400000,METAR COR SBSP 281000Z 04005KT 5000 BR FEW005 12/10 Q1022=,SBSP,2022-06-28 10:00:00
1656414000000,METAR SBSP 281100Z 05004KT 5000 BR SCT003 13/10 Q1022=,SBSP,2022-06-28 11:00:00
1656417600000,METAR SBSP 281200Z 05005KT 5000 BR FEW003 14/11 Q1022=,SBSP,2022-06-28 12:00:00
1656421200000,METAR SBSP 281300Z 03004KT 5000 HZ NSC 16/11 Q1023=,SBSP,2022-06-28 13:00:00
1656424800000,METAR SBSP 281400Z 06004KT 010V110 5000 HZ NSC 18/12 Q1022=,SBSP,2022-06-28 14:00:00
1656428400000,METAR SBSP 281500Z 03004KT 330V120 7000 NSC 20/11 Q1022=,SBSP,2022-06-28 15:00:00
1656432000000,METAR SBSP 281600Z VRB04KT 9000 NSC 22/12 Q1021=,SBSP,2022-06-28 16:00:00
1656435600000,METAR SBSP 281700Z 33008KT 280V020 9999 FEW040 23/12 Q1020=,SBSP,2022-06-28 17:00:00
1656439200000,METAR SBSP 281800Z 32012KT 280V350 9999 FEW043 24/11 Q1019=,SBSP,2022-06-28 18:00:00
1656442800000,METAR SBSP 281900Z 30009KT 260V330 9999 FEW046 24/10 Q1019=,SBSP,2022-06-28 19:00:00
1656446400000,METAR SBSP 282000Z 32010KT 9999 SCT046 23/10 Q1020=,SBSP,2022-06-28 20:00:00
1656450000000,METAR SBSP 282100Z 32006KT 280V350 CAVOK 22/11 Q1020=,SBSP,2022-06-28 21:00:00
1656453600000,METAR SBSP 282200Z 29004KT 250V350 CAVOK 21/11 Q1020=,SBSP,2022-06-28 22:00:00
1656457200000,METAR SBSP 282300Z 33005KT 290V360 CAVOK 21/11 Q1021=,SBSP,2022-06-28 23:00:00
1656374400000,METAR SBSV 280000Z 16017KT 9999 FEW020 SCT070 26/19 Q1018=,SBSV,2022-06-28 00:00:00
1656378000000,METAR SBSV 280100Z 17020KT 9999 FEW020 SCT070 26/17 Q1018=,SBSV,2022-06-28 01:00:00
1656381600000,METAR SBSV 280200Z 16018KT 9999 FEW020 SCT070 26/16 Q1018=,SBSV,2022-06-28 02:00:00
1656385200000,METAR SBSV 280300Z 16016KT 9999 FEW020 SCT070 26/18 Q1018=,SBSV,2022-06-28 03:00:00
1656388800000,METAR SBSV 280400Z 16016KT 9999 FEW020 SCT070 26/17 Q1018=,SBSV,2022-06-28 04:00:00
1656392400000,METAR SBSV 280500Z 17013KT 9999 FEW020 SCT070 26/17 Q1017=,SBSV,2022-06-28 05:00:00
1656396000000,METAR SBSV 280600Z 16014KT 9999 FEW020 SCT070 26/17 Q1017=,SBSV,2022-06-28 06:00:00
1656399600000,METAR SBSV 280700Z 15013KT 9999 FEW020 25/18 Q1017=,SBSV,2022-06-28 07:00:00
1656403200000,METAR SBSV 280800Z 16013KT 9999 FEW020 25/18 Q1017=,SBSV,2022-06-28 08:00:00
1656406800000,METAR SBSV 280900Z 14013KT 9999 BKN020 FEW023TCU 25/18 Q1017=,SBSV,2022-06-28 09:00:00
1656410400000,METAR SBSV 281000Z 13012KT 9999 SCT020 FEW023TCU SCT070 25/16 Q1018=,SBSV,2022-06-28 10:00:00
1656414000000,METAR SBSV 281100Z 10010KT 9999 SCT020 FEW023TCU SCT070 26/17 Q1019=,SBSV,2022-06-28 11:00:00
1656417600000,METAR SBSV 281200Z 00000KT 8000 VCSH BKN030 23/18 Q1020=,SBSV,2022-06-28 12:00:00
1656421200000,METAR SBSV 281300Z 22002KT 8000 VCSH SCT015 BKN030 24/20 Q1020=,SBSV,2022-06-28 13:00:00
1656424800000,METAR SBSV 281400Z 15010KT 9999 VCSH SCT015 FEW020TCU BKN060 26/17 Q1020=,SBSV,2022-06-28 14:00:00
1656428400000,METAR SBSV 281500Z 18010KT 9999 SCT015 FEW020TCU BKN060 26/18 Q1019=,SBSV,2022-06-28 15:00:00
1656432000000,METAR SBSV 281600Z 17011KT 9999 SCT020 SCT060 28/16 Q1018=,SBSV,2022-06-28 16:00:00
1656435600000,METAR SBSV 281700Z 15013KT 9999 SCT025 27/17 Q1017=,SBSV,2022-06-28 17:00:00
1656439200000,METAR SBSV 281800Z 16012KT 9999 SCT025 27/17 Q1017=,SBSV,2022-06-28 18:00:00
1656442800000,METAR SBSV 281900Z 16010KT 9999 SCT025 26/18 Q1017=,SBSV,2022-06-28 19:00:00
1656446400000,METAR SBSV 282000Z 16009KT 9999 FEW020 26/17 Q1018=,SBSV,2022-06-28 20:00:00
1656450000000,METAR SBSV 282100Z 16011KT 9999 SCT025 26/18 Q1018=,SBSV,2022-06-28 21:00:00
1656453600000,METAR SBSV 282200Z 16008KT 9999 SCT025 25/17 Q1019=,SBSV,2022-06-28 22:00:00
1656457200000,METAR SBSV 282300Z 16008KT 9999 FEW025 26/18 Q1019=,SBSV,2022-06-28 23:00:00
1656460800000,METAR SBBR 290000Z VRB02KT CAVOK 19/09 Q1023=,SBBR,2022-06-29 00:00:00
1656464400000,METAR SBBR 290100Z 18003KT 160V230 CAVOK 18/10 Q1023=,SBBR,2022-06-29 01:00:00
1656468000000,METAR SBBR 290200Z VRB01KT CAVOK 14/09 Q1023=,SBBR,2022-06-29 02:00:00
1656471600000,METAR SBBR 290300Z 20004KT CAVOK 16/10 Q1023=,SBBR,2022-06-29 03:00:00
1656475200000,METAR SBBR 290400Z 00000KT CAVOK 13/09 Q1023=,SBBR,2022-06-29 04:00:00
1656478800000,METAR SBBR 290500Z VRB01KT CAVOK 12/09 Q1023=,SBBR,2022-06-29 05:00:00
1656482400000,METAR SBBR 290600Z VRB02KT CAVOK 12/09 Q1022=,SBBR,2022-06-29 06:00:00
1656486000000,METAR SBBR 290700Z 00000KT CAVOK 11/09 Q1022=,SBBR,2022-06-29 07:00:00
1656489600000,METAR SBBR 290800Z 32001KT CAVOK 11/09 Q1022=,SBBR,2022-06-29 08:00:00
1656493200000,METAR SBBR 290900Z 00000KT CAVOK 11/09 Q1022=,SBBR,2022-06-29 09:00:00
1656496800000,METAR SBBR 291000Z 27002KT CAVOK 11/09 Q1022=,SBBR,2022-06-29 10:00:00
1656500400000,METAR SBBR 291100Z 00000KT CAVOK 14/10 Q1023=,SBBR,2022-06-29 11:00:00
1656504000000,METAR SBBR 291200Z 21002KT CAVOK 17/10 Q1023=,SBBR,2022-06-29 12:00:00
1656507600000,METAR SBBR 291300Z 04003KT CAVOK 21/12 Q1023=,SBBR,2022-06-29 13:00:00
1656511200000,METAR SBBR 291400Z 12003KT 9999 FEW030 23/11 Q1023=,SBBR,2022-06-29 14:00:00
1656514800000,METAR SBBR 291500Z VRB04KT 9999 SCT030 25/10 Q1022=,SBBR,2022-06-29 15:00:00
1656518400000,METAR SBBR 291600Z 26005KT 190V310 9999 SCT035 25/09 Q1021=,SBBR,2022-06-29 16:00:00
1656522000000,METAR SBBR 291700Z 13003KT 080V190 9999 SCT040 25/10 Q1021=,SBBR,2022-06-29 17:00:00
1656525600000,METAR SBBR 291800Z 16007KT CAVOK 26/10 Q1020=,SBBR,2022-06-29 18:00:00
1656529200000,METAR SBBR 291900Z 14006KT 110V180 CAVOK 26/09 Q1019=,SBBR,2022-06-29 19:00:00
1656532800000,METAR SBBR 292000Z 15005KT 110V180 CAVOK 25/09 Q1019=,SBBR,2022-06-29 20:00:00
1656536400000,METAR SBBR 292100Z 16006KT CAVOK 24/10 Q1020=,SBBR,2022-06-29 21:00:00
1656540000000,METAR SBBR 292200Z 17005KT CAVOK 23/10 Q1020=,SBBR,2022-06-29 22:00:00
1656543600000,METAR SBBR 292300Z 18003KT CAVOK 21/10 Q1021=,SBBR,2022-06-29 23:00:00
1656460800000,METAR SBCF 290000Z 13003KT CAVOK 15/10 Q1023=,SBCF,2022-06-29 00:00:00
1656464400000,METAR SBCF 290100Z 15002KT CAVOK 15/10 Q1023=,SBCF,2022-06-29 01:00:00
1656468000000,METAR SBCF 290200Z 13003KT CAVOK 14/10 Q1023=,SBCF,2022-06-29 02:00:00
1656471600000,METAR SBCF 290300Z 13002KT CAVOK 14/10 Q1023=,SBCF,2022-06-29 03:00:00
1656475200000,METAR SBCF 290400Z 12003KT CAVOK 14/09 Q1023=,SBCF,2022-06-29 04:00:00
1656478800000,METAR SBCF 290500Z 15003KT CAVOK 12/09 Q1022=,SBCF,2022-06-29 05:00:00
1656482400000,METAR SBCF 290600Z 21001KT CAVOK 11/09 Q1021=,SBCF,2022-06-29 06:00:00
1656486000000,METAR SBCF 290700Z 16002KT CAVOK 11/09 Q1021=,SBCF,2022-06-29 07:00:00
1656489600000,METAR SBCF 290800Z 13002KT CAVOK 11/09 Q1021=,SBCF,2022-06-29 08:00:00
1656493200000,METAR SBCF 290900Z 15002KT CAVOK 11/09 Q1021=,SBCF,2022-06-29 09:00:00
1656496800000,METAR SBCF 291000Z 15002KT CAVOK 11/09 Q1022=,SBCF,2022-06-29 10:00:00
1656500400000,METAR SBCF 291100Z 15001KT CAVOK 12/10 Q1022=,SBCF,2022-06-29 11:00:00
1656504000000,METAR SBCF 291200Z 13002KT CAVOK 14/11 Q1023=,SBCF,2022-06-29 12:00:00
1656507600000,METAR SBCF 291300Z 19001KT CAVOK 18/12 Q1022=,SBCF,2022-06-29 13:00:00
1656511200000,METAR SBCF 291400Z 32005KT CAVOK 21/11 Q1022=,SBCF,2022-06-29 14:00:00
1656514800000,METAR SBCF 291500Z 31007KT CAVOK 23/11 Q1021=,SBCF,2022-06-29 15:00:00
1656518400000,METAR SBCF 291600Z 30006KT CAVOK 24/11 Q1020=,SBCF,2022-06-29 16:00:00
1656522000000,METAR SBCF 291700Z 27008KT 200V300 9999 FEW045 25/11 Q1019=,SBCF,2022-06-29 17:00:00
1656525600000,METAR SBCF 291800Z 22009KT 180V280 CAVOK 25/11 Q1019=,SBCF,2022-06-29 18:00:00
1656529200000,METAR SBCF 291900Z 24009KT 200V260 9999 FEW040 25/10 Q1019=,SBCF,2022-06-29 19:00:00
1656532800000,METAR SBCF 292000Z 25006KT 9999 FEW040 24/11 Q1019=,SBCF,2022-06-29 20:00:00
1656536400000,METAR SBCF 292100Z 33006KT CAVOK 22/11 Q1019=,SBCF,2022-06-29 21:00:00
1656540000000,METAR SBCF 292200Z 31003KT CAVOK 21/11 Q1019=,SBCF,2022-06-29 22:00:00
1656543600000,METAR SBCF 292300Z 32003KT CAVOK 20/11 Q1020=,SBCF,2022-06-29 23:00:00
1656460800000,METAR SBCT 290000Z 32006KT CAVOK 16/12 Q1019=,SBCT,2022-06-29 00:00:00
1656464400000,METAR SBCT 290100Z 33008KT CAVOK 16/12 Q1018=,SBCT,2022-06-29 01:00:00
1656468000000,METAR SBCT 290200Z 33009KT CAVOK 15/12 Q1018=,SBCT,2022-06-29 02:00:00
1656471600000,METAR SBCT 290300Z 32007KT CAVOK 15/13 Q1018=,SBCT,2022-06-29 03:00:00
1656475200000,METAR SBCT 290400Z 33010KT 9999 BKN009 15/13 Q1017=,SBCT,2022-06-29 04:00:00
1656478800000,METAR SBCT 290500Z 35008KT CAVOK 14/13 Q1017=,SBCT,2022-06-29 05:00:00
1656482400000,METAR SBCT 290600Z 32009KT CAVOK 15/13 Q1016=,SBCT,2022-06-29 06:00:00
1656486000000,METAR SBCT 290700Z 32009KT CAVOK 15/13 Q1016=,SBCT,2022-06-29 07:00:00
1656489600000,METAR SBCT 290800Z 32010KT 9999 SCT030 16/13 Q1015=,SBCT,2022-06-29 08:00:00
1656493200000,METAR SBCT 290900Z 31010KT 9999 SCT030 15/13 Q1015=,SBCT,2022-06-29 09:00:00
1656496800000,METAR SBCT 291000Z 31010KT 9999 SCT040 BKN080 15/13 Q1015=,SBCT,2022-06-29 10:00:00
1656500400000,METAR SBCT 291100Z 31009KT 9999 BKN045 16/13 Q1016=,SBCT,2022-06-29 11:00:00
1656504000000,METAR SBCT 291200Z 30010KT 270V330 9999 BKN025 16/14 Q1017=,SBCT,2022-06-29 12:00:00
1656507600000,METAR SBCT 291300Z 29016KT 250V320 9999 SCT020 BKN040 17/12 Q1017=,SBCT,2022-06-29 13:00:00
1656511200000,METAR SBCT 291400Z 29017KT 270V330 9999 SCT030 18/09 Q1017=,SBCT,2022-06-29 14:00:00
1656514800000,METAR SBCT 291500Z 29017KT 250V330 9999 SCT035 18/08 Q1017=,SBCT,2022-06-29 15:00:00
1656518400000,METAR SBCT 291600Z 28014KT 250V310 9999 FEW040 19/07 Q1016=,SBCT,2022-06-29 16:00:00
1656522000000,METAR SBCT 291700Z 29015KT 240V310 9999 SCT045 20/07 Q1016=,SBCT,2022-06-29 17:00:00
1656525600000,METAR SBCT 291800Z 28013KT 9999 FEW045 20/07 Q1016=,SBCT,2022-06-29 18:00:00
1656529200000,METAR SBCT 291900Z 25016KT CAVOK 19/05 Q1016=,SBCT,2022-06-29 19:00:00
1656532800000,METAR SBCT 292000Z 23012KT CAVOK 17/04 Q1017=,SBCT,2022-06-29 20:00:00
1656536400000,METAR SBCT 292100Z 23007KT CAVOK 15/04 Q1018=,SBCT,2022-06-29 21:00:00
1656540000000,METAR SBCT 292200Z 23004KT CAVOK 14/04 Q1019=,SBCT,2022-06-29 22:00:00
1656543600000,METAR SBCT 292300Z 24006KT CAVOK 13/04 Q1019=,SBCT,2022-06-29 23:00:00
1656460800000,METAR SBFL 290000Z 34012KT CAVOK 18/16 Q1013=,SBFL,2022-06-29 00:00:00
1656464400000,METAR SBFL 290100Z 34010KT CAVOK 18/16 Q1013=,SBFL,2022-06-29 01:00:00
1656468000000,METAR SBFL 290200Z 34009KT CAVOK 18/16 Q1012=,SBFL,2022-06-29 02:00:00
1656471600000,METAR SBFL 290300Z 31005KT CAVOK 17/16 Q1012=,SBFL,2022-06-29 03:00:00
1656475200000,METAR SBFL 290400Z 32006KT CAVOK 17/16 Q1011=,SBFL,2022-06-29 04:00:00
1656478800000,METAR SBFL 290500Z 34005KT CAVOK 16/15 Q1010=,SBFL,2022-06-29 05:00:00
1656482400000,METAR SBFL 290600Z 35003KT CAVOK 16/16 Q1009=,SBFL,2022-06-29 06:00:00
1656486000000,METAR SBFL 290700Z 06003KT CAVOK 16/15 Q1009=,SBFL,2022-06-29 07:00:00
1656489600000,METAR SBFL 290800Z VRB02KT CAVOK 16/15 Q1009=,SBFL,2022-06-29 08:00:00
1656493200000,METAR SBFL 290900Z 13007KT 090V150 CAVOK 17/16 Q1010=,SBFL,2022-06-29 09:00:00
1656496800000,METAR SBFL 291000Z 09009KT 9999 FEW010 SCT033 BKN083 16/15 Q1011=,SBFL,2022-06-29 10:00:00
1656500400000,METAR SBFL 291100Z 09011KT 9999 FEW010 15/14 Q1012=,SBFL,2022-06-29 11:00:00
1656504000000,METAR SBFL 291200Z 13008KT 9999 FEW010 16/14 Q1013=,SBFL,2022-06-29 12:00:00
1656507600000,METAR SBFL 291300Z 15007KT 9999 FEW010 17/13 Q1014=,SBFL,2022-06-29 13:00:00
1656511200000,METAR SBFL 291400Z 05004KT 9999 FEW020 19/13 Q1013=,SBFL,2022-06-29 14:00:00
1656514800000,METAR SBFL 291500Z 10005KT 9999 SCT020 18/13 Q1013=,SBFL,2022-06-29 15:00:00
1656518400000,METAR SBFL 291600Z 12007KT 9999 BKN020 19/13 Q1013=,SBFL,2022-06-29 16:00:00
1656522000000,METAR SBFL 291700Z 14005KT 9999 BKN020 19/12 Q1013=,SBFL,2022-06-29 17:00:00
1656525600000,METAR SBFL 291800Z 12005KT 9999 FEW040 19/11 Q1013=,SBFL,2022-06-29 18:00:00
1656529200000,METAR SBFL 291900Z 09007KT CAVOK 18/11 Q1013=,SBFL,2022-06-29 19:00:00
1656532800000,METAR SBFL 292000Z 08005KT CAVOK 17/11 Q1014=,SBFL,2022-06-29 20:00:00
1656536400000,METAR SBFL 292100Z 10004KT CAVOK 15/11 Q1014=,SBFL,2022-06-29 21:00:00
1656540000000,METAR SBFL 292200Z 12006KT CAVOK 13/10 Q1015=,SBFL,2022-06-29 22:00:00
1656543600000,METAR SBFL 292300Z 10005KT CAVOK 14/11 Q1016=,SBFL,2022-06-29 23:00:00
1656460800000,METAR SBGL 290000Z 04002KT CAVOK 17/15 Q1018=,SBGL,2022-06-29 00:00:00
1656464400000,METAR SBGL 290100Z 04002KT CAVOK 17/15 Q1018=,SBGL,2022-06-29 01:00:00
1656468000000,METAR SBGL 290200Z 07003KT CAVOK 16/15 Q1017=,SBGL,2022-06-29 02:00:00
1656471600000,METAR SBGL 290300Z 08004KT CAVOK 16/15 Q1017=,SBGL,2022-06-29 03:00:00
1656475200000,METAR SBGL 290400Z 14002KT CAVOK 16/14 Q1016=,SBGL,2022-06-29 04:00:00
1656478800000,METAR SBGL 290500Z 09002KT CAVOK 16/14 Q1016=,SBGL,2022-06-29 05:00:00
1656482400000,METAR SBGL 290600Z 01002KT CAVOK 15/14 Q1016=,SBGL,2022-06-29 06:00:00
1656486000000,METAR SBGL 290700Z 32002KT 8000 NSC 15/14 Q1015=,SBGL,2022-06-29 07:00:00
1656489600000,METAR SBGL 290800Z 35002KT 7000 NSC 15/14 Q1015=,SBGL,2022-06-29 08:00:00
1656493200000,METAR SBGL 290900Z 32002KT 6000 NSC 15/14 Q1014=,SBGL,2022-06-29 09:00:00
1656496800000,METAR SBGL 291000Z 00000KT 7000 NSC 14/13 Q1015=,SBGL,2022-06-29 10:00:00
1656500400000,METAR SBGL 291100Z 34004KT 5000 BR NSC 19/17 Q1016=,SBGL,2022-06-29 11:00:00
1656504000000,METAR SBGL 291200Z 05002KT 7000 NSC 21/16 Q1016=,SBGL,2022-06-29 12:00:00
1656507600000,METAR SBGL 291300Z 03004KT 8000 NSC 23/17 Q1016=,SBGL,2022-06-29 13:00:00
1656511200000,METAR SBGL 291400Z 05008KT CAVOK 24/17 Q1015=,SBGL,2022-06-29 14:00:00
1656514800000,METAR SBGL 291500Z 02003KT CAVOK 28/16 Q1014=,SBGL,2022-06-29 15:00:00
1656518400000,METAR SBGL 291600Z 35004KT CAVOK 28/16 Q1013=,SBGL,2022-06-29 16:00:00
1656522000000,METAR SBGL 291700Z 33003KT CAVOK 29/17 Q1012=,SBGL,2022-06-29 17:00:00
1656525600000,METAR SBGL 291800Z 12005KT CAVOK 29/18 Q1011=,SBGL,2022-06-29 18:00:00
1656529200000,METAR SBGL 291900Z 03004KT CAVOK 29/17 Q1011=,SBGL,2022-06-29 19:00:00
1656532800000,METAR SBGL 292000Z 09004KT 040V170 CAVOK 26/17 Q1012=,SBGL,2022-06-29 20:00:00
1656536400000,METAR SBGL 292100Z VRB02KT CAVOK 25/18 Q1012=,SBGL,2022-06-29 21:00:00
1656540000000,METAR SBGL 292200Z 02003KT CAVOK 24/17 Q1013=,SBGL,2022-06-29 22:00:00
1656543600000,METAR SBGL 292300Z 08004KT CAVOK 21/18 Q1013=,SBGL,2022-06-29 23:00:00
1656460800000,METAR SBGR 290000Z 07002KT 9000 NSC 15/15 Q1020=,SBGR,2022-06-29 00:00:00
1656464400000,METAR SBGR 290100Z 09003KT CAVOK 14/14 Q1020=,SBGR,2022-06-29 01:00:00
1656468000000,METAR SBGR 290200Z 09004KT CAVOK 14/14 Q1020=,SBGR,2022-06-29 02:00:00
1656471600000,METAR SBGR 290300Z 00000KT CAVOK 13/13 Q1020=,SBGR,2022-06-29 03:00:00
1656475200000,METAR SBGR 290400Z 09004KT CAVOK 13/13 Q1019=,SBGR,2022-06-29 04:00:00
1656478800000,METAR SBGR 290500Z 34003KT CAVOK 13/13 Q1019=,SBGR,2022-06-29 05:00:00
1656482400000,METAR SBGR 290600Z 08003KT CAVOK 14/13 Q1018=,SBGR,2022-06-29 06:00:00
1656486000000,METAR SBGR 290700Z 09004KT CAVOK 14/13 Q1018=,SBGR,2022-06-29 07:00:00
1656489600000,METAR SBGR 290800Z 09004KT CAVOK 13/13 Q1018=,SBGR,2022-06-29 08:00:00
1656493200000,METAR SBGR 290900Z 00000KT CAVOK 14/13 Q1017=,SBGR,2022-06-29 09:00:00
1656496800000,METAR SBGR 291000Z 06003KT 340V110 9000 NSC 13/13 Q1018=,SBGR,2022-06-29 10:00:00
1656500400000,METAR SBGR 291100Z 33008KT 300V020 CAVOK 19/13 Q1018=,SBGR,2022-06-29 11:00:00
1656504000000,METAR SBGR 291200Z 33006KT 310V010 CAVOK 21/13 Q1019=,SBGR,2022-06-29 12:00:00
1656507600000,METAR SBGR 291300Z 31010KT 260V350 CAVOK 23/13 Q1018=,SBGR,2022-06-29 13:00:00
1656511200000,METAR SBGR 291400Z 31012KT CAVOK 23/13 Q1018=,SBGR,2022-06-29 14:00:00
1656514800000,METAR SBGR 291500Z 30015KT 9999 SCT025 25/12 Q1017=,SBGR,2022-06-29 15:00:00
1656518400000,METAR SBGR 291600Z 30016G26KT 9999 BKN045 25/11 Q1016=,SBGR,2022-06-29 16:00:00
1656522000000,METAR SBGR 291700Z 29019G30KT CAVOK 25/11 Q1016=,SBGR,2022-06-29 17:00:00
1656525600000,METAR SBGR 291800Z 29021G31KT 9999 BKN045 25/11 Q1015=,SBGR,2022-06-29 18:00:00
1656529200000,METAR SBGR 291900Z 30018KT 9999 SCT045 24/11 Q1015=,SBGR,2022-06-29 19:00:00
1656532800000,METAR SBGR 292000Z 29012KT 9999 SCT045 24/11 Q1016=,SBGR,2022-06-29 20:00:00
1656536400000,METAR SBGR 292100Z 28009KT 9999 SCT045 22/12 Q1017=,SBGR,2022-06-29 21:00:00
1656540000000,METAR SBGR 292200Z 28008KT CAVOK 21/12 Q1017=,SBGR,2022-06-29 22:00:00
1656543600000,METAR SBGR 292300Z 28005KT CAVOK 19/12 Q1018=,SBGR,2022-06-29 23:00:00
1656460800000,METAR SBKP 290000Z VRB02KT CAVOK 20/13 Q1020=,SBKP,2022-06-29 00:00:00
1656464400000,METAR SBKP 290100Z VRB02KT CAVOK 19/13 Q1020=,SBKP,2022-06-29 01:00:00
1656468000000,METAR SBKP 290200Z 02003KT CAVOK 18/13 Q1020=,SBKP,2022-06-29 02:00:00
1656471600000,METAR SBKP 290300Z 08005KT CAVOK 16/13 Q1019=,SBKP,2022-06-29 03:00:00
1656475200000,METAR SBKP 290400Z 10004KT CAVOK 16/13 Q1019=,SBKP,2022-06-29 04:00:00
1656478800000,METAR SBKP 290500Z 04005KT CAVOK 16/12 Q1018=,SBKP,2022-06-29 05:00:00
1656482400000,METAR SBKP 290600Z 04005KT CAVOK 16/13 Q1018=,SBKP,2022-06-29 06:00:00
1656486000000,METAR SBKP 290700Z 15005KT CAVOK 17/12 Q1018=,SBKP,2022-06-29 07:00:00
1656489600000,METAR SBKP 290800Z 06004KT CAVOK 15/12 Q1018=,SBKP,2022-06-29 08:00:00
1656493200000,METAR SBKP 290900Z 04006KT CAVOK 15/12 Q1018=,SBKP,2022-06-29 09:00:00
1656496800000,METAR SBKP 291000Z 04007KT 8000 FEW020 16/12 Q1018=,SBKP,2022-06-29 10:00:00
1656500400000,METAR SBKP 291100Z 02007KT 8000 NSC 17/12 Q1018=,SBKP,2022-06-29 11:00:00
1656504000000,METAR SBKP 291200Z 01010KT 8000 NSC 19/13 Q1019=,SBKP,2022-06-29 12:00:00
1656507600000,METAR SBKP 291300Z 36008KT 330V030 8000 NSC 21/13 Q1019=,SBKP,2022-06-29 13:00:00
1656511200000,METAR SBKP 291400Z 34011KT CAVOK 23/13 Q1018=,SBKP,2022-06-29 14:00:00
1656514800000,METAR SBKP 291500Z 32012KT 290V350 9999 FEW025 25/13 Q1018=,SBKP,2022-06-29 15:00:00
1656518400000,METAR SBKP 291600Z 30017KT 9999 SCT045 26/11 Q1017=,SBKP,2022-06-29 16:00:00
1656522000000,METAR SBKP 291700Z 30019KT 9999 SCT045 26/11 Q1017=,SBKP,2022-06-29 17:00:00
1656525600000,METAR SBKP 291800Z 30020KT 9999 SCT045 26/11 Q1016=,SBKP,2022-06-29 18:00:00
1656529200000,METAR SBKP 291900Z 28016KT 9999 SCT045 25/12 Q1016=,SBKP,2022-06-29 19:00:00
1656532800000,METAR SBKP 292000Z 29012KT 9999 FEW045 25/12 Q1017=,SBKP,2022-06-29 20:00:00
1656536400000,METAR SBKP 292100Z 28008KT 9999 FEW045 22/12 Q1017=,SBKP,2022-06-29 21:00:00
1656540000000,METAR SBKP 292200Z 27007KT 9999 FEW045 21/12 Q1018=,SBKP,2022-06-29 22:00:00
1656543600000,METAR SBKP 292300Z 26007KT CAVOK 20/12 Q1018=,SBKP,2022-06-29 23:00:00
1656460800000,METAR SBPA 290000Z VRB02KT 4000 -RA BKN030 OVC050 18/17 Q1010=,SBPA,2022-06-29 00:00:00
1656464400000,METAR SBPA 290100Z 20010KT 4000 RA BR FEW007 BKN013 OVC020 14/13 Q1011=,SBPA,2022-06-29 01:00:00
1656468000000,METAR SBPA 290200Z 19009KT 150V230 4000 -RA BR BKN009 OVC023 12/11 Q1012 RERA=,SBPA,2022-06-29 02:00:00
1656471600000,METAR SBPA 290300Z 23007KT 200V260 4000 -RA BR BKN008 OVC017 12/11 Q1013=,SBPA,2022-06-29 03:00:00
1656475200000,METAR SBPA 290400Z 25007KT 4000 -RA BR OVC009 12/11 Q1014=,SBPA,2022-06-29 04:00:00
1656478800000,METAR SBPA 290500Z 28016KT 4000 BR BKN005 OVC012 12/11 Q1014=,SBPA,2022-06-29 05:00:00
1656480600000,SPECI SBPA 290530Z 28017KT 6000 OVC012 12/10 Q1015=,SBPA,2022-06-29 05:30:00
1656482400000,METAR SBPA 290600Z 28017KT 6000 BKN012 OVC016 12/10 Q1014=,SBPA,2022-06-29 06:00:00
1656486000000,METAR SBPA 290700Z 28015KT 8000 BKN009 OVC019 11/10 Q1015=,SBPA,2022-06-29 07:00:00
1656489600000,METAR SBPA 290800Z 28015KT 4000 -RA BR SCT008 BKN014 OVC036 11/10 Q1015=,SBPA,2022-06-29 08:00:00
1656493200000,METAR SBPA 290900Z 28011KT 8000 FEW008 BKN013 OVC035 10/09 Q1016=,SBPA,2022-06-29 09:00:00
1656496800000,METAR SBPA 291000Z 29012KT 8000 BKN009 OVC016 11/09 Q1017=,SBPA,2022-06-29 10:00:00
1656500400000,METAR SBPA 291100Z 27012KT 240V300 7000 OVC009 10/09 Q1017=,SBPA,2022-06-29 11:00:00
1656504000000,METAR SBPA 291200Z 28014KT 270V330 8000 BKN010 OVC020 11/10 Q1018=,SBPA,2022-06-29 12:00:00
1656507600000,METAR SBPA 291300Z 29015KT 9000 BKN011 OVC020 11/09 Q1018=,SBPA,2022-06-29 13:00:00
1656511200000,METAR SBPA 291400Z 28013KT 9999 OVC015 12/09 Q1018=,SBPA,2022-06-29 14:00:00
1656514800000,METAR SBPA 291500Z 29017KT 9999 BKN020 13/09 Q1018=,SBPA,2022-06-29 15:00:00
1656518400000,METAR SBPA 291600Z 28016KT 9999 SCT023 14/09 Q1017=,SBPA,2022-06-29 16:00:00
1656522000000,METAR SBPA 291700Z 28015KT 9999 FEW025 15/09 Q1017=,SBPA,2022-06-29 17:00:00
1656525600000,METAR SBPA 291800Z 28017KT 9999 FEW025 15/08 Q1017=,SBPA,2022-06-29 18:00:00
1656529200000,METAR SBPA 291900Z 28016KT 9999 FEW030 15/08 Q1017=,SBPA,2022-06-29 19:00:00
1656532800000,METAR SBPA 292000Z 28010KT CAVOK 14/09 Q1017=,SBPA,2022-06-29 20:00:00
1656536400000,METAR SBPA 292100Z 29008KT 270V340 CAVOK 13/09 Q1017=,SBPA,2022-06-29 21:00:00
1656540000000,METAR SBPA 292200Z 28004KT CAVOK 12/09 Q1017=,SBPA,2022-06-29 22:00:00
1656543600000,METAR SBPA 292300Z 33003KT 300V020 CAVOK 12/09 Q1018=,SBPA,2022-06-29 23:00:00
1656460800000,METAR SBRF 290000Z 02007KT 4000 -RA BR SCT012 OVC016 23/22 Q1017=,SBRF,2022-06-29 00:00:00
1656464400000,METAR SBRF 290100Z 21007KT 8000 VCSH SCT015 BKN018 23/22 Q1017=,SBRF,2022-06-29 01:00:00
1656468000000,METAR SBRF 290200Z 19009KT 9999 SCT009 BKN018 23/22 Q1017=,SBRF,2022-06-29 02:00:00
1656468840000,SPECI SBRF 290214Z 18008KT 4500 -RA BKN009 BKN018 23/23 Q1017=,SBRF,2022-06-29 02:14:00
1656471600000,METAR SBRF 290300Z 17006KT 5000 -RA BKN012 BKN020 23/23 Q1016=,SBRF,2022-06-29 03:00:00
1656472260000,SPECI SBRF 290311Z 19004KT 4000 -RA BR BKN009 BKN020 23/23 Q1016=,SBRF,2022-06-29 03:11:00
1656475200000,METAR SBRF 290400Z 22006KT 9999 SCT010 BKN020 23/22 Q1016=,SBRF,2022-06-29 04:00:00
1656478800000,METAR SBRF 290500Z 21005KT 9999 SCT014 BKN018 BKN050 23/22 Q1015=,SBRF,2022-06-29 05:00:00
1656482400000,METAR SBRF 290600Z 21006KT 9000 FEW015 BKN022 BKN060 23/22 Q1015=,SBRF,2022-06-29 06:00:00
1656486000000,METAR SBRF 290700Z 21007KT 6000 -RA BKN018 BKN060 23/22 Q1015=,SBRF,2022-06-29 07:00:00
1656489600000,METAR SBRF 290800Z 22005KT 9999 FEW009 SCT022 BKN070 22/22 Q1015=,SBRF,2022-06-29 08:00:00
1656493200000,METAR SBRF 290900Z 22006KT 9999 FEW020 BKN070 23/21 Q1015=,SBRF,2022-06-29 09:00:00
1656496800000,METAR SBRF 291000Z 21008KT 9999 FEW020 BKN070 23/21 Q1016=,SBRF,2022-06-29 10:00:00
1656500400000,METAR SBRF 291100Z 20008KT 9999 FEW020 BKN070 24/21 Q1016=,SBRF,2022-06-29 11:00:00
1656504000000,METAR SBRF 291200Z 19009KT 9999 FEW016 BKN025 26/22 Q1016=,SBRF,2022-06-29 12:00:00
1656507600000,METAR SBRF 291300Z 19009KT 9999 SCT018 BKN040 26/22 Q1017=,SBRF,2022-06-29 13:00:00
1656511200000,METAR SBRF 291400Z 18014KT 9999 BKN020 26/22 Q1016=,SBRF,2022-06-29 14:00:00
1656514800000,METAR SBRF 291500Z 19014KT 9999 SCT020 BKN040 26/22 Q1015=,SBRF,2022-06-29 15:00:00
1656518400000,METAR SBRF 291600Z 18011KT 150V210 9000 VCSH SCT025 BKN060 26/22 Q1015=,SBRF,2022-06-29 16:00:00
1656522000000,METAR SBRF 291700Z 18012KT 9000 VCSH SCT023 BKN070 26/21 Q1014=,SBRF,2022-06-29 17:00:00
1656525600000,METAR SBRF 291800Z 14010KT 2000 -RA BKN010 OVC020 24/23 Q1015=,SBRF,2022-06-29 18:00:00
1656527820000,SPECI SBRF 291837Z 15010KT 110V170 4000 -RA SCT006 BKN020 BKN050 23/22 Q1015=,SBRF,2022-06-29 18:37:00
1656529200000,METAR SBRF 291900Z 16009KT 3500 -RA SCT006 BKN020 BKN050 23/22 Q1015 RERA=,SBRF,2022-06-29 19:00:00
1656532800000,METAR SBRF 292000Z 16012KT 3500 -RA BKN007 BKN020 BKN050 23/22 Q1016=,SBRF,2022-06-29 20:00:00
1656534600000,SPECI SBRF 292030Z 17010KT 5000 -RA SCT006 BKN020 OVC080 23/22 Q1016=,SBRF,2022-06-29 20:30:00
1656536400000,METAR SBRF 292100Z 17013KT 9999 VCSH SCT007 OVC100 23/22 Q1015=,SBRF,2022-06-29 21:00:00
1656540000000,METAR SBRF 292200Z 18012KT 9999 VCSH SCT010 OVC100 23/22 Q1015 RERA=,SBRF,2022-06-29 22:00:00
1656543600000,METAR SBRF 292300Z 18014KT 8000 VCSH SCT008 BKN015 BKN100 23/22 Q1015=,SBRF,2022-06-29 23:00:00
1656460800000,METAR SBRJ 290000Z 01006KT CAVOK 21/16 Q1017=,SBRJ,2022-06-29 00:00:00
1656464400000,METAR SBRJ 290100Z 35005KT CAVOK 20/16 Q1017=,SBRJ,2022-06-29 01:00:00
1656468000000,METAR SBRJ 290200Z 36005KT CAVOK 20/16 Q1017=,SBRJ,2022-06-29 02:00:00
1656492600000,SPECI SBRJ 290850Z 36008KT CAVOK 19/16 Q1014=,SBRJ,2022-06-29 08:50:00
1656493200000,METAR SBRJ 290900Z 01007KT CAVOK 19/16 Q1014=,SBRJ,2022-06-29 09:00:00
1656496800000,METAR SBRJ 291000Z 33008KT 300V360 CAVOK 19/17 Q1014=,SBRJ,2022-06-29 10:00:00
1656500400000,METAR SBRJ 291100Z 34010KT CAVOK 20/18 Q1015=,SBRJ,2022-06-29 11:00:00
1656504000000,METAR SBRJ 291200Z 35008KT CAVOK 21/17 Q1015=,SBRJ,2022-06-29 12:00:00
1656507600000,METAR SBRJ 291300Z 36009KT CAVOK 22/18 Q1015=,SBRJ,2022-06-29 13:00:00
1656511200000,METAR SBRJ 291400Z 01008KT CAVOK 23/18 Q1014=,SBRJ,2022-06-29 14:00:00
1656514800000,METAR SBRJ 291500Z 01008KT CAVOK 24/19 Q1014=,SBRJ,2022-06-29 15:00:00
1656518400000,METAR SBRJ 291600Z 02004KT CAVOK 24/19 Q1012=,SBRJ,2022-06-29 16:00:00
1656522000000,METAR SBRJ 291700Z 35004KT 290V010 CAVOK 26/19 Q1011=,SBRJ,2022-06-29 17:00:00
1656525600000,METAR SBRJ 291800Z 35005KT CAVOK 26/19 Q1011=,SBRJ,2022-06-29 18:00:00
1656529200000,METAR SBRJ 291900Z 35004KT CAVOK 26/17 Q1011=,SBRJ,2022-06-29 19:00:00
1656532800000,METAR SBRJ 292000Z 34004KT 300V010 CAVOK 25/19 Q1011=,SBRJ,2022-06-29 20:00:00
1656533520000,SPECI SBRJ 292012Z VRB02KT CAVOK 26/17 Q1011=,SBRJ,2022-06-29 20:12:00
1656536400000,METAR SBRJ 292100Z 22004KT 190V260 9999 FEW040 26/17 Q1012=,SBRJ,2022-06-29 21:00:00
1656540000000,METAR SBRJ 292200Z 31003KT 220V350 CAVOK 24/19 Q1012=,SBRJ,2022-06-29 22:00:00
1656543600000,METAR SBRJ 292300Z 31004KT 270V330 CAVOK 24/19 Q1012=,SBRJ,2022-06-29 23:00:00
1656460800000,METAR SBSP 290000Z VRB02KT CAVOK 19/11 Q1021=,SBSP,2022-06-29 00:00:00
1656464400000,METAR SBSP 290100Z 36003KT CAVOK 18/11 Q1021=,SBSP,2022-06-29 01:00:00
1656468000000,METAR SBSP 290200Z 32003KT CAVOK 18/11 Q1021=,SBSP,2022-06-29 02:00:00
1656468120000,SPECI SBSP 290202Z 35003KT 9000 NSC 18/11 Q1020=,SBSP,2022-06-29 02:02:00
1656471600000,METAR SBSP 290300Z AUTO 34003KT 7000 NCD 16/11 Q1020=,SBSP,2022-06-29 03:00:00
1656475200000,METAR SBSP 290400Z AUTO 36002KT 8000 NCD 16/12 Q1019=,SBSP,2022-06-29 04:00:00
1656478800000,METAR SBSP 290500Z AUTO 32004KT 290V350 9000 NCD 17/11 Q1019=,SBSP,2022-06-29 05:00:00
1656482400000,METAR SBSP 290600Z AUTO 30003KT 9000 NCD 16/11 Q1019=,SBSP,2022-06-29 06:00:00
1656486000000,METAR SBSP 290700Z AUTO 33004KT 8000 NCD 15/11 Q1018=,SBSP,2022-06-29 07:00:00
1656489600000,METAR SBSP 290800Z AUTO 02003KT 9000 NCD 15/11 Q1018=,SBSP,2022-06-29 08:00:00
1656493200000,METAR SBSP 290900Z VRB02KT CAVOK 15/11 Q1018=,SBSP,2022-06-29 09:00:00
1656496800000,METAR SBSP 291000Z 33007KT CAVOK 16/11 Q1018=,SBSP,2022-06-29 10:00:00
1656500400000,METAR SBSP 291100Z 33009KT CAVOK 17/12 Q1018=,SBSP,2022-06-29 11:00:00
1656504000000,METAR SBSP 291200Z 33009KT CAVOK 19/11 Q1019=,SBSP,2022-06-29 12:00:00
1656507600000,METAR SBSP 291300Z 35008KT CAVOK 21/12 Q1019=,SBSP,2022-06-29 13:00:00
1656511200000,METAR SBSP 291400Z 33012KT CAVOK 23/12 Q1018=,SBSP,2022-06-29 14:00:00
1656514800000,METAR SBSP 291500Z 30015G25KT 9999 SCT046 24/11 Q1017=,SBSP,2022-06-29 15:00:00
1656518400000,METAR SBSP 291600Z 30017G29KT 9999 SCT046 24/10 Q1017=,SBSP,2022-06-29 16:00:00
1656522000000,METAR SBSP 291700Z 32019G30KT CAVOK 24/09 Q1016=,SBSP,2022-06-29 17:00:00
1656525600000,METAR SBSP 291800Z 31013KT CAVOK 24/09 Q1016=,SBSP,2022-06-29 18:00:00
1656529200000,METAR SBSP 291900Z 30011G21KT CAVOK 25/10 Q1017=,SBSP,2022-06-29 19:00:00
1656532800000,METAR SBSP 292000Z 29012KT 250V320 CAVOK 24/09 Q1017=,SBSP,2022-06-29 20:00:00
1656536400000,METAR SBSP 292100Z 29009KT CAVOK 22/09 Q1018=,SBSP,2022-06-29 21:00:00
1656540000000,METAR SBSP 292200Z 27006KT 220V310 CAVOK 22/10 Q1019=,SBSP,2022-06-29 22:00:00
1656543600000,METAR SBSP 292300Z 28007KT CAVOK 21/10 Q1019=,SBSP,2022-06-29 23:00:00
1656460800000,METAR SBSV 290000Z 15008KT 9999 FEW025 SCT060 26/18 Q1020=,SBSV,2022-06-29 00:00:00
1656464400000,METAR SBSV 290100Z 15008KT 9999 FEW023 SCT060 26/17 Q1019=,SBSV,2022-06-29 01:00:00
1656468000000,METAR SBSV 290200Z 16008KT 9999 FEW023 SCT063 26/17 Q1019=,SBSV,2022-06-29 02:00:00
1656471600000,METAR SBSV 290300Z 17008KT 150V210 9999 FEW023 SCT055 25/18 Q1019=,SBSV,2022-06-29 03:00:00
1656475200000,METAR SBSV 290400Z 16005KT 9999 FEW023 SCT055 25/18 Q1019=,SBSV,2022-06-29 04:00:00
1656478800000,METAR SBSV 290500Z 12008KT 9999 FEW023 SCT055 24/19 Q1018=,SBSV,2022-06-29 05:00:00
1656482400000,METAR SBSV 290600Z 10009KT 9999 FEW019 SCT060 23/19 Q1018=,SBSV,2022-06-29 06:00:00
1656486000000,METAR SBSV 290700Z 32002KT 9999 FEW019 SCT060 22/19 Q1017=,SBSV,2022-06-29 07:00:00
1656489600000,METAR SBSV 290800Z 32003KT 9999 FEW019 SCT060 22/19 Q1018=,SBSV,2022-06-29 08:00:00
1656493200000,METAR SBSV 290900Z 30003KT 270V330 9999 VCSH SCT020 FEW025TCU SCT060 22/20 Q1018=,SBSV,2022-06-29 09:00:00
1656496800000,METAR SBSV 291000Z 31004KT 9999 VCSH FEW021 FEW025TCU SCT040 22/20 Q1018=,SBSV,2022-06-29 10:00:00
1656500400000,METAR SBSV 291100Z 26008KT 9999 VCSH SCT015 FEW020TCU 24/20 Q1019=,SBSV,2022-06-29 11:00:00
1656504000000,METAR SBSV 291200Z 26009KT 9999 SCT020 24/20 Q1019=,SBSV,2022-06-29 12:00:00
1656507600000,METAR SBSV 291300Z 24010KT 9999 VCSH SCT015 BKN060 25/20 Q1019=,SBSV,2022-06-29 13:00:00
1656511200000,METAR SBSV 291400Z 25010KT 9999 SCT015 BKN060 25/21 Q1019=,SBSV,2022-06-29 14:00:00
1656514800000,METAR SBSV 291500Z 20010KT 170V240 8000 VCSH SCT015 FEW020TCU BKN050 25/20 Q1018=,SBSV,2022-06-29 15:00:00
1656518400000,METAR SBSV 291600Z 22010KT 190V250 9999 VCSH SCT015 FEW020TCU BKN050 25/20 Q1017=,SBSV,2022-06-29 16:00:00
1656522000000,METAR SBSV 291700Z 22011KT 8000 VCSH SCT015 FEW020TCU BKN050 25/20 Q1017=,SBSV,2022-06-29 17:00:00
1656525600000,METAR SBSV 291800Z 20010KT 9999 SCT015 FEW020TCU BKN050 25/20 Q1016=,SBSV,2022-06-29 18:00:00
1656529200000,METAR SBSV 291900Z 19010KT 9999 SCT015 FEW020TCU 26/20 Q1016=,SBSV,2022-06-29 19:00:00
1656532800000,METAR SBSV 292000Z 19008KT 9999 SCT020 25/20 Q1017=,SBSV,2022-06-29 20:00:00
1656536400000,METAR SBSV 292100Z 17006KT 9999 SCT020 25/20 Q1017=,SBSV,2022-06-29 21:00:00
1656540000000,METAR SBSV 292200Z 20004KT 9999 SCT020 25/20 Q1017=,SBSV,2022-06-29 22:00:00
1656543600000,METAR SBSV 292300Z 21003KT 9999 SCT020 24/20 Q1017=,SBSV,2022-06-29 23:00:00
1656547200000,METAR SBBR 300000Z 34002KT CAVOK 19/10 Q1021=,SBBR,2022-06-30 00:00:00
1656550800000,METAR SBBR 300100Z 04002KT CAVOK 18/10 Q1021=,SBBR,2022-06-30 01:00:00
1656554400000,METAR SBBR 300200Z 24003KT 200V260 CAVOK 17/10 Q1021=,SBBR,2022-06-30 02:00:00
1656558000000,METAR SBBR 300300Z 23002KT CAVOK 16/10 Q1021=,SBBR,2022-06-30 03:00:00
1656561600000,METAR SBBR 300400Z 00000KT CAVOK 14/09 Q1021=,SBBR,2022-06-30 04:00:00
1656565200000,METAR SBBR 300500Z 26002KT CAVOK 14/09 Q1021=,SBBR,2022-06-30 05:00:00
1656568800000,METAR SBBR 300600Z 27003KT CAVOK 13/09 Q1020=,SBBR,2022-06-30 06:00:00
1656572400000,METAR SBBR 300700Z 00000KT CAVOK 13/09 Q1020=,SBBR,2022-06-30 07:00:00
1656576000000,METAR SBBR 300800Z 04001KT CAVOK 12/09 Q1021=,SBBR,2022-06-30 08:00:00
1656579600000,METAR SBBR 300900Z 26002KT CAVOK 11/09 Q1020=,SBBR,2022-06-30 09:00:00
1656583200000,METAR SBBR 301000Z 00000KT CAVOK 11/09 Q1020=,SBBR,2022-06-30 10:00:00
1656586800000,METAR SBBR 301100Z 00000KT CAVOK 14/09 Q1021=,SBBR,2022-06-30 11:00:00
1656590400000,METAR SBBR 301200Z VRB01KT CAVOK 19/10 Q1022=,SBBR,2022-06-30 12:00:00
1656594000000,METAR SBBR 301300Z 07004KT 360V120 CAVOK 22/11 Q1022=,SBBR,2022-06-30 13:00:00
1656597600000,METAR SBBR 301400Z 07006KT 030V120 CAVOK 24/09 Q1022=,SBBR,2022-06-30 14:00:00
1656601200000,METAR SBBR 301500Z 09005KT 030V150 CAVOK 25/09 Q1021=,SBBR,2022-06-30 15:00:00
1656604800000,METAR SBBR 301600Z 10005KT CAVOK 25/09 Q1021=,SBBR,2022-06-30 16:00:00
1656608400000,METAR SBBR 301700Z VRB05KT CAVOK 26/09 Q1020=,SBBR,2022-06-30 17:00:00
1656612000000,METAR SBBR 301800Z 04007KT 010V070 CAVOK 26/09 Q1019=,SBBR,2022-06-30 18:00:00
1656615600000,METAR SBBR 301900Z 03005KT 330V070 CAVOK 26/09 Q1019=,SBBR,2022-06-30 19:00:00
1656619200000,METAR SBBR 302000Z 13007KT 100V170 CAVOK 26/08 Q1019=,SBBR,2022-06-30 20:00:00
1656622800000,METAR SBBR 302100Z 14006KT CAVOK 25/08 Q1019=,SBBR,2022-06-30 21:00:00
1656626400000,METAR SBBR 302200Z 12007KT CAVOK 22/08 Q1020=,SBBR,2022-06-30 22:00:00
1656630000000,METAR SBBR 302300Z 12007KT CAVOK 21/08 Q1020=,SBBR,2022-06-30 23:00:00
1656547200000,METAR SBCF 300000Z 31004KT CAVOK 19/11 Q1020=,SBCF,2022-06-30 00:00:00
1656550800000,METAR SBCF 300100Z 00000KT CAVOK 17/11 Q1020=,SBCF,2022-06-30 01:00:00
1656554400000,METAR SBCF 300200Z 17002KT CAVOK 15/11 Q1020=,SBCF,2022-06-30 02:00:00
1656558000000,METAR SBCF 300300Z 15003KT CAVOK 15/11 Q1020=,SBCF,2022-06-30 03:00:00
1656561600000,METAR SBCF 300400Z 12003KT CAVOK 15/11 Q1020=,SBCF,2022-06-30 04:00:00
1656565200000,METAR SBCF 300500Z 16001KT CAVOK 13/11 Q1020=,SBCF,2022-06-30 05:00:00
1656568800000,METAR SBCF 300600Z 18001KT CAVOK 13/11 Q1019=,SBCF,2022-06-30 06:00:00
1656572400000,METAR SBCF 300700Z 14002KT CAVOK 12/11 Q1019=,SBCF,2022-06-30 07:00:00
1656576000000,METAR SBCF 300800Z 16002KT CAVOK 12/10 Q1019=,SBCF,2022-06-30 08:00:00
1656579600000,METAR SBCF 300900Z 15002KT CAVOK 12/10 Q1020=,SBCF,2022-06-30 09:00:00
1656583200000,METAR SBCF 301000Z 16003KT CAVOK 12/10 Q1020=,SBCF,2022-06-30 10:00:00
1656586800000,METAR SBCF 301100Z 15004KT CAVOK 14/11 Q1021=,SBCF,2022-06-30 11:00:00
1656590400000,METAR SBCF 301200Z 12002KT CAVOK 16/12 Q1021=,SBCF,2022-06-30 12:00:00
1656594000000,METAR SBCF 301300Z 14003KT CAVOK 20/12 Q1022=,SBCF,2022-06-30 13:00:00
1656597600000,METAR SBCF 301400Z 20003KT 9999 FEW033 23/12 Q1021=,SBCF,2022-06-30 14:00:00
1656601200000,METAR SBCF 301500Z 15006KT CAVOK 24/11 Q1021=,SBCF,2022-06-30 15:00:00
1656604800000,METAR SBCF 301600Z 10004KT CAVOK 25/11 Q1020=,SBCF,2022-06-30 16:00:00
1656608400000,METAR SBCF 301700Z 18004KT 110V270 CAVOK 26/10 Q1020=,SBCF,2022-06-30 17:00:00
1656612000000,METAR SBCF 301800Z 18007KT 130V250 CAVOK 26/10 Q1019=,SBCF,2022-06-30 18:00:00
1656615600000,METAR SBCF 301900Z 21004KT 170V300 CAVOK 26/10 Q1019=,SBCF,2022-06-30 19:00:00
1656619200000,METAR SBCF 302000Z 16003KT CAVOK 24/10 Q1019=,SBCF,2022-06-30 20:00:00
1656622800000,METAR SBCF 302100Z 13003KT CAVOK 23/09 Q1020=,SBCF,2022-06-30 21:00:00
1656626400000,METAR SBCF 302200Z 15003KT CAVOK 22/09 Q1020=,SBCF,2022-06-30 22:00:00
1656630000000,METAR SBCF 302300Z 09007KT CAVOK 22/11 Q1021=,SBCF,2022-06-30 23:00:00
1656547200000,METAR SBCT 300000Z 24005KT CAVOK 12/04 Q1019=,SBCT,2022-06-30 00:00:00
1656550800000,METAR SBCT 300100Z 25003KT 150V280 CAVOK 12/04 Q1019=,SBCT,2022-06-30 01:00:00
1656554400000,METAR SBCT 300200Z 20003KT 170V240 CAVOK 09/04 Q1019=,SBCT,2022-06-30 02:00:00
1656558000000,METAR SBCT 300300Z VRB02KT CAVOK 09/05 Q1020=,SBCT,2022-06-30 03:00:00
1656561600000,METAR SBCT 300400Z 04004KT CAVOK 07/05 Q1019=,SBCT,2022-06-30 04:00:00
1656565200000,METAR SBCT 300500Z 06002KT CAVOK 06/05 Q1019=,SBCT,2022-06-30 05:00:00
1656568800000,METAR SBCT 300600Z 04003KT CAVOK 05/04 Q1019=,SBCT,2022-06-30 06:00:00
1656572400000,METAR SBCT 300700Z 06001KT CAVOK 05/05 Q1018=,SBCT,2022-06-30 07:00:00
1656576000000,METAR SBCT 300800Z 00000KT CAVOK 04/04 Q1019=,SBCT,2022-06-30 08:00:00
1656579600000,METAR SBCT 300900Z 12004KT CAVOK 03/03 Q1019=,SBCT,2022-06-30 09:00:00
1656583200000,METAR SBCT 301000Z VRB01KT 9000 NSC 04/04 Q1020=,SBCT,2022-06-30 10:00:00
1656586800000,METAR SBCT 301100Z 13003KT CAVOK 04/03 Q1020=,SBCT,2022-06-30 11:00:00
1656590400000,METAR SBCT 301200Z VRB02KT CAVOK 09/07 Q1021=,SBCT,2022-06-30 12:00:00
1656594000000,METAR SBCT 301300Z VRB02KT CAVOK 13/05 Q1022=,SBCT,2022-06-30 13:00:00
1656597600000,METAR SBCT 301400Z 01004KT 330V060 CAVOK 16/05 Q1022=,SBCT,2022-06-30 14:00:00
1656601200000,METAR SBCT 301500Z 35005KT 300V030 CAVOK 17/04 Q1021=,SBCT,2022-06-30 15:00:00
1656604800000,METAR SBCT 301600Z 31006KT 270V350 CAVOK 19/02 Q1020=,SBCT,2022-06-30 16:00:00
1656608400000,METAR SBCT 301700Z 29006KT 260V330 CAVOK 20/M00 Q1020=,SBCT,2022-06-30 17:00:00
1656612000000,METAR SBCT 301800Z 28008KT CAVOK 20/01 Q1019=,SBCT,2022-06-30 18:00:00
1656615600000,METAR SBCT 301900Z 29008KT CAVOK 20/02 Q1019=,SBCT,2022-06-30 19:00:00
1656619200000,METAR SBCT 302000Z 30006KT CAVOK 19/02 Q1019=,SBCT,2022-06-30 20:00:00
1656622800000,METAR SBCT 302100Z 30004KT CAVOK 17/03 Q1019=,SBCT,2022-06-30 21:00:00
1656626400000,METAR SBCT 302200Z 35004KT CAVOK 15/07 Q1020=,SBCT,2022-06-30 22:00:00
1656630000000,METAR SBCT 302300Z 09002KT CAVOK 12/07 Q1020=,SBCT,2022-06-30 23:00:00
1656547200000,METAR SBFL 300000Z 08005KT CAVOK 13/11 Q1016=,SBFL,2022-06-30 00:00:00
1656550800000,METAR SBFL 300100Z 00000KT CAVOK 12/10 Q1017=,SBFL,2022-06-30 01:00:00
1656554400000,METAR SBFL 300200Z 26001KT CAVOK 11/10 Q1017=,SBFL,2022-06-30 02:00:00
1656558000000,METAR SBFL 300300Z 27004KT CAVOK 12/10 Q1017=,SBFL,2022-06-30 03:00:00
1656561600000,METAR SBFL 300400Z 31001KT CAVOK 12/10 Q1018=,SBFL,2022-06-30 04:00:00
1656565200000,METAR SBFL 300500Z 27005KT CAVOK 12/10 Q1018=,SBFL,2022-06-30 05:00:00
1656568800000,METAR SBFL 300600Z 00000KT CAVOK 12/09 Q1017=,SBFL,2022-06-30 06:00:00
1656572400000,METAR SBFL 300700Z 10002KT CAVOK 10/08 Q1017=,SBFL,2022-06-30 07:00:00
1656576000000,METAR SBFL 300800Z 00000KT CAVOK 09/07 Q1017=,SBFL,2022-06-30 08:00:00
1656579600000,METAR SBFL 300900Z 00000KT CAVOK 09/08 Q1017=,SBFL,2022-06-30 09:00:00
1656583200000,METAR SBFL 301000Z 31003KT CAVOK 10/09 Q1018=,SBFL,2022-06-30 10:00:00
1656586800000,METAR SBFL 301100Z 28006KT CAVOK 11/10 Q1019=,SBFL,2022-06-30 11:00:00
1656590400000,METAR SBFL 301200Z 30004KT CAVOK 13/10 Q1020=,SBFL,2022-06-30 12:00:00
1656594000000,METAR SBFL 301300Z 33007KT CAVOK 15/10 Q1020=,SBFL,2022-06-30 13:00:00
1656597600000,METAR SBFL 301400Z 36010KT CAVOK 17/09 Q1020=,SBFL,2022-06-30 14:00:00
1656601200000,METAR SBFL 301500Z 36008KT CAVOK 18/09 Q1019=,SBFL,2022-06-30 15:00:00
1656604800000,METAR SBFL 301600Z 34008KT CAVOK 19/07 Q1018=,SBFL,2022-06-30 16:00:00
1656608400000,METAR SBFL 301700Z 35009KT CAVOK 20/09 Q1017=,SBFL,2022-06-30 17:00:00
1656612000000,METAR SBFL 301800Z 01009KT CAVOK 20/09 Q1017=,SBFL,2022-06-30 18:00:00
1656615600000,METAR SBFL 301900Z 01006KT CAVOK 20/09 Q1017=,SBFL,2022-06-30 19:00:00
1656619200000,METAR SBFL 302000Z 10005KT CAVOK 18/10 Q1017=,SBFL,2022-06-30 20:00:00
1656622800000,METAR SBFL 302100Z 19003KT CAVOK 15/11 Q1017=,SBFL,2022-06-30 21:00:00
1656626400000,METAR SBFL 302200Z 20007KT CAVOK 15/11 Q1018=,SBFL,2022-06-30 22:00:00
1656630000000,METAR SBFL 302300Z 12001KT CAVOK 14/11 Q1018=,SBFL,2022-06-30 23:00:00
1656547200000,METAR SBGL 300000Z 18004KT 9999 FEW046 20/17 Q1013=,SBGL,2022-06-30 00:00:00
1656550800000,METAR SBGL 300100Z 24012KT 9999 FEW046 SCT100 20/17 Q1015 WS R15=,SBGL,2022-06-30 01:00:00
1656552300000,SPECI SBGL 300125Z 23024KT 9999 FEW046 SCT100 23/17 Q1015 WS R15=,SBGL,2022-06-30 01:25:00
1656554400000,METAR SBGL 300200Z 24026KT 9999 FEW046 SCT083 23/16 Q1015=,SBGL,2022-06-30 02:00:00
1656558000000,METAR SBGL 300300Z 25012KT 9999 FEW046 22/17 Q1016=,SBGL,2022-06-30 03:00:00
1656561600000,METAR SBGL 300400Z 24012KT 9999 FEW030 SCT083 21/18 Q1017=,SBGL,2022-06-30 04:00:00
1656565200000,METAR SBGL 300500Z 25012KT 9999 SCT040 BKN083 21/17 Q1016=,SBGL,2022-06-30 05:00:00
1656568800000,METAR SBGL 300600Z 29010KT 9999 SCT040 BKN083 21/17 Q1016=,SBGL,2022-06-30 06:00:00
1656572400000,METAR SBGL 300700Z 31011KT 9999 SCT040 BKN083 21/17 Q1016=,SBGL,2022-06-30 07:00:00
1656576000000,METAR SBGL 300800Z 30009KT 9999 SCT040 BKN083 20/17 Q1016=,SBGL,2022-06-30 08:00:00
1656579600000,METAR SBGL 300900Z 24009KT 9999 SCT026 BKN033 20/16 Q1017=,SBGL,2022-06-30 09:00:00
1656583200000,METAR SBGL 301000Z 24005KT 9999 BKN026 OVC040 20/16 Q1018=,SBGL,2022-06-30 10:00:00
1656586800000,METAR SBGL 301100Z 26005KT 9999 BKN040 21/16 Q1019=,SBGL,2022-06-30 11:00:00
1656590400000,METAR SBGL 301200Z 28006KT 230V300 9999 FEW025 SCT040 21/15 Q1020=,SBGL,2022-06-30 12:00:00
1656594000000,METAR SBGL 301300Z 27005KT 9999 BKN030 23/15 Q1020=,SBGL,2022-06-30 13:00:00
1656597600000,METAR SBGL 301400Z 27006KT 240V300 9999 BKN030 23/16 Q1020=,SBGL,2022-06-30 14:00:00
1656601200000,METAR SBGL 301500Z 30006KT 250V350 9999 BKN035 23/16 Q1019=,SBGL,2022-06-30 15:00:00
1656604800000,METAR SBGL 301600Z 11009KT 070V140 9999 FEW025 BKN040 23/17 Q1018=,SBGL,2022-06-30 16:00:00
1656608400000,METAR SBGL 301700Z 11010KT 9999 FEW025 BKN040 23/17 Q1018=,SBGL,2022-06-30 17:00:00
1656612000000,METAR SBGL 301800Z 12010KT 9999 FEW030 23/17 Q1017=,SBGL,2022-06-30 18:00:00
1656615600000,METAR SBGL 301900Z 12010KT 9999 FEW030 22/16 Q1017=,SBGL,2022-06-30 19:00:00
1656619200000,METAR SBGL 302000Z 12009KT 9999 FEW030 21/16 Q1018=,SBGL,2022-06-30 20:00:00
1656622800000,METAR SBGL 302100Z 12008KT 9999 BKN030 20/16 Q1018=,SBGL,2022-06-30 21:00:00
1656626400000,METAR SBGL 302200Z 13008KT 9999 OVC030 21/16 Q1019=,SBGL,2022-06-30 22:00:00
1656630000000,METAR SBGL 302300Z 15006KT 9999 BKN030 20/15 Q1019=,SBGL,2022-06-30 23:00:00
1656547200000,METAR SBGR 300000Z 25002KT CAVOK 18/12 Q1019=,SBGR,2022-06-30 00:00:00
1656550800000,METAR SBGR 300100Z 15001KT CAVOK 16/12 Q1019=,SBGR,2022-06-30 01:00:00
1656554400000,METAR SBGR 300200Z 15005KT 9000 NSC 15/15 Q1019=,SBGR,2022-06-30 02:00:00
1656558000000,METAR SBGR 300300Z 10002KT 7000 FEW007 SCT050 14/14 Q1019=,SBGR,2022-06-30 03:00:00
1656559200000,SPECI SBGR 300320Z 08003KT 5000 BR BKN008 14/14 Q1019=,SBGR,2022-06-30 03:20:00
1656561600000,METAR SBGR 300400Z 07003KT 5000 BR OVC008 14/14 Q1019=,SBGR,2022-06-30 04:00:00
1656565200000,METAR SBGR 300500Z 00000KT 5000 BR OVC008 15/15 Q1019=,SBGR,2022-06-30 05:00:00
1656568800000,METAR SBGR 300600Z 29001KT 6000 OVC009 15/15 Q1019=,SBGR,2022-06-30 06:00:00
1656572400000,METAR SBGR 300700Z 00000KT 7000 OVC009 14/14 Q1019=,SBGR,2022-06-30 07:00:00
1656576000000,METAR SBGR 300800Z 00000KT 7000 BKN009 14/14 Q1019=,SBGR,2022-06-30 08:00:00
1656578160000,SPECI SBGR 300836Z 35003KT 4500 BR SCT009 14/14 Q1019=,SBGR,2022-06-30 08:36:00
1656579600000,METAR SBGR 300900Z 02002KT 4000 BR SCT008 13/13 Q1019=,SBGR,2022-06-30 09:00:00
1656583200000,METAR SBGR 301000Z 09002KT 2500 1000E R27L/1400N R09R/2000N R09L/2000N R27R/2000N BR BKN004 12/12 Q1020=,SBGR,2022-06-30 10:00:00
1656586800000,METAR COR SBGR 301100Z 08006KT 2000 1000E R09R/1600 R09L/1700 R27L/1700 R27R/P2000 BR BKN003 13/13 Q1021=,SBGR,2022-06-30 11:00:00
1656588360000,SPECI SBGR 301126Z 08005KT 5000 2000E BR FEW003 13/13 Q1021=,SBGR,2022-06-30 11:26:00
1656590400000,METAR SBGR 301200Z 08005KT 7000 FEW005 15/15 Q1022=,SBGR,2022-06-30 12:00:00
1656594000000,METAR SBGR 301300Z 07003KT CAVOK 18/13 Q1022=,SBGR,2022-06-30 13:00:00
1656597600000,METAR SBGR 301400Z 30012KT CAVOK 21/11 Q1022=,SBGR,2022-06-30 14:00:00
1656601200000,METAR SBGR 301500Z 32010KT CAVOK 23/11 Q1021=,SBGR,2022-06-30 15:00:00
1656604800000,METAR SBGR 301600Z 30007KT CAVOK 23/11 Q1020=,SBGR,2022-06-30 16:00:00
1656608400000,METAR SBGR 301700Z 28010KT CAVOK 23/10 Q1019=,SBGR,2022-06-30 17:00:00
1656612000000,METAR SBGR 301800Z 31009KT 280V340 CAVOK 24/10 Q1019=,SBGR,2022-06-30 18:00:00
1656615600000,METAR SBGR 301900Z 29009KT 270V330 CAVOK 23/10 Q1019=,SBGR,2022-06-30 19:00:00
1656619200000,METAR SBGR 302000Z 29006KT 260V320 CAVOK 22/10 Q1019=,SBGR,2022-06-30 20:00:00
1656622800000,METAR SBGR 302100Z 34004KT CAVOK 19/12 Q1019=,SBGR,2022-06-30 21:00:00
1656626400000,METAR SBGR 302200Z 00000KT CAVOK 16/12 Q1020=,SBGR,2022-06-30 22:00:00
1656630000000,METAR SBGR 302300Z 06001KT CAVOK 16/14 Q1020=,SBGR,2022-06-30 23:00:00
1656547200000,METAR SBKP 300000Z 25007KT CAVOK 19/12 Q1019=,SBKP,2022-06-30 00:00:00
1656550800000,METAR SBKP 300100Z 24008KT CAVOK 20/11 Q1019=,SBKP,2022-06-30 01:00:00
1656554400000,METAR SBKP 300200Z 27005KT CAVOK 18/11 Q1019=,SBKP,2022-06-30 02:00:00
1656558000000,METAR SBKP 300300Z VRB02KT CAVOK 17/12 Q1019=,SBKP,2022-06-30 03:00:00
1656561600000,METAR SBKP 300400Z 02003KT 350V060 CAVOK 17/11 Q1019=,SBKP,2022-06-30 04:00:00
1656565200000,METAR SBKP 300500Z VRB01KT CAVOK 15/11 Q1019=,SBKP,2022-06-30 05:00:00
1656568800000,METAR SBKP 300600Z 05001KT CAVOK 15/11 Q1018=,SBKP,2022-06-30 06:00:00
1656572400000,METAR SBKP 300700Z 00000KT CAVOK 15/11 Q1019=,SBKP,2022-06-30 07:00:00
1656576000000,METAR SBKP 300800Z VRB02KT CAVOK 14/11 Q1019=,SBKP,2022-06-30 08:00:00
1656579600000,METAR SBKP 300900Z 08004KT 9999 FEW045 13/10 Q1019=,SBKP,2022-06-30 09:00:00
1656583200000,METAR SBKP 301000Z 09003KT 6000 NSC 12/10 Q1020=,SBKP,2022-06-30 10:00:00
1656586800000,METAR SBKP 301100Z 09004KT 6000 NSC 14/11 Q1020=,SBKP,2022-06-30 11:00:00
1656590400000,METAR SBKP 301200Z 04004KT 6000 NSC 18/12 Q1021=,SBKP,2022-06-30 12:00:00
1656594000000,METAR SBKP 301300Z 03004KT 350V060 8000 NSC 20/13 Q1022=,SBKP,2022-06-30 13:00:00
1656597600000,METAR SBKP 301400Z 30006KT 260V340 9999 FEW035 22/11 Q1021=,SBKP,2022-06-30 14:00:00
1656601200000,METAR SBKP 301500Z 32006KT 250V040 CAVOK 22/11 Q1021=,SBKP,2022-06-30 15:00:00
1656604800000,METAR SBKP 301600Z 30008KT 270V350 CAVOK 23/10 Q1020=,SBKP,2022-06-30 16:00:00
1656608400000,METAR SBKP 301700Z 29009KT CAVOK 24/09 Q1019=,SBKP,2022-06-30 17:00:00
1656612000000,METAR SBKP 301800Z 32007KT 270V360 CAVOK 24/09 Q1019=,SBKP,2022-06-30 18:00:00
1656615600000,METAR SBKP 301900Z 30005KT 260V330 CAVOK 25/08 Q1018=,SBKP,2022-06-30 19:00:00
1656619200000,METAR SBKP 302000Z 31004KT 260V340 CAVOK 24/08 Q1018=,SBKP,2022-06-30 20:00:00
1656622800000,METAR SBKP 302100Z 23004KT 200V270 CAVOK 23/09 Q1019=,SBKP,2022-06-30 21:00:00
1656626400000,METAR SBKP 302200Z 18006KT CAVOK 21/11 Q1019=,SBKP,2022-06-30 22:00:00
1656630000000,METAR SBKP 302300Z 14005KT CAVOK 19/11 Q1019=,SBKP,2022-06-30 23:00:00
1656547200000,METAR SBPA 300000Z 31003KT 280V010 CAVOK 10/09 Q1018=,SBPA,2022-06-30 00:00:00
1656550800000,METAR SBPA 300100Z 29003KT 240V350 CAVOK 09/08 Q1018=,SBPA,2022-06-30 01:00:00
1656554400000,METAR SBPA 300200Z VRB02KT CAVOK 08/08 Q1018=,SBPA,2022-06-30 02:00:00
1656558000000,METAR SBPA 300300Z 27003KT CAVOK 08/07 Q1018=,SBPA,2022-06-30 03:00:00
1656561600000,METAR SBPA 300400Z 27004KT CAVOK 08/08 Q1018=,SBPA,2022-06-30 04:00:00
1656565200000,METAR SBPA 300500Z 26002KT CAVOK 08/07 Q1018=,SBPA,2022-06-30 05:00:00
1656568800000,METAR SBPA 300600Z 30004KT CAVOK 08/08 Q1018=,SBPA,2022-06-30 06:00:00
1656572400000,METAR SBPA 300700Z 28002KT CAVOK 08/08 Q1018=,SBPA,2022-06-30 07:00:00
1656576000000,METAR SBPA 300800Z 31002KT CAVOK 07/07 Q1018=,SBPA,2022-06-30 08:00:00
1656579600000,METAR SBPA 300900Z 28003KT CAVOK 08/08 Q1017=,SBPA,2022-06-30 09:00:00
1656583200000,METAR SBPA 301000Z 00000KT CAVOK 06/06 Q1018=,SBPA,2022-06-30 10:00:00
1656586800000,METAR SBPA 301100Z 24003KT CAVOK 08/08 Q1018=,SBPA,2022-06-30 11:00:00
1656590400000,METAR SBPA 301200Z 29004KT CAVOK 09/08 Q1019=,SBPA,2022-06-30 12:00:00
1656594000000,METAR SBPA 301300Z 28004KT 230V310 CAVOK 11/09 Q1020=,SBPA,2022-06-30 13:00:00
1656597600000,METAR SBPA 301400Z 29004KT 240V340 CAVOK 13/10 Q1019=,SBPA,2022-06-30 14:00:00
1656601200000,METAR SBPA 301500Z 27006KT 200V300 CAVOK 14/10 Q1019=,SBPA,2022-06-30 15:00:00
1656604800000,METAR SBPA 301600Z 28008KT CAVOK 15/10 Q1019=,SBPA,2022-06-30 16:00:00
1656608400000,METAR SBPA 301700Z 28009KT CAVOK 16/10 Q1019=,SBPA,2022-06-30 17:00:00
1656612000000,METAR SBPA 301800Z 28007KT 240V320 9999 FEW025 17/11 Q1018=,SBPA,2022-06-30 18:00:00
1656615600000,METAR SBPA 301900Z 30007KT 270V350 CAVOK 17/10 Q1018=,SBPA,2022-06-30 19:00:00
1656619200000,METAR SBPA 302000Z 26006KT CAVOK 16/09 Q1018=,SBPA,2022-06-30 20:00:00
1656622800000,METAR SBPA 302100Z 24004KT CAVOK 14/09 Q1018=,SBPA,2022-06-30 21:00:00
1656626400000,METAR SBPA 302200Z 25004KT CAVOK 13/09 Q1019=,SBPA,2022-06-30 22:00:00
1656630000000,METAR SBPA 302300Z 27003KT 230V350 CAVOK 12/10 Q1019=,SBPA,2022-06-30 23:00:00
1656547200000,METAR SBRF 300000Z 17015KT 9000 VCSH SCT010 BKN016 OVC100 24/22 Q1016=,SBRF,2022-06-30 00:00:00
1656550800000,METAR SBRF 300100Z 18012KT 9999 SCT010 BKN016 OVC100 24/22 Q1015=,SBRF,2022-06-30 01:00:00
1656554400000,METAR SBRF 300200Z 18009KT 9999 SCT014 BKN018 24/22 Q1015=,SBRF,2022-06-30 02:00:00
1656558000000,METAR SBRF 300300Z 21004KT 9999 SCT014 OVC018 24/22 Q1015=,SBRF,2022-06-30 03:00:00
1656561600000,METAR SBRF 300400Z 23003KT 9999 SCT014 BKN018 24/22 Q1015=,SBRF,2022-06-30 04:00:00
1656565200000,METAR SBRF 300500Z 25006KT 9999 SCT014 BKN018 23/22 Q1014=,SBRF,2022-06-30 05:00:00
1656568800000,METAR SBRF 300600Z 22003KT 9999 FEW014 BKN018 23/22 Q1014=,SBRF,2022-06-30 06:00:00
1656572400000,METAR SBRF 300700Z 00000KT 9999 FEW014 SCT018 23/22 Q1014=,SBRF,2022-06-30 07:00:00
1656576000000,METAR SBRF 300800Z 25004KT CAVOK 23/21 Q1014=,SBRF,2022-06-30 08:00:00
1656577320000,SPECI SBRF 300822Z 22004KT 5000 -RA BR BKN015 OVC050 23/21 Q1014=,SBRF,2022-06-30 08:22:00
1656579600000,METAR SBRF 300900Z 23005KT 5000 -RA BKN016 OVC050 23/22 Q1014=,SBRF,2022-06-30 09:00:00
1656583200000,METAR SBRF 301000Z 23005KT 9999 FEW016 BKN050 23/22 Q1015=,SBRF,2022-06-30 10:00:00
1656586800000,METAR SBRF 301100Z 23004KT 180V260 9000 VCSH FEW010 SCT020 BKN050 24/23 Q1015=,SBRF,2022-06-30 11:00:00
1656590400000,METAR SBRF 301200Z 20006KT 170V240 9999 FEW010 SCT020 BKN050 26/23 Q1016=,SBRF,2022-06-30 12:00:00
1656594000000,METAR SBRF 301300Z 19009KT 9999 VCSH FEW010 BKN018 BKN050 27/23 Q1017=,SBRF,2022-06-30 13:00:00
1656597600000,METAR SBRF 301400Z 19012KT 9000 VCSH FEW010 SCT018 BKN050 26/23 Q1015=,SBRF,2022-06-30 14:00:00
1656601200000,METAR SBRF 301500Z 18012KT 9999 FEW010 SCT018 BKN050 28/22 Q1014=,SBRF,2022-06-30 15:00:00
1656604800000,METAR SBRF 301600Z 18011KT 9999 SCT018 BKN050 28/21 Q1014=,SBRF,2022-06-30 16:00:00
1656608400000,METAR SBRF 301700Z 18012KT 9999 SCT023 BKN052 28/22 Q1013=,SBRF,2022-06-30 17:00:00
1656612000000,METAR SBRF 301800Z 16016KT 9999 SCT023 OVC060 26/23 Q1013=,SBRF,2022-06-30 18:00:00
1656615600000,METAR SBRF 301900Z 18012KT 9999 FEW020 BKN060 26/22 Q1013=,SBRF,2022-06-30 19:00:00
1656619200000,METAR SBRF 302000Z 19010KT 9999 SCT018 BKN050 26/22 Q1013=,SBRF,2022-06-30 20:00:00
1656622800000,METAR SBRF 302100Z 19009KT 9999 SCT012 BKN020 BKN050 25/22 Q1013=,SBRF,2022-06-30 21:00:00
1656626400000,METAR SBRF 302200Z 19011KT 9999 SCT015 BKN050 25/22 Q1014=,SBRF,2022-06-30 22:00:00
1656630000000,METAR SBRF 302300Z 20007KT 9999 SCT010 BKN050 24/23 Q1014=,SBRF,2022-06-30 23:00:00
1656632880000,SPECI SBRF 302348Z 20008KT 3000 -RA BR BKN005 BKN050 24/23 Q1015=,SBRF,2022-06-30 23:48:00
1656547200000,METAR SBRJ 300000Z 32006KT CAVOK 24/20 Q1013=,SBRJ,2022-06-30 00:00:00
1656550800000,METAR SBRJ 300100Z 32003KT 240V360 CAVOK 23/20 Q1013=,SBRJ,2022-06-30 01:00:00
1656551700000,SPECI SBRJ 300115Z 22016KT 170V310 9999 FEW040 SCT080 24/18 Q1014=,SBRJ,2022-06-30 01:15:00
1656554400000,METAR SBRJ 300200Z 21017KT 9999 FEW040 SCT080 24/17 Q1014=,SBRJ,2022-06-30 02:00:00
1656579000000,SPECI SBRJ 300850Z 20008KT 9999 SCT033 BKN050 21/17 Q1017=,SBRJ,2022-06-30 08:50:00
1656579600000,METAR SBRJ 300900Z 21009KT 9999 FEW023 SCT033 BKN050 21/17 Q1017=,SBRJ,2022-06-30 09:00:00
1656583200000,METAR SBRJ 301000Z 20007KT 9999 SCT023 BKN030 21/16 Q1018=,SBRJ,2022-06-30 10:00:00
1656586800000,METAR SBRJ 301100Z 19007KT 9999 FEW025 BKN040 21/17 Q1018=,SBRJ,2022-06-30 11:00:00
1656590400000,METAR SBRJ 301200Z 16005KT 9999 FEW017 SCT030 22/17 Q1019=,SBRJ,2022-06-30 12:00:00
1656594000000,METAR SBRJ 301300Z 16005KT 9999 SCT026 BKN030 22/16 Q1019=,SBRJ,2022-06-30 13:00:00
1656597600000,METAR SBRJ 301400Z 16006KT 9999 SCT025 BKN030 22/17 Q1019=,SBRJ,2022-06-30 14:00:00
1656601200000,METAR SBRJ 301500Z 18009KT 9999 SCT020 BKN030 22/16 Q1019=,SBRJ,2022-06-30 15:00:00
1656604800000,METAR SBRJ 301600Z 17008KT 9999 SCT020 BKN040 22/17 Q1018=,SBRJ,2022-06-30 16:00:00
1656608400000,METAR SBRJ 301700Z 15008KT 9999 SCT020 BKN040 22/17 Q1017=,SBRJ,2022-06-30 17:00:00
1656612000000,METAR SBRJ 301800Z 16010KT 9999 FEW020 22/17 Q1017=,SBRJ,2022-06-30 18:00:00
1656615600000,METAR SBRJ 301900Z 15010KT 9999 FEW020 21/16 Q1017=,SBRJ,2022-06-30 19:00:00
1656619200000,METAR SBRJ 302000Z 16010KT 9999 FEW020 21/17 Q1018=,SBRJ,2022-06-30 20:00:00
1656622800000,METAR SBRJ 302100Z 16008KT 9999 FEW020 20/16 Q1018=,SBRJ,2022-06-30 21:00:00
1656626400000,METAR SBRJ 302200Z 17008KT 9999 FEW020 SCT035 20/16 Q1019=,SBRJ,2022-06-30 22:00:00
1656630000000,METAR SBRJ 302300Z 17009KT 9999 FEW020 20/16 Q1019=,SBRJ,2022-06-30 23:00:00
1656547200000,METAR SBSP 300000Z 18008KT 9999 BKN040 18/12 Q1020=,SBSP,2022-06-30 00:00:00
1656550800000,METAR SBSP 300100Z 17006KT 140V210 CAVOK 16/12 Q1020=,SBSP,2022-06-30 01:00:00
1656554400000,METAR SBSP 300200Z 20007KT 5000 BR SCT005 15/13 Q1020=,SBSP,2022-06-30 02:00:00
1656554520000,SPECI SBSP 300202Z 20006KT 4200 BR BKN005 15/13 Q1020=,SBSP,2022-06-30 02:02:00
1656554940000,SPECI SBSP 300209Z AUTO 18005KT 140V210 4500 BR BKN004 15/13 Q1020=,SBSP,2022-06-30 02:09:00
1656555600000,SPECI SBSP 300220Z AUTO 19006KT 4600 BR BKN005 15/13 Q1020=,SBSP,2022-06-30 02:20:00
1656556920000,SPECI SBSP 300242Z AUTO 19006KT 5000 BR BKN005 15/12 Q1020=,SBSP,2022-06-30 02:42:00
1656557700000,SPECI SBSP 300255Z AUTO 18007KT 4900 BR OVC006 15/12 Q1020=,SBSP,2022-06-30 02:55:00
1656558000000,METAR SBSP 300300Z AUTO 18007KT 4900 BR OVC006 15/12 Q1020=,SBSP,2022-06-30 03:00:00
1656561600000,METAR SBSP 300400Z AUTO 16003KT 6000 SCT004 OVC007 15/12 Q1020=,SBSP,2022-06-30 04:00:00
1656565200000,METAR SBSP 300500Z AUTO 19003KT 150V230 7000 SCT006 OVC008 15/12 Q1019=,SBSP,2022-06-30 05:00:00
1656566760000,SPECI SBSP 300526Z AUTO 16003KT 8000 SCT007 OVC010 15/12 Q1019=,SBSP,2022-06-30 05:26:00
1656568800000,METAR SBSP 300600Z AUTO 16003KT 8000 SCT008 BKN010 14/12 Q1019=,SBSP,2022-06-30 06:00:00
1656569640000,SPECI SBSP 300614Z AUTO 17003KT 140V200 8000 BKN009 14/12 Q1019=,SBSP,2022-06-30 06:14:00
1656572100000,SPECI SBSP 300655Z AUTO VRB02KT 7000 BKN010 15/12 Q1019=,SBSP,2022-06-30 06:55:00
1656572400000,METAR SBSP 300700Z AUTO VRB02KT 7000 BKN010 15/12 Q1019=,SBSP,2022-06-30 07:00:00
1656572640000,SPECI SBSP 300704Z AUTO 21003KT 160V260 7000 BKN009 15/12 Q1019=,SBSP,2022-06-30 07:04:00
1656573360000,SPECI SBSP 300716Z AUTO 00000KT 7000 BKN010 15/12 Q1019=,SBSP,2022-06-30 07:16:00
1656574200000,SPECI SBSP 300730Z AUTO VRB01KT 7000 BKN009 15/12 Q1020=,SBSP,2022-06-30 07:30:00
1656576000000,METAR SBSP 300800Z AUTO VRB02KT 7000 SCT009 15/12 Q1019=,SBSP,2022-06-30 08:00:00
1656579600000,METAR SBSP 300900Z VRB01KT 7000 FEW009 14/11 Q1020=,SBSP,2022-06-30 09:00:00
1656583200000,METAR SBSP 301000Z VRB01KT 5000 BR FEW009 13/11 Q1020=,SBSP,2022-06-30 10:00:00
1656586800000,METAR SBSP 301100Z VRB02KT 5000 BR FEW008 15/12 Q1021=,SBSP,2022-06-30 11:00:00
1656590400000,METAR SBSP 301200Z 35002KT 5000 HZ NSC 17/12 Q1022=,SBSP,2022-06-30 12:00:00
1656594000000,METAR SBSP 301300Z 33007KT CAVOK 19/11 Q1023=,SBSP,2022-06-30 13:00:00
1656597600000,METAR SBSP 301400Z 33012KT CAVOK 20/10 Q1022=,SBSP,2022-06-30 14:00:00
1656601200000,METAR SBSP 301500Z 33010KT CAVOK 22/09 Q1022=,SBSP,2022-06-30 15:00:00
1656604800000,METAR SBSP 301600Z 32010KT CAVOK 22/09 Q1021=,SBSP,2022-06-30 16:00:00
1656608400000,METAR SBSP 301700Z 32006KT CAVOK 23/09 Q1020=,SBSP,2022-06-30 17:00:00
1656612000000,METAR SBSP 301800Z 30007KT 250V340 CAVOK 23/07 Q1020=,SBSP,2022-06-30 18:00:00
1656615600000,METAR SBSP 301900Z 31008KT 270V350 CAVOK 23/07 Q1020=,SBSP,2022-06-30 19:00:00
1656619200000,METAR SBSP 302000Z 31007KT 260V340 CAVOK 22/08 Q1020=,SBSP,2022-06-30 20:00:00
1656622800000,METAR SBSP 302100Z 19007KT CAVOK 17/12 Q1020=,SBSP,2022-06-30 21:00:00
1656626400000,METAR SBSP 302200Z 20005KT 8000 NSC 15/12 Q1021=,SBSP,2022-06-30 22:00:00
1656630000000,METAR SBSP 302300Z 17003KT CAVOK 15/12 Q1021=,SBSP,2022-06-30 23:00:00
1656547200000,METAR SBSV 300000Z 23003KT 9999 FEW020 24/20 Q1018=,SBSV,2022-06-30 00:00:00
1656550800000,METAR SBSV 300100Z 20004KT 9999 SCT020 24/21 Q1018=,SBSV,2022-06-30 01:00:00
1656554400000,METAR SBSV 300200Z 19004KT 9999 FEW023 24/20 Q1018=,SBSV,2022-06-30 02:00:00
1656558000000,METAR SBSV 300300Z 18002KT 9999 FEW023 24/// Q1017=,SBSV,2022-06-30 03:00:00
1656561600000,METAR SBSV 300400Z 21002KT 9999 FEW023 23/20 Q1017=,SBSV,2022-06-30 04:00:00
1656565200000,METAR SBSV 300500Z 26002KT 9999 FEW023 22/20 Q1016=,SBSV,2022-06-30 05:00:00
1656568800000,METAR SBSV 300600Z 00000KT 9999 FEW023 21/20 Q1015=,SBSV,2022-06-30 06:00:00
1656572400000,METAR SBSV 300700Z 27002KT 9999 FEW020 21/20 Q1015=,SBSV,2022-06-30 07:00:00
1656576000000,METAR SBSV 300800Z 27003KT 9999 FEW020 21/20 Q1016=,SBSV,2022-06-30 08:00:00
1656579600000,METAR SBSV 300900Z 26002KT 9999 SCT020 21/20 Q1016=,SBSV,2022-06-30 09:00:00
1656583200000,METAR SBSV 301000Z VRB02KT 9999 SCT020 22/21 Q1016=,SBSV,2022-06-30 10:00:00
1656586800000,METAR SBSV 301100Z 15005KT 110V200 9999 SCT020 26/21 Q1017=,SBSV,2022-06-30 11:00:00
1656590400000,METAR SBSV 301200Z 14008KT 100V170 9999 SCT020 FEW025TCU 26/21 Q1017=,SBSV,2022-06-30 12:00:00
1656594000000,METAR SBSV 301300Z 15005KT 9999 SCT020 FEW025TCU 26/22 Q1017=,SBSV,2022-06-30 13:00:00
1656597600000,METAR SBSV 301400Z 11008KT 050V150 9999 SCT020 FEW025TCU 28/21 Q1017=,SBSV,2022-06-30 14:00:00
1656601200000,METAR SBSV 301500Z 10008KT 060V150 9999 SCT023 FEW025TCU SCT060 27/21 Q1016=,SBSV,2022-06-30 15:00:00
1656604800000,METAR SBSV 301600Z 09005KT 9999 SCT023 FEW025TCU SCT068 28/21 Q1016=,SBSV,2022-06-30 16:00:00
1656608400000,METAR SBSV 301700Z 09006KT 050V150 9999 SCT025 SCT070 27/21 Q1015=,SBSV,2022-06-30 17:00:00
1656612000000,METAR SBSV 301800Z 16005KT 050V220 9999 SCT023 FEW025TCU SCT070 27/21 Q1015=,SBSV,2022-06-30 18:00:00
1656615600000,METAR SBSV 301900Z 15005KT 9999 SCT023 FEW025TCU SCT070 27/21 Q1015=,SBSV,2022-06-30 19:00:00
1656619200000,METAR SBSV 302000Z 17005KT 9999 SCT023 FEW025TCU SCT070 26/21 Q1015=,SBSV,2022-06-30 20:00:00
1656622800000,METAR SBSV 302100Z 19005KT 9999 VCSH SCT023 FEW025TCU SCT070 26/21 Q1016=,SBSV,2022-06-30 21:00:00
1656626400000,METAR COR SBSV 302200Z 35003KT 9999 -RA FEW023 FEW025TCU 25/22 Q1016=,SBSV,2022-06-30 22:00:00
1656630000000,METAR SBSV 302300Z 31002KT 9999 VCSH SCT023 FEW025TCU 24/22 Q1017=,SBSV,2022-06-30 23:00:00
