hora,metar,aero
1657584000000,METAR SBBR 120000Z 11005KT CAVOK 19/11 Q1021=,SBBR
1657587600000,METAR SBBR 120100Z 20003KT 170V260 9999 FEW045 17/11 Q1021=,SBBR
1657591200000,METAR SBBR 120200Z 21003KT 190V260 CAVOK 16/10 Q1021=,SBBR
1657594800000,METAR SBBR 120300Z VRB01KT CAVOK 14/10 Q1022=,SBBR
1657598400000,METAR SBBR 120400Z VRB01KT CAVOK 15/10 Q1021=,SBBR
1657602000000,METAR SBBR 120500Z VRB01KT CAVOK 12/09 Q1021=,SBBR
1657605600000,METAR SBBR 120600Z VRB01KT CAVOK 11/09 Q1021=,SBBR
1657609200000,METAR SBBR 120700Z 27004KT CAVOK 11/09 Q1020=,SBBR
1657612800000,METAR SBBR 120800Z 22003KT 190V250 CAVOK 13/09 Q1020=,SBBR
1657616400000,METAR SBBR 120900Z VRB02KT CAVOK 11/09 Q1021=,SBBR
1657620000000,METAR SBBR 121000Z 00000KT CAVOK 10/09 Q1021=,SBBR
1657623600000,METAR SBBR 121100Z 26002KT CAVOK 14/10 Q1023=,SBBR
1657627200000,METAR SBBR 121200Z 19002KT CAVOK 18/10 Q1024=,SBBR
1657630800000,METAR SBBR 121300Z 04005KT 340V080 CAVOK 21/09 Q1024=,SBBR
1657634400000,METAR SBBR 121400Z 12005KT 060V190 CAVOK 23/09 Q1024=,SBBR
1657638000000,METAR SBBR 121500Z VRB03KT 9999 FEW049 24/09 Q1023=,SBBR
1657641600000,METAR SBBR 121600Z 19003KT 9999 FEW049 25/09 Q1022=,SBBR
1657645200000,METAR SBBR 121700Z VRB04KT 9999 FEW049 25/09 Q1021=,SBBR
1657648800000,METAR SBBR 121800Z 25005KT 9999 SCT049 26/08 Q1020=,SBBR
1657652400000,METAR SBBR 121900Z 24004KT 9999 SCT049 26/08 Q1020=,SBBR
1657656000000,METAR SBBR 122000Z 19007KT 9999 SCT049 25/09 Q1020=,SBBR
1657659600000,METAR SBBR 122100Z 17006KT 9999 FEW049 SCT070 24/09 Q1020=,SBBR
1657663200000,METAR SBBR 122200Z 21004KT 9999 FEW049 SCT070 21/09 Q1021=,SBBR
1657666800000,METAR SBBR 122300Z 18004KT 9999 FEW049 SCT070 20/09 Q1021=,SBBR
1657584000000,METAR SBCF 120000Z 03005KT CAVOK 19/08 Q1021=,SBCF
1657587600000,METAR SBCF 120100Z 10002KT CAVOK 18/08 Q1022=,SBCF
1657591200000,METAR SBCF 120200Z 17002KT CAVOK 16/08 Q1022=,SBCF
1657594800000,METAR SBCF 120300Z 17002KT CAVOK 14/09 Q1021=,SBCF
1657598400000,METAR SBCF 120400Z 22002KT CAVOK 13/09 Q1021=,SBCF
1657602000000,METAR SBCF 120500Z 17002KT CAVOK 13/09 Q1021=,SBCF
1657605600000,METAR SBCF 120600Z 14002KT CAVOK 13/09 Q1020=,SBCF
1657609200000,METAR SBCF 120700Z 12002KT CAVOK 12/09 Q1020=,SBCF
1657612800000,METAR SBCF 120800Z 15002KT CAVOK 11/09 Q1020=,SBCF
1657616400000,METAR SBCF 120900Z 17002KT CAVOK 11/09 Q1020=,SBCF
1657620000000,METAR SBCF 121000Z 13002KT 9999 SCT045 11/09 Q1021=,SBCF
1657623600000,METAR SBCF 121100Z 14002KT 9999 SCT045 13/10 Q1022=,SBCF
1657627200000,METAR SBCF 121200Z 15002KT 9999 FEW045 17/11 Q1023=,SBCF
1657630800000,METAR SBCF 121300Z 32005KT 9999 FEW025 SCT045 21/12 Q1024=,SBCF
1657634400000,METAR SBCF 121400Z 33007KT 9999 FEW040 23/13 Q1023=,SBCF
1657638000000,METAR SBCF 121500Z 33007KT 9999 SCT045 24/10 Q1023=,SBCF
1657641600000,METAR SBCF 121600Z 32007KT 9999 SCT045 24/10 Q1022=,SBCF
1657645200000,METAR SBCF 121700Z 25008KT 9999 SCT045 25/11 Q1020=,SBCF
1657648800000,METAR SBCF 121800Z 27005KT CAVOK 24/10 Q1020=,SBCF
1657652400000,METAR SBCF 121900Z 27006KT CAVOK 24/10 Q1020=,SBCF
1657656000000,METAR SBCF 122000Z 24005KT 9999 FEW046 24/09 Q1020=,SBCF
1657659600000,METAR SBCF 122100Z 22004KT CAVOK 22/09 Q1020=,SBCF
1657663200000,METAR SBCF 122200Z 23002KT CAVOK 21/09 Q1021=,SBCF
1657666800000,METAR SBCF 122300Z 18004KT CAVOK 20/09 Q1022=,SBCF
1657584000000,METAR SBCT 120000Z 01006KT CAVOK 18/12 Q1013=,SBCT
1657587600000,METAR SBCT 120100Z 35009KT CAVOK 18/12 Q1013=,SBCT
1657591200000,METAR SBCT 120200Z 36009KT CAVOK 18/12 Q1013=,SBCT
1657594800000,METAR SBCT 120300Z 33010KT CAVOK 19/11 Q1013=,SBCT
1657598400000,METAR SBCT 120400Z 33012KT CAVOK 19/11 Q1013=,SBCT
1657602000000,METAR SBCT 120500Z 34013KT CAVOK 19/11 Q1013=,SBCT
1657605600000,METAR SBCT 120600Z 33012KT CAVOK 20/10 Q1012=,SBCT
1657609200000,METAR SBCT 120700Z 34012KT CAVOK 19/10 Q1012=,SBCT
1657612800000,METAR SBCT 120800Z 32013KT CAVOK 19/11 Q1012=,SBCT
1657616400000,METAR SBCT 120900Z 32016KT CAVOK 19/10 Q1013=,SBCT
1657620000000,METAR SBCT 121000Z 31015G25KT 9999 SCT045 BKN070 19/11 Q1015=,SBCT
1657623600000,METAR SBCT 121100Z 26011KT 9999 BKN030 BKN090 17/13 Q1016=,SBCT
1657625100000,SPECI SBCT 121125Z 29012KT 4000 -RA BKN020 OVC060 15/14 Q1016=,SBCT
1657627200000,METAR SBCT 121200Z 32014KT 9999 -RA BKN011 OVC050 16/14 Q1017=,SBCT
1657630800000,METAR SBCT 121300Z 33012KT 9999 -RA BKN011 BKN060 16/15 Q1016=,SBCT
1657634400000,METAR SBCT 121400Z 30012KT 9999 BKN013 BKN080 17/15 Q1017=,SBCT
1657636380000,SPECI SBCT 121433Z 30013KT 9999 SCT015 BKN020 19/15 Q1017=,SBCT
1657638000000,METAR SBCT 121500Z 29016KT 9999 FEW013 BKN030 19/14 Q1017=,SBCT
1657641600000,METAR SBCT 121600Z 27012KT 9999 BKN020 BKN030 20/13 Q1017=,SBCT
1657645200000,METAR SBCT 121700Z 21011KT 9999 BKN030 21/12 Q1016=,SBCT
1657648800000,METAR SBCT 121800Z 23010KT 160V280 9999 SCT035 20/10 Q1017=,SBCT
1657652400000,METAR SBCT 121900Z 20008KT 9999 FEW015 SCT035 20/10 Q1018=,SBCT
1657656000000,METAR SBCT 122000Z 22007KT 9999 FEW012 SCT030 19/09 Q1018=,SBCT
1657659600000,METAR SBCT 122100Z 23007KT 9999 FEW010 SCT030 16/10 Q1019=,SBCT
1657661700000,SPECI SBCT 122135Z 11006KT 9000 BKN010 BKN030 14/13 Q1019=,SBCT
1657663200000,METAR SBCT 122200Z 14007KT 2000 BR BKN007 BKN030 13/13 Q1020=,SBCT
1657665000000,SPECI SBCT 122230Z 12005KT 3000 BR BKN007 BKN030 13/13 Q1020=,SBCT
1657666800000,METAR SBCT 122300Z 13006KT 2000 BR BKN006 OVC010 13/13 Q1020=,SBCT
1657669200000,SPECI SBCT 122340Z 09005KT 4000 BR BKN006 OVC010 13/13 Q1021=,SBCT
1657584000000,METAR SBFL 120000Z 34006KT 9999 SCT025 21/17 Q1006=,SBFL
1657587600000,METAR SBFL 120100Z 35007KT 9999 FEW025 21/17 Q1006=,SBFL
1657591200000,METAR SBFL 120200Z 35011KT CAVOK 22/17 Q1006=,SBFL
1657594800000,METAR SBFL 120300Z 01008KT CAVOK 22/16 Q1007=,SBFL
1657598400000,METAR SBFL 120400Z 01009KT CAVOK 23/16 Q1006=,SBFL
1657602000000,METAR SBFL 120500Z 01010KT CAVOK 22/16 Q1006=,SBFL
1657605600000,METAR SBFL 120600Z 32007KT CAVOK 21/17 Q1006=,SBFL
1657609200000,METAR SBFL 120700Z 35008KT 9999 FEW030 BKN100 20/17 Q1006=,SBFL
1657612800000,METAR SBFL 120800Z 28004KT 9999 FEW030 BKN070 19/17 Q1008=,SBFL
1657616400000,METAR SBFL 120900Z 02003KT 8000 -RA SCT030 BKN070 20/18 Q1008=,SBFL
1657620000000,METAR SBFL 121000Z 35010KT 8000 -RA FEW010 SCT025 BKN070 20/18 Q1008=,SBFL
1657623600000,METAR SBFL 121100Z 33013KT 9999 FEW010 SCT020 BKN070 21/18 Q1008=,SBFL
1657627200000,METAR SBFL 121200Z 19011KT 150V210 9999 SCT008 BKN015 BKN070 20/17 Q1012=,SBFL
1657630800000,METAR SBFL 121300Z 15013KT 9999 SCT008 BKN020 BKN070 18/15 Q1013=,SBFL
1657634400000,METAR SBFL 121400Z 14015KT 9999 BKN012 BKN025 BKN070 17/14 Q1014=,SBFL
1657638000000,METAR SBFL 121500Z 15011KT 9000 -RA SCT009 BKN015 BKN070 16/13 Q1015=,SBFL
1657641600000,METAR SBFL 121600Z 15011KT 9999 BKN020 SCT080 18/14 Q1014=,SBFL
1657645200000,METAR SBFL 121700Z 13010KT 9999 BKN025 18/13 Q1015=,SBFL
1657648800000,METAR SBFL 121800Z 14012KT 9999 BKN023 18/13 Q1015=,SBFL
1657652400000,METAR SBFL 121900Z 14012KT 9999 BKN026 17/13 Q1015=,SBFL
1657656000000,METAR SBFL 122000Z 14010KT 9999 FEW026 16/12 Q1016=,SBFL
1657659600000,METAR SBFL 122100Z 13009KT 9999 BKN026 16/12 Q1017=,SBFL
1657663200000,METAR SBFL 122200Z 16005KT 120V230 9999 BKN026 16/12 Q1018=,SBFL
1657666800000,METAR SBFL 122300Z 17007KT 9999 SCT023 15/11 Q1019=,SBFL
1657584000000,METAR SBGL 120000Z 05006KT CAVOK 21/15 Q1014=,SBGL
1657587600000,METAR SBGL 120100Z 13007KT CAVOK 20/15 Q1014=,SBGL
1657591200000,METAR SBGL 120200Z 13005KT CAVOK 19/16 Q1014=,SBGL
1657594800000,METAR SBGL 120300Z 16004KT CAVOK 19/17 Q1013=,SBGL
1657598400000,METAR SBGL 120400Z 14004KT CAVOK 18/16 Q1013=,SBGL
1657602000000,METAR SBGL 120500Z 15003KT CAVOK 18/16 Q1012=,SBGL
1657605600000,METAR SBGL 120600Z 22003KT CAVOK 18/16 Q1012=,SBGL
1657609200000,METAR SBGL 120700Z 31003KT CAVOK 18/16 Q1012=,SBGL
1657612800000,METAR SBGL 120800Z 02002KT CAVOK 17/16 Q1012=,SBGL
1657616400000,METAR SBGL 120900Z 07003KT CAVOK 17/14 Q1013=,SBGL
1657620000000,METAR SBGL 121000Z 31005KT CAVOK 18/14 Q1013=,SBGL
1657623600000,METAR SBGL 121100Z 36003KT CAVOK 25/14 Q1014=,SBGL
1657627200000,METAR SBGL 121200Z 29004KT CAVOK 28/14 Q1015=,SBGL
1657630800000,METAR SBGL 121300Z 31014KT CAVOK 30/12 Q1016=,SBGL
1657634400000,METAR SBGL 121400Z 31016KT CAVOK 30/12 Q1015=,SBGL
1657638000000,METAR SBGL 121500Z 30010KT CAVOK 30/13 Q1015=,SBGL
1657641600000,METAR SBGL 121600Z 32010KT CAVOK 31/14 Q1015=,SBGL
1657645200000,METAR SBGL 121700Z 34010KT CAVOK 32/14 Q1013=,SBGL
1657648800000,METAR SBGL 121800Z 34009KT CAVOK 31/14 Q1013=,SBGL
1657652400000,METAR SBGL 121900Z 07006KT CAVOK 31/14 Q1013=,SBGL
1657656000000,METAR SBGL 122000Z 06006KT CAVOK 29/15 Q1013=,SBGL
1657659600000,METAR SBGL 122100Z 03005KT CAVOK 26/15 Q1014=,SBGL
1657663200000,METAR SBGL 122200Z 13002KT CAVOK 23/16 Q1014=,SBGL
1657666800000,METAR SBGL 122300Z VRB01KT CAVOK 21/16 Q1015=,SBGL
1657584000000,METAR SBGR 120000Z 02005KT CAVOK 19/10 Q1017=,SBGR
1657587600000,METAR SBGR 120100Z 02014KT CAVOK 21/10 Q1017=,SBGR
1657591200000,METAR SBGR 120200Z 03010KT CAVOK 20/10 Q1017=,SBGR
1657594800000,METAR SBGR 120300Z 36015KT CAVOK 20/10 Q1016=,SBGR
1657598400000,METAR SBGR 120400Z 36013KT CAVOK 20/10 Q1017=,SBGR
1657602000000,METAR SBGR 120500Z 02008KT 330V060 CAVOK 20/09 Q1016=,SBGR
1657605600000,METAR SBGR 120600Z 03009KT CAVOK 19/09 Q1016=,SBGR
1657609200000,METAR SBGR 120700Z 02009KT CAVOK 19/09 Q1016=,SBGR
1657612800000,METAR SBGR 120800Z 36008KT CAVOK 19/09 Q1016=,SBGR
1657616400000,METAR SBGR 120900Z 35005G15KT CAVOK 19/09 Q1017=,SBGR
1657620000000,METAR SBGR 121000Z 01007KT 330V050 CAVOK 20/09 Q1017=,SBGR
1657623600000,METAR SBGR 121100Z 02007KT 340V060 CAVOK 20/09 Q1018=,SBGR
1657627200000,METAR SBGR 121200Z 36008KT 320V020 CAVOK 21/10 Q1019=,SBGR
1657630800000,METAR SBGR 121300Z 33008G18KT 220V020 CAVOK 21/10 Q1019=,SBGR
1657634400000,METAR SBGR 121400Z 34015KT CAVOK 22/10 Q1019=,SBGR
1657638000000,METAR SBGR 121500Z 36010KT CAVOK 23/11 Q1018=,SBGR
1657641600000,METAR SBGR 121600Z 32011KT CAVOK 26/11 Q1018=,SBGR
1657645200000,METAR SBGR 121700Z 30013KT CAVOK 26/11 Q1017=,SBGR
1657648800000,METAR SBGR 121800Z 30013KT CAVOK 26/11 Q1017=,SBGR
1657652400000,METAR SBGR 121900Z 30011KT CAVOK 26/11 Q1017=,SBGR
1657656000000,METAR SBGR 122000Z 30007KT CAVOK 25/11 Q1017=,SBGR
1657659600000,METAR SBGR 122100Z 16002KT CAVOK 22/13 Q1018=,SBGR
1657663200000,METAR SBGR 122200Z 12001KT CAVOK 21/14 Q1019=,SBGR
1657666800000,METAR SBGR 122300Z 15004KT CAVOK 21/12 Q1020=,SBGR
1657584000000,METAR SBKP 120000Z 02009KT CAVOK 22/09 Q1016=,SBKP
1657587600000,METAR SBKP 120100Z 01007KT CAVOK 20/10 Q1017=,SBKP
1657591200000,METAR SBKP 120200Z 01008KT CAVOK 19/10 Q1017=,SBKP
1657594800000,METAR SBKP 120300Z 01009KT CAVOK 18/10 Q1017=,SBKP
1657598400000,METAR SBKP 120400Z 04009KT CAVOK 18/10 Q1017=,SBKP
1657602000000,METAR SBKP 120500Z 01009KT CAVOK 17/10 Q1016=,SBKP
1657605600000,METAR SBKP 120600Z 02009KT CAVOK 17/10 Q1016=,SBKP
1657609200000,METAR SBKP 120700Z 01010KT CAVOK 17/10 Q1016=,SBKP
1657612800000,METAR SBKP 120800Z 02008KT CAVOK 16/10 Q1017=,SBKP
1657616400000,METAR SBKP 120900Z 01007KT CAVOK 17/10 Q1017=,SBKP
1657620000000,METAR SBKP 121000Z 01010KT CAVOK 17/10 Q1018=,SBKP
1657623600000,METAR SBKP 121100Z 02010KT CAVOK 18/10 Q1018=,SBKP
1657627200000,METAR SBKP 121200Z 02012KT CAVOK 19/10 Q1019=,SBKP
1657630800000,METAR SBKP 121300Z 02013KT 350V050 CAVOK 21/10 Q1020=,SBKP
1657634400000,METAR SBKP 121400Z 36015KT 330V030 CAVOK 25/10 Q1019=,SBKP
1657638000000,METAR SBKP 121500Z 35015KT CAVOK 25/10 Q1018=,SBKP
1657641600000,METAR SBKP 121600Z 34014KT CAVOK 26/11 Q1018=,SBKP
1657645200000,METAR SBKP 121700Z 32013KT CAVOK 27/11 Q1017=,SBKP
1657648800000,METAR SBKP 121800Z 34011KT CAVOK 27/11 Q1016=,SBKP
1657652400000,METAR SBKP 121900Z 30010KT 250V330 CAVOK 27/11 Q1017=,SBKP
1657656000000,METAR SBKP 122000Z 30009KT 250V320 CAVOK 26/11 Q1017=,SBKP
1657659600000,METAR SBKP 122100Z 30005KT CAVOK 25/11 Q1017=,SBKP
1657663200000,METAR SBKP 122200Z 32004KT CAVOK 24/11 Q1018=,SBKP
1657666800000,METAR SBKP 122300Z 27004KT 240V330 CAVOK 24/11 Q1018=,SBKP
1657584000000,METAR SBPA 120000Z 23004KT 190V250 9999 FEW035 FEW040TCU BKN080 25/16 Q0999=,SBPA
1657584480000,SPECI SBPA 120008Z 23014G26KT 180V300 9999 FEW035 FEW040TCU BKN080 22/16 Q1000=,SBPA
1657586280000,SPECI SBPA 120038Z 21014G24KT 180V250 4000 RA VCTS SCT012 FEW040CB BKN070 18/15 Q1004=,SBPA
1657587600000,METAR SBPA 120100Z 21019G31KT 190V250 4000 RA SCT012 FEW040TCU BKN070 17/15 Q1003=,SBPA
1657591200000,METAR SBPA 120200Z 21017G27KT 3000 RA BR SCT009 FEW035TCU OVC040 16/15 Q1004=,SBPA
1657594800000,METAR SBPA 120300Z 22008KT 140V280 5000 -RA OVC011 16/15 Q1005 RERA=,SBPA
1657595280000,SPECI SBPA 120308Z 22009KT 180V250 4000 TSRA BKN011 FEW030CB OVC035 16/15 Q1006=,SBPA
1657595820000,SPECI SBPA 120317Z 25009KT 190V310 2000 TSRA BR BKN011 FEW030CB OVC035 16/15 Q1007=,SBPA
1657598400000,METAR SBPA 120400Z 26007KT 5000 -RA BKN007 OVC014 16/15 Q1007 RETSRA=,SBPA
1657602000000,METAR SBPA 120500Z 27006KT 5000 -RA SCT006 OVC014 16/15 Q1008=,SBPA
1657605600000,METAR SBPA 120600Z 26007KT 6000 OVC005 16/15 Q1008=,SBPA
1657609200000,METAR SBPA 120700Z 28013KT 3500 -RADZ BKN007 OVC016 15/15 Q1009=,SBPA
1657612800000,METAR SBPA 120800Z 28010KT 4000 BR BKN009 OVC030 15/14 Q1010=,SBPA
1657616400000,METAR SBPA 120900Z 23010KT 180V260 4000 -RA BKN006 OVC040 14/13 Q1012=,SBPA
1657620000000,METAR SBPA 121000Z 21008KT 180V240 9999 BKN014 OVC040 12/10 Q1014=,SBPA
1657623600000,METAR SBPA 121100Z 25010KT 9999 VCSH SCT020 OVC040 12/10 Q1016=,SBPA
1657627200000,METAR SBPA 121200Z 25012KT 220V280 9999 BKN023 BKN050 13/09 Q1018=,SBPA
1657630800000,METAR SBPA 121300Z 27012KT 9999 BKN017 BKN025 13/10 Q1018=,SBPA
1657634400000,METAR SBPA 121400Z 26011KT 9999 BKN025 13/09 Q1019=,SBPA
1657638000000,METAR SBPA 121500Z 25010KT 220V280 9999 BKN023 BKN032 13/09 Q1019=,SBPA
1657641600000,METAR SBPA 121600Z 26012KT 9999 BKN040 14/08 Q1019=,SBPA
1657645200000,METAR SBPA 121700Z 26011KT 9999 OVC033 13/08 Q1018=,SBPA
1657648800000,METAR SBPA 121800Z 27014KT 9999 OVC026 13/08 Q1018=,SBPA
1657652400000,METAR SBPA 121900Z 27012KT 9999 BKN036 13/07 Q1018=,SBPA
1657656000000,METAR SBPA 122000Z 27012KT 9999 SCT036 13/07 Q1019=,SBPA
1657659600000,METAR SBPA 122100Z 27007KT 9999 BKN036 12/07 Q1019=,SBPA
1657663200000,METAR SBPA 122200Z 27008KT 9999 BKN035 12/08 Q1020=,SBPA
1657666800000,METAR SBPA 122300Z 28007KT 9999 SCT040 12/07 Q1021=,SBPA
1657648800000,METAR SBRF 121800Z 16009KT 9999 BKN020 28/22 Q1013=,SBRF
1657584000000,METAR SBRF 120000Z 15008KT 9999 FEW023 BKN070 26/21 Q1015=,SBRF
1657587600000,METAR SBRF 120100Z 16009KT 9999 SCT023 BKN070 26/22 Q1015=,SBRF
1657591200000,METAR SBRF 120200Z 17007KT 9999 FEW023 26/22 Q1015=,SBRF
1657594800000,METAR SBRF 120300Z 22005KT 9999 FEW023 24/22 Q1014=,SBRF
1657598400000,METAR SBRF 120400Z 20004KT 9999 BKN023 24/22 Q1014=,SBRF
1657602000000,METAR SBRF 120500Z 20003KT 9999 VCSH BKN021 24/22 Q1013=,SBRF
1657605600000,METAR SBRF 120600Z 20002KT 9999 BKN020 23/22 Q1013=,SBRF
1657609200000,METAR SBRF 120700Z 21003KT 9000 BKN021 23/22 Q1013=,SBRF
1657612800000,METAR SBRF 120800Z 00000KT 9999 FEW023 23/22 Q1014=,SBRF
1657616400000,METAR SBRF 120900Z 20004KT 9999 FEW023 23/22 Q1014=,SBRF
1657620000000,METAR SBRF 121000Z 21005KT 9999 FEW023 24/22 Q1014=,SBRF
1657623600000,METAR SBRF 121100Z 20006KT 9999 FEW021 26/22 Q1015=,SBRF
1657627200000,METAR SBRF 121200Z 18008KT 9999 FEW021 27/23 Q1015=,SBRF
1657630800000,METAR SBRF 121300Z 15010KT 9999 SCT021 28/22 Q1015=,SBRF
1657634400000,METAR SBRF 121400Z 15009KT 9999 SCT021 28/21 Q1015=,SBRF
1657638000000,METAR SBRF 121500Z 16007KT 9999 SCT021 28/22 Q1015=,SBRF
1657641600000,METAR SBRF 121600Z 16008KT 9999 SCT021 28/21 Q1014=,SBRF
1657645200000,METAR SBRF 121700Z 17009KT 9999 SCT021 28/22 Q1014=,SBRF
1657652400000,METAR SBRF 121900Z 16011KT 9999 BKN023 26/23 Q1013=,SBRF
1657656000000,METAR SBRF 122000Z 15012KT 9999 SCT023 26/22 Q1014=,SBRF
1657659600000,METAR SBRF 122100Z 17009KT 120V180 9999 SCT020 26/23 Q1014=,SBRF
1657663200000,METAR SBRF 122200Z 17009KT 9999 SCT020 26/23 Q1015=,SBRF
1657666800000,METAR SBRF 122300Z 17006KT 9999 SCT015 26/23 Q1015=,SBRF
1657584000000,METAR SBRJ 120000Z 12003KT CAVOK 23/19 Q1014=,SBRJ
1657587600000,METAR SBRJ 120100Z 06002KT CAVOK 23/18 Q1014=,SBRJ
1657591200000,METAR SBRJ 120200Z 03002KT CAVOK 23/18 Q1013=,SBRJ
1657615800000,SPECI SBRJ 120850Z 34007KT CAVOK 21/18 Q1012=,SBRJ
1657616400000,METAR SBRJ 120900Z 34006KT CAVOK 21/18 Q1012=,SBRJ
1657620000000,METAR SBRJ 121000Z 32005KT 290V350 CAVOK 22/18 Q1013=,SBRJ
1657623600000,METAR SBRJ 121100Z 34007KT CAVOK 22/19 Q1013=,SBRJ
1657627200000,METAR SBRJ 121200Z 03006KT CAVOK 23/19 Q1014=,SBRJ
1657630800000,METAR SBRJ 121300Z 32012G24KT 290V020 CAVOK 28/12 Q1015=,SBRJ
1657634400000,METAR SBRJ 121400Z 31015KT CAVOK 29/12 Q1015=,SBRJ
1657638000000,METAR SBRJ 121500Z 31013KT CAVOK 30/12 Q1015=,SBRJ
1657641600000,METAR SBRJ 121600Z 30012KT 260V330 CAVOK 30/11 Q1014=,SBRJ
1657645200000,METAR SBRJ 121700Z 33012KT CAVOK 30/14 Q1013=,SBRJ
1657648800000,METAR SBRJ 121800Z 34008KT CAVOK 30/13 Q1013=,SBRJ
1657652400000,METAR SBRJ 121900Z 01006KT CAVOK 27/19 Q1013=,SBRJ
1657656000000,METAR SBRJ 122000Z 03005KT CAVOK 27/17 Q1013=,SBRJ
1657659600000,METAR SBRJ 122100Z 33006KT CAVOK 26/17 Q1013=,SBRJ
1657663200000,METAR SBRJ 122200Z 32003KT CAVOK 27/14 Q1013=,SBRJ
1657666800000,METAR SBRJ 122300Z 33005KT CAVOK 27/14 Q1014=,SBRJ
1657584000000,METAR SBSP 120000Z 36010KT CAVOK 22/07 Q1017=,SBSP
1657587600000,METAR SBSP 120100Z 02011KT 350V050 CAVOK 21/08 Q1017=,SBSP
1657591200000,METAR SBSP 120200Z 02007KT 340V060 CAVOK 20/09 Q1017=,SBSP
1657591260000,SPECI SBSP 120201Z 01008KT 340V040 CAVOK 20/08 Q1017=,SBSP
1657594800000,METAR SBSP 120300Z AUTO 01012KT CAVOK 20/08 Q1016=,SBSP
1657598400000,METAR SBSP 120400Z AUTO 35014KT CAVOK 19/08 Q1016=,SBSP
1657602000000,METAR SBSP 120500Z AUTO 01010KT CAVOK 19/08 Q1016=,SBSP
1657605600000,METAR SBSP 120600Z AUTO 01011KT 340V040 CAVOK 20/08 Q1016=,SBSP
1657609200000,METAR SBSP 120700Z AUTO 34012KT CAVOK 19/08 Q1016=,SBSP
1657612800000,METAR SBSP 120800Z AUTO 35013KT CAVOK 19/08 Q1016=,SBSP
1657616400000,METAR SBSP 120900Z 35012KT CAVOK 19/08 Q1017=,SBSP
1657620000000,METAR SBSP 121000Z 36010KT CAVOK 19/08 Q1018=,SBSP
1657623600000,METAR SBSP 121100Z 34013KT CAVOK 19/08 Q1019=,SBSP
1657627200000,METAR SBSP 121200Z 35014KT CAVOK 20/08 Q1019=,SBSP
1657630800000,METAR SBSP 121300Z 36009KT 320V040 CAVOK 21/08 Q1020=,SBSP
1657634400000,METAR SBSP 121400Z 02006KT 350V050 CAVOK 22/09 Q1020=,SBSP
1657638000000,METAR SBSP 121500Z 01009KT 340V060 CAVOK 24/10 Q1019=,SBSP
1657641600000,METAR SBSP 121600Z 31016G26KT CAVOK 26/09 Q1018=,SBSP
1657645200000,METAR SBSP 121700Z 32017KT CAVOK 25/08 Q1018=,SBSP
1657648800000,METAR SBSP 121800Z 32014KT CAVOK 25/09 Q1017=,SBSP
1657652400000,METAR SBSP 121900Z 31013KT 280V340 CAVOK 26/09 Q1017=,SBSP
1657656000000,METAR SBSP 122000Z 31010KT CAVOK 25/08 Q1018=,SBSP
1657659600000,METAR SBSP 122100Z 28006KT 9999 SCT046 BKN080 25/09 Q1019=,SBSP
1657663200000,METAR SBSP 122200Z 15012KT 9999 SCT046 BKN080 21/12 Q1020=,SBSP
1657666800000,METAR SBSP 122300Z 19014KT 9999 FEW013 BKN080 18/14 Q1022=,SBSP
1657669140000,SPECI SBSP 122339Z 19012KT 8000 -DZ FEW003 BKN004 BKN013 17/14 Q1022=,SBSP
1657584000000,METAR SBSV 120000Z 13006KT 9999 FEW005 BKN015 FEW025TCU 24/23 Q1016=,SBSV
1657587600000,METAR SBSV 120100Z 09010KT 5000 -RA SCT010 BKN015 FEW025TCU 24/23 Q1017=,SBSV
1657591200000,METAR SBSV 120200Z 10009KT 9999 FEW010 BKN015 24/23 Q1017=,SBSV
1657594800000,METAR SBSV 120300Z 06008KT 5000 -RA FEW010 OVC015 24/22 Q1017=,SBSV
1657598400000,METAR SBSV 120400Z 08007KT 5000 -RA SCT010 OVC015 23/// Q1016=,SBSV
1657602000000,METAR SBSV 120500Z 00000KT 8000 SCT010 OVC015 24/// Q1016=,SBSV
1657605600000,METAR SBSV 120600Z 09006KT 5000 -RA BR SCT007 OVC015 24/21 Q1015=,SBSV
1657609200000,METAR SBSV 120700Z 16002KT 9999 FEW007 BKN020 24/22 Q1015=,SBSV
1657612800000,METAR SBSV 120800Z 11011KT 9999 SCT020 BKN060 26/21 Q1015=,SBSV
1657616400000,METAR SBSV 120900Z 12009KT 9999 SCT020 BKN050 26/21 Q1016=,SBSV
1657620000000,METAR SBSV 121000Z 13007KT 100V160 9999 SCT020 FEW023TCU BKN060 26/21 Q1016=,SBSV
1657623600000,METAR SBSV 121100Z 13009KT 100V160 9999 SCT020 FEW023TCU BKN060 26/22 Q1017=,SBSV
1657627200000,METAR SBSV 121200Z 12012KT 9999 VCSH SCT020 FEW023TCU BKN060 26/21 Q1018=,SBSV
1657630800000,METAR SBSV 121300Z 14009KT 080V170 9000 VCSH SCT020 FEW023TCU BKN060 27/21 Q1018=,SBSV
1657634400000,METAR SBSV 121400Z 14007KT 110V200 8000 VCSH SCT020 FEW023TCU BKN060 26/22 Q1018=,SBSV
1657638000000,METAR SBSV 121500Z 15010KT 100V210 9999 SCT020 FEW023TCU BKN070 27/22 Q1018=,SBSV
1657641600000,METAR SBSV 121600Z 13012KT 9999 VCSH SCT020 FEW023TCU BKN060 27/22 Q1017=,SBSV
1657645200000,METAR SBSV 121700Z 14009KT 110V170 8000 VCSH BKN020 FEW023TCU BKN060 26/22 Q1016=,SBSV
1657648800000,METAR SBSV 121800Z 17009KT 9999 BKN020 FEW023TCU BKN060 27/22 Q1016=,SBSV
1657652400000,METAR SBSV 121900Z 17008KT 9999 VCSH SCT020 FEW023TCU BKN060 26/22 Q1016=,SBSV
1657656000000,METAR SBSV 122000Z 15011KT 9999 SCT020 BKN060 27/22 Q1016=,SBSV
1657658100000,SPECI SBSV 122035Z 12013KT 3000 -SHRA SCT020 FEW023TCU BKN070 24/22 Q1016=,SBSV
1657659600000,METAR SBSV 122100Z 15009KT 9999 -SHRA SCT020 FEW023TCU BKN070 25/22 Q1017=,SBSV
1657663200000,METAR SBSV 122200Z 14008KT 9999 SCT020 BKN070 26/22 Q1017=,SBSV
1657666800000,METAR SBSV 122300Z 15008KT 9999 SCT020 BKN070 26/21 Q1018=,SBSV
