hora,metar,aero
1675641600000,METAR SBBR 060000Z 18004KT 9999 FEW040 SCT100 23/19 Q1019=,SBBR
1675645200000,METAR SBBR 060100Z 20005KT 180V240 CAVOK 23/18 Q1019=,SBBR
1675648800000,METAR SBBR 060200Z 29003KT 250V330 CAVOK 21/18 Q1019=,SBBR
1675652400000,METAR SBBR 060300Z 00000KT CAVOK 21/18 Q1019=,SBBR
1675656000000,METAR SBBR 060400Z 27002KT CAVOK 21/18 Q1019=,SBBR
1675659600000,METAR SBBR 060500Z 22004KT CAVOK 21/18 Q1018=,SBBR
1675663200000,METAR SBBR 060600Z 32001KT CAVOK 20/18 Q1017=,SBBR
1675666800000,METAR SBBR 060700Z 08002KT CAVOK 20/18 Q1018=,SBBR
1675670400000,METAR SBBR 060800Z 00000KT CAVOK 19/18 Q1018=,SBBR
1675674000000,METAR SBBR 060900Z 23002KT 9999 FEW025 SCT070 20/18 Q1018=,SBBR
1675677600000,METAR SBBR 061000Z VRB02KT 9999 FEW025 SCT080 20/18 Q1019=,SBBR
1675681200000,METAR SBBR 061100Z VRB02KT 9999 FEW025 BKN090 21/18 Q1020=,SBBR
1675684800000,METAR SBBR 061200Z VRB02KT 9999 FEW025 BKN090 24/19 Q1020=,SBBR
1675685700000,SPECI SBBR 061215Z 11004KT 040V160 9999 BKN012 BKN070 24/20 Q1020=,SBBR
1675688400000,METAR SBBR 061300Z 07008G25KT 060V120 8000 1000S R29L/1500D R29R/1700U R11L/P2000 R11R/P2000 SHRA BKN013 BKN070 23/20 Q1021=,SBBR
1675689600000,SPECI SBBR 061320Z 03012KT 340V070 8000 TS BKN013 FEW015CB BKN070 22/17 Q1021 RESHRA=,SBBR
1675692000000,METAR SBBR 061400Z 27009KT 3000 TSRA BKN010 FEW015CB BKN030 BKN070 20/18 Q1022 RESHRA=,SBBR
1675695600000,METAR SBBR 061500Z 28005KT 9999 VCTS SCT030 FEW035CB BKN100 21/18 Q1020 RETSRA=,SBBR
1675699200000,METAR SBBR 061600Z 21003KT 140V310 9999 VCTS FEW030 FEW035CB BKN100 22/17 Q1019=,SBBR
1675702800000,METAR SBBR 061700Z 26003KT 190V290 9999 FEW030 FEW035TCU BKN100 24/17 Q1018=,SBBR
1675706400000,METAR SBBR 061800Z 14002KT 9999 FEW030 FEW040TCU BKN100 25/15 Q1018=,SBBR
1675710000000,METAR SBBR 061900Z 20005KT 9999 FEW040 BKN100 24/17 Q1016=,SBBR
1675713600000,METAR SBBR 062000Z 19005KT 9999 FEW030 BKN100 24/17 Q1016=,SBBR
1675717200000,METAR SBBR 062100Z 19004KT 9999 FEW030 FEW040TCU 24/19 Q1016=,SBBR
1675720800000,METAR SBBR 062200Z 18004KT 120V210 9999 FEW030 23/18 Q1017=,SBBR
1675724400000,METAR SBBR 062300Z 17004KT 9999 FEW040 23/18 Q1017=,SBBR
1675641600000,METAR SBCF 060000Z 13006KT 9999 FEW048 25/19 Q1017=,SBCF
1675645200000,METAR SBCF 060100Z 12005KT 9999 VCTS FEW048 FEW050CB 25/20 Q1017=,SBCF
1675648800000,METAR SBCF 060200Z 13004KT 9999 VCTS FEW048 FEW050CB 25/19 Q1017=,SBCF
1675652400000,METAR SBCF 060300Z 09008KT 9999 VCTS FEW048 FEW050CB 26/19 Q1017=,SBCF
1675656000000,METAR SBCF 060400Z 12003KT 9999 VCTS FEW048 FEW050CB 24/19 Q1016=,SBCF
1675659600000,METAR SBCF 060500Z 02004KT 9999 VCTS FEW048 FEW050CB 24/19 Q1016=,SBCF
1675663200000,METAR COR SBCF 060600Z 03005KT 280V090 9999 VCTS FEW048 FEW050CB 22/19 Q1016=,SBCF
1675666800000,METAR SBCF 060700Z 20004KT 9999 VCTS FEW048 FEW050CB BKN100 21/19 Q1016=,SBCF
1675670400000,METAR SBCF 060800Z 13004KT 9999 VCTS FEW048 FEW050CB SCT100 21/19 Q1016=,SBCF
1675674000000,METAR SBCF 060900Z 14003KT 9999 VCTS FEW048 FEW050CB 21/19 Q1016=,SBCF
1675677600000,METAR SBCF 061000Z 12003KT 9999 FEW040 SCT100 21/19 Q1017=,SBCF
1675681200000,METAR SBCF 061100Z 19002KT 9999 FEW040 SCT100 23/18 Q1018=,SBCF
1675684800000,METAR SBCF 061200Z 17003KT 9999 VCTS FEW045 FEW050CB SCT100 25/18 Q1019=,SBCF
1675688400000,METAR SBCF 061300Z 03012KT 9999 VCSH VCTS FEW011 SCT035 FEW050CB 23/19 Q1019=,SBCF
1675692000000,METAR SBCF 061400Z 03007KT 9999 VCTS FEW010 FEW050CB SCT100 24/20 Q1019=,SBCF
1675695600000,METAR SBCF 061500Z 33007KT 9999 FEW030 FEW050TCU SCT100 27/19 Q1018=,SBCF
1675699200000,METAR SBCF 061600Z 02012KT 9999 SCT035 FEW045TCU SCT100 27/19 Q1017=,SBCF
1675702800000,METAR SBCF 061700Z 33012KT 9999 FEW035 FEW045TCU 29/19 Q1016=,SBCF
1675706400000,METAR SBCF 061800Z 30010KT 9999 VCSH FEW035 FEW045TCU 30/18 Q1015=,SBCF
1675710000000,METAR SBCF 061900Z 32011KT 9999 VCSH SCT040 FEW045TCU 30/18 Q1015=,SBCF
1675713600000,METAR SBCF 062000Z 34007KT 9999 VCSH SCT040 FEW045TCU 28/18 Q1015=,SBCF
1675717200000,METAR SBCF 062100Z 03006KT 9999 VCSH SCT040 FEW045TCU 28/19 Q1015=,SBCF
1675720800000,METAR SBCF 062200Z 01005KT 9999 FEW040 27/20 Q1015=,SBCF
1675724400000,METAR SBCF 062300Z 25003KT 9999 VCTS FEW045CB SCT100 26/20 Q1016=,SBCF
1675641600000,METAR SBCT 060000Z 12005KT 9999 FEW045 20/17 Q1015=,SBCT
1675645200000,METAR SBCT 060100Z 10002KT CAVOK 19/18 Q1016=,SBCT
1675648800000,METAR SBCT 060200Z 11003KT CAVOK 19/18 Q1016=,SBCT
1675650660000,SPECI SBCT 060231Z 01007KT 8000 BKN003 18/17 Q1017=,SBCT
1675652400000,METAR SBCT 060300Z 13004KT 4500 BR BKN001 BKN004 19/18 Q1017=,SBCT
1675653060000,SPECI SBCT 060311Z 10003KT 9000 FEW003 18/18 Q1016=,SBCT
1675656000000,METAR SBCT 060400Z 12003KT CAVOK 18/18 Q1016=,SBCT
1675659600000,METAR SBCT 060500Z 11001KT 9999 SCT005 18/18 Q1016=,SBCT
1675663200000,METAR SBCT 060600Z 09001KT 9999 FEW004 18/17 Q1015=,SBCT
1675666800000,METAR SBCT 060700Z 00000KT 5000 BR SCT005 17/17 Q1015=,SBCT
1675667400000,SPECI SBCT 060710Z 00000KT 3000 BR SCT005 17/16 Q1015=,SBCT
1675668120000,SPECI SBCT 060722Z 08002KT 0400 R15/0400 R33/0400 FG VV003 17/16 Q1015=,SBCT
1675670400000,METAR SBCT 060800Z 10002KT 0400 R15/0400 R33/0400 FG VV003 16/16 Q1015=,SBCT
1675672740000,SPECI SBCT 060839Z 10002KT 0300 R15/0300 R33/0375 FG VV002 17/17 Q1016=,SBCT
1675674000000,METAR SBCT 060900Z 15002KT 0300 R15/0300 R33/0350 FG VV002 17/17 Q1016=,SBCT
1675674900000,SPECI SBCT 060915Z 17003KT 0350 R15/0350 R33/0350 FG VV002 18/17 Q1016=,SBCT
1675676460000,SPECI SBCT 060941Z 14002KT 0300 R33/0250 R15/0300 FG VV002 17/17 Q1016=,SBCT
1675677600000,METAR SBCT 061000Z 16001KT 0250 R15/0250 R33/0275 FG VV002 18/17 Q1016=,SBCT
1675681200000,METAR SBCT 061100Z VRB02KT 0400 R33/0400 R15/0400 FG VV001 18/18 Q1017=,SBCT
1675682100000,SPECI SBCT 061115Z VRB02KT 0900 R15/0900 R33/0900 FG VV001 18/18 Q1017=,SBCT
1675683120000,SPECI SBCT 061132Z VRB02KT 2000 BR BKN002 19/19 Q1017=,SBCT
1675684800000,METAR SBCT 061200Z VRB02KT 7000 SCT002 19/19 Q1017=,SBCT
1675688400000,METAR SBCT 061300Z VRB02KT 9999 FEW030 24/17 Q1017=,SBCT
1675692000000,METAR SBCT 061400Z VRB02KT 9999 SCT030 SCT100 26/15 Q1017=,SBCT
1675695600000,METAR SBCT 061500Z VRB04KT 9999 BKN040 26/14 Q1017=,SBCT
1675699200000,METAR SBCT 061600Z 27006KT 9999 BKN040 27/16 Q1017=,SBCT
1675702800000,METAR SBCT 061700Z 21008KT 160V250 9999 SCT040 BKN080 27/16 Q1016=,SBCT
1675706400000,METAR SBCT 061800Z 26004KT 220V330 9999 SCT040 BKN080 27/14 Q1016=,SBCT
1675710000000,METAR SBCT 061900Z 24008KT 210V290 9999 SCT040 BKN100 28/15 Q1015=,SBCT
1675713600000,METAR SBCT 062000Z 09009KT 9999 SCT040 BKN100 24/20 Q1015=,SBCT
1675717200000,METAR SBCT 062100Z 12009KT 9999 SCT045 BKN080 23/19 Q1015=,SBCT
1675720800000,METAR SBCT 062200Z 11008KT 9999 SCT045 BKN100 21/18 Q1016=,SBCT
1675724400000,METAR SBCT 062300Z 12008KT 9999 SCT020 20/17 Q1017=,SBCT
1675641600000,METAR SBFL 060000Z 20004KT 9999 FEW030 24/23 Q1010=,SBFL
1675645200000,METAR SBFL 060100Z 19004KT CAVOK 25/23 Q1011=,SBFL
1675648800000,METAR SBFL 060200Z 00000KT CAVOK 24/23 Q1011=,SBFL
1675652400000,METAR SBFL 060300Z 25002KT CAVOK 24/23 Q1011=,SBFL
1675656000000,METAR SBFL 060400Z 26005KT CAVOK 23/22 Q1011=,SBFL
1675659600000,METAR SBFL 060500Z 26004KT CAVOK 23/22 Q1010=,SBFL
1675663200000,METAR SBFL 060600Z 27005KT CAVOK 23/22 Q1010=,SBFL
1675666800000,METAR SBFL 060700Z 27002KT CAVOK 22/22 Q1010=,SBFL
1675670400000,METAR SBFL 060800Z VRB01KT CAVOK 22/22 Q1010=,SBFL
1675674000000,METAR SBFL 060900Z VRB02KT CAVOK 22/22 Q1010=,SBFL
1675677600000,METAR SBFL 061000Z VRB01KT CAVOK 23/22 Q1011=,SBFL
1675681200000,METAR SBFL 061100Z 30003KT 210V360 CAVOK 24/23 Q1012=,SBFL
1675684800000,METAR SBFL 061200Z VRB02KT 9999 FEW020 26/22 Q1012=,SBFL
1675688400000,METAR SBFL 061300Z VRB01KT 9999 FEW020 28/22 Q1012=,SBFL
1675692000000,METAR SBFL 061400Z 11007KT 060V160 9999 FEW025 28/22 Q1012=,SBFL
1675695600000,METAR SBFL 061500Z 10010KT 9999 FEW025 FEW030TCU 28/22 Q1012=,SBFL
1675699200000,METAR SBFL 061600Z 11011KT 9999 FEW020 FEW025TCU 29/22 Q1012=,SBFL
1675702800000,METAR SBFL 061700Z 11011KT 9999 FEW025 FEW030TCU 29/22 Q1012=,SBFL
1675706400000,METAR SBFL 061800Z 12011KT 9999 FEW025 FEW030TCU 28/23 Q1012=,SBFL
1675710000000,METAR SBFL 061900Z 11011KT 9999 FEW025 FEW030TCU 28/23 Q1011=,SBFL
1675713600000,METAR SBFL 062000Z 12010KT 9999 FEW025 FEW030TCU 27/22 Q1011=,SBFL
1675717200000,METAR SBFL 062100Z 13010KT 9999 SCT025 FEW030TCU 27/22 Q1011=,SBFL
1675720800000,METAR SBFL 062200Z 15007KT 9999 SCT025 FEW030TCU 26/22 Q1012=,SBFL
1675724400000,METAR SBFL 062300Z 20007KT 9999 SCT025 FEW030TCU 25/23 Q1013=,SBFL
1675641600000,METAR SBGL 060000Z 28004KT 9999 FEW020 BKN100 25/22 Q1012=,SBGL
1675645200000,METAR SBGL 060100Z 33005KT 9999 FEW020 BKN100 25/23 Q1012=,SBGL
1675648800000,METAR SBGL 060200Z 34006KT 9999 FEW020 BKN100 24/22 Q1011=,SBGL
1675652400000,METAR SBGL 060300Z 15002KT 9999 FEW020 BKN100 24/22 Q1010=,SBGL
1675656000000,METAR SBGL 060400Z 10003KT 9999 FEW020 BKN100 25/22 Q1010=,SBGL
1675659600000,METAR SBGL 060500Z 04003KT 9999 FEW020 BKN100 24/23 Q1010=,SBGL
1675663200000,METAR SBGL 060600Z 05003KT 9999 FEW020 BKN100 24/23 Q1009=,SBGL
1675666800000,METAR SBGL 060700Z 06004KT 9999 FEW020 BKN100 24/22 Q1009=,SBGL
1675670400000,METAR SBGL 060800Z 02004KT 9999 SCT018 BKN100 24/22 Q1009=,SBGL
1675674000000,METAR SBGL 060900Z 35002KT 9999 FEW018 BKN100 25/22 Q1010=,SBGL
1675677600000,METAR SBGL 061000Z 33003KT 9999 FEW018 BKN100 25/23 Q1011=,SBGL
1675681200000,METAR SBGL 061100Z 01005KT 340V040 CAVOK 27/23 Q1011=,SBGL
1675684800000,METAR SBGL 061200Z 35004KT CAVOK 28/23 Q1012=,SBGL
1675688400000,METAR SBGL 061300Z 35005KT 300V020 9999 FEW025 30/23 Q1012=,SBGL
1675692000000,METAR SBGL 061400Z 35005KT 9999 FEW025 32/24 Q1012=,SBGL
1675695600000,METAR SBGL 061500Z 13011KT 9999 FEW025 32/23 Q1011=,SBGL
1675699200000,METAR SBGL 061600Z 13011KT 9999 FEW025 32/22 Q1011=,SBGL
1675702800000,METAR SBGL 061700Z 13014KT 9999 VCSH FEW025 FEW035TCU SCT045 30/22 Q1010=,SBGL
1675706400000,METAR SBGL 061800Z 13010KT 110V170 9999 TS VCSH SCT025 FEW035CB SCT080 BKN100 28/23 Q1010=,SBGL
1675710000000,METAR SBGL 061900Z 14011KT 9999 FEW025 SCT080 30/24 Q1010 RETS=,SBGL
1675713600000,METAR SBGL 062000Z 15011KT 9999 FEW020 SCT040 BKN100 29/23 Q1011=,SBGL
1675717200000,METAR SBGL 062100Z 07013KT 8000 -RA FEW020 SCT040 BKN100 26/23 Q1011=,SBGL
1675720800000,METAR COR SBGL 062200Z 20004KT 9999 FEW020 SCT080 25/23 Q1012=,SBGL
1675724400000,METAR SBGL 062300Z 15003KT 9999 FEW020 BKN100 25/23 Q1012=,SBGL
1675641600000,METAR SBGR 060000Z 20002KT 9999 VCTS FEW030CB SCT040 21/21 Q1016=,SBGR
1675645200000,METAR SBGR 060100Z 20002KT 9999 VCTS FEW030CB SCT040 22/20 Q1016=,SBGR
1675648800000,METAR SBGR 060200Z 02004KT 9999 SCT040 24/20 Q1016=,SBGR
1675652400000,METAR SBGR 060300Z 03005KT 9999 SCT040 BKN080 23/20 Q1016=,SBGR
1675656000000,METAR SBGR 060400Z 23001KT CAVOK 21/20 Q1015=,SBGR
1675659600000,METAR SBGR 060500Z 19002KT CAVOK 20/20 Q1015=,SBGR
1675663200000,METAR SBGR 060600Z 18003KT CAVOK 19/19 Q1014=,SBGR
1675666800000,METAR SBGR 060700Z 21002KT CAVOK 20/20 Q1014=,SBGR
1675670400000,METAR SBGR 060800Z 30003KT CAVOK 22/19 Q1015=,SBGR
1675674000000,METAR SBGR 060900Z 29002KT CAVOK 20/19 Q1015=,SBGR
1675677600000,METAR SBGR 061000Z 31003KT CAVOK 22/20 Q1016=,SBGR
1675681200000,METAR SBGR 061100Z 31003KT 9999 FEW017 23/20 Q1017=,SBGR
1675684800000,METAR SBGR 061200Z 32005KT 9999 SCT040 25/20 Q1017=,SBGR
1675688400000,METAR SBGR 061300Z 27006KT 9999 SCT025 26/21 Q1017=,SBGR
1675692000000,METAR SBGR 061400Z 27006KT 9999 BKN030 27/19 Q1017=,SBGR
1675695600000,METAR SBGR 061500Z 24008KT 9999 BKN033 FEW045TCU 25/21 Q1017=,SBGR
1675699200000,METAR SBGR 061600Z 29007KT 9999 SCT040 28/20 Q1016=,SBGR
1675702800000,METAR SBGR 061700Z 27011KT 9999 VCSH SCT040 FEW060TCU 27/19 Q1015=,SBGR
1675706400000,METAR SBGR 061800Z 23005KT 9999 SCT045 BKN100 25/20 Q1015=,SBGR
1675710000000,METAR SBGR 061900Z 18003KT 9999 SCT026 BKN043 BKN100 24/21 Q1015=,SBGR
1675713600000,METAR SBGR 062000Z 16009KT 9999 SCT013 BKN023 24/19 Q1015=,SBGR
1675717200000,METAR SBGR 062100Z 06006KT 9999 3500NE -RA BKN010 BKN033 22/20 Q1016=,SBGR
1675719480000,SPECI COR SBGR 062138Z 06009KT 9999 SCT010 BKN083 21/21 Q1016=,SBGR
1675720800000,METAR SBGR 062200Z 06008KT 9999 FEW010 BKN100 21/21 Q1016=,SBGR
1675724400000,METAR SBGR 062300Z 06005KT 9999 FEW007 SCT100 21/20 Q1016=,SBGR
1675641600000,METAR SBKP 060000Z 30003KT 9999 VCSH BKN040 BKN100 25/20 Q1015=,SBKP
1675643520000,SPECI SBKP 060032Z 02004KT 9999 4000E -TSRA FEW020 FEW040CB BKN100 24/22 Q1015=,SBKP
1675645200000,METAR SBKP 060100Z 02004KT 9999 -TSRA FEW030 FEW045CB BKN100 24/21 Q1016=,SBKP
1675648800000,METAR SBKP 060200Z VRB02KT 9999 TS VCSH FEW020 BKN035 FEW040CB 23/21 Q1016=,SBKP
1675651080000,SPECI SBKP 060238Z VRB02KT 9999 VCSH VCTS BKN015 FEW035CB SCT080 23/21 Q1016 RETS=,SBKP
1675652400000,METAR COR SBKP 060300Z 03004KT 340V040 9999 VCTS BKN015 FEW035CB 23/21 Q1016 RETS=,SBKP
1675656000000,METAR SBKP 060400Z 03004KT 9999 FEW015 23/21 Q1015=,SBKP
1675659600000,METAR SBKP 060500Z 02004KT 9999 FEW040 SCT050 22/20 Q1015=,SBKP
1675663200000,METAR SBKP 060600Z 02001KT 9999 FEW045 22/20 Q1014=,SBKP
1675666800000,METAR SBKP 060700Z 12001KT 9999 SCT035 21/20 Q1014=,SBKP
1675670400000,METAR SBKP 060800Z 01002KT 9999 FEW020 21/20 Q1014=,SBKP
1675674000000,METAR SBKP 060900Z 01004KT 9999 FEW020 BKN026 22/20 Q1015=,SBKP
1675677600000,METAR SBKP 061000Z 03003KT 9999 VCSH SCT018 FEW020TCU BKN027 22/20 Q1016=,SBKP
1675681200000,METAR SBKP 061100Z 04002KT 9999 SCT027 BKN040 23/19 Q1016=,SBKP
1675684800000,METAR SBKP 061200Z 31003KT 9999 SCT015 BKN040 24/20 Q1016=,SBKP
1675688400000,METAR SBKP 061300Z 36004KT 9999 VCSH BKN017 FEW020TCU BKN040 24/20 Q1017=,SBKP
1675692000000,METAR SBKP 061400Z 21005KT 170V230 9999 SCT017 BKN025 24/21 Q1017=,SBKP
1675695600000,METAR SBKP 061500Z 29006KT 240V330 9999 BKN020 27/21 Q1016=,SBKP
1675699200000,METAR SBKP 061600Z 34006KT 280V020 9999 FEW025TCU BKN030 28/21 Q1015=,SBKP
1675702800000,METAR SBKP 061700Z 26009KT 9999 VCSH SCT030 SCT035TCU BKN070 27/21 Q1015=,SBKP
1675704000000,SPECI SBKP 061720Z 24011KT 9999 4000SW -TSRA FEW030 SCT040CB BKN070 26/21 Q1015=,SBKP
1675706400000,METAR SBKP 061800Z 30006KT 9999 TS VCSH FEW010 FEW040CB SCT070 BKN100 25/20 Q1015=,SBKP
1675710000000,METAR SBKP 061900Z 23003KT 180V320 9999 FEW030 SCT070 26/21 Q1014 RETS=,SBKP
1675713600000,METAR SBKP 062000Z 23007KT 190V260 9999 -RA FEW015 SCT070 BKN080 26/21 Q1014=,SBKP
1675717200000,METAR SBKP 062100Z 00000KT 9999 -RA FEW025 BKN070 BKN080 25/21 Q1014=,SBKP
1675724400000,METAR SBKP 062300Z 04005KT 9999 FEW030 24/21 Q1015=,SBKP
1675641600000,METAR SBPA 060000Z 17006KT 130V200 9999 VCSH FEW045 SCT050 BKN070 25/19 Q1011=,SBPA
1675645200000,METAR SBPA 060100Z 20003KT 150V260 9999 VCSH FEW045 SCT060 BKN078 25/19 Q1011=,SBPA
1675648800000,METAR SBPA 060200Z 17003KT 120V220 CAVOK 24/20 Q1011=,SBPA
1675652400000,METAR SBPA 060300Z VRB02KT CAVOK 24/20 Q1011=,SBPA
1675656000000,METAR SBPA 060400Z 16002KT CAVOK 24/20 Q1011=,SBPA
1675659600000,METAR SBPA 060500Z 18003KT CAVOK 24/20 Q1011=,SBPA
1675663200000,METAR SBPA 060600Z VRB02KT CAVOK 23/20 Q1010=,SBPA
1675666800000,METAR SBPA 060700Z 00000KT CAVOK 23/21 Q1010=,SBPA
1675670400000,METAR SBPA 060800Z 07003KT CAVOK 22/21 Q1011=,SBPA
1675674000000,METAR SBPA 060900Z 14002KT 9999 FEW005 SCT090 22/21 Q1011=,SBPA
1675677600000,METAR SBPA 061000Z VRB02KT 9999 FEW005 SCT090 23/21 Q1012=,SBPA
1675681200000,METAR SBPA 061100Z VRB02KT 9999 FEW020 SCT090 25/21 Q1012=,SBPA
1675684800000,METAR SBPA 061200Z 28003KT 240V340 9999 FEW020 SCT090 26/20 Q1013=,SBPA
1675688400000,METAR SBPA 061300Z 28006KT 240V360 9999 FEW020 27/21 Q1013=,SBPA
1675692000000,METAR SBPA 061400Z 31006KT 240V020 9999 SCT030 28/19 Q1013=,SBPA
1675695600000,METAR SBPA 061500Z VRB05KT 9999 SCT045 29/17 Q1012=,SBPA
1675699200000,METAR SBPA 061600Z VRB03KT 9999 SCT045 31/17 Q1012=,SBPA
1675702800000,METAR SBPA 061700Z 08004KT 020V150 9999 SCT045 31/17 Q1012=,SBPA
1675706400000,METAR SBPA 061800Z 09005KT 040V140 9999 SCT049 31/15 Q1011=,SBPA
1675710000000,METAR SBPA 061900Z 08007KT 050V140 9999 SCT049 32/17 Q1011=,SBPA
1675713600000,METAR SBPA 062000Z 09006KT 060V120 9999 SCT049 31/17 Q1011=,SBPA
1675717200000,METAR SBPA 062100Z 10008KT CAVOK 30/17 Q1011=,SBPA
1675720800000,METAR SBPA 062200Z 11009KT CAVOK 29/13 Q1011=,SBPA
1675724400000,METAR SBPA 062300Z 12009KT CAVOK 28/15 Q1011=,SBPA
1675641600000,METAR SBRF 060000Z 11005KT 080V140 9999 FEW020 28/23 Q1013=,SBRF
1675645200000,METAR SBRF 060100Z 10003KT 030V140 9999 FEW020 28/23 Q1013=,SBRF
1675648800000,METAR SBRF 060200Z 12004KT 020V160 9999 SCT018 SCT050 28/23 Q1013=,SBRF
1675652400000,METAR SBRF 060300Z 26003KT 210V300 8000 VCSH SCT018 BKN050 26/23 Q1012=,SBRF
1675656000000,METAR SBRF 060400Z VRB05KT 9999 VCSH BKN018 BKN050 25/23 Q1012=,SBRF
1675657800000,SPECI SBRF 060430Z VRB02KT 3000 -SHRA BKN013 OVC015 24/23 Q1012=,SBRF
1675659600000,METAR SBRF 060500Z 25004KT 200V280 8000 VCSH FEW013 BKN017 BKN050 24/23 Q1012=,SBRF
1675663200000,METAR SBRF 060600Z 16010KT 120V190 5000 -SHRA SCT008 BKN015 OVC050 24/22 Q1012=,SBRF
1675666800000,METAR SBRF 060700Z 22004KT 170V260 8000 VCSH BKN023 BKN050 24/22 Q1011=,SBRF
1675670400000,METAR SBRF 060800Z 33003KT 6000 -SHRA SCT013 BKN023 BKN050 24/22 Q1012=,SBRF
1675674000000,METAR SBRF 060900Z 31006KT 270V330 2000 SHRA SCT005 BKN012 OVC025 24/22 Q1013=,SBRF
1675677600000,METAR SBRF 061000Z 31003KT 260V020 5000 -SHRA SCT013 BKN018 OVC050 23/21 Q1013 RESHRA=,SBRF
1675681200000,METAR SBRF 061100Z 27006KT 240V310 2800 -SHRA SCT007 BKN010 OVC050 24/22 Q1014=,SBRF
1675684800000,METAR SBRF 061200Z 23004KT 180V270 2500 -SHRA SCT007 BKN010 OVC050 23/22 Q1014=,SBRF
1675685640000,SPECI SBRF 061214Z 27004KT 180V320 2800 -TSRA SCT007 BKN012 BKN023 FEW025CB 23/22 Q1014=,SBRF
1675686900000,SPECI SBRF 061235Z 18003KT 3000 -RA FEW010 BKN015 BKN023 FEW025TCU 23/22 Q1015 RETS=,SBRF
1675688400000,METAR SBRF 061300Z 13003KT 100V190 2500 -RA BR SCT007 BKN012 BKN023 FEW025TCU 23/22 Q1015 RETS=,SBRF
1675689780000,SPECI SBRF 061323Z 35004KT 5000 -RA SCT012 BKN023 OVC050 23/22 Q1015=,SBRF
1675692000000,METAR SBRF 061400Z VRB03KT 9000 VCSH FEW005 BKN020 OVC100 23/22 Q1014=,SBRF
1675695600000,METAR COR SBRF 061500Z 30004KT 260V330 9999 TS VCSH BKN020 FEW023CB BKN100 24/22 Q1014=,SBRF
1675699200000,METAR SBRF 061600Z VRB02KT 8000 VCSH FEW010 SCT025 BKN050 24/21 Q1013 RETS=,SBRF
1675702800000,METAR SBRF 061700Z 23003KT 9999 SCT025 BKN050 24/21 Q1012=,SBRF
1675706400000,METAR SBRF 061800Z 16004KT 9999 SCT025 BKN050 26/22 Q1011=,SBRF
1675710000000,METAR COR SBRF 061900Z 14004KT 9999 SCT025 BKN050 27/22 Q1011=,SBRF
1675713600000,METAR SBRF 062000Z 16004KT 9999 BKN024 27/23 Q1011=,SBRF
1675717200000,METAR SBRF 062100Z 00000KT 9999 BKN025 26/23 Q1011=,SBRF
1675720800000,METAR SBRF 062200Z 08005KT 9999 BKN025 27/22 Q1012=,SBRF
1675724400000,METAR SBRF 062300Z 09004KT 9999 SCT025 27/21 Q1012=,SBRF
1675641600000,METAR SBRJ 060000Z VRB02KT 9999 VCTS FEW025 FEW035CB BKN100 27/21 Q1011=,SBRJ
1675645200000,METAR SBRJ 060100Z VRB02KT 9999 FEW025 BKN100 26/22 Q1012=,SBRJ
1675648800000,METAR SBRJ 060200Z 34008KT 310V010 9999 FEW020 BKN100 26/23 Q1011=,SBRJ
1675652400000,METAR SBRJ 060300Z 35004KT 9999 SCT020 BKN100 25/23 Q1010=,SBRJ
1675656000000,METAR SBRJ 060400Z 30005KT 9999 SCT020 BKN100 25/23 Q1010=,SBRJ
1675659600000,METAR SBRJ 060500Z 36005KT 9999 SCT020 BKN100 24/23 Q1009=,SBRJ
1675663200000,METAR SBRJ 060600Z 36005KT 9999 FEW020 BKN100 24/23 Q1009=,SBRJ
1675666800000,METAR SBRJ 060700Z 35006KT 9999 FEW020 BKN100 24/23 Q1009=,SBRJ
1675670400000,METAR SBRJ 060800Z 36005KT 9999 FEW020 BKN100 24/23 Q1009=,SBRJ
1675674000000,METAR SBRJ 060900Z 35003KT 9999 FEW020 BKN100 24/23 Q1010=,SBRJ
1675677600000,METAR SBRJ 061000Z 05001KT 9999 FEW020 BKN100 26/24 Q1011=,SBRJ
1675681200000,METAR SBRJ 061100Z 03004KT CAVOK 27/24 Q1011=,SBRJ
1675684800000,METAR SBRJ 061200Z 34006KT CAVOK 27/24 Q1011=,SBRJ
1675688400000,METAR SBRJ 061300Z 36005KT 320V030 9999 FEW025 28/24 Q1011=,SBRJ
1675692000000,METAR SBRJ 061400Z VRB02KT 9999 FEW025 30/25 Q1011=,SBRJ
1675695600000,METAR SBRJ 061500Z 15011KT 9999 FEW025 SCT100 28/24 Q1011=,SBRJ
1675699200000,METAR SBRJ 061600Z 15013KT 9999 FEW025 SCT100 29/24 Q1011=,SBRJ
1675702800000,METAR SBRJ 061700Z 16014KT 9999 FEW025 FEW030TCU SCT100 28/24 Q1010=,SBRJ
1675706400000,METAR SBRJ 061800Z 16011KT 9999 FEW025 FEW030TCU SCT050 27/24 Q1010=,SBRJ
1675710000000,METAR SBRJ 061900Z 16010KT 9999 VCTS FEW020 FEW030CB SCT060 27/25 Q1010=,SBRJ
1675713600000,METAR SBRJ 062000Z 18011KT 9999 FEW018 SCT060 BKN100 28/25 Q1011=,SBRJ
1675717200000,METAR COR SBRJ 062100Z 17005KT 9999 FEW011 SCT050 BKN100 27/25 Q1011 WS R20=,SBRJ
1675720800000,METAR SBRJ 062200Z 05007KT 9999 FEW018 SCT025 BKN100 25/23 Q1011=,SBRJ
1675724400000,METAR SBRJ 062300Z 36006KT 9999 FEW030 SCT100 25/22 Q1011=,SBRJ
1675641600000,METAR SBSP 060000Z 32008KT 290V350 5000 RA BR SCT040 OVC083 22/19 Q1017=,SBSP
1675642200000,SPECI SBSP 060010Z 32006KT 270V340 8000 -RA SCT033 BKN040 OVC083 21/19 Q1017 RERA=,SBSP
1675645200000,METAR SBSP 060100Z 01002KT 9999 FEW033 BKN083 22/20 Q1017 RERA=,SBSP
1675648800000,METAR SBSP 060200Z 33003KT 9999 FEW048 22/20 Q1017=,SBSP
1675648860000,SPECI SBSP 060201Z 34003KT CAVOK 22/20 Q1017=,SBSP
1675652400000,METAR SBSP 060300Z AUTO 33009KT CAVOK 22/19 Q1017=,SBSP
1675656000000,METAR SBSP 060400Z AUTO 32006KT CAVOK 21/19 Q1016=,SBSP
1675659600000,METAR SBSP 060500Z AUTO 32005KT CAVOK 21/19 Q1015=,SBSP
1675663200000,METAR SBSP 060600Z AUTO 32006KT CAVOK 21/19 Q1015=,SBSP
1675666800000,METAR SBSP 060700Z AUTO 33007KT CAVOK 21/19 Q1015=,SBSP
1675670400000,METAR SBSP 060800Z AUTO 32004KT CAVOK 21/19 Q1015=,SBSP
1675671960000,SPECI SBSP 060826Z AUTO 33004KT 9999 BKN014 21/19 Q1015=,SBSP
1675672680000,SPECI SBSP 060838Z AUTO 34005KT 9999 FEW013 BKN015 21/19 Q1016=,SBSP
1675674000000,METAR SBSP 060900Z 33004KT 9999 FEW015 21/19 Q1016=,SBSP
1675677600000,METAR SBSP 061000Z 34005KT 310V010 9999 FEW011 22/20 Q1017=,SBSP
1675681200000,METAR SBSP 061100Z 32008KT 280V360 9999 FEW013 23/20 Q1017=,SBSP
1675684800000,METAR SBSP 061200Z 31006KT 220V010 9999 BKN017 SCT083 25/19 Q1018=,SBSP
1675688400000,METAR SBSP 061300Z VRB05KT 9999 FEW021 BKN030 25/20 Q1018=,SBSP
1675692000000,METAR SBSP 061400Z 32005KT 270V020 9999 VCSH FEW025 BKN030 BKN073 25/18 Q1018=,SBSP
1675695600000,METAR SBSP 061500Z 34006KT 290V030 9999 VCSH FEW025 SCT030 BKN083 27/19 Q1017=,SBSP
1675699200000,METAR COR SBSP 061600Z 30006KT 250V360 7000 SHRA SCT036 FEW040TCU BKN073 26/19 Q1017=,SBSP
1675700700000,SPECI SBSP 061625Z 06005KT 7000 -TSRA FEW030CB BKN035 24/20 Q1017 RESHRA=,SBSP
1675702800000,METAR SBSP 061700Z 01006KT 9000 -RA BKN030 25/22 Q1016 RETS RETSRA=,SBSP
1675706400000,METAR SBSP 061800Z 35006KT 300V030 9000 SCT017 BKN080 26/21 Q1016=,SBSP
1675710000000,METAR SBSP 061900Z 17015KT 7000 RA BKN010 BKN017 21/19 Q1016=,SBSP
1675712460000,SPECI SBSP 061941Z 13009KT 9999 BKN015 21/20 Q1016 RERA=,SBSP
1675713600000,METAR SBSP 062000Z 16009KT 9000 SCT010 BKN030 22/20 Q1016 RERA=,SBSP
1675717200000,METAR SBSP 062100Z 12004KT 9000 SCT017 OVC080 23/20 Q1016=,SBSP
1675720800000,METAR SBSP 062200Z 11004KT 9999 FEW025 OVC080 22/19 Q1017=,SBSP
1675724400000,METAR SBSP 062300Z 13004KT 9999 FEW020 BKN080 22/19 Q1017=,SBSP
1675641600000,METAR SBSV 060000Z 08010KT 9999 FEW020 28/24 Q1013=,SBSV
1675645200000,METAR SBSV 060100Z 08011KT 9999 FEW020 28/24 Q1013=,SBSV
1675648800000,METAR SBSV 060200Z 07011KT 9999 FEW020 28/24 Q1013=,SBSV
1675652400000,METAR SBSV 060300Z 07009KT 9999 FEW020 27/24 Q1013=,SBSV
1675656000000,METAR SBSV 060400Z 07008KT 9999 SCT020 27/24 Q1013=,SBSV
1675659600000,METAR SBSV 060500Z 07009KT 9999 SCT020 27/24 Q1012=,SBSV
1675663200000,METAR SBSV 060600Z 36004KT 9999 SCT020 27/24 Q1012=,SBSV
1675666800000,METAR SBSV 060700Z 36002KT 9999 SCT018 26/24 Q1012=,SBSV
1675670400000,METAR SBSV 060800Z 36002KT 9999 SCT018 25/23 Q1013=,SBSV
1675674000000,METAR SBSV 060900Z 28002KT 9999 SCT018 25/24 Q1013=,SBSV
1675677600000,METAR SBSV 061000Z VRB02KT 9999 SCT018 27/24 Q1013=,SBSV
1675681200000,METAR SBSV 061100Z 07008KT 040V110 9999 SCT019 29/25 Q1014=,SBSV
1675684800000,METAR SBSV 061200Z 07010KT 9999 SCT020 30/24 Q1014=,SBSV
1675688400000,METAR SBSV 061300Z 07012KT 040V100 9999 SCT023 30/24 Q1014=,SBSV
1675692000000,METAR SBSV 061400Z 08014KT 9999 SCT025 31/25 Q1014=,SBSV
1675695600000,METAR SBSV 061500Z 08015KT 9999 SCT023 31/25 Q1013=,SBSV
1675699200000,METAR SBSV 061600Z 08015KT 9999 SCT023 31/25 Q1012=,SBSV
1675702800000,METAR SBSV 061700Z 08015KT 9999 SCT022 31/25 Q1012=,SBSV
1675706400000,METAR SBSV 061800Z 07017KT 9999 SCT022 30/25 Q1011=,SBSV
1675710000000,METAR SBSV 061900Z 07015KT 9999 SCT023 30/25 Q1011=,SBSV
1675713600000,METAR SBSV 062000Z 06015KT 9999 SCT023 29/25 Q1011=,SBSV
1675717200000,METAR SBSV 062100Z 06013KT 9999 SCT023 28/25 Q1011=,SBSV
1675720800000,METAR SBSV 062200Z 06013KT 9999 SCT020 28/25 Q1011=,SBSV
1675724400000,METAR SBSV 062300Z 06012KT 9999 SCT020 28/25 Q1012=,SBSV
