hora,metar,aero
1679097600000,METAR SBBR 180000Z 24004KT 9999 SCT040 FEW045TCU BKN100 19/17 Q1018=,SBBR
1679101200000,METAR SBBR 180100Z 35003KT 320V050 9999 FEW040 BKN100 19/17 Q1018=,SBBR
1679104800000,METAR SBBR 180200Z VRB01KT 9999 SCT040 BKN100 19/18 Q1018=,SBBR
1679108400000,METAR SBBR 180300Z 27002KT 9999 SCT040 BKN100 18/17 Q1018=,SBBR
1679112000000,METAR SBBR 180400Z 20001KT 9999 FEW045 BKN100 19/17 Q1018=,SBBR
1679115600000,METAR SBBR 180500Z 21002KT 9999 FEW045 BKN100 19/17 Q1017=,SBBR
1679119200000,METAR SBBR 180600Z 06001KT 9999 FEW013 BKN045 BKN090 19/17 Q1017=,SBBR
1679122800000,METAR SBBR 180700Z 29003KT 9999 FEW020 BKN045 BKN090 19/17 Q1017=,SBBR
1679126400000,METAR SBBR 180800Z 33002KT 9999 FEW025 SCT030 BKN100 19/18 Q1018=,SBBR
1679130000000,METAR SBBR 180900Z 22004KT 9999 FEW020 BKN035 BKN100 19/17 Q1018=,SBBR
1679133600000,METAR SBBR 181000Z 21003KT 9999 FEW020 BKN035 BKN100 19/17 Q1018=,SBBR
1679137200000,METAR SBBR 181100Z 11003KT 050V170 9999 2500W BCFG SCT017 BKN040 BKN100 19/17 Q1019=,SBBR
1679140800000,METAR SBBR 181200Z VRB04KT 9999 SCT013 BKN040 BKN100 22/18 Q1020=,SBBR
1679144400000,METAR SBBR 181300Z 13007KT 090V170 9999 SCT017 BKN040 BKN100 22/17 Q1020=,SBBR
1679148000000,METAR SBBR 181400Z 08010KT 050V120 9999 SCT020 BKN100 23/17 Q1020=,SBBR
1679151600000,METAR SBBR 181500Z 08011KT 040V100 9999 BKN020 FEW025TCU BKN100 24/17 Q1020=,SBBR
1679155200000,METAR SBBR 181600Z 07011KT 9999 SCT030 FEW035TCU BKN100 24/16 Q1019=,SBBR
1679158800000,METAR SBBR 181700Z 08010KT 050V110 9999 FEW030 FEW035TCU BKN100 25/16 Q1018=,SBBR
1679162400000,METAR SBBR 181800Z 09013KT 9999 FEW020 BKN100 26/15 Q1017=,SBBR
1679166000000,METAR SBBR 181900Z 10013KT 9999 SCT030 SCT100 25/16 Q1017=,SBBR
1679169600000,METAR SBBR 182000Z 09011KT 9999 SCT030 SCT100 25/16 Q1016=,SBBR
1679173200000,METAR SBBR 182100Z 06009KT 9999 FEW030 SCT100 24/16 Q1017=,SBBR
1679176800000,METAR SBBR 182200Z 05005KT 9999 FEW030 23/16 Q1017=,SBBR
1679180400000,METAR SBBR 182300Z 06006KT CAVOK 22/17 Q1018=,SBBR
1679097600000,METAR SBCF 180000Z 10006KT 9999 FEW045 24/14 Q1017=,SBCF
1679101200000,METAR SBCF 180100Z 07007KT CAVOK 23/15 Q1018=,SBCF
1679104800000,METAR SBCF 180200Z 07011KT CAVOK 23/15 Q1018=,SBCF
1679108400000,METAR SBCF 180300Z 08009KT CAVOK 22/16 Q1018=,SBCF
1679112000000,METAR SBCF 180400Z 11008KT CAVOK 21/16 Q1018=,SBCF
1679115600000,METAR SBCF 180500Z 12007KT CAVOK 20/16 Q1017=,SBCF
1679119200000,METAR SBCF 180600Z 13002KT CAVOK 19/16 Q1017=,SBCF
1679122800000,METAR SBCF 180700Z 16002KT CAVOK 19/16 Q1017=,SBCF
1679126400000,METAR SBCF 180800Z 14004KT 9999 FEW030 19/17 Q1018=,SBCF
1679130000000,METAR SBCF 180900Z 09008KT 9999 BKN040 21/18 Q1018=,SBCF
1679133600000,METAR SBCF 181000Z 09010KT 9999 FEW020 SCT060 22/18 Q1019=,SBCF
1679137200000,METAR SBCF 181100Z 09010KT 9999 SCT030 23/17 Q1020=,SBCF
1679140800000,METAR SBCF 181200Z 09009KT 9999 SCT025 24/17 Q1020=,SBCF
1679144400000,METAR SBCF 181300Z 10007KT 9999 SCT025 24/17 Q1020=,SBCF
1679148000000,METAR SBCF 181400Z 07009KT 9999 BKN030 26/16 Q1020=,SBCF
1679151600000,METAR SBCF 181500Z 06008KT 9999 SCT030 SCT080 27/17 Q1019=,SBCF
1679155200000,METAR SBCF 181600Z 05005KT 9999 SCT040 27/17 Q1018=,SBCF
1679158800000,METAR SBCF 181700Z 16002KT 9999 SCT043 29/17 Q1017=,SBCF
1679162400000,METAR SBCF 181800Z 04004KT 9999 SCT043 28/17 Q1017=,SBCF
1679166000000,METAR SBCF 181900Z 08009KT 9999 SCT043 28/16 Q1016=,SBCF
1679169600000,METAR SBCF 182000Z 06004KT 9999 FEW043 28/15 Q1016=,SBCF
1679173200000,METAR SBCF 182100Z 07004KT 9999 FEW043 FEW048TCU 27/16 Q1016=,SBCF
1679176800000,METAR SBCF 182200Z 09010KT 9999 FEW043 FEW048TCU 26/17 Q1017=,SBCF
1679180400000,METAR SBCF 182300Z 10010KT CAVOK 25/17 Q1018=,SBCF
1679097600000,METAR SBCT 180000Z 11005KT 9999 SCT009 18/17 Q1020=,SBCT
1679101200000,METAR SBCT 180100Z 11005KT 9999 FEW008 17/16 Q1021=,SBCT
1679104800000,METAR SBCT 180200Z 06002KT CAVOK 16/15 Q1021=,SBCT
1679108400000,METAR SBCT 180300Z 15004KT CAVOK 16/15 Q1021=,SBCT
1679112000000,METAR SBCT 180400Z 16004KT 9999 FEW003 15/15 Q1021=,SBCT
1679115600000,METAR SBCT 180500Z 12002KT 9999 BKN003 15/15 Q1020=,SBCT
1679119200000,METAR SBCT 180600Z 14003KT 9999 FEW002 15/14 Q1020=,SBCT
1679122800000,METAR SBCT 180700Z 21001KT 0400 R33/0400 R15/0900 FG OVC003 15/14 Q1020=,SBCT
1679126400000,METAR SBCT 180800Z 09003KT 1200 R33/1100 R15/2000 BCFG OVC002 14/14 Q1020=,SBCT
1679130000000,METAR SBCT 180900Z 00000KT 0500 R33/0400 R15/0550 FG VV001 15/14 Q1020=,SBCT
1679131800000,SPECI SBCT 180930Z 06002KT 0300 R33/0325 R15/0400 FG VV001 14/14 Q1020=,SBCT
1679133000000,SPECI SBCT 180950Z 06001KT 0250 R33/0225 R15/0275 FG VV001 14/13 Q1020=,SBCT
1679133600000,METAR SBCT 181000Z 00000KT 0200 R33/0225 R15/0275 FG VV001 14/13 Q1021=,SBCT
1679137200000,METAR SBCT 181100Z VRB01KT 0350 R15/0350 R33/0350 FG VV001 15/15 Q1021=,SBCT
1679140800000,METAR SBCT 181200Z VRB02KT 1600 R15/1600 R33/1600 BR OVC001 15/15 Q1021=,SBCT
1679144400000,METAR SBCT 181300Z 09002KT 9999 FEW008 19/17 Q1021=,SBCT
1679148000000,METAR SBCT 181400Z 04007KT 010V080 CAVOK 22/13 Q1021=,SBCT
1679151600000,METAR SBCT 181500Z 01005KT 260V070 CAVOK 24/14 Q1020=,SBCT
1679155200000,METAR SBCT 181600Z 08004KT 030V140 CAVOK 25/10 Q1019=,SBCT
1679158800000,METAR SBCT 181700Z VRB04KT 9999 FEW030 26/11 Q1019=,SBCT
1679162400000,METAR SBCT 181800Z VRB02KT 9999 FEW040 27/09 Q1018=,SBCT
1679166000000,METAR SBCT 181900Z 11007KT 9999 FEW040 26/17 Q1018=,SBCT
1679169600000,METAR SBCT 182000Z 12011KT 9999 FEW035 23/17 Q1018=,SBCT
1679173200000,METAR SBCT 182100Z 12007KT 9999 FEW030 21/17 Q1018=,SBCT
1679176800000,METAR SBCT 182200Z 10004KT 9999 FEW030 19/17 Q1018=,SBCT
1679180400000,METAR SBCT 182300Z 12005KT 9999 FEW020 18/17 Q1019=,SBCT
1679097600000,METAR SBFL 180000Z 00000KT CAVOK 23/23 Q1015=,SBFL
1679101200000,METAR SBFL 180100Z 24001KT 9999 FEW020 22/22 Q1016=,SBFL
1679104800000,METAR SBFL 180200Z 19001KT CAVOK 22/22 Q1017=,SBFL
1679108400000,METAR SBFL 180300Z 28004KT 9999 FEW020 23/23 Q1017=,SBFL
1679112000000,METAR SBFL 180400Z 27004KT 9999 BKN025 23/23 Q1017=,SBFL
1679115600000,METAR SBFL 180500Z 28004KT 250V320 9999 FEW025 23/22 Q1016=,SBFL
1679119200000,METAR SBFL 180600Z 31006KT 9999 FEW020 23/21 Q1015=,SBFL
1679122800000,METAR SBFL 180700Z 31006KT 9999 FEW020 22/22 Q1015=,SBFL
1679126400000,METAR SBFL 180800Z 29005KT CAVOK 22/21 Q1015=,SBFL
1679130000000,METAR SBFL 180900Z 29004KT CAVOK 22/21 Q1015=,SBFL
1679133600000,METAR SBFL 181000Z 29005KT CAVOK 22/21 Q1015=,SBFL
1679137200000,METAR SBFL 181100Z 34006KT CAVOK 25/23 Q1016=,SBFL
1679140800000,METAR SBFL 181200Z 28005KT 250V320 CAVOK 26/22 Q1016=,SBFL
1679144400000,METAR SBFL 181300Z 36005KT 320V040 9999 FEW030 27/21 Q1016=,SBFL
1679148000000,METAR SBFL 181400Z 36008KT 320V040 9999 FEW035 28/20 Q1016=,SBFL
1679151600000,METAR SBFL 181500Z 33010KT 9999 FEW035 29/20 Q1015=,SBFL
1679155200000,METAR SBFL 181600Z 35008KT 320V020 9999 FEW035 30/20 Q1015=,SBFL
1679158800000,METAR SBFL 181700Z 01008KT 330V060 9999 FEW035 30/17 Q1014=,SBFL
1679162400000,METAR SBFL 181800Z 01007KT 310V060 9999 FEW035 30/19 Q1014=,SBFL
1679166000000,METAR SBFL 181900Z 36009KT 340V050 9999 FEW035 30/17 Q1013=,SBFL
1679169600000,METAR SBFL 182000Z 04007KT 350V080 9999 FEW035 28/20 Q1013=,SBFL
1679173200000,METAR SBFL 182100Z 36009KT 9999 FEW035 27/19 Q1013=,SBFL
1679176800000,METAR SBFL 182200Z VRB02KT 9999 FEW035 26/19 Q1014=,SBFL
1679180400000,METAR SBFL 182300Z 02004KT 350V080 9999 FEW030 25/21 Q1014=,SBFL
1679097600000,METAR SBGL 180000Z 07010KT 9999 FEW015 BKN070 25/23 Q1015=,SBGL
1679101200000,METAR SBGL 180100Z 10003KT 9999 FEW015 BKN070 25/23 Q1015=,SBGL
1679104800000,METAR SBGL 180200Z 10003KT 9999 FEW015 SCT070 25/22 Q1015=,SBGL
1679108400000,METAR SBGL 180300Z 05004KT 9999 FEW015 SCT070 25/22 Q1015=,SBGL
1679112000000,METAR SBGL 180400Z 10005KT 9999 FEW015 SCT070 24/22 Q1015=,SBGL
1679115600000,METAR SBGL 180500Z 10003KT 9999 FEW015 SCT070 24/22 Q1014=,SBGL
1679119200000,METAR SBGL 180600Z 05003KT 9999 FEW015 SCT070 24/22 Q1014=,SBGL
1679122800000,METAR SBGL 180700Z 08004KT 9999 FEW015 SCT070 23/21 Q1014=,SBGL
1679126400000,METAR SBGL 180800Z 02003KT 9999 FEW015 SCT070 23/21 Q1014=,SBGL
1679130000000,METAR SBGL 180900Z 35004KT 9999 FEW008 23/22 Q1015=,SBGL
1679133600000,METAR SBGL 181000Z 33003KT 7000 SCT009 24/23 Q1016=,SBGL
1679137200000,METAR SBGL 181100Z 33004KT 300V040 9999 SCT020 26/22 Q1016=,SBGL
1679140800000,METAR SBGL 181200Z 09006KT 9999 SCT020 29/22 Q1016=,SBGL
1679144400000,METAR SBGL 181300Z 01006KT 350V080 9999 SCT025 29/23 Q1016=,SBGL
1679148000000,METAR SBGL 181400Z 05008KT 020V080 9999 FEW025 30/22 Q1016=,SBGL
1679151600000,METAR SBGL 181500Z 13009KT 080V140 9999 FEW030 31/21 Q1015=,SBGL
1679155200000,METAR SBGL 181600Z 13008KT 090V180 9999 FEW030 30/21 Q1014=,SBGL
1679158800000,METAR SBGL 181700Z 12009KT 9999 FEW035 31/20 Q1013=,SBGL
1679162400000,METAR SBGL 181800Z 13012KT 9999 FEW035 31/22 Q1013=,SBGL
1679166000000,METAR SBGL 181900Z 13013KT 9999 FEW035 29/22 Q1013=,SBGL
1679169600000,METAR SBGL 182000Z 13012KT 9999 FEW030 FEW035TCU 27/22 Q1013=,SBGL
1679173200000,METAR SBGL 182100Z 13015KT 9999 FEW030 FEW035TCU 26/22 Q1013=,SBGL
1679176800000,METAR SBGL 182200Z 14010KT CAVOK 26/23 Q1014=,SBGL
1679180400000,METAR SBGL 182300Z 14007KT CAVOK 26/22 Q1014=,SBGL
1679097600000,METAR SBGR 180000Z 13005KT 9999 BKN019 21/17 Q1019=,SBGR
1679101200000,METAR SBGR 180100Z 13006KT 9999 BKN017 20/17 Q1019=,SBGR
1679104800000,METAR SBGR 180200Z 13006KT 9999 SCT015 20/17 Q1019=,SBGR
1679108400000,METAR SBGR 180300Z 13004KT 9999 FEW015 19/17 Q1019=,SBGR
1679112000000,METAR SBGR 180400Z 13003KT 9999 FEW019 19/17 Q1019=,SBGR
1679115600000,METAR SBGR 180500Z 12002KT 9999 SCT015 BKN020 18/17 Q1019=,SBGR
1679119200000,METAR SBGR 180600Z 13002KT 9999 SCT015 17/17 Q1019=,SBGR
1679122800000,METAR SBGR 180700Z 13001KT 9999 SCT015 17/16 Q1018=,SBGR
1679126400000,METAR SBGR 180800Z 09002KT 9999 BKN017 18/17 Q1018=,SBGR
1679130000000,METAR SBGR 180900Z 12001KT 9999 OVC015 18/17 Q1019=,SBGR
1679133600000,METAR SBGR 181000Z 06005KT 9999 BKN013 18/17 Q1019=,SBGR
1679137200000,METAR SBGR 181100Z 07008KT 9999 FEW011 20/17 Q1020=,SBGR
1679140800000,METAR SBGR 181200Z 07011KT 9999 FEW013 22/18 Q1020=,SBGR
1679144400000,METAR SBGR 181300Z 05008KT CAVOK 23/18 Q1020=,SBGR
1679148000000,METAR SBGR 181400Z 09004KT CAVOK 25/19 Q1020=,SBGR
1679151600000,METAR SBGR 181500Z 07007KT 9999 FEW030 26/18 Q1019=,SBGR
1679155200000,METAR SBGR 181600Z 03004KT 9999 FEW030 28/16 Q1018=,SBGR
1679158800000,METAR SBGR 181700Z 03006KT CAVOK 29/16 Q1017=,SBGR
1679162400000,METAR SBGR 181800Z 12004KT CAVOK 29/16 Q1017=,SBGR
1679166000000,METAR SBGR 181900Z 08007KT CAVOK 29/16 Q1016=,SBGR
1679169600000,METAR SBGR 182000Z 12006KT CAVOK 27/19 Q1016=,SBGR
1679173200000,METAR SBGR 182100Z 16008KT CAVOK 24/20 Q1017=,SBGR
1679176800000,METAR SBGR 182200Z 17003KT 9999 BKN015 23/20 Q1018=,SBGR
1679180400000,METAR SBGR 182300Z 18004KT 9999 OVC013 22/19 Q1018=,SBGR
1679097600000,METAR SBKP 180000Z 14013KT CAVOK 22/18 Q1017=,SBKP
1679101200000,METAR SBKP 180100Z 13008KT CAVOK 21/18 Q1017=,SBKP
1679104800000,METAR SBKP 180200Z 13012KT CAVOK 21/17 Q1018=,SBKP
1679108400000,METAR SBKP 180300Z 13011KT CAVOK 20/17 Q1017=,SBKP
1679112000000,METAR SBKP 180400Z 13007KT CAVOK 20/17 Q1017=,SBKP
1679115600000,METAR SBKP 180500Z 12009KT CAVOK 20/17 Q1017=,SBKP
1679119200000,METAR SBKP 180600Z 13007KT CAVOK 19/17 Q1017=,SBKP
1679122800000,METAR SBKP 180700Z 13009KT CAVOK 19/17 Q1017=,SBKP
1679126400000,METAR SBKP 180800Z 12010KT CAVOK 19/17 Q1017=,SBKP
1679130000000,METAR SBKP 180900Z 12008KT 9999 FEW030 19/17 Q1017=,SBKP
1679133600000,METAR SBKP 181000Z 12009KT CAVOK 19/17 Q1018=,SBKP
1679137200000,METAR SBKP 181100Z 12010KT CAVOK 21/17 Q1019=,SBKP
1679140800000,METAR SBKP 181200Z 11006KT CAVOK 23/18 Q1019=,SBKP
1679144400000,METAR SBKP 181300Z 06006KT CAVOK 25/17 Q1019=,SBKP
1679148000000,METAR SBKP 181400Z 05004KT CAVOK 27/17 Q1019=,SBKP
1679151600000,METAR SBKP 181500Z 31005KT 9999 FEW030 28/17 Q1018=,SBKP
1679155200000,METAR SBKP 181600Z 10005KT 9999 SCT045 29/16 Q1017=,SBKP
1679158800000,METAR SBKP 181700Z 20004KT 9999 SCT045 30/17 Q1017=,SBKP
1679162400000,METAR SBKP 181800Z 17005KT 9999 SCT045 30/16 Q1016=,SBKP
1679166000000,METAR SBKP 181900Z 29004KT 240V010 9999 SCT045 30/16 Q1015=,SBKP
1679169600000,METAR SBKP 182000Z 13006KT CAVOK 30/16 Q1015=,SBKP
1679173200000,METAR SBKP 182100Z 16003KT CAVOK 29/16 Q1015=,SBKP
1679176800000,METAR SBKP 182200Z 19005KT CAVOK 28/17 Q1015=,SBKP
1679180400000,METAR SBKP 182300Z 15011KT CAVOK 26/19 Q1016=,SBKP
1679097600000,METAR SBPA 180000Z 10008KT CAVOK 26/22 Q1013=,SBPA
1679101200000,METAR SBPA 180100Z 10009KT CAVOK 25/22 Q1013=,SBPA
1679104800000,METAR SBPA 180200Z 15004KT 110V180 CAVOK 25/22 Q1014=,SBPA
1679108400000,METAR SBPA 180300Z 23003KT 120V250 CAVOK 24/21 Q1014=,SBPA
1679112000000,METAR SBPA 180400Z 08004KT CAVOK 23/21 Q1014=,SBPA
1679115600000,METAR SBPA 180500Z 03004KT CAVOK 24/21 Q1014=,SBPA
1679119200000,METAR SBPA 180600Z 05005KT CAVOK 23/21 Q1013=,SBPA
1679122800000,METAR SBPA 180700Z 07004KT CAVOK 22/21 Q1013=,SBPA
1679126400000,METAR SBPA 180800Z 05003KT CAVOK 22/21 Q1013=,SBPA
1679130000000,METAR SBPA 180900Z 17003KT 110V200 CAVOK 22/21 Q1014=,SBPA
1679133600000,METAR SBPA 181000Z 05004KT CAVOK 23/22 Q1014=,SBPA
1679137200000,METAR SBPA 181100Z VRB02KT CAVOK 25/22 Q1014=,SBPA
1679140800000,METAR SBPA 181200Z VRB02KT CAVOK 27/22 Q1015=,SBPA
1679144400000,METAR SBPA 181300Z 31007KT 280V350 CAVOK 28/20 Q1015=,SBPA
1679148000000,METAR SBPA 181400Z 30005KT 260V330 CAVOK 30/21 Q1015=,SBPA
1679151600000,METAR SBPA 181500Z 31004KT 260V360 CAVOK 31/20 Q1014=,SBPA
1679155200000,METAR SBPA 181600Z 29004KT 210V010 CAVOK 32/21 Q1014=,SBPA
1679158800000,METAR SBPA 181700Z 29005KT 220V350 9999 FEW035 33/20 Q1013=,SBPA
1679162400000,METAR SBPA 181800Z VRB06KT 9999 SCT035 35/20 Q1012=,SBPA
1679166000000,METAR SBPA 181900Z 13009KT 100V180 9999 SCT040 33/23 Q1012=,SBPA
1679169600000,METAR SBPA 182000Z 12011KT 100V160 9999 VCSH FEW045 32/22 Q1012=,SBPA
1679173200000,METAR SBPA 182100Z 10011KT 9999 FEW045 31/22 Q1012=,SBPA
1679176800000,METAR SBPA 182200Z 11008KT 9999 FEW045 29/21 Q1012=,SBPA
1679180400000,METAR SBPA 182300Z 11008KT 9999 FEW045 28/22 Q1013=,SBPA
1679097600000,METAR SBRF 180000Z 03003KT 9999 SCT023 27/22 Q1012=,SBRF
1679101200000,METAR SBRF 180100Z VRB02KT 9999 SCT020 SCT100 27/22 Q1013=,SBRF
1679104800000,METAR SBRF 180200Z 28003KT 240V320 9999 FEW020 26/22 Q1012=,SBRF
1679108400000,METAR SBRF 180300Z 34003KT CAVOK 25/22 Q1012=,SBRF
1679112000000,METAR SBRF 180400Z 32003KT 240V360 9999 FEW020 25/22 Q1011=,SBRF
1679115600000,METAR SBRF 180500Z 00000KT CAVOK 25/22 Q1010=,SBRF
1679119200000,METAR SBRF 180600Z VRB02KT CAVOK 25/22 Q1010=,SBRF
1679122800000,METAR SBRF 180700Z VRB02KT 9999 FEW020 FEW023TCU 25/22 Q1010=,SBRF
1679126400000,METAR SBRF 180800Z VRB02KT 9999 FEW020 FEW023TCU 24/21 Q1011=,SBRF
1679130000000,METAR SBRF 180900Z 33004KT 9999 FEW021 FEW024TCU 24/22 Q1012=,SBRF
1679133600000,METAR SBRF 181000Z 34003KT 9999 VCSH SCT022 FEW024TCU 25/22 Q1013=,SBRF
1679137200000,METAR SBRF 181100Z 01004KT 330V060 9999 BKN016 FEW024TCU 27/22 Q1013=,SBRF
1679140800000,METAR SBRF 181200Z VRB03KT 9999 SCT020 FEW025TCU 28/22 Q1013=,SBRF
1679144400000,METAR SBRF 181300Z 08005KT 020V130 9999 SCT020 FEW025TCU 29/22 Q1013=,SBRF
1679148000000,METAR SBRF 181400Z 06010KT 9999 SCT022 FEW025TCU 29/22 Q1013=,SBRF
1679151600000,METAR SBRF 181500Z 07008KT 020V110 9999 VCSH FEW023 FEW025TCU 29/22 Q1012=,SBRF
1679155200000,METAR SBRF 181600Z 05008KT 9999 FEW023 28/21 Q1011=,SBRF
1679158800000,METAR SBRF 181700Z 06007KT 9999 -RA SCT022 28/22 Q1010=,SBRF
1679162400000,METAR SBRF 181800Z 06009KT 9999 SCT015 BKN100 27/22 Q1011=,SBRF
1679166000000,METAR SBRF 181900Z 07007KT 9999 SCT015 BKN100 28/22 Q1010=,SBRF
1679169600000,METAR SBRF 182000Z 05007KT 9999 SCT022 27/22 Q1011=,SBRF
1679173200000,METAR SBRF 182100Z 04006KT 9999 SCT016 27/23 Q1012=,SBRF
1679176800000,METAR SBRF 182200Z 05003KT 9999 SCT018 SCT100 27/22 Q1013=,SBRF
1679180400000,METAR SBRF 182300Z 30004KT 9999 -RA SCT018 SCT100 26/23 Q1014=,SBRF
1679097600000,METAR SBRJ 180000Z 13006KT 9999 FEW015 BKN060 26/22 Q1015=,SBRJ
1679101200000,METAR SBRJ 180100Z 09006KT 9999 FEW020 SCT070 26/22 Q1015=,SBRJ
1679104800000,METAR SBRJ 180200Z 05002KT 9999 FEW020 SCT070 25/22 Q1015=,SBRJ
1679108400000,METAR SBRJ 180300Z 18003KT 9999 FEW020 SCT080 25/22 Q1015=,SBRJ
1679112000000,METAR SBRJ 180400Z 07006KT CAVOK 25/22 Q1014=,SBRJ
1679115600000,METAR SBRJ 180500Z 00000KT CAVOK 24/22 Q1014=,SBRJ
1679119200000,METAR SBRJ 180600Z 35005KT CAVOK 24/22 Q1014=,SBRJ
1679122800000,METAR SBRJ 180700Z 03003KT CAVOK 24/22 Q1014=,SBRJ
1679126400000,METAR SBRJ 180800Z 08003KT CAVOK 24/22 Q1014=,SBRJ
1679130000000,METAR SBRJ 180900Z 14004KT 9999 FEW010 24/23 Q1014=,SBRJ
1679133600000,METAR SBRJ 181000Z 05002KT 9999 FEW010 25/23 Q1015=,SBRJ
1679137200000,METAR SBRJ 181100Z 01005KT 320V040 9999 FEW018 26/23 Q1016=,SBRJ
1679140800000,METAR SBRJ 181200Z 35005KT 320V020 9999 SCT020 26/23 Q1016=,SBRJ
1679144400000,METAR SBRJ 181300Z 08003KT 050V110 9999 SCT020 27/23 Q1016=,SBRJ
1679148000000,METAR SBRJ 181400Z 15007KT 9999 SCT025 27/22 Q1016=,SBRJ
1679151600000,METAR SBRJ 181500Z 15008KT 9999 SCT025 28/22 Q1015=,SBRJ
1679155200000,METAR SBRJ 181600Z 15009KT 9999 SCT030 28/22 Q1014=,SBRJ
1679158800000,METAR SBRJ 181700Z 14011KT 9999 SCT030 27/22 Q1013=,SBRJ
1679162400000,METAR SBRJ 181800Z 16014KT 9999 SCT035 27/23 Q1013=,SBRJ
1679166000000,METAR SBRJ 181900Z 16014KT 9999 FEW025 FEW030TCU 27/23 Q1013=,SBRJ
1679169600000,METAR SBRJ 182000Z 17010KT 9999 FEW030TCU 27/22 Q1013=,SBRJ
1679173200000,METAR SBRJ 182100Z 17011KT 9999 FEW008 FEW030TCU 26/23 Q1013=,SBRJ
1679176800000,METAR SBRJ 182200Z 17008KT CAVOK 25/23 Q1014=,SBRJ
1679180400000,METAR SBRJ 182300Z 18008KT CAVOK 25/23 Q1014=,SBRJ
1679097600000,METAR SBSP 180000Z 15008KT 9999 BKN016 20/17 Q1020=,SBSP
1679101200000,METAR SBSP 180100Z 12007KT 080V160 9999 SCT016 20/17 Q1020=,SBSP
1679104800000,METAR SBSP 180200Z 14007KT 9999 FEW011 20/17 Q1020=,SBSP
1679104860000,SPECI SBSP 180201Z 13006KT 9999 FEW012 20/17 Q1020=,SBSP
1679108400000,METAR SBSP 180300Z AUTO 15006KT CAVOK 19/17 Q1020=,SBSP
1679112000000,METAR SBSP 180400Z AUTO 14004KT 110V170 CAVOK 19/17 Q1020=,SBSP
1679115600000,METAR SBSP 180500Z AUTO 16005KT CAVOK 18/16 Q1019=,SBSP
1679119200000,METAR SBSP 180600Z AUTO 16004KT CAVOK 18/16 Q1019=,SBSP
1679122800000,METAR SBSP 180700Z AUTO 16003KT CAVOK 18/16 Q1019=,SBSP
1679126400000,METAR SBSP 180800Z AUTO 14004KT CAVOK 17/16 Q1019=,SBSP
1679129040000,SPECI SBSP 180844Z AUTO 15003KT 9999 BKN014 18/16 Q1019=,SBSP
1679130000000,METAR SBSP 180900Z 14004KT 9999 BKN013 18/17 Q1020=,SBSP
1679131260000,SPECI SBSP 180921Z 07003KT 010V110 9999 SCT013 19/16 Q1020=,SBSP
1679133600000,METAR SBSP 181000Z 07003KT 020V100 9999 BKN011 19/16 Q1020=,SBSP
1679137200000,METAR SBSP 181100Z 09006KT 040V130 9000 SCT011 20/17 Q1021=,SBSP
1679140800000,METAR SBSP 181200Z 05005KT 020V100 CAVOK 22/17 Q1021=,SBSP
1679144400000,METAR SBSP 181300Z 08007KT 040V130 CAVOK 24/17 Q1021=,SBSP
1679148000000,METAR SBSP 181400Z 08006KT 010V130 CAVOK 25/16 Q1021=,SBSP
1679151600000,METAR SBSP 181500Z VRB04KT 9999 FEW040 27/16 Q1020=,SBSP
1679155200000,METAR SBSP 181600Z VRB04KT 9999 SCT046 28/15 Q1019=,SBSP
1679158800000,METAR SBSP 181700Z 17010KT 140V220 9999 BKN045 27/18 Q1018=,SBSP
1679162400000,METAR SBSP 181800Z 15011KT 9999 BKN045 27/19 Q1018=,SBSP
1679166000000,METAR SBSP 181900Z 14010KT 110V170 9000 SCT040 27/19 Q1018=,SBSP
1679169600000,METAR SBSP 182000Z 16012KT 9999 SCT040 24/19 Q1018=,SBSP
1679173200000,METAR SBSP 182100Z 18011KT 8000 BKN010 22/19 Q1018=,SBSP
1679176800000,METAR SBSP 182200Z 19010KT 160V220 8000 BKN009 21/19 Q1019=,SBSP
1679180400000,METAR SBSP 182300Z 16010KT 130V190 8000 BKN009 21/18 Q1020=,SBSP
1679097600000,METAR SBSV 180000Z 10009KT 9999 FEW023 SCT070 28/23 Q1013=,SBSV
1679101200000,METAR SBSV 180100Z 11008KT 9999 FEW023 SCT070 28/23 Q1013=,SBSV
1679104800000,METAR SBSV 180200Z 10007KT 9999 FEW023 SCT070 28/23 Q1013=,SBSV
1679108400000,METAR SBSV 180300Z 02002KT 9999 FEW023 SCT070 26/24 Q1013=,SBSV
1679112000000,METAR SBSV 180400Z 09008KT 9999 FEW023 SCT070 28/23 Q1012=,SBSV
1679115600000,METAR SBSV 180500Z 10006KT 9999 SCT023 28/23 Q1011=,SBSV
1679119200000,METAR SBSV 180600Z 10006KT 9999 SCT023 28/23 Q1011=,SBSV
1679122800000,METAR SBSV 180700Z 09007KT 9999 SCT023 27/23 Q1011=,SBSV
1679126400000,METAR SBSV 180800Z 09011KT 9999 FEW023 27/23 Q1011=,SBSV
1679130000000,METAR SBSV 180900Z 12007KT 9999 SCT020 FEW023TCU 27/24 Q1012=,SBSV
1679133600000,METAR SBSV 181000Z 12008KT 9999 VCSH SCT020 FEW023TCU 28/23 Q1013=,SBSV
1679137200000,METAR SBSV 181100Z 06005KT 9000 VCSH SCT020 FEW023TCU BKN060 28/24 Q1014=,SBSV
1679140800000,METAR SBSV 181200Z 09005KT 9999 VCSH SCT020 FEW023TCU SCT060 30/23 Q1014=,SBSV
1679144400000,METAR SBSV 181300Z 11006KT 9999 SCT020 FEW023TCU SCT060 30/24 Q1014=,SBSV
1679148000000,METAR SBSV 181400Z 11007KT 9999 VCSH SCT020 FEW023TCU SCT060 30/24 Q1014=,SBSV
1679151600000,METAR SBSV 181500Z 13007KT 9999 VCSH SCT020 FEW023TCU SCT060 30/24 Q1013=,SBSV
1679155200000,METAR SBSV 181600Z 11008KT 9999 SCT020 FEW023TCU SCT060 30/24 Q1013=,SBSV
1679158800000,METAR SBSV 181700Z 29005KT 9999 VCSH SCT020 FEW023TCU SCT060 27/23 Q1012=,SBSV
1679160660000,SPECI SBSV 181731Z 32005KT 290V010 4000 SHRA BR BKN020 FEW023TCU SCT060 26/24 Q1012=,SBSV
1679161560000,SPECI SBSV 181746Z 29006KT 250V320 7000 -SHRA BKN020 FEW023TCU SCT060 26/24 Q1012 RESHRA=,SBSV
1679162400000,METAR SBSV 181800Z 28004KT 250V330 7000 -SHRA BKN020 FEW023TCU SCT060 26/24 Q1012 RESHRA=,SBSV
1679166000000,METAR SBSV 181900Z 08012G23KT 060V120 8000 -RA FEW015 BKN020 FEW023TCU 26/23 Q1012=,SBSV
1679169600000,METAR SBSV 182000Z 11004KT 070V160 8000 -RA FEW010 BKN020 FEW023TCU 26/23 Q1012=,SBSV
1679173200000,METAR SBSV 182100Z 36003KT 9999 VCSH SCT020 FEW023TCU BKN100 25/24 Q1013=,SBSV
1679176800000,METAR SBSV 182200Z 09006KT 9999 VCTS SCT020 FEW023CB 26/22 Q1013=,SBSV
1679180400000,METAR SBSV 182300Z 12006KT 100V160 9999 VCTS SCT020 FEW023CB 27/23 Q1013=,SBSV
