hora,metar,aero
1667606400000,METAR SBBR 050000Z 12009KT 9999 SCT040 SCT090 19/15 Q1019=,SBBR
1667610000000,METAR SBBR 050100Z 10007KT 9999 SCT040 BKN090 18/15 Q1019=,SBBR
1667613600000,METAR SBBR 050200Z 11003KT 9999 FEW040 BKN090 18/15 Q1019=,SBBR
1667617200000,METAR SBBR 050300Z VRB01KT CAVOK 17/15 Q1018=,SBBR
1667620800000,METAR SBBR 050400Z 00000KT CAVOK 17/15 Q1017=,SBBR
1667624400000,METAR SBBR 050500Z 20003KT CAVOK 16/15 Q1017=,SBBR
1667628000000,METAR SBBR 050600Z 20003KT CAVOK 15/14 Q1016=,SBBR
1667631600000,METAR SBBR 050700Z 21001KT CAVOK 15/14 Q1016=,SBBR
1667635200000,METAR SBBR 050800Z 00000KT CAVOK 14/14 Q1017=,SBBR
1667638800000,METAR SBBR 050900Z 00000KT 9999 SCT020 BKN090 14/13 Q1017=,SBBR
1667642400000,METAR SBBR 051000Z 10005KT 9999 SCT020 BKN090 17/15 Q1018=,SBBR
1667646000000,METAR SBBR 051100Z 09008KT 9999 SCT013 BKN022 18/16 Q1019=,SBBR
1667649600000,METAR SBBR 051200Z 07010KT 9999 BKN016 BKN073 20/15 Q1019=,SBBR
1667653200000,METAR SBBR 051300Z 08010KT 9999 SCT020 SCT080 21/16 Q1020=,SBBR
1667656800000,METAR SBBR 051400Z 08010KT 9999 SCT025 23/15 Q1019=,SBBR
1667660400000,METAR SBBR 051500Z 07005KT 9999 BKN030 24/15 Q1019=,SBBR
1667664000000,METAR SBBR 051600Z 01005KT 270V070 9999 BKN030 25/13 Q1017=,SBBR
1667667600000,METAR SBBR 051700Z 07004KT 9999 SCT040 SCT080 26/13 Q1017=,SBBR
1667671200000,METAR SBBR 051800Z 03002KT 9999 BKN030 FEW040TCU 26/13 Q1016=,SBBR
1667674800000,METAR COR SBBR 051900Z 13008KT 9999 BKN030 FEW040TCU BKN100 26/14 Q1016=,SBBR
1667678400000,METAR SBBR 052000Z 11007KT 9999 SCT040 FEW045TCU BKN100 25/14 Q1016=,SBBR
1667682000000,METAR SBBR 052100Z 11008KT 9999 SCT030 BKN100 25/15 Q1016=,SBBR
1667685600000,METAR SBBR 052200Z 11007KT 9999 FEW030 BKN100 24/15 Q1017=,SBBR
1667689200000,METAR SBBR 052300Z 11008KT CAVOK 23/15 Q1017=,SBBR
1667606400000,METAR SBCF 050000Z 09012KT CAVOK 16/10 Q1020=,SBCF
1667610000000,METAR SBCF 050100Z 11009KT CAVOK 16/10 Q1021=,SBCF
1667613600000,METAR SBCF 050200Z 10009KT CAVOK 15/10 Q1020=,SBCF
1667617200000,METAR SBCF 050300Z 11009KT CAVOK 15/10 Q1019=,SBCF
1667620800000,METAR SBCF 050400Z 11007KT CAVOK 15/10 Q1019=,SBCF
1667624400000,METAR SBCF 050500Z 10009KT CAVOK 15/10 Q1018=,SBCF
1667628000000,METAR SBCF 050600Z 13005KT CAVOK 12/10 Q1018=,SBCF
1667631600000,METAR SBCF 050700Z 13004KT CAVOK 12/10 Q1018=,SBCF
1667635200000,METAR SBCF 050800Z 13007KT CAVOK 12/09 Q1019=,SBCF
1667638800000,METAR SBCF 050900Z 13008KT CAVOK 12/10 Q1019=,SBCF
1667642400000,METAR SBCF 051000Z 12008KT 9999 FEW020 15/10 Q1020=,SBCF
1667646000000,METAR SBCF 051100Z 12007KT 9999 FEW020 18/11 Q1021=,SBCF
1667649600000,METAR SBCF 051200Z 12008KT 9999 FEW020 19/11 Q1021=,SBCF
1667653200000,METAR SBCF 051300Z 06007KT 9999 SCT040 21/11 Q1021=,SBCF
1667656800000,METAR SBCF 051400Z 03006KT 9999 SCT040 22/10 Q1020=,SBCF
1667660400000,METAR SBCF 051500Z 10007KT 9999 SCT045 23/10 Q1019=,SBCF
1667664000000,METAR SBCF 051600Z 18007KT 9999 SCT045 25/10 Q1018=,SBCF
1667667600000,METAR SBCF 051700Z 16006KT 9999 BKN048 24/09 Q1017=,SBCF
1667671200000,METAR SBCF 051800Z 20003KT 9999 BKN046 BKN080 24/09 Q1017=,SBCF
1667674800000,METAR SBCF 051900Z 14004KT 9999 BKN046 25/10 Q1016=,SBCF
1667678400000,METAR SBCF 052000Z 08008KT 9999 SCT048 24/10 Q1017=,SBCF
1667682000000,METAR SBCF 052100Z 09011KT 9999 SCT049 22/10 Q1017=,SBCF
1667685600000,METAR SBCF 052200Z 09012KT 9999 FEW040 21/10 Q1018=,SBCF
1667689200000,METAR SBCF 052300Z 06008KT CAVOK 21/10 Q1019=,SBCF
1667606400000,METAR SBCT 050000Z 13005KT 9999 FEW007 09/09 Q1023=,SBCT
1667610000000,METAR SBCT 050100Z 11004KT 9000 FEW009 09/09 Q1024=,SBCT
1667613600000,METAR SBCT 050200Z 12006KT 9000 FEW010 09/09 Q1023=,SBCT
1667617200000,METAR SBCT 050300Z 12005KT 8000 FEW012 09/09 Q1022=,SBCT
1667620800000,METAR SBCT 050400Z 13004KT 8000 FEW012 08/08 Q1022=,SBCT
1667624400000,METAR SBCT 050500Z 13006KT 8000 FEW009 08/08 Q1021=,SBCT
1667628000000,METAR SBCT 050600Z 14005KT 8000 FEW007 07/07 Q1021=,SBCT
1667631600000,METAR SBCT 050700Z 14005KT 7000 FEW006 08/08 Q1021=,SBCT
1667635200000,METAR SBCT 050800Z 15006KT 9000 FEW006 07/07 Q1021=,SBCT
1667638800000,METAR SBCT 050900Z 14004KT 9000 NSC 07/07 Q1022=,SBCT
1667642400000,METAR SBCT 051000Z 12004KT 080V160 9999 FEW015 11/10 Q1023=,SBCT
1667646000000,METAR SBCT 051100Z 11008KT 080V140 9999 SCT015 13/10 Q1024=,SBCT
1667649600000,METAR SBCT 051200Z 10009KT 080V150 9999 BKN020 15/09 Q1024=,SBCT
1667653200000,METAR SBCT 051300Z 12009KT 060V160 9999 BKN030 17/08 Q1024=,SBCT
1667656800000,METAR SBCT 051400Z 10008KT 060V130 9999 BKN030 17/08 Q1023=,SBCT
1667660400000,METAR SBCT 051500Z 09007KT 350V150 9999 BKN040 16/07 Q1023=,SBCT
1667664000000,METAR SBCT 051600Z VRB05KT 9999 BKN040 17/09 Q1022=,SBCT
1667667600000,METAR SBCT 051700Z 07011KT 040V110 9999 FEW030 BKN050 16/10 Q1022=,SBCT
1667671200000,METAR SBCT 051800Z 09008KT 9999 BKN030 18/10 Q1021=,SBCT
1667674800000,METAR SBCT 051900Z 11010KT 9999 BKN030 16/09 Q1021=,SBCT
1667678400000,METAR SBCT 052000Z 10010KT 9999 BKN025 15/10 Q1021=,SBCT
1667682000000,METAR SBCT 052100Z 10010KT 9999 BKN020 14/10 Q1021=,SBCT
1667685600000,METAR SBCT 052200Z 11008KT 9999 FEW020 12/10 Q1022=,SBCT
1667689200000,METAR SBCT 052300Z 13006KT 9999 FEW020 11/10 Q1023=,SBCT
1667606400000,METAR SBFL 050000Z 18004KT 9999 FEW021 SCT033 18/13 Q1022=,SBFL
1667610000000,METAR SBFL 050100Z 18005KT 9999 FEW021 SCT033 18/12 Q1022=,SBFL
1667613600000,METAR SBFL 050200Z 17005KT 9999 FEW021 SCT033 18/13 Q1022=,SBFL
1667617200000,METAR SBFL 050300Z 21004KT 9999 FEW021 SCT033 16/12 Q1022=,SBFL
1667620800000,METAR SBFL 050400Z 00000KT 9999 FEW021 SCT033 15/12 Q1021=,SBFL
1667624400000,METAR SBFL 050500Z 04002KT 9999 FEW021 SCT033 16/12 Q1020=,SBFL
1667628000000,METAR SBFL 050600Z 26006KT 9999 FEW021 SCT033 15/12 Q1020=,SBFL
1667631600000,METAR SBFL 050700Z 36002KT 9999 FEW021 SCT033 15/12 Q1020=,SBFL
1667635200000,METAR SBFL 050800Z 27006KT 9999 FEW021 SCT033 15/12 Q1021=,SBFL
1667638800000,METAR SBFL 050900Z 28004KT CAVOK 15/12 Q1022=,SBFL
1667642400000,METAR SBFL 051000Z 26006KT CAVOK 16/12 Q1022=,SBFL
1667646000000,METAR SBFL 051100Z 29004KT 260V340 9999 FEW030 19/12 Q1023=,SBFL
1667649600000,METAR SBFL 051200Z 21008KT 9999 SCT033 20/12 Q1023=,SBFL
1667653200000,METAR SBFL 051300Z VRB06KT 9999 FEW035 21/12 Q1023=,SBFL
1667656800000,METAR SBFL 051400Z 12012KT 9999 SCT040 22/13 Q1022=,SBFL
1667660400000,METAR COR SBFL 051500Z 13013KT 100V160 9999 VCSH SCT030 FEW035TCU 22/15 Q1021=,SBFL
1667664000000,METAR SBFL 051600Z 12015KT 9999 SCT033 22/14 Q1022=,SBFL
1667667600000,METAR SBFL 051700Z 11014KT 090V160 9999 FEW030 22/14 Q1021=,SBFL
1667671200000,METAR SBFL 051800Z 13014KT 100V160 9999 VCSH SCT030 FEW035TCU 21/14 Q1021=,SBFL
1667674800000,METAR SBFL 051900Z 14013KT 9999 VCSH SCT025 FEW035TCU 20/14 Q1021=,SBFL
1667678400000,METAR SBFL 052000Z 13012KT 9999 SCT030 FEW035TCU 20/13 Q1021=,SBFL
1667682000000,METAR SBFL 052100Z 14008KT 9999 SCT035 20/13 Q1021=,SBFL
1667685600000,METAR SBFL 052200Z 17005KT 120V210 9999 SCT030 BKN040 19/13 Q1021=,SBFL
1667689200000,METAR SBFL 052300Z 16006KT 9999 FEW030 19/13 Q1022=,SBFL
1667606400000,METAR SBGL 050000Z 36004KT 270V030 9999 SCT010 BKN060 BKN070 18/15 Q1021=,SBGL
1667610000000,METAR SBGL 050100Z 34003KT 240V010 8000 -RA SCT008 BKN045 OVC060 17/16 Q1021=,SBGL
1667613600000,METAR SBGL 050200Z 30003KT 8000 FEW010 BKN055 18/16 Q1020=,SBGL
1667617200000,METAR SBGL 050300Z 25003KT 8000 FEW010 SCT045 BKN070 18/16 Q1020=,SBGL
1667620800000,METAR SBGL 050400Z 24004KT 9999 FEW010 SCT040 BKN070 18/16 Q1019=,SBGL
1667624400000,METAR SBGL 050500Z 26004KT 9999 SCT035 BKN070 18/16 Q1018=,SBGL
1667628000000,METAR SBGL 050600Z 27005KT 240V310 9999 FEW030 BKN075 BKN090 17/15 Q1018=,SBGL
1667631600000,METAR SBGL 050700Z 32006KT 300V360 9999 FEW008 BKN070 BKN090 17/16 Q1018=,SBGL
1667635200000,METAR SBGL 050800Z 31006KT 9999 FEW006 SCT075 17/15 Q1018=,SBGL
1667638800000,METAR SBGL 050900Z 28005KT 9999 FEW007 17/16 Q1019=,SBGL
1667642400000,METAR SBGL 051000Z 28004KT 250V310 9999 FEW010 19/15 Q1020=,SBGL
1667646000000,METAR SBGL 051100Z 33003KT 9999 FEW020 21/16 Q1020=,SBGL
1667649600000,METAR SBGL 051200Z 35004KT 9999 FEW020 22/15 Q1021=,SBGL
1667653200000,METAR SBGL 051300Z 01006KT 9999 FEW032 23/14 Q1020=,SBGL
1667656800000,METAR SBGL 051400Z 04005KT 9999 SCT035 23/15 Q1020=,SBGL
1667660400000,METAR SBGL 051500Z 12009KT 9999 SCT035 24/15 Q1019=,SBGL
1667664000000,METAR SBGL 051600Z 13012KT 9999 SCT040 24/15 Q1018=,SBGL
1667667600000,METAR SBGL 051700Z 13009KT CAVOK 24/15 Q1018=,SBGL
1667671200000,METAR SBGL 051800Z 14010KT 9999 FEW040 SCT060 24/14 Q1017=,SBGL
1667674800000,METAR SBGL 051900Z 13011KT 9999 FEW040 SCT060 24/14 Q1017=,SBGL
1667678400000,METAR SBGL 052000Z 14010KT CAVOK 23/14 Q1017=,SBGL
1667682000000,METAR SBGL 052100Z 15009KT CAVOK 22/13 Q1018=,SBGL
1667685600000,METAR SBGL 052200Z 17007KT 9999 FEW040 SCT080 21/14 Q1019=,SBGL
1667689200000,METAR SBGL 052300Z 09003KT 9999 FEW040 SCT100 20/14 Q1019=,SBGL
1667606400000,METAR SBGR 050000Z 13006KT 9999 OVC017 14/11 Q1023=,SBGR
1667610000000,METAR SBGR 050100Z 11011KT 9999 BKN019 14/10 Q1023=,SBGR
1667613600000,METAR SBGR 050200Z 10010KT 9999 BKN021 14/10 Q1022=,SBGR
1667617200000,METAR SBGR 050300Z 11007KT 9999 BKN030 14/09 Q1022=,SBGR
1667620800000,METAR SBGR 050400Z 09006KT 9999 SCT030 12/09 Q1021=,SBGR
1667624400000,METAR SBGR 050500Z 08006KT 9999 SCT040 11/09 Q1020=,SBGR
1667628000000,METAR SBGR 050600Z 08004KT 9999 FEW040 11/09 Q1020=,SBGR
1667631600000,METAR SBGR 050700Z 14003KT 9999 FEW040 10/09 Q1020=,SBGR
1667635200000,METAR SBGR 050800Z 12004KT CAVOK 11/09 Q1020=,SBGR
1667638800000,METAR SBGR 050900Z 11002KT 9999 SCT040 11/10 Q1021=,SBGR
1667642400000,METAR SBGR 051000Z 07006KT CAVOK 13/10 Q1022=,SBGR
1667646000000,METAR SBGR 051100Z 11006KT CAVOK 16/09 Q1022=,SBGR
1667649600000,METAR SBGR 051200Z 11006KT CAVOK 16/09 Q1023=,SBGR
1667653200000,METAR SBGR 051300Z 10009KT 9999 BKN033 18/08 Q1022=,SBGR
1667656800000,METAR SBGR 051400Z 11006KT 9999 BKN040 19/08 Q1022=,SBGR
1667660400000,METAR SBGR 051500Z 10005KT 9999 BKN040 19/09 Q1021=,SBGR
1667664000000,METAR SBGR 051600Z 16005KT 9999 BKN040 20/09 Q1021=,SBGR
1667667600000,METAR SBGR 051700Z 16008KT 9999 BKN045 20/10 Q1020=,SBGR
1667671200000,METAR SBGR 051800Z 16009KT 9999 BKN045 19/11 Q1019=,SBGR
1667674800000,METAR SBGR 051900Z 17009KT 9999 BKN030 19/11 Q1019=,SBGR
1667678400000,METAR SBGR 052000Z 16010KT 9999 SCT040 18/11 Q1019=,SBGR
1667682000000,METAR SBGR 052100Z 16010KT 9999 BKN030 16/11 Q1020=,SBGR
1667685600000,METAR SBGR 052200Z 17007KT 9999 BKN025 15/11 Q1021=,SBGR
1667689200000,METAR SBGR 052300Z 15006KT 9999 SCT030 15/10 Q1022=,SBGR
1667606400000,METAR SBKP 050000Z 13014KT CAVOK 15/10 Q1021=,SBKP
1667610000000,METAR SBKP 050100Z 14013KT CAVOK 15/10 Q1021=,SBKP
1667613600000,METAR SBKP 050200Z 13011KT CAVOK 14/10 Q1021=,SBKP
1667617200000,METAR SBKP 050300Z 13010KT CAVOK 14/10 Q1020=,SBKP
1667620800000,METAR SBKP 050400Z 13010KT CAVOK 13/10 Q1020=,SBKP
1667624400000,METAR SBKP 050500Z 14009KT 9999 FEW030 13/09 Q1019=,SBKP
1667628000000,METAR SBKP 050600Z 13011KT CAVOK 13/09 Q1018=,SBKP
1667631600000,METAR SBKP 050700Z 13008KT CAVOK 12/08 Q1018=,SBKP
1667635200000,METAR SBKP 050800Z 13010KT CAVOK 12/09 Q1019=,SBKP
1667638800000,METAR SBKP 050900Z 13007KT 9999 FEW015 12/09 Q1020=,SBKP
1667642400000,METAR SBKP 051000Z 12009KT 9999 FEW045 14/09 Q1020=,SBKP
1667646000000,METAR SBKP 051100Z 12012KT 9999 SCT045 16/09 Q1021=,SBKP
1667649600000,METAR SBKP 051200Z 12010KT 090V150 9999 BKN045 18/09 Q1021=,SBKP
1667653200000,METAR SBKP 051300Z 13010KT 9999 FEW045 20/09 Q1021=,SBKP
1667656800000,METAR SBKP 051400Z 18006KT 140V220 9999 SCT045 21/09 Q1021=,SBKP
1667660400000,METAR SBKP 051500Z VRB04KT 9999 SCT045 22/09 Q1020=,SBKP
1667664000000,METAR SBKP 051600Z 13007KT 070V190 9999 SCT045 22/09 Q1019=,SBKP
1667667600000,METAR SBKP 051700Z 10006KT 060V170 9999 SCT045 23/07 Q1018=,SBKP
1667671200000,METAR SBKP 051800Z 18008KT 150V220 9999 SCT045 24/08 Q1017=,SBKP
1667674800000,METAR SBKP 051900Z 19007KT 9999 SCT045 24/08 Q1017=,SBKP
1667678400000,METAR SBKP 052000Z 19009KT 100V200 9999 SCT045 23/07 Q1017=,SBKP
1667682000000,METAR SBKP 052100Z 14018KT 9999 FEW045 21/10 Q1017=,SBKP
1667685600000,METAR SBKP 052200Z 14017KT CAVOK 18/11 Q1018=,SBKP
1667689200000,METAR SBKP 052300Z 14020KT CAVOK 17/10 Q1019=,SBKP
1667606400000,METAR SBPA 050000Z 13007KT CAVOK 18/13 Q1023=,SBPA
1667610000000,METAR SBPA 050100Z 12006KT CAVOK 17/13 Q1023=,SBPA
1667613600000,METAR SBPA 050200Z 11005KT CAVOK 16/14 Q1023=,SBPA
1667617200000,METAR SBPA 050300Z 11005KT CAVOK 16/14 Q1023=,SBPA
1667620800000,METAR SBPA 050400Z 07003KT 9999 FEW035 15/13 Q1022=,SBPA
1667624400000,METAR SBPA 050500Z 13007KT 9999 FEW025 BKN045 17/13 Q1021=,SBPA
1667628000000,METAR SBPA 050600Z 09004KT 9999 FEW025 BKN065 15/13 Q1021=,SBPA
1667631600000,METAR SBPA 050700Z 04004KT 9999 FEW025 BKN065 15/13 Q1021=,SBPA
1667635200000,METAR SBPA 050800Z 06004KT 9999 FEW030 14/14 Q1022=,SBPA
1667638800000,METAR SBPA 050900Z 01003KT CAVOK 15/13 Q1022=,SBPA
1667642400000,METAR SBPA 051000Z VRB02KT CAVOK 16/14 Q1023=,SBPA
1667646000000,METAR SBPA 051100Z VRB02KT CAVOK 18/15 Q1024=,SBPA
1667649600000,METAR SBPA 051200Z 09006KT 040V140 9999 SCT023 20/14 Q1024=,SBPA
1667653200000,METAR SBPA 051300Z 10010KT 9999 BKN030 21/13 Q1024=,SBPA
1667656800000,METAR SBPA 051400Z 08014KT 9999 BKN035 22/12 Q1023=,SBPA
1667660400000,METAR SBPA 051500Z 09014KT 9999 BKN035 24/12 Q1022=,SBPA
1667664000000,METAR SBPA 051600Z 12014KT 9999 BKN040 24/12 Q1022=,SBPA
1667667600000,METAR SBPA 051700Z 11015KT 080V150 9999 SCT040 23/12 Q1021=,SBPA
1667671200000,METAR SBPA 051800Z 09020G31KT 070V130 9999 BKN045 24/11 Q1020=,SBPA
1667674800000,METAR SBPA 051900Z 11017KT CAVOK 23/11 Q1020=,SBPA
1667678400000,METAR SBPA 052000Z 11015G27KT 9999 FEW045 23/12 Q1020=,SBPA
1667682000000,METAR SBPA 052100Z 11019G30KT 9999 FEW045 21/12 Q1021=,SBPA
1667685600000,METAR SBPA 052200Z 10017G27KT CAVOK 20/13 Q1021=,SBPA
1667689200000,METAR SBPA 052300Z 11013KT CAVOK 19/14 Q1022=,SBPA
1667606400000,METAR SBRF 050000Z 03006KT 350V080 9999 SCT023 SCT050 27/22 Q1013=,SBRF
1667610000000,METAR SBRF 050100Z 01005KT 330V060 9999 SCT020 SCT100 27/22 Q1013=,SBRF
1667613600000,METAR SBRF 050200Z 36003KT 330V080 9999 SCT020 27/22 Q1013=,SBRF
1667617200000,METAR SBRF 050300Z 31003KT 9999 SCT020 SCT050 26/22 Q1012=,SBRF
1667620800000,METAR SBRF 050400Z 30004KT 9999 SCT020 25/22 Q1012=,SBRF
1667624400000,METAR SBRF 050500Z 32003KT 9999 FEW020 SCT100 25/22 Q1011=,SBRF
1667628000000,METAR SBRF 050600Z 32004KT 9999 SCT023 24/22 Q1011=,SBRF
1667631600000,METAR SBRF 050700Z 33003KT 9999 SCT023 SCT050 24/22 Q1012=,SBRF
1667635200000,METAR SBRF 050800Z 31002KT 9999 SCT023 24/21 Q1012=,SBRF
1667638800000,METAR SBRF 050900Z 33003KT 9999 FEW025 25/22 Q1013=,SBRF
1667642400000,METAR SBRF 051000Z 33005KT 9999 FEW025 27/22 Q1014=,SBRF
1667646000000,METAR SBRF 051100Z 06006KT 020V100 9999 SCT025 29/21 Q1014=,SBRF
1667649600000,METAR SBRF 051200Z 08008KT 060V120 9999 SCT025 SCT080 30/22 Q1014=,SBRF
1667653200000,METAR SBRF 051300Z 09009KT 9999 SCT025 SCT080 30/22 Q1014 WS R36=,SBRF
1667656800000,METAR SBRF 051400Z 08010KT 030V120 9999 SCT025 SCT080 29/22 Q1013=,SBRF
1667660400000,METAR SBRF 051500Z 07009KT 010V100 9999 SCT023 SCT060 29/22 Q1012=,SBRF
1667664000000,METAR SBRF 051600Z 07010KT 030V120 9999 SCT023 SCT060 30/23 Q1012=,SBRF
1667667600000,METAR SBRF 051700Z 09011KT 040V110 9999 SCT023 BKN050 29/22 Q1011=,SBRF
1667671200000,METAR SBRF 051800Z 08009KT 040V120 9999 SCT021 BKN050 28/22 Q1011=,SBRF
1667674800000,METAR SBRF 051900Z 08006KT 030V140 9999 BKN021 BKN050 28/22 Q1011=,SBRF
1667678400000,METAR SBRF 052000Z 08007KT 050V110 9999 SCT021 BKN050 28/22 Q1011=,SBRF
1667682000000,METAR SBRF 052100Z 07006KT 010V120 9999 SCT021 BKN050 28/22 Q1012=,SBRF
1667685600000,METAR SBRF 052200Z 10006KT 070V130 9999 SCT021 SCT050 27/22 Q1013=,SBRF
1667689200000,METAR SBRF 052300Z 10007KT 070V140 9999 SCT021 SCT050 27/22 Q1013=,SBRF
1667606400000,METAR SBRJ 050000Z 19008KT 7000 -RA SCT015 OVC050 18/16 Q1020=,SBRJ
1667610000000,METAR SBRJ 050100Z 02004KT 340V050 9000 -RA FEW015 SCT020 OVC050 18/16 Q1020=,SBRJ
1667613600000,METAR SBRJ 050200Z 29006KT 240V350 9999 FEW020 SCT050 BKN070 18/15 Q1020=,SBRJ
1667617200000,METAR SBRJ 050300Z 29004KT 9999 FEW020 SCT040 BKN070 18/15 Q1019=,SBRJ
1667620800000,METAR SBRJ 050400Z 29003KT 250V310 9999 FEW020 SCT040 BKN070 18/15 Q1018=,SBRJ
1667624400000,METAR SBRJ 050500Z VRB02KT 8000 -RA SCT020 BKN040 BKN070 18/15 Q1018=,SBRJ
1667628000000,METAR SBRJ 050600Z VRB02KT 9999 SCT023 BKN050 BKN070 18/16 Q1017=,SBRJ
1667631600000,METAR SBRJ 050700Z 31006KT 9999 FEW018 SCT050 BKN080 18/16 Q1017=,SBRJ
1667635200000,METAR SBRJ 050800Z 30005KT 270V330 9999 FEW013 SCT050 BKN070 18/16 Q1018=,SBRJ
1667638800000,METAR SBRJ 050900Z 30004KT 9999 FEW013 SCT070 18/16 Q1018=,SBRJ
1667642400000,METAR SBRJ 051000Z 32004KT 290V360 9999 FEW018 SCT030 19/16 Q1019=,SBRJ
1667646000000,METAR SBRJ 051100Z 01005KT 9999 SCT030 20/17 Q1020=,SBRJ
1667649600000,METAR SBRJ 051200Z 02005KT 350V050 9999 SCT030 21/16 Q1020=,SBRJ
1667653200000,METAR SBRJ 051300Z 09003KT 040V180 9999 FEW018 SCT030 22/16 Q1020=,SBRJ
1667656800000,METAR SBRJ 051400Z 16008KT 130V190 9999 FEW018 SCT030 23/15 Q1020=,SBRJ
1667660400000,METAR SBRJ 051500Z 16012KT 9999 FEW018 SCT030 23/17 Q1019=,SBRJ
1667664000000,METAR SBRJ 051600Z 16010KT 9999 FEW020 SCT030 23/17 Q1018=,SBRJ
1667667600000,METAR SBRJ 051700Z 17012KT 9999 SCT030 23/16 Q1018=,SBRJ
1667671200000,METAR SBRJ 051800Z 17013KT 9999 SCT030 23/15 Q1017=,SBRJ
1667674800000,METAR SBRJ 051900Z 17013KT 9999 SCT030 23/15 Q1017=,SBRJ
1667678400000,METAR SBRJ 052000Z 17012KT 9999 FEW030 SCT100 22/15 Q1017=,SBRJ
1667682000000,METAR SBRJ 052100Z 17012KT 9999 FEW030 SCT100 21/15 Q1018=,SBRJ
1667685600000,METAR SBRJ 052200Z 17012KT CAVOK 21/15 Q1018=,SBRJ
1667689200000,METAR SBRJ 052300Z 17011KT CAVOK 21/15 Q1019=,SBRJ
1667606400000,METAR SBSP 050000Z 16010KT 9999 SCT012 BKN017 14/11 Q1023=,SBSP
1667610000000,METAR SBSP 050100Z 15010KT 9999 BKN009 BKN012 OVC020 14/11 Q1023=,SBSP
1667613600000,METAR SBSP 050200Z 17010KT 9999 -RA SCT009 OVC015 13/12 Q1023=,SBSP
1667614380000,SPECI SBSP 050213Z 15007KT 9999 FEW007 SCT013 OVC019 13/12 Q1023=,SBSP
1667614980000,SPECI SBSP 050223Z AUTO 14005KT 9999 -RA SCT007 BKN013 OVC020 13/12 Q1022=,SBSP
1667615040000,SPECI SBSP 050224Z AUTO 14005KT 9999 -RA FEW007 BKN009 OVC020 13/12 Q1022=,SBSP
1667615700000,SPECI SBSP 050235Z AUTO 13006KT 090V170 9000 -RA FEW005 SCT007 BKN012 13/12 Q1022=,SBSP
1667616360000,SPECI SBSP 050246Z AUTO 15006KT 4000 -RA FEW007 SCT011 BKN013 13/12 Q1022=,SBSP
1667617200000,METAR SBSP 050300Z AUTO 14007KT 4800 -RA FEW004 BKN011 13/12 Q1022=,SBSP
1667617980000,SPECI COR SBSP 050313Z AUTO 13005KT 090V160 3800 -RA SCT004 BKN011 13/12 Q1022=,SBSP
1667618280000,SPECI SBSP 050318Z AUTO 14007KT 4200 -RA SCT005 BKN009 13/11 Q1022=,SBSP
1667619600000,SPECI SBSP 050340Z AUTO 13005KT 090V170 6000 -RA FEW004 BKN007 BKN010 13/12 Q1021=,SBSP
1667619660000,SPECI SBSP 050341Z AUTO 13005KT 090V170 4100 -RA FEW004 BKN007 BKN010 13/12 Q1021=,SBSP
1667620320000,SPECI SBSP 050352Z AUTO 12008KT 090V150 4100 -RA SCT004 SCT008 BKN010 12/11 Q1021=,SBSP
1667620560000,SPECI SBSP 050356Z AUTO 12008KT 090V150 4300 -RA FEW004 SCT006 BKN008 12/11 Q1021=,SBSP
1667620800000,METAR SBSP 050400Z AUTO 12008KT 090V150 4300 -RA FEW004 SCT006 BKN008 12/11 Q1021=,SBSP
1667621400000,SPECI SBSP 050410Z AUTO 12005KT 090V150 9999 SCT005 BKN011 BKN025 12/11 Q1021=,SBSP
1667621580000,SPECI SBSP 050413Z AUTO 12006KT 9999 BKN005 BKN011 BKN025 12/11 Q1021=,SBSP
1667622180000,SPECI SBSP 050423Z AUTO 10005KT 070V130 9999 BKN006 BKN009 BKN039 12/11 Q1021=,SBSP
1667622600000,SPECI SBSP 050430Z AUTO 10006KT 070V130 9999 BKN004 BKN008 BKN013 12/11 Q1021=,SBSP
1667623080000,SPECI SBSP 050438Z AUTO 11007KT 080V140 4100 -RA FEW002 BKN004 BKN014 12/11 Q1021=,SBSP
1667623380000,SPECI SBSP 050443Z AUTO 12007KT 8000 -RA FEW002 SCT004 BKN015 12/11 Q1021=,SBSP
1667624400000,METAR SBSP 050500Z AUTO 14006KT 9999 SCT004 SCT017 BKN025 12/11 Q1021=,SBSP
1667628000000,METAR SBSP 050600Z AUTO 14005KT 9999 FEW031 BKN042 12/11 Q1020=,SBSP
1667631600000,METAR SBSP 050700Z AUTO 13006KT 9999 FEW011 BKN028 12/11 Q1020=,SBSP
1667633820000,SPECI SBSP 050737Z AUTO 12006KT 9999 FEW010 BKN014 BKN029 12/10 Q1020=,SBSP
1667635200000,METAR SBSP 050800Z AUTO 12005KT 080V140 9999 FEW010 BKN014 OVC042 12/11 Q1021=,SBSP
1667635560000,SPECI SBSP 050806Z AUTO 14004KT 9999 FEW014 BKN043 12/10 Q1021=,SBSP
1667638800000,METAR SBSP 050900Z 08004KT 050V120 9999 FEW017 BKN040 13/10 Q1022=,SBSP
1667642400000,METAR SBSP 051000Z 12005KT 090V150 9999 SCT040 14/11 Q1023=,SBSP
1667646000000,METAR SBSP 051100Z 10009KT 080V140 9999 SCT040 SCT080 15/10 Q1023=,SBSP
1667649600000,METAR SBSP 051200Z 13009KT 100V160 9999 BKN040 SCT080 16/09 Q1023=,SBSP
1667653200000,METAR SBSP 051300Z 14008KT 050V180 9999 BKN040 SCT080 17/10 Q1023=,SBSP
1667656800000,METAR SBSP 051400Z 14009KT 110V180 9999 BKN040 SCT080 18/11 Q1023=,SBSP
1667660400000,METAR SBSP 051500Z 16009KT 9999 BKN040 SCT080 18/10 Q1022=,SBSP
1667664000000,METAR SBSP 051600Z 15009KT 120V180 9999 BKN040 20/10 Q1022=,SBSP
1667667600000,METAR SBSP 051700Z 17011KT 9999 SCT030 BKN040 19/11 Q1021=,SBSP
1667671200000,METAR COR SBSP 051800Z 17013KT 9999 SCT030 BKN040 18/11 Q1020=,SBSP
1667674800000,METAR SBSP 051900Z 17014KT 9999 SCT023 SCT026 18/11 Q1020=,SBSP
1667678400000,METAR SBSP 052000Z 17014KT 9999 SCT023 SCT026 16/10 Q1021=,SBSP
1667682000000,METAR SBSP 052100Z 16015KT 9999 SCT023 SCT030 15/10 Q1021=,SBSP
1667685600000,METAR SBSP 052200Z 17011KT 9999 FEW015 BKN019 14/11 Q1022=,SBSP
1667689200000,METAR SBSP 052300Z 15011KT 9999 FEW019 14/11 Q1022=,SBSP
1667606400000,METAR SBSV 050000Z 20012KT 9999 BKN016 FEW020TCU BKN070 24/21 Q1015=,SBSV
1667610000000,METAR SBSV 050100Z 20013KT 9999 BKN015 FEW020TCU 24/21 Q1015=,SBSV
1667613600000,METAR SBSV 050200Z 20013KT 8000 VCSH BKN015 FEW020TCU 24/21 Q1015=,SBSV
1667617200000,METAR SBSV 050300Z 21014KT 5000 -RA SCT010 BKN015 FEW020TCU 23/21 Q1014=,SBSV
1667620800000,METAR SBSV 050400Z 21013G23KT 8000 VCSH SCT009 OVC015 23/21 Q1013=,SBSV
1667624400000,METAR SBSV 050500Z 20012KT 8000 VCSH SCT009 OVC015 23/21 Q1012=,SBSV
1667628000000,METAR SBSV 050600Z 20012KT 9999 VCSH OVC018 24/20 Q1012=,SBSV
1667631600000,METAR SBSV 050700Z 20013KT 9999 OVC018 23/20 Q1013=,SBSV
1667635200000,METAR SBSV 050800Z 21012KT 9999 OVC018 23/20 Q1013=,SBSV
1667638800000,METAR SBSV 050900Z 21011KT 9999 BKN020 23/20 Q1014=,SBSV
1667642400000,METAR SBSV 051000Z 21011KT 9999 BKN020 23/20 Q1015=,SBSV
1667646000000,METAR SBSV 051100Z 21012KT 9000 FEW010 BKN020 22/21 Q1015=,SBSV
1667649600000,METAR SBSV 051200Z 21012KT 9999 BKN020 24/19 Q1016=,SBSV
1667653200000,METAR SBSV 051300Z 20013KT 9999 BKN020 24/19 Q1016=,SBSV
1667656800000,METAR SBSV 051400Z 21011KT 9999 BKN020 24/20 Q1016=,SBSV
1667660400000,METAR SBSV 051500Z 20012KT 9999 BKN020 24/21 Q1015=,SBSV
1667664000000,METAR SBSV 051600Z 20011KT 9999 BKN020 25/21 Q1014=,SBSV
1667667600000,METAR SBSV 051700Z 19009KT 9999 BKN020 25/22 Q1013=,SBSV
1667668740000,SPECI SBSV 051719Z 20011KT 3000 -RA SCT009 BKN015 FEW023TCU 24/22 Q1013=,SBSV
1667669940000,SPECI SBSV 051739Z 20010KT 2000 -RA BR BKN009 BKN015 FEW023TCU 24/22 Q1013=,SBSV
1667671200000,METAR SBSV 051800Z 21010KT 2000 -RA BR BKN009 BKN015 FEW023TCU 24/22 Q1013=,SBSV
1667674800000,METAR SBSV 051900Z 20010KT 3000 -RA BR BKN009 BKN015 FEW023TCU 24/22 Q1013=,SBSV
1667676960000,SPECI SBSV 051936Z 20009KT 5000 -RA BR SCT009 BKN015 FEW023TCU 24/22 Q1013=,SBSV
1667678400000,METAR SBSV 052000Z 19008KT 5000 -RA BR SCT009 BKN015 FEW023TCU 25/22 Q1013=,SBSV
1667682000000,METAR SBSV 052100Z 18014KT 8000 VCSH SCT009 BKN015 FEW023TCU 25/21 Q1014=,SBSV
1667685600000,METAR SBSV 052200Z 18013KT 8000 VCSH SCT010 BKN015 FEW023TCU 24/22 Q1014=,SBSV
1667689200000,METAR SBSV 052300Z 19013KT 9999 VCSH FEW010 BKN017 FEW023TCU 25/21 Q1015=,SBSV
