hora,metar,aero
1673827200000,METAR SBBR 160000Z 27002KT 9999 FEW040 SCT100 21/16 Q1018=,SBBR
1673830800000,METAR SBBR 160100Z 08005KT 9999 FEW040 SCT100 21/17 Q1018=,SBBR
1673834400000,METAR SBBR 160200Z 18004KT 9999 FEW040 SCT100 21/17 Q1018=,SBBR
1673838000000,METAR SBBR 160300Z 27004KT 9999 VCTS FEW030CB 19/17 Q1019=,SBBR
1673841600000,METAR SBBR 160400Z 24003KT 210V280 9999 VCTS FEW030CB 20/17 Q1018=,SBBR
1673845200000,METAR SBBR 160500Z 17003KT 120V190 9999 FEW020 20/16 Q1018=,SBBR
1673848800000,METAR SBBR 160600Z 34002KT CAVOK 19/16 Q1017=,SBBR
1673852400000,METAR SBBR 160700Z 26001KT CAVOK 19/16 Q1017=,SBBR
1673856000000,METAR SBBR 160800Z 17004KT CAVOK 19/16 Q1017=,SBBR
1673859600000,METAR SBBR 160900Z 00000KT 9999 SCT020 FEW030TCU BKN080 19/17 Q1018=,SBBR
1673863200000,METAR SBBR 161000Z VRB01KT 9999 SCT025 FEW035TCU BKN090 20/17 Q1018=,SBBR
1673866800000,METAR SBBR 161100Z VRB02KT 9999 VCSH SCT025 FEW035TCU BKN090 21/18 Q1019=,SBBR
1673870400000,METAR SBBR 161200Z 09005KT 9999 FEW020 SCT090 24/19 Q1019=,SBBR
1673874000000,METAR SBBR 161300Z VRB08KT 9999 FEW020 FEW025TCU SCT090 24/17 Q1019=,SBBR
1673877600000,METAR SBBR 161400Z 07006KT 330V130 9999 FEW025 FEW030TCU SCT100 26/18 Q1019=,SBBR
1673881200000,METAR SBBR 161500Z 09008KT 050V120 9999 FEW030 FEW035TCU SCT100 27/17 Q1019=,SBBR
1673884800000,METAR SBBR 161600Z 08006KT 030V110 9999 FEW035 FEW045TCU SCT100 27/16 Q1018=,SBBR
1673888400000,METAR SBBR 161700Z 08007KT 030V140 9999 FEW040 FEW045TCU SCT100 28/15 Q1017=,SBBR
1673892000000,METAR SBBR 161800Z 11010KT 080V140 9999 SCT040 FEW045TCU SCT100 29/14 Q1017=,SBBR
1673895600000,METAR SBBR 161900Z 10007KT 070V150 9999 SCT040 FEW045TCU SCT100 28/15 Q1015=,SBBR
1673899200000,METAR SBBR 162000Z 12012KT 090V150 9999 SCT040 FEW045TCU SCT100 28/15 Q1015=,SBBR
1673902800000,METAR SBBR 162100Z 09010KT 9999 SCT040 SCT100 27/16 Q1015=,SBBR
1673906400000,METAR SBBR 162200Z 10007KT 9999 SCT040 SCT100 25/17 Q1016=,SBBR
1673910000000,METAR SBBR 162300Z 11006KT 9999 FEW040 SCT100 25/17 Q1016=,SBBR
1673827200000,METAR SBCF 160000Z 05005KT CAVOK 25/19 Q1017=,SBCF
1673830800000,METAR SBCF 160100Z 07006KT 9999 VCTS FEW045CB 24/18 Q1018=,SBCF
1673834400000,METAR SBCF 160200Z 07005KT 9999 VCTS FEW045CB 23/18 Q1017=,SBCF
1673838000000,METAR SBCF 160300Z 12002KT CAVOK 21/18 Q1018=,SBCF
1673841600000,METAR SBCF 160400Z 05005KT CAVOK 22/17 Q1017=,SBCF
1673845200000,METAR SBCF 160500Z 07006KT CAVOK 21/18 Q1017=,SBCF
1673848800000,METAR SBCF 160600Z 16002KT CAVOK 20/17 Q1017=,SBCF
1673852400000,METAR SBCF 160700Z 05007KT CAVOK 21/17 Q1017=,SBCF
1673856000000,METAR SBCF 160800Z 06006KT CAVOK 21/17 Q1017=,SBCF
1673859600000,METAR SBCF 160900Z 08007KT CAVOK 21/17 Q1018=,SBCF
1673863200000,METAR SBCF 161000Z 08007KT CAVOK 22/18 Q1018=,SBCF
1673866800000,METAR SBCF 161100Z 08009KT CAVOK 24/18 Q1018=,SBCF
1673870400000,METAR SBCF 161200Z 07008KT 9999 SCT024 25/18 Q1019=,SBCF
1673874000000,METAR SBCF 161300Z 10006KT 9999 SCT027 26/17 Q1019=,SBCF
1673877600000,METAR SBCF 161400Z 09011KT 9999 SCT030 27/16 Q1019=,SBCF
1673881200000,METAR SBCF 161500Z 09011KT 9999 FEW035 28/15 Q1019=,SBCF
1673884800000,METAR SBCF 161600Z 06011KT 9999 FEW035 28/16 Q1018=,SBCF
1673888400000,METAR SBCF 161700Z 04010KT 9999 SCT040 29/13 Q1017=,SBCF
1673892000000,METAR SBCF 161800Z 06010KT 9999 FEW045 30/14 Q1016=,SBCF
1673895600000,METAR SBCF 161900Z 06011KT 9999 FEW045 29/17 Q1016=,SBCF
1673899200000,METAR SBCF 162000Z 06009KT 9999 FEW045 28/15 Q1016=,SBCF
1673902800000,METAR SBCF 162100Z 07010KT 9999 FEW048 27/15 Q1016=,SBCF
1673906400000,METAR SBCF 162200Z 07006KT 9999 FEW048 25/15 Q1016=,SBCF
1673910000000,METAR SBCF 162300Z 04007KT CAVOK 24/14 Q1017=,SBCF
1673827200000,METAR SBCT 160000Z 10004KT 9999 -RA SCT005 BKN050 BKN100 20/20 Q1018=,SBCT
1673828700000,SPECI SBCT 160025Z 11004KT 9999 BKN005 BKN050 20/20 Q1018=,SBCT
1673830800000,METAR SBCT 160100Z 12004KT 9999 BKN004 BKN050 20/20 Q1019=,SBCT
1673834400000,METAR SBCT 160200Z 11006KT 9999 BKN004 BKN050 20/20 Q1018=,SBCT
1673838000000,METAR SBCT 160300Z 14005KT 9999 OVC005 20/20 Q1018=,SBCT
1673841600000,METAR SBCT 160400Z 11005KT 9999 OVC005 20/20 Q1017=,SBCT
1673845200000,METAR SBCT 160500Z 12005KT 9999 OVC005 20/20 Q1017=,SBCT
1673848800000,METAR SBCT 160600Z 13006KT 9999 BKN005 19/19 Q1017=,SBCT
1673852400000,METAR SBCT 160700Z 09006KT 9999 BKN005 19/19 Q1017=,SBCT
1673856000000,METAR SBCT 160800Z 12005KT 9999 BKN005 SCT070 19/19 Q1017=,SBCT
1673859600000,METAR SBCT 160900Z 10005KT 9999 BKN005 BKN025 19/19 Q1018=,SBCT
1673863200000,METAR SBCT 161000Z 12004KT 100V160 9999 BKN005 BKN014 OVC023 20/20 Q1018=,SBCT
1673866800000,METAR SBCT 161100Z 13003KT 090V160 9999 FEW003 BKN006 OVC020 21/21 Q1018=,SBCT
1673870400000,METAR SBCT 161200Z 09003KT 030V150 9999 SCT008 BKN012 22/21 Q1018=,SBCT
1673874000000,METAR SBCT 161300Z 05006KT 010V080 9999 FEW009 BKN013 OVC025 23/21 Q1018=,SBCT
1673875200000,SPECI SBCT 161320Z 01006KT 320V050 9999 BKN015 BKN025 24/21 Q1018=,SBCT
1673877600000,METAR SBCT 161400Z 36008KT 340V040 9999 BKN017 24/21 Q1018=,SBCT
1673881200000,METAR SBCT 161500Z 36005KT 280V080 9999 BKN021 27/21 Q1018=,SBCT
1673884800000,METAR SBCT 161600Z 01005KT 9999 BKN030 28/20 Q1017=,SBCT
1673888400000,METAR SBCT 161700Z 32006KT 290V010 9999 FEW015 BKN040 28/19 Q1017=,SBCT
1673892000000,METAR SBCT 161800Z 12010KT 080V140 9999 SCT035 FEW040TCU BKN046 25/24 Q1016=,SBCT
1673895600000,METAR SBCT 161900Z 08014KT 9999 TS SCT007 BKN020 FEW035CB 23/23 Q1016=,SBCT
1673896200000,SPECI SBCT 161910Z 08013KT 9999 TS BKN007 BKN020 FEW035CB 23/23 Q1016=,SBCT
1673899200000,METAR SBCT 162000Z 15006KT 100V200 9999 TS VCSH BKN007 BKN020 FEW035CB 22/22 Q1018=,SBCT
1673900820000,SPECI SBCT 162027Z 32013KT 280V350 3000 TSRA BR BKN007 BKN015 FEW030CB 19/19 Q1018=,SBCT
1673901420000,SPECI SBCT 162037Z 25008KT 210V290 3000 +TSRA BR BKN007 BKN020 FEW030CB 18/18 Q1018 RERA=,SBCT
1673902800000,METAR SBCT 162100Z VRB01KT 7000 -TSRA BKN013 FEW035CB BKN050 19/19 Q1018 RERA=,SBCT
1673906400000,METAR SBCT 162200Z 11006KT 060V140 9999 FEW004 BKN013 BKN100 20/20 Q1018 RETS=,SBCT
1673910000000,METAR SBCT 162300Z 13004KT 080V170 9999 BKN006 OVC013 21/21 Q1018=,SBCT
1673870400000,METAR SBFL 161200Z 19007KT 9999 FEW017 BKN040 26/22 Q1014=,SBFL
1673827200000,METAR SBFL 160000Z 20010KT 9999 FEW016 OVC026 23/23 Q1014=,SBFL
1673830800000,METAR SBFL 160100Z 19010KT 6000 -RA BKN015 OVC070 23/23 Q1015=,SBFL
1673834400000,METAR SBFL 160200Z 19008KT 9999 SCT015 BKN070 23/22 Q1015=,SBFL
1673838000000,METAR SBFL 160300Z 18006KT 9999 SCT015 BKN070 23/22 Q1014=,SBFL
1673841600000,METAR SBFL 160400Z 19006KT 9999 SCT015 BKN070 23/22 Q1013=,SBFL
1673845200000,METAR SBFL 160500Z 19006KT 9999 BKN015 BKN070 23/22 Q1013=,SBFL
1673848800000,METAR SBFL 160600Z 18006KT 9999 BKN015 BKN070 24/22 Q1013=,SBFL
1673852400000,METAR SBFL 160700Z 20008KT 9999 BKN020 BKN070 23/22 Q1012=,SBFL
1673856000000,METAR SBFL 160800Z 20009KT 9999 BKN020 BKN070 23/23 Q1013=,SBFL
1673859600000,METAR SBFL 160900Z 19007KT 170V230 9999 BKN020 BKN080 23/22 Q1013=,SBFL
1673863200000,METAR SBFL 161000Z 20006KT 9999 FEW006 BKN015 24/22 Q1013=,SBFL
1673866800000,METAR SBFL 161100Z 19008KT 160V230 9999 FEW009 BKN043 26/21 Q1014=,SBFL
1673874000000,METAR SBFL 161300Z VRB04KT 9999 FEW025 BKN036 27/22 Q1014=,SBFL
1673877600000,METAR SBFL 161400Z 13008KT 9999 FEW025 BKN040 27/23 Q1014=,SBFL
1673881200000,METAR SBFL 161500Z 14010KT 9999 FEW028 BKN043 28/23 Q1014=,SBFL
1673884800000,METAR SBFL 161600Z 13012KT 9999 SCT026 SCT043 29/23 Q1013=,SBFL
1673888400000,METAR SBFL 161700Z 14013KT 9999 SCT023 BKN039 28/23 Q1013=,SBFL
1673892000000,METAR SBFL 161800Z 15012KT 9999 FEW021 FEW035TCU BKN045 27/23 Q1013=,SBFL
1673895600000,METAR SBFL 161900Z 14012KT 9999 SCT024 FEW035TCU BKN045 27/23 Q1013=,SBFL
1673899200000,METAR SBFL 162000Z 13011KT 9999 BKN020 BKN035 FEW035TCU 26/23 Q1013=,SBFL
1673902800000,METAR SBFL 162100Z 14011KT 9999 BKN018 FEW035TCU BKN050 26/23 Q1013=,SBFL
1673906400000,METAR SBFL 162200Z 14011KT 9999 OVC018 25/23 Q1014=,SBFL
1673910000000,METAR SBFL 162300Z 13011KT 9999 OVC021 25/23 Q1014=,SBFL
1673827200000,METAR SBGL 160000Z 09004KT CAVOK 29/24 Q1011=,SBGL
1673830800000,METAR SBGL 160100Z 07006KT CAVOK 28/23 Q1012=,SBGL
1673834400000,METAR SBGL 160200Z 10003KT CAVOK 27/22 Q1012=,SBGL
1673836620000,SPECI SBGL 160237Z 04003KT 9999 TS FEW025CB SCT070 26/22 Q1011=,SBGL
1673838000000,METAR SBGL 160300Z 05003KT 9999 TS FEW025CB SCT070 26/22 Q1011=,SBGL
1673841600000,METAR SBGL 160400Z 07004KT 9999 TS FEW025CB SCT070 25/22 Q1011=,SBGL
1673845200000,METAR SBGL 160500Z 03003KT 9999 TS FEW025CB SCT070 25/22 Q1011=,SBGL
1673848800000,METAR SBGL 160600Z 07005KT CAVOK 25/22 Q1011 RETS=,SBGL
1673852400000,METAR SBGL 160700Z 08005KT CAVOK 25/22 Q1011=,SBGL
1673856000000,METAR SBGL 160800Z 06006KT CAVOK 24/22 Q1011=,SBGL
1673859600000,METAR SBGL 160900Z 12002KT CAVOK 25/22 Q1012=,SBGL
1673863200000,METAR SBGL 161000Z 07005KT 040V110 9999 FEW030 26/23 Q1012=,SBGL
1673866800000,METAR SBGL 161100Z 08004KT CAVOK 28/23 Q1012=,SBGL
1673870400000,METAR SBGL 161200Z 06003KT CAVOK 30/24 Q1012=,SBGL
1673874000000,METAR SBGL 161300Z 36005KT CAVOK 30/25 Q1012=,SBGL
1673877600000,METAR SBGL 161400Z 03006KT CAVOK 33/24 Q1012=,SBGL
1673881200000,METAR SBGL 161500Z 11008KT 040V150 9999 FEW025 33/24 Q1011=,SBGL
1673884800000,METAR SBGL 161600Z 12013KT 9999 FEW025 32/24 Q1011=,SBGL
1673888400000,METAR SBGL 161700Z 14013KT 9999 FEW025 31/23 Q1010=,SBGL
1673892000000,METAR SBGL 161800Z 14013KT 9999 FEW025 32/23 Q1010=,SBGL
1673895600000,METAR SBGL 161900Z 14013KT 9999 FEW025 32/23 Q1010=,SBGL
1673899200000,METAR SBGL 162000Z 14012KT 9999 FEW025 31/23 Q1010=,SBGL
1673902800000,METAR SBGL 162100Z 15009KT 9999 FEW025 31/22 Q1010=,SBGL
1673906400000,METAR SBGL 162200Z 14007KT 9999 FEW025 30/22 Q1010=,SBGL
1673910000000,METAR SBGL 162300Z 12004KT 9999 FEW025 29/22 Q1011=,SBGL
1673827200000,METAR SBGR 160000Z 10003KT CAVOK 22/21 Q1017=,SBGR
1673830800000,METAR SBGR 160100Z 15002KT CAVOK 22/21 Q1018=,SBGR
1673832360000,SPECI SBGR 160126Z 24003KT 9999 TS FEW045CB BKN050 22/22 Q1018=,SBGR
1673834400000,METAR SBGR 160200Z 22003KT 170V260 9999 TS SCT036 FEW045CB BKN050 23/20 Q1018=,SBGR
1673838000000,METAR SBGR 160300Z 30001KT 9999 TS FEW045CB BKN066 22/21 Q1017=,SBGR
1673841600000,METAR SBGR 160400Z 11002KT CAVOK 22/21 Q1016 RETS=,SBGR
1673845200000,METAR SBGR 160500Z 11002KT CAVOK 22/21 Q1016=,SBGR
1673848800000,METAR SBGR 160600Z 14002KT CAVOK 22/20 Q1016=,SBGR
1673852400000,METAR SBGR 160700Z 07004KT 9999 SCT049 BKN066 22/20 Q1016=,SBGR
1673856000000,METAR SBGR 160800Z 14002KT CAVOK 21/21 Q1016=,SBGR
1673859600000,METAR SBGR 160900Z 00000KT 9999 SCT025 BKN083 21/21 Q1017=,SBGR
1673863200000,METAR SBGR 161000Z 15003KT CAVOK 23/21 Q1017=,SBGR
1673866800000,METAR SBGR 161100Z 05003KT CAVOK 25/21 Q1017=,SBGR
1673870400000,METAR SBGR 161200Z 05005KT CAVOK 26/21 Q1017=,SBGR
1673874000000,METAR SBGR 161300Z 03006KT 9999 FEW020 28/20 Q1017=,SBGR
1673877600000,METAR SBGR 161400Z 07007KT 9999 FEW020 29/20 Q1017=,SBGR
1673881200000,METAR SBGR 161500Z 07007KT 9999 FEW030 31/18 Q1016=,SBGR
1673884800000,METAR SBGR 161600Z 09006KT 9999 SCT040 31/17 Q1016=,SBGR
1673888400000,METAR SBGR 161700Z 04006KT 9999 BKN045 32/17 Q1015=,SBGR
1673892000000,METAR SBGR 161800Z 05006KT 9999 VCSH BKN045 FEW050TCU 33/18 Q1014=,SBGR
1673895600000,METAR SBGR 161900Z 19011G22KT 9000 TS BKN020 FEW045CB 26/23 Q1015=,SBGR
1673898000000,SPECI COR SBGR 161940Z 08005KT 5000 TSRA BR BKN020 FEW045CB 22/20 Q1016=,SBGR
1673899200000,METAR SBGR 162000Z 25003KT 9999 SCT020 FEW045TCU BKN080 22/21 Q1015 RETSRA=,SBGR
1673902800000,METAR SBGR 162100Z 16002KT 9999 SCT023 26/20 Q1016=,SBGR
1673906400000,METAR SBGR 162200Z 14006KT 9999 BKN013 OVC025 24/22 Q1016=,SBGR
1673910000000,METAR COR SBGR 162300Z 16007KT 9999 -TSRA SCT011 BKN030 FEW050CB 24/22 Q1017=,SBGR
1673827200000,METAR SBKP 160000Z 36004KT 9999 FEW030 25/22 Q1016=,SBKP
1673830800000,METAR SBKP 160100Z 31010KT 9999 VCTS FEW040 FEW045CB BKN080 24/22 Q1017=,SBKP
1673831880000,SPECI SBKP 160118Z 02010KT 9999 -TSRA SCT013 SCT040 FEW045CB BKN080 23/21 Q1017=,SBKP
1673834400000,METAR SBKP 160200Z 10003KT 070V130 9999 FEW020 BKN100 22/21 Q1016 RETS=,SBKP
1673838000000,METAR SBKP 160300Z 11005KT 9999 VCTS FEW050CB SCT100 22/21 Q1016=,SBKP
1673841600000,METAR SBKP 160400Z 11006KT CAVOK 22/21 Q1015=,SBKP
1673845200000,METAR SBKP 160500Z 03004KT CAVOK 23/21 Q1015=,SBKP
1673848800000,METAR SBKP 160600Z 35005KT 9999 SCT040 22/21 Q1015=,SBKP
1673852400000,METAR SBKP 160700Z 36005KT 9999 FEW040 BKN080 22/20 Q1015=,SBKP
1673856000000,METAR SBKP 160800Z 14004KT 9999 FEW040 BKN100 22/21 Q1015=,SBKP
1673859600000,METAR SBKP 160900Z 18005KT CAVOK 22/21 Q1015=,SBKP
1673863200000,METAR SBKP 161000Z 12006KT CAVOK 23/21 Q1015=,SBKP
1673866800000,METAR SBKP 161100Z 09004KT 060V130 CAVOK 24/21 Q1016=,SBKP
1673870400000,METAR SBKP 161200Z 06008KT 9999 FEW023 26/21 Q1017=,SBKP
1673874000000,METAR SBKP 161300Z VRB04KT 9999 FEW025 28/20 Q1016=,SBKP
1673877600000,METAR SBKP 161400Z VRB03KT 9999 FEW030 30/20 Q1016=,SBKP
1673881200000,METAR SBKP 161500Z VRB05KT 9999 FEW030 30/20 Q1016=,SBKP
1673884800000,METAR SBKP 161600Z VRB05KT 9999 FEW035 31/21 Q1015=,SBKP
1673888400000,METAR SBKP 161700Z VRB07KT 9999 SCT035 32/21 Q1014=,SBKP
1673892000000,METAR SBKP 161800Z VRB06KT 9999 SCT040 FEW045TCU 32/21 Q1014=,SBKP
1673895600000,METAR SBKP 161900Z 08002KT 9999 -TSRA SCT040 FEW045CB BKN100 31/21 Q1013=,SBKP
1673896200000,SPECI SBKP 161910Z 17012G22KT 9999 3000S -TSRA SCT040 FEW045CB BKN100 30/21 Q1013=,SBKP
1673899200000,METAR SBKP 162000Z 24010KT 9999 4500NW -TSRA SCT040 FEW045CB BKN100 26/19 Q1014 WS R15=,SBKP
1673902800000,METAR SBKP 162100Z 06008KT 9999 VCSH FEW040 SCT060 26/20 Q1014 RETS=,SBKP
1673906400000,METAR SBKP 162200Z 08002KT 9999 SCT048 BKN100 25/21 Q1015=,SBKP
1673910000000,METAR SBKP 162300Z 11009KT 9999 VCSH VCTS SCT045 FEW045CB BKN070 25/20 Q1016=,SBKP
1673827200000,METAR SBPA 160000Z 12008KT 9999 BKN026 24/20 Q1015=,SBPA
1673830800000,METAR SBPA 160100Z 12007KT 9999 SCT030 23/20 Q1015=,SBPA
1673834400000,METAR SBPA 160200Z 12008KT 9999 SCT030 24/20 Q1015=,SBPA
1673838000000,METAR SBPA 160300Z 12010KT 9999 BKN026 24/21 Q1015=,SBPA
1673841600000,METAR SBPA 160400Z 11008KT 9999 BKN026 24/21 Q1014=,SBPA
1673845200000,METAR SBPA 160500Z 09010KT 9999 BKN026 24/21 Q1013=,SBPA
1673848800000,METAR SBPA 160600Z 08006KT 9999 BKN026 23/21 Q1013=,SBPA
1673852400000,METAR SBPA 160700Z 09003KT 9999 FEW030 23/21 Q1013=,SBPA
1673856000000,METAR SBPA 160800Z VRB02KT 9999 FEW030 23/20 Q1013=,SBPA
1673859600000,METAR SBPA 160900Z 12004KT 070V140 CAVOK 23/21 Q1014=,SBPA
1673863200000,METAR SBPA 161000Z 10005KT 9999 FEW009 BKN092 24/21 Q1014=,SBPA
1673866800000,METAR SBPA 161100Z 10006KT 9999 FEW010 BKN096 25/22 Q1015=,SBPA
1673870400000,METAR SBPA 161200Z 10006KT 070V160 9999 FEW015 27/22 Q1015=,SBPA
1673874000000,METAR SBPA 161300Z 12004KT 080V180 9999 SCT025 29/22 Q1014=,SBPA
1673877600000,METAR SBPA 161400Z VRB03KT 9999 FEW030 BKN034 30/21 Q1014=,SBPA
1673881200000,METAR SBPA 161500Z 26009KT 9999 FEW025 BKN036 29/22 Q1014=,SBPA
1673884800000,METAR SBPA 161600Z 16006KT 130V200 9999 FEW035 BKN040 31/21 Q1013=,SBPA
1673888400000,METAR SBPA 161700Z 17009KT 110V210 9999 BKN045 32/21 Q1013=,SBPA
1673892000000,METAR SBPA 161800Z 13010G20KT 080V170 9999 SCT045 32/21 Q1013=,SBPA
1673895600000,METAR SBPA 161900Z 12012KT 090V150 9999 SCT040 32/22 Q1012=,SBPA
1673899200000,METAR SBPA 162000Z 10016KT 9999 SCT035 30/21 Q1012=,SBPA
1673902800000,METAR SBPA 162100Z 12015KT 9999 SCT040 29/21 Q1013=,SBPA
1673906400000,METAR SBPA 162200Z 11016KT 9999 SCT035 27/20 Q1014=,SBPA
1673910000000,METAR SBPA 162300Z 11014KT 9999 FEW035 26/21 Q1014=,SBPA
1673827200000,METAR SBRF 160000Z 16005KT 9999 SCT020 26/22 Q1013=,SBRF
1673830800000,METAR SBRF 160100Z 13006KT 9999 SCT020 BKN080 27/22 Q1013=,SBRF
1673834400000,METAR SBRF 160200Z 13004KT 070V180 9999 SCT019 27/22 Q1012=,SBRF
1673838000000,METAR SBRF 160300Z 09006KT 350V130 9999 BKN023 27/21 Q1012=,SBRF
1673841600000,METAR SBRF 160400Z 12005KT 9999 BKN023 26/20 Q1011=,SBRF
1673845200000,METAR SBRF 160500Z 22003KT 9999 BKN023 25/20 Q1011=,SBRF
1673848800000,METAR SBRF 160600Z 21003KT 170V250 CAVOK 24/21 Q1011=,SBRF
1673852400000,METAR SBRF 160700Z 22001KT 9999 SCT017 24/21 Q1011=,SBRF
1673856000000,METAR SBRF 160800Z 19004KT 150V230 5000 -SHRA FEW017 BKN030 BKN080 24/21 Q1011=,SBRF
1673859600000,METAR SBRF 160900Z 28003KT 240V300 9999 BKN023 BKN060 24/21 Q1012=,SBRF
1673863200000,METAR SBRF 161000Z 25002KT 9999 BKN023 BKN060 25/22 Q1013=,SBRF
1673866800000,METAR SBRF 161100Z 35002KT 9999 SCT020 BKN080 27/22 Q1013=,SBRF
1673870400000,METAR SBRF 161200Z 07003KT 010V130 9999 SCT020 BKN080 28/22 Q1013=,SBRF
1673874000000,METAR SBRF 161300Z 08005KT 9999 BKN025 29/22 Q1013=,SBRF
1673877600000,METAR SBRF 161400Z 09005KT 9999 BKN025 28/22 Q1013=,SBRF
1673881200000,METAR SBRF 161500Z 08007KT 9999 SCT025 29/21 Q1012=,SBRF
1673884800000,METAR SBRF 161600Z 09007KT 9999 SCT025 29/22 Q1012=,SBRF
1673888400000,METAR SBRF 161700Z 09008KT 9999 SCT025 29/22 Q1011=,SBRF
1673892000000,METAR SBRF 161800Z 09008KT 9999 SCT025 29/22 Q1011=,SBRF
1673895600000,METAR SBRF 161900Z 09008KT 9999 SCT023 28/22 Q1011=,SBRF
1673899200000,METAR SBRF 162000Z 07006KT 9999 SCT023 28/22 Q1011=,SBRF
1673902800000,METAR SBRF 162100Z 09007KT 9999 FEW023 28/21 Q1012=,SBRF
1673906400000,METAR SBRF 162200Z 08005KT 9999 FEW023 27/21 Q1012=,SBRF
1673910000000,METAR SBRF 162300Z 09005KT 9999 FEW023 27/21 Q1013=,SBRF
1673827200000,METAR SBRJ 160000Z 15008KT 9999 FEW040 27/23 Q1011=,SBRJ
1673830800000,METAR SBRJ 160100Z 09003KT 030V150 CAVOK 28/24 Q1011=,SBRJ
1673834400000,METAR SBRJ 160200Z 07008KT CAVOK 28/23 Q1011=,SBRJ
1673838000000,METAR SBRJ 160300Z VRB02KT 9999 VCTS FEW030 FEW035CB 27/23 Q1011=,SBRJ
1673841600000,METAR SBRJ 160400Z 36005KT 9999 VCTS FEW030 FEW035CB 26/23 Q1011=,SBRJ
1673845200000,METAR SBRJ 160500Z 36004KT 9999 VCTS FEW030 FEW035CB 26/22 Q1011=,SBRJ
1673848800000,METAR SBRJ 160600Z 02005KT 9999 VCTS FEW035CB 25/22 Q1011=,SBRJ
1673852400000,METAR SBRJ 160700Z 01005KT CAVOK 25/22 Q1011=,SBRJ
1673856000000,METAR SBRJ 160800Z 08004KT 010V100 CAVOK 25/22 Q1011=,SBRJ
1673859600000,METAR SBRJ 160900Z VRB02KT CAVOK 25/22 Q1011=,SBRJ
1673863200000,METAR SBRJ 161000Z 34003KT 290V010 CAVOK 26/23 Q1012=,SBRJ
1673866800000,METAR SBRJ 161100Z 34005KT CAVOK 27/23 Q1012=,SBRJ
1673870400000,METAR SBRJ 161200Z 36004KT CAVOK 28/24 Q1012=,SBRJ
1673874000000,METAR SBRJ 161300Z 02004KT 350V050 CAVOK 28/24 Q1012=,SBRJ
1673877600000,METAR SBRJ 161400Z 16011KT 9999 FEW025 28/24 Q1012=,SBRJ
1673881200000,METAR SBRJ 161500Z 15014KT 9999 FEW025 28/24 Q1011=,SBRJ
1673884800000,METAR SBRJ 161600Z 16013KT 9999 FEW025 28/23 Q1011=,SBRJ
1673888400000,METAR SBRJ 161700Z 16014KT 9999 FEW025 29/23 Q1011=,SBRJ
1673892000000,METAR SBRJ 161800Z 17012KT 9999 FEW025 30/23 Q1010=,SBRJ
1673895600000,METAR SBRJ 161900Z 17012KT 9999 FEW025 30/23 Q1010=,SBRJ
1673899200000,METAR SBRJ 162000Z 18011KT 9999 FEW025 30/22 Q1009=,SBRJ
1673902800000,METAR SBRJ 162100Z 17010KT 9999 FEW025 29/22 Q1010=,SBRJ
1673906400000,METAR SBRJ 162200Z 18007KT 9999 FEW025 29/22 Q1010=,SBRJ
1673910000000,METAR SBRJ 162300Z 18004KT 9999 FEW040 29/22 Q1011=,SBRJ
1673856000000,METAR SBSP 160800Z AUTO 06003KT 030V110 CAVOK 22/20 Q1017=,SBSP
1673827200000,METAR SBSP 160000Z VRB02KT CAVOK 22/20 Q1018=,SBSP
1673830800000,METAR SBSP 160100Z VRB02KT 9999 FEW050TCU BKN083 23/20 Q1019=,SBSP
1673834400000,METAR SBSP 160200Z 04004KT 9999 -TSRA FEW040CB OVC083 23/21 Q1019=,SBSP
1673834460000,SPECI SBSP 160201Z 05008KT 9999 -TSRA SCT042 //////CB 23/20 Q1018=,SBSP
1673836380000,SPECI SBSP 160233Z AUTO 04006KT 9999 FEW044 22/19 Q1018 RETS=,SBSP
1673838000000,METAR SBSP 160300Z AUTO 03006KT 9999 FEW038 22/20 Q1017 RETS=,SBSP
1673841600000,METAR SBSP 160400Z AUTO 06004KT 030V100 9999 -RA NCD 22/19 Q1016=,SBSP
1673845200000,METAR SBSP 160500Z AUTO 04004KT CAVOK 22/19 Q1016=,SBSP
1673848800000,METAR SBSP 160600Z AUTO VRB01KT 9999 FEW040 22/20 Q1016=,SBSP
1673852400000,METAR SBSP 160700Z AUTO 00000KT 9999 VCTS BKN042 //////CB 22/20 Q1017=,SBSP
1673859600000,METAR SBSP 160900Z 27004KT 220V340 9999 BKN046 22/20 Q1018=,SBSP
1673863200000,METAR SBSP 161000Z 21007KT 180V250 CAVOK 23/21 Q1018=,SBSP
1673866800000,METAR SBSP 161100Z 18008KT 150V210 CAVOK 24/21 Q1018=,SBSP
1673870400000,METAR SBSP 161200Z 09003KT 040V140 CAVOK 25/20 Q1018=,SBSP
1673874000000,METAR SBSP 161300Z VRB03KT 9999 FEW040 28/20 Q1018=,SBSP
1673877600000,METAR SBSP 161400Z 06005KT 310V100 9999 SCT040 29/18 Q1018=,SBSP
1673881200000,METAR SBSP 161500Z VRB04KT 9999 FEW040 30/17 Q1017=,SBSP
1673884800000,METAR SBSP 161600Z 02006KT 310V080 9999 SCT040 31/16 Q1017=,SBSP
1673888400000,METAR COR SBSP 161700Z VRB04KT 9999 BKN040 32/16 Q1016=,SBSP
1673890680000,SPECI SBSP 161738Z 17016KT 9999 TS VCSH BKN040 FEW050CB 28/22 Q1016=,SBSP
1673892000000,METAR COR SBSP 161800Z 17015KT 9999 TS VCSH FEW015 BKN017 FEW050CB 26/22 Q1016=,SBSP
1673894220000,SPECI COR SBSP 161837Z 26010KT 7000 -TSRA FEW005 BKN009 FEW050CB 23/21 Q1018=,SBSP
1673895600000,METAR SBSP 161900Z 32014KT 7000 -TSRA FEW015 BKN030 FEW050CB 21/18 Q1017=,SBSP
1673895780000,SPECI SBSP 161903Z 32009KT 280V340 7000 RA FEW015 BKN030 21/18 Q1017 RETS=,SBSP
1673896680000,SPECI SBSP 161918Z 05006KT 9999 SCT017 BKN066 22/18 Q1017 RERA RETSRA=,SBSP
1673899200000,METAR SBSP 162000Z 08006KT 9999 SCT013 24/19 Q1016 RETSRA=,SBSP
1673902800000,METAR SBSP 162100Z 14006KT 9999 SCT009 BKN015 24/21 Q1017=,SBSP
1673906400000,METAR SBSP 162200Z 16011KT 9999 FEW006 BKN009 23/21 Q1017=,SBSP
1673910000000,METAR SBSP 162300Z 16008KT 9999 SCT005 BKN008 23/21 Q1018=,SBSP
1673827200000,METAR SBSV 160000Z 12006KT CAVOK 27/22 Q1014=,SBSV
1673830800000,METAR SBSV 160100Z 10006KT 9999 FEW025 27/22 Q1014=,SBSV
1673834400000,METAR SBSV 160200Z 08008KT 9999 FEW024 26/22 Q1013=,SBSV
1673838000000,METAR SBSV 160300Z 10010KT 9999 FEW022 27/22 Q1012=,SBSV
1673841600000,METAR SBSV 160400Z 09009KT 9999 FEW022 27/22 Q1012=,SBSV
1673845200000,METAR SBSV 160500Z 09009KT 070V130 9999 SCT023 27/22 Q1012=,SBSV
1673848800000,METAR SBSV 160600Z 07006KT 9999 SCT023 26/22 Q1011=,SBSV
1673852400000,METAR SBSV 160700Z 01004KT 340V060 9999 SCT023 25/22 Q1012=,SBSV
1673856000000,METAR SBSV 160800Z 10006KT 9999 SCT023 27/22 Q1012=,SBSV
1673859600000,METAR SBSV 160900Z 03001KT 9999 SCT023 25/22 Q1013=,SBSV
1673863200000,METAR SBSV 161000Z 08004KT 9999 SCT023 26/21 Q1014=,SBSV
1673866800000,METAR SBSV 161100Z 10003KT 9999 SCT023 28/22 Q1014=,SBSV
1673870400000,METAR SBSV 161200Z 09003KT 040V160 9999 VCSH SCT023 FEW025TCU 27/23 Q1014=,SBSV
1673874000000,METAR SBSV 161300Z 16009KT 130V200 9999 SCT023 FEW025TCU 29/23 Q1014=,SBSV
1673875500000,SPECI SBSV 161325Z 13010KT 7000 SHRA BKN019 FEW025TCU 27/23 Q1014=,SBSV
1673877600000,METAR SBSV 161400Z 25004KT 210V290 9999 4000NW SHRA BKN019 FEW025TCU 26/24 Q1014=,SBSV
1673878800000,SPECI SBSV 161420Z 08009KT 050V140 2000 R28/1000 R10/P2000 SHRA BKN015 FEW025TCU 25/23 Q1014=,SBSV
1673881200000,METAR SBSV 161500Z 15004KT 090V240 9999 VCSH FEW010 BKN020 FEW025TCU 27/25 Q1014 RESHRA=,SBSV
1673884800000,METAR SBSV 161600Z 12014KT 100V160 9999 VCSH BKN017 FEW025TCU 27/23 Q1013=,SBSV
1673888400000,METAR SBSV 161700Z 16007KT 130V200 9999 VCSH BKN023 FEW025TCU 29/22 Q1013=,SBSV
1673892000000,METAR SBSV 161800Z 15008KT 9999 BKN020 FEW023TCU SCT070 29/23 Q1012=,SBSV
1673895600000,METAR SBSV 161900Z 16007KT 9999 SCT020 FEW023TCU SCT070 28/23 Q1012=,SBSV
1673899200000,METAR SBSV 162000Z 18007KT 150V250 9000 VCSH SCT020 FEW023TCU SCT070 27/23 Q1013=,SBSV
1673902800000,METAR SBSV 162100Z 21007KT 160V250 8000 VCSH SCT020 FEW023TCU SCT070 26/24 Q1013=,SBSV
1673906400000,METAR SBSV 162200Z 23004KT 190V260 9999 VCSH SCT020 FEW023TCU SCT070 26/24 Q1013=,SBSV
1673910000000,METAR SBSV 162300Z 16003KT 080V230 9999 SCT020 FEW023TCU SCT070 27/23 Q1014=,SBSV
