hora,metar,aero
1682726400000,METAR SBBR 290000Z 06002KT CAVOK 21/18 Q1020=,SBBR
1682730000000,METAR SBBR 290100Z 00000KT CAVOK 22/17 Q1020=,SBBR
1682733600000,METAR SBBR 290200Z 12003KT 080V150 CAVOK 20/17 Q1020=,SBBR
1682737200000,METAR SBBR 290300Z 14003KT 070V170 CAVOK 20/17 Q1020=,SBBR
1682740800000,METAR SBBR 290400Z VRB01KT CAVOK 18/17 Q1020=,SBBR
1682744400000,METAR SBBR 290500Z 27004KT CAVOK 19/17 Q1020=,SBBR
1682748000000,METAR SBBR 290600Z VRB02KT 9999 FEW035 SCT100 19/16 Q1020=,SBBR
1682751600000,METAR SBBR 290700Z 20004KT 9999 FEW035 SCT100 18/16 Q1019=,SBBR
1682755200000,METAR SBBR 290800Z 00000KT 9999 FEW035 SCT100 18/16 Q1019=,SBBR
1682758800000,METAR SBBR 290900Z VRB01KT 9999 FEW035 SCT100 17/16 Q1020=,SBBR
1682762400000,METAR SBBR 291000Z 00000KT CAVOK 18/16 Q1020=,SBBR
1682766000000,METAR SBBR 291100Z 05002KT CAVOK 21/17 Q1021=,SBBR
1682769600000,METAR SBBR 291200Z VRB02KT CAVOK 24/18 Q1021=,SBBR
1682773200000,METAR SBBR 291300Z 10002KT 9999 SCT025 26/19 Q1022=,SBBR
1682776800000,METAR SBBR 291400Z 04004KT 9999 SCT030 FEW035TCU 27/17 Q1022=,SBBR
1682780400000,METAR COR SBBR 291500Z 10004KT 9999 TS VCSH BKN035 FEW040CB 24/16 Q1019=,SBBR
1682784000000,METAR SBBR 291600Z 05004KT 9999 BKN035 FEW040TCU 27/15 Q1020=,SBBR
1682785380000,SPECI SBBR 291623Z 02013G23KT 9999 3000E -RA BKN035 FEW040TCU 23/17 Q1020=,SBBR
1682785980000,SPECI SBBR 291633Z 01006KT 340V060 9999 TS VCSH BKN035 FEW040CB 22/17 Q1019=,SBBR
1682787600000,METAR SBBR 291700Z 10004KT 9999 TS VCSH BKN035 FEW040CB 24/18 Q1019=,SBBR
1682791200000,METAR SBBR 291800Z 17007KT 150V210 9999 BKN030 FEW040TCU 25/16 Q1018 RETS=,SBBR
1682794800000,METAR SBBR 291900Z 22001KT 9999 BKN030 FEW040TCU 28/16 Q1018=,SBBR
1682798400000,METAR SBBR 292000Z VRB02KT 9999 SCT030 FEW040TCU SCT100 25/17 Q1018=,SBBR
1682802000000,METAR SBBR 292100Z 17006KT 150V210 9999 SCT030 FEW040TCU SCT100 23/17 Q1019=,SBBR
1682805600000,METAR SBBR 292200Z 20003KT 170V240 CAVOK 21/16 Q1019=,SBBR
1682809200000,METAR SBBR 292300Z VRB02KT CAVOK 20/17 Q1019=,SBBR
1682726400000,METAR SBCF 290000Z 16003KT 9999 FEW030 SCT100 22/19 Q1019=,SBCF
1682730000000,METAR SBCF 290100Z 13003KT 9999 FEW030 SCT100 22/18 Q1019=,SBCF
1682733600000,METAR SBCF 290200Z 14004KT CAVOK 21/19 Q1018=,SBCF
1682737200000,METAR SBCF 290300Z 12003KT CAVOK 21/19 Q1019=,SBCF
1682740800000,METAR SBCF 290400Z 12006KT CAVOK 21/18 Q1019=,SBCF
1682741880000,SPECI SBCF 290418Z 12004KT 3000 -SHRA SCT033 21/18 Q1019=,SBCF
1682744400000,METAR SBCF 290500Z 10012KT 9999 -RA SCT033 20/18 Q1019=,SBCF
1682748000000,METAR SBCF 290600Z 09013KT 9999 SCT033 19/18 Q1018=,SBCF
1682751600000,METAR SBCF 290700Z 10007KT 9999 FEW003 SCT033 19/18 Q1018=,SBCF
1682755200000,METAR SBCF 290800Z 12005KT 9999 FEW003 SCT033 19/17 Q1019=,SBCF
1682758800000,METAR SBCF 290900Z 09007KT 9999 SCT040 19/17 Q1019=,SBCF
1682762400000,METAR SBCF 291000Z 10007KT 9999 FEW030 SCT100 19/17 Q1020=,SBCF
1682766000000,METAR SBCF 291100Z 09008KT 9999 FEW020 BKN100 20/18 Q1020=,SBCF
1682769600000,METAR SBCF 291200Z 10007KT 9999 SCT011 BKN100 22/18 Q1021=,SBCF
1682773200000,METAR SBCF 291300Z 07004KT 9999 SCT016 SCT100 23/19 Q1021=,SBCF
1682776800000,METAR SBCF 291400Z 08006KT 9999 BKN025 SCT070 24/18 Q1021=,SBCF
1682780400000,METAR SBCF 291500Z 01006KT 9999 BKN025 25/18 Q1020=,SBCF
1682784000000,METAR SBCF 291600Z 05006KT 9999 BKN025 FEW030TCU SCT070 25/18 Q1019=,SBCF
1682787600000,METAR SBCF 291700Z 09010KT 9999 BKN030 FEW040TCU SCT100 26/19 Q1018=,SBCF
1682791200000,METAR SBCF 291800Z 05009KT 9999 VCTS BKN035 FEW040CB SCT100 25/18 Q1018=,SBCF
1682794800000,METAR SBCF 291900Z 04010KT 9999 VCTS BKN030 FEW040CB SCT100 23/18 Q1018=,SBCF
1682798400000,METAR SBCF 292000Z 02009KT 9999 VCTS SCT030 FEW040CB SCT100 22/17 Q1019=,SBCF
1682802000000,METAR SBCF 292100Z 03006KT 9999 FEW030 FEW040TCU BKN100 21/17 Q1019=,SBCF
1682805600000,METAR SBCF 292200Z 10012KT 9999 FEW030 FEW040TCU BKN100 21/17 Q1020=,SBCF
1682809200000,METAR SBCF 292300Z 05008KT 9999 FEW030 SCT100 20/17 Q1020=,SBCF
1682726400000,METAR SBCT 290000Z 07006KT 9999 BKN007 BKN020 15/13 Q1021=,SBCT
1682730000000,METAR SBCT 290100Z 11004KT 9999 BKN009 14/13 Q1022=,SBCT
1682733600000,METAR SBCT 290200Z 12003KT 9999 BKN009 14/13 Q1022=,SBCT
1682737200000,METAR SBCT 290300Z 11003KT 9999 BKN014 14/13 Q1022=,SBCT
1682740800000,METAR SBCT 290400Z 10005KT 9999 BKN014 14/13 Q1021=,SBCT
1682744400000,METAR SBCT 290500Z 10004KT 9999 BKN014 13/13 Q1021=,SBCT
1682748000000,METAR SBCT 290600Z 10004KT 9999 BKN014 13/13 Q1020=,SBCT
1682751600000,METAR SBCT 290700Z 09003KT 6000 BKN009 13/13 Q1020=,SBCT
1682755200000,METAR SBCT 290800Z 14005KT 4500 BR BKN003 12/11 Q1020=,SBCT
1682758800000,METAR SBCT 290900Z 13005KT 7000 BKN005 OVC010 13/12 Q1021=,SBCT
1682762400000,METAR SBCT 291000Z 13004KT 5000 BR BKN014 12/12 Q1021=,SBCT
1682766000000,METAR SBCT 291100Z 11002KT 8000 FEW003 BKN013 BKN050 14/14 Q1022=,SBCT
1682769600000,METAR SBCT 291200Z 13005KT 9999 OVC008 15/15 Q1022=,SBCT
1682773200000,METAR SBCT 291300Z 10004KT 6000 OVC006 16/15 Q1023=,SBCT
1682776800000,METAR SBCT 291400Z 09004KT 4000 -DZ OVC005 16/15 Q1023=,SBCT
1682780400000,METAR SBCT 291500Z 13006KT 9999 VCSH OVC006 16/15 Q1022=,SBCT
1682784000000,METAR SBCT 291600Z 12003KT 9999 FEW007 OVC009 18/16 Q1022=,SBCT
1682787600000,METAR SBCT 291700Z 12007KT 9999 SCT009 BKN013 18/15 Q1021=,SBCT
1682791200000,METAR SBCT 291800Z 11006KT 9999 BKN013 BKN030 18/15 Q1020=,SBCT
1682794800000,METAR SBCT 291900Z 11006KT 9999 BKN013 BKN025 18/15 Q1021=,SBCT
1682798400000,METAR SBCT 292000Z 10006KT 9999 BKN013 BKN040 17/15 Q1021=,SBCT
1682802000000,METAR SBCT 292100Z 11006KT 9999 BKN014 SCT050 16/15 Q1021=,SBCT
1682805600000,METAR SBCT 292200Z 11004KT 9999 BKN010 15/14 Q1021=,SBCT
1682809200000,METAR SBCT 292300Z 10004KT 9999 BKN005 15/14 Q1022=,SBCT
1682726400000,METAR SBFL 290000Z VRB01KT 9999 BKN030 BKN100 21/18 Q1019=,SBFL
1682730000000,METAR SBFL 290100Z 18002KT 9999 BKN040 20/19 Q1019=,SBFL
1682733600000,METAR SBFL 290200Z 00000KT 9999 SCT040 20/18 Q1019=,SBFL
1682737200000,METAR SBFL 290300Z 00000KT 9999 SCT036 19/19 Q1019=,SBFL
1682740800000,METAR SBFL 290400Z 26004KT 9999 SCT026 BKN036 19/19 Q1019=,SBFL
1682744400000,METAR SBFL 290500Z 00000KT 9999 SCT026 19/18 Q1018=,SBFL
1682748000000,METAR SBFL 290600Z 27003KT 9999 BKN043 19/19 Q1018=,SBFL
1682751600000,METAR SBFL 290700Z 28001KT 9999 BKN043 20/19 Q1017=,SBFL
1682755200000,METAR SBFL 290800Z 28003KT 9999 BKN043 19/19 Q1017=,SBFL
1682758800000,METAR SBFL 290900Z 00000KT 9999 BKN043 19/18 Q1018=,SBFL
1682762400000,METAR SBFL 291000Z VRB02KT 9999 FEW027 18/18 Q1018=,SBFL
1682766000000,METAR SBFL 291100Z 28003KT CAVOK 21/19 Q1019=,SBFL
1682769600000,METAR SBFL 291200Z 30004KT 270V340 9999 FEW020 21/18 Q1020=,SBFL
1682773200000,METAR SBFL 291300Z 31004KT 260V020 9999 FEW020 23/19 Q1020=,SBFL
1682776800000,METAR SBFL 291400Z 32005KT 280V010 9999 FEW025 24/18 Q1020=,SBFL
1682780400000,METAR SBFL 291500Z 35009KT 9999 FEW025 24/17 Q1019=,SBFL
1682784000000,METAR SBFL 291600Z 35010KT 9999 BKN030 24/17 Q1018=,SBFL
1682787600000,METAR SBFL 291700Z 36009KT 9999 SCT030 BKN070 25/17 Q1018=,SBFL
1682791200000,METAR SBFL 291800Z 02009KT 9999 SCT030 BKN080 25/17 Q1017=,SBFL
1682794800000,METAR SBFL 291900Z 36009KT 9999 SCT030 BKN070 24/17 Q1017=,SBFL
1682798400000,METAR SBFL 292000Z 02006KT 9999 SCT030 SCT070 24/18 Q1018=,SBFL
1682802000000,METAR SBFL 292100Z 01005KT 9999 SCT028 SCT070 23/18 Q1018=,SBFL
1682805600000,METAR SBFL 292200Z 07003KT 9999 FEW028 SCT070 22/18 Q1018=,SBFL
1682809200000,METAR SBFL 292300Z 01003KT 9999 FEW028 BKN050 BKN080 22/18 Q1019=,SBFL
1682726400000,METAR SBGL 290000Z 01003KT 340V040 8000 FEW010 BKN018 BKN030 22/20 Q1018=,SBGL
1682730000000,METAR SBGL 290100Z 33006KT 9000 FEW015 BKN018 BKN030 22/20 Q1018=,SBGL
1682733600000,METAR SBGL 290200Z 31003KT 9000 FEW015 BKN020 BKN035 22/20 Q1018=,SBGL
1682737200000,METAR SBGL 290300Z 33004KT 8000 FEW020 BKN030 BKN040 22/20 Q1018=,SBGL
1682740800000,METAR SBGL 290400Z 33004KT 9000 FEW020 BKN030 BKN040 22/20 Q1017=,SBGL
1682744400000,METAR SBGL 290500Z 33003KT 9000 FEW010 BKN030 BKN040 22/20 Q1017=,SBGL
1682748000000,METAR SBGL 290600Z 35003KT 9999 FEW013 BKN030 BKN050 22/20 Q1017=,SBGL
1682751600000,METAR SBGL 290700Z 35003KT 9000 SCT010 BKN025 BKN035 21/20 Q1016=,SBGL
1682755200000,METAR SBGL 290800Z VRB01KT 9000 SCT008 BKN050 21/20 Q1016=,SBGL
1682758800000,METAR SBGL 290900Z 12003KT 080V150 9000 SCT008 BKN050 22/20 Q1017=,SBGL
1682762400000,METAR SBGL 291000Z 10002KT 9999 FEW010 BKN020 BKN050 22/20 Q1018=,SBGL
1682766000000,METAR SBGL 291100Z 06004KT 9999 SCT020 BKN040 BKN060 22/20 Q1019=,SBGL
1682769600000,METAR SBGL 291200Z 01006KT 9999 FEW009 SCT014 BKN080 23/20 Q1019=,SBGL
1682773200000,METAR SBGL 291300Z 02003KT 9999 FEW013 SCT080 BKN100 25/20 Q1019=,SBGL
1682776800000,METAR SBGL 291400Z 04005KT 9999 FEW018 BKN080 25/21 Q1018=,SBGL
1682780400000,METAR SBGL 291500Z 04007KT 9999 FEW021 BKN080 26/21 Q1018=,SBGL
1682784000000,METAR SBGL 291600Z 11005KT 060V140 9999 FEW024 SCT040 BKN060 26/20 Q1017=,SBGL
1682787600000,METAR SBGL 291700Z 13004KT 9999 FEW020 OVC040 25/19 Q1016=,SBGL
1682791200000,METAR SBGL 291800Z 14006KT 9999 SCT020 OVC040 25/20 Q1016=,SBGL
1682794800000,METAR SBGL 291900Z 13010KT 9999 SCT018 OVC030 24/20 Q1016=,SBGL
1682798400000,METAR SBGL 292000Z 11006KT 8000 -RA BKN018 OVC030 24/20 Q1016=,SBGL
1682802000000,METAR SBGL 292100Z 10006KT 9999 BKN018 OVC030 24/20 Q1017=,SBGL
1682805600000,METAR SBGL 292200Z 10003KT 7000 -RA BKN018 OVC025 23/20 Q1017=,SBGL
1682809200000,METAR SBGL 292300Z 10005KT 8000 SCT015 OVC025 23/21 Q1018=,SBGL
1682726400000,METAR SBGR 290000Z 10003KT 9999 BKN026 16/15 Q1021=,SBGR
1682730000000,METAR SBGR 290100Z 12004KT 9999 BKN021 16/15 Q1021=,SBGR
1682733600000,METAR SBGR 290200Z 13004KT 9999 BKN019 16/15 Q1021=,SBGR
1682737200000,METAR SBGR 290300Z 14003KT 9999 OVC017 16/15 Q1020=,SBGR
1682740800000,METAR SBGR 290400Z 11003KT 9999 BKN021 16/14 Q1020=,SBGR
1682744400000,METAR SBGR 290500Z 09003KT 9999 SCT017 15/14 Q1020=,SBGR
1682748000000,METAR SBGR 290600Z 11005KT 9999 BKN019 16/14 Q1019=,SBGR
1682751600000,METAR SBGR 290700Z 09003KT 7000 OVC008 16/15 Q1019=,SBGR
1682755200000,METAR SBGR 290800Z 09003KT 7000 OVC007 16/15 Q1019=,SBGR
1682758800000,METAR SBGR 290900Z 09003KT 7000 OVC007 16/16 Q1020=,SBGR
1682762400000,METAR SBGR 291000Z 05005KT 8000 OVC009 17/15 Q1021=,SBGR
1682766000000,METAR SBGR 291100Z 08004KT 9999 OVC015 17/15 Q1021=,SBGR
1682769600000,METAR SBGR 291200Z 07008KT 9999 BKN013 18/16 Q1021=,SBGR
1682773200000,METAR SBGR 291300Z 07010KT 9999 BKN013 20/17 Q1021=,SBGR
1682776800000,METAR SBGR 291400Z 08010KT 9999 FEW013 BKN017 20/16 Q1021=,SBGR
1682780400000,METAR SBGR 291500Z 07009KT 9999 FEW015 BKN020 22/17 Q1020=,SBGR
1682784000000,METAR SBGR 291600Z 08007KT 9999 BKN021 23/17 Q1019=,SBGR
1682787600000,METAR SBGR 291700Z 08006KT 9999 SCT047 23/17 Q1019=,SBGR
1682791200000,METAR SBGR 291800Z 07006KT 9999 SCT047 23/16 Q1018=,SBGR
1682794800000,METAR SBGR 291900Z 15007KT 9999 BKN033 21/17 Q1018=,SBGR
1682798400000,METAR SBGR 292000Z 15006KT 9999 BKN021 21/17 Q1019=,SBGR
1682802000000,METAR SBGR 292100Z 18006KT 9000 BKN015 20/17 Q1019=,SBGR
1682805600000,METAR SBGR 292200Z 14003KT 9999 BKN015 19/17 Q1020=,SBGR
1682809200000,METAR SBGR 292300Z 14004KT 9000 BKN013 19/17 Q1021=,SBGR
1682726400000,METAR SBKP 290000Z 12010KT CAVOK 17/14 Q1019=,SBKP
1682730000000,METAR SBKP 290100Z 15008KT CAVOK 17/14 Q1019=,SBKP
1682733600000,METAR SBKP 290200Z 13005KT CAVOK 16/14 Q1019=,SBKP
1682737200000,METAR SBKP 290300Z 15007KT CAVOK 16/14 Q1019=,SBKP
1682740800000,METAR SBKP 290400Z 14007KT CAVOK 15/13 Q1019=,SBKP
1682744400000,METAR SBKP 290500Z 14006KT CAVOK 15/14 Q1018=,SBKP
1682748000000,METAR SBKP 290600Z 15007KT 9999 FEW010 16/14 Q1018=,SBKP
1682751600000,METAR SBKP 290700Z 12008KT 9999 FEW010 16/14 Q1017=,SBKP
1682755200000,METAR SBKP 290800Z 12009KT 9999 FEW010 15/14 Q1017=,SBKP
1682758800000,METAR SBKP 290900Z 12008KT 9999 FEW010 15/14 Q1018=,SBKP
1682762400000,METAR SBKP 291000Z 12009KT 9999 FEW020 16/14 Q1019=,SBKP
1682766000000,METAR SBKP 291100Z 12010KT 9999 FEW020 17/14 Q1019=,SBKP
1682769600000,METAR SBKP 291200Z 12010KT 9999 FEW030 19/15 Q1020=,SBKP
1682773200000,METAR SBKP 291300Z 11007KT 070V140 9999 FEW030 21/16 Q1020=,SBKP
1682776800000,METAR SBKP 291400Z 08004KT 040V130 9999 SCT023 23/16 Q1019=,SBKP
1682780400000,METAR SBKP 291500Z 00000KT 9999 BKN033 24/16 Q1019=,SBKP
1682784000000,METAR SBKP 291600Z 35006KT 320V040 9999 BKN040 24/16 Q1018=,SBKP
1682787600000,METAR SBKP 291700Z 29006KT 250V330 9999 BKN035 25/16 Q1017=,SBKP
1682791200000,METAR SBKP 291800Z 26005KT 220V320 9999 SCT040 25/16 Q1017=,SBKP
1682794800000,METAR SBKP 291900Z 21004KT 160V310 9999 SCT040 26/15 Q1017=,SBKP
1682798400000,METAR SBKP 292000Z 25004KT 220V300 9999 FEW045 26/15 Q1017=,SBKP
1682802000000,METAR SBKP 292100Z 20004KT 9999 FEW045 24/15 Q1017=,SBKP
1682805600000,METAR SBKP 292200Z 12009KT 9999 FEW045 21/17 Q1018=,SBKP
1682809200000,METAR SBKP 292300Z 13013KT CAVOK 20/16 Q1019=,SBKP
1682726400000,METAR SBPA 290000Z 11007KT CAVOK 20/14 Q1018=,SBPA
1682730000000,METAR SBPA 290100Z 11007KT CAVOK 19/14 Q1018=,SBPA
1682733600000,METAR SBPA 290200Z 11008KT CAVOK 19/14 Q1018=,SBPA
1682737200000,METAR SBPA 290300Z 08005KT CAVOK 17/14 Q1018=,SBPA
1682740800000,METAR SBPA 290400Z 09005KT CAVOK 15/13 Q1017=,SBPA
1682744400000,METAR SBPA 290500Z 11006KT CAVOK 16/14 Q1017=,SBPA
1682748000000,METAR SBPA 290600Z 07003KT CAVOK 15/13 Q1017=,SBPA
1682751600000,METAR SBPA 290700Z 02001KT CAVOK 14/13 Q1016=,SBPA
1682755200000,METAR SBPA 290800Z 04001KT CAVOK 13/13 Q1016=,SBPA
1682758800000,METAR SBPA 290900Z VRB02KT CAVOK 14/13 Q1016=,SBPA
1682762400000,METAR SBPA 291000Z VRB02KT CAVOK 14/13 Q1017=,SBPA
1682766000000,METAR SBPA 291100Z VRB01KT CAVOK 16/15 Q1018=,SBPA
1682769600000,METAR SBPA 291200Z VRB01KT CAVOK 18/15 Q1019=,SBPA
1682773200000,METAR SBPA 291300Z 34004KT 290V020 CAVOK 20/14 Q1019=,SBPA
1682776800000,METAR SBPA 291400Z 33003KT 250V050 CAVOK 23/16 Q1018=,SBPA
1682780400000,METAR SBPA 291500Z 03005KT 320V090 CAVOK 25/15 Q1018=,SBPA
1682784000000,METAR SBPA 291600Z 06005KT 360V090 CAVOK 26/15 Q1017=,SBPA
1682787600000,METAR SBPA 291700Z 08003KT 010V150 CAVOK 27/16 Q1016=,SBPA
1682791200000,METAR SBPA 291800Z 09006KT 050V140 CAVOK 27/15 Q1015=,SBPA
1682794800000,METAR SBPA 291900Z 10007KT CAVOK 27/14 Q1015=,SBPA
1682798400000,METAR SBPA 292000Z 11006KT 080V150 CAVOK 27/14 Q1015=,SBPA
1682802000000,METAR SBPA 292100Z 13007KT CAVOK 25/14 Q1015=,SBPA
1682805600000,METAR SBPA 292200Z 10010KT CAVOK 22/17 Q1016=,SBPA
1682809200000,METAR SBPA 292300Z 10010KT CAVOK 21/18 Q1016=,SBPA
1682726400000,METAR SBRF 290000Z 14005KT 9999 SCT023 28/23 Q1015=,SBRF
1682730000000,METAR SBRF 290100Z 13005KT 9999 SCT023 28/23 Q1015=,SBRF
1682733600000,METAR SBRF 290200Z 12004KT 060V160 9999 BKN021 28/23 Q1015=,SBRF
1682737200000,METAR SBRF 290300Z 22003KT 150V250 9999 SCT020 27/23 Q1014=,SBRF
1682740800000,METAR SBRF 290400Z VRB02KT 9999 -RA SCT020 26/23 Q1014=,SBRF
1682744400000,METAR SBRF 290500Z VRB02KT 9999 BKN020 25/23 Q1013=,SBRF
1682748000000,METAR SBRF 290600Z VRB02KT 9999 SCT020 25/23 Q1013=,SBRF
1682751600000,METAR SBRF 290700Z VRB02KT 9999 SCT020 24/22 Q1013=,SBRF
1682755200000,METAR SBRF 290800Z 32004KT 9999 SCT020 24/22 Q1014=,SBRF
1682758800000,METAR SBRF 290900Z 34003KT 9999 SCT023 24/22 Q1014=,SBRF
1682762400000,METAR SBRF 291000Z 31004KT 280V340 9999 SCT023 26/23 Q1015=,SBRF
1682766000000,METAR SBRF 291100Z 24002KT 9999 SCT023 28/23 Q1016=,SBRF
1682769600000,METAR SBRF 291200Z 18003KT 130V220 9999 SCT023 30/23 Q1015=,SBRF
1682773200000,METAR SBRF 291300Z 09006KT 050V140 9999 SCT023 30/22 Q1015=,SBRF
1682776800000,METAR SBRF 291400Z 13008KT 050V160 9999 SCT023 30/23 Q1015=,SBRF
1682780400000,METAR SBRF 291500Z 14008KT 090V160 9999 SCT023 30/23 Q1014=,SBRF
1682784000000,METAR SBRF 291600Z 11007KT 040V170 9999 SCT025 30/23 Q1013=,SBRF
1682787600000,METAR SBRF 291700Z 10007KT 060V170 9999 SCT025 30/23 Q1012=,SBRF
1682791200000,METAR SBRF 291800Z 12007KT 060V150 9999 SCT025 FEW030TCU 30/24 Q1012=,SBRF
1682794800000,METAR SBRF 291900Z 12009KT 060V170 9999 SCT020 30/24 Q1012=,SBRF
1682798400000,METAR SBRF 292000Z 12006KT 030V140 9999 SCT020 29/23 Q1012=,SBRF
1682802000000,METAR SBRF 292100Z 12007KT 080V150 9999 SCT018 28/24 Q1013=,SBRF
1682805600000,METAR SBRF 292200Z 12006KT 090V150 9999 FEW018 28/23 Q1013=,SBRF
1682809200000,METAR SBRF 292300Z 12006KT 9999 SCT018 28/24 Q1014=,SBRF
1682726400000,METAR SBRJ 290000Z 33005KT 280V350 9999 FEW015 BKN030 OVC050 23/21 Q1017=,SBRJ
1682730000000,METAR SBRJ 290100Z 04008KT 9999 -DZ FEW008 BKN015 OVC030 23/21 Q1018=,SBRJ
1682733600000,METAR SBRJ 290200Z 02008KT 7000 -DZ SCT007 OVC025 22/20 Q1018=,SBRJ
1682737200000,METAR SBRJ 290300Z 01004KT 9999 SCT007 BKN025 OVC040 22/21 Q1017=,SBRJ
1682740800000,METAR SBRJ 290400Z 03003KT 340V060 9999 SCT012 BKN040 22/21 Q1017=,SBRJ
1682744400000,METAR SBRJ 290500Z 03003KT 9999 SCT010 BKN050 22/21 Q1017=,SBRJ
1682748000000,METAR SBRJ 290600Z 05005KT 9999 SCT010 BKN050 22/20 Q1016=,SBRJ
1682751600000,METAR SBRJ 290700Z 03005KT 9999 FEW012 BKN030 OVC050 22/21 Q1016=,SBRJ
1682755200000,METAR SBRJ 290800Z 36004KT 9999 SCT010 BKN030 OVC050 22/20 Q1016=,SBRJ
1682758800000,METAR SBRJ 290900Z 02001KT 9999 BKN010 BKN030 OVC050 22/20 Q1017=,SBRJ
1682761500000,SPECI SBRJ 290945Z 12004KT 9999 BKN010 BKN030 OVC050 22/20 Q1018=,SBRJ
1682762400000,METAR SBRJ 291000Z 10005KT 9999 BKN010 BKN030 OVC060 22/20 Q1018=,SBRJ
1682764200000,SPECI SBRJ 291030Z 13004KT 9999 FEW010 BKN030 BKN060 23/20 Q1018=,SBRJ
1682766000000,METAR SBRJ 291100Z VRB01KT 9999 FEW015 BKN025 BKN060 23/20 Q1018=,SBRJ
1682769600000,METAR SBRJ 291200Z 02006KT 9999 FEW015 BKN035 BKN080 23/21 Q1019=,SBRJ
1682773200000,METAR SBRJ 291300Z 31003KT 280V340 9999 FEW015 SCT035 BKN080 24/20 Q1019=,SBRJ
1682776800000,METAR SBRJ 291400Z 02003KT 340V060 9999 BKN020 BKN030 24/20 Q1018=,SBRJ
1682777700000,SPECI SBRJ 291415Z 16005KT 9999 BKN020 BKN030 24/21 Q1018=,SBRJ
1682780400000,METAR SBRJ 291500Z 17005KT 9999 BKN023 BKN080 25/20 Q1017=,SBRJ
1682784000000,METAR SBRJ 291600Z 15008KT 9999 SCT020 BKN045 26/21 Q1016=,SBRJ
1682787600000,METAR SBRJ 291700Z 16008KT 9999 SCT020 BKN035 25/21 Q1016=,SBRJ
1682791200000,METAR SBRJ 291800Z 14008KT 9999 -RA FEW017 SCT023 BKN030 24/21 Q1016=,SBRJ
1682794800000,METAR SBRJ 291900Z 12011KT 9999 FEW017 SCT023 BKN030 24/21 Q1016=,SBRJ
1682798400000,METAR SBRJ 292000Z 11008KT 9999 SCT017 OVC030 24/21 Q1016=,SBRJ
1682802000000,METAR SBRJ 292100Z 12006KT 9999 SCT017 OVC030 24/21 Q1017=,SBRJ
1682805600000,METAR SBRJ 292200Z 11005KT 9999 SCT015 BKN025 OVC030 24/20 Q1017=,SBRJ
1682809200000,METAR SBRJ 292300Z 08006KT 9999 SCT017 BKN030 OVC040 24/20 Q1017=,SBRJ
1682726400000,METAR SBSP 290000Z 11005KT 9999 FEW015 BKN036 16/15 Q1022=,SBSP
1682730000000,METAR SBSP 290100Z 11007KT 7000 BKN006 OVC036 17/15 Q1021=,SBSP
1682733600000,METAR SBSP 290200Z 12005KT 9000 FEW002 OVC006 17/16 Q1021=,SBSP
1682733600000,SPECI SBSP 290200Z 12005KT 9999 SCT002 OVC005 17/16 Q1021=,SBSP
1682735760000,SPECI SBSP 290236Z AUTO 17006KT 9999 BKN004 BKN007 OVC012 17/16 Q1021=,SBSP
1682736480000,SPECI SBSP 290248Z AUTO 16006KT 9000 SCT004 BKN006 OVC013 17/16 Q1021=,SBSP
1682736960000,SPECI SBSP 290256Z AUTO 15007KT 8000 BKN004 OVC013 17/16 Q1021=,SBSP
1682737200000,METAR SBSP 290300Z AUTO 15007KT 8000 BKN004 OVC013 17/16 Q1021=,SBSP
1682737440000,SPECI SBSP 290304Z AUTO 15007KT 4400 -RA BR SCT003 BKN005 OVC011 17/16 Q1021=,SBSP
1682737920000,SPECI SBSP 290312Z AUTO 15007KT 4200 -DZ BR SCT002 OVC004 16/16 Q1021=,SBSP
1682739720000,SPECI SBSP 290342Z AUTO 14005KT 6000 -RA BKN003 OVC011 16/16 Q1021=,SBSP
1682740800000,METAR SBSP 290400Z AUTO 12005KT 9999 BKN003 BKN011 OVC014 16/16 Q1020=,SBSP
1682741100000,SPECI SBSP 290405Z AUTO 12005KT 090V150 6000 -RA SCT003 BKN005 OVC018 16/16 Q1020=,SBSP
1682741220000,SPECI SBSP 290407Z AUTO 11005KT 090V150 4400 -RA FEW003 SCT005 OVC018 16/16 Q1020=,SBSP
1682743680000,SPECI SBSP 290448Z AUTO 10004KT 070V130 6000 -RA SCT002 OVC005 16/16 Q1020=,SBSP
1682743740000,SPECI SBSP 290449Z AUTO 10004KT 070V130 4800 -RA SCT002 OVC005 16/16 Q1020=,SBSP
1682744400000,METAR SBSP 290500Z AUTO 11004KT 5000 -RA BR BKN005 OVC020 16/16 Q1020=,SBSP
1682745000000,SPECI SBSP 290510Z AUTO 12005KT 4700 -RA SCT002 OVC005 16/16 Q1020=,SBSP
1682745120000,SPECI SBSP 290512Z AUTO 12005KT 5000 -RA SCT002 OVC004 16/15 Q1020=,SBSP
1682745180000,SPECI SBSP 290513Z AUTO 12005KT 3800 -RA SCT002 OVC004 16/15 Q1020=,SBSP
1682747460000,SPECI SBSP 290551Z AUTO 12005KT 080V160 9999 -RA SCT002 BKN004 OVC009 16/15 Q1020=,SBSP
1682748000000,METAR SBSP 290600Z AUTO 12006KT 100V160 9999 SCT002 BKN004 OVC006 16/15 Q1020=,SBSP
1682748240000,SPECI SBSP 290604Z AUTO 13005KT 100V160 9999 BKN002 BKN006 OVC009 16/15 Q1020=,SBSP
1682749020000,SPECI SBSP 290617Z AUTO 15005KT 9999 FEW003 SCT006 OVC014 16/15 Q1020=,SBSP
1682749800000,SPECI SBSP 290630Z AUTO 14005KT 9999 FEW006 SCT011 OVC015 16/15 Q1020=,SBSP
1682751600000,METAR SBSP 290700Z AUTO 12004KT 9999 FEW006 SCT018 OVC039 16/15 Q1019=,SBSP
1682755200000,METAR SBSP 290800Z AUTO 13005KT 9999 BKN017 16/15 Q1019=,SBSP
1682758800000,METAR SBSP 290900Z 15006KT 9999 BKN033 16/15 Q1020=,SBSP
1682762400000,METAR SBSP 291000Z 13005KT 9999 FEW009 BKN015 16/15 Q1021=,SBSP
1682766000000,METAR SBSP 291100Z 12004KT 9999 FEW007 BKN008 17/16 Q1022=,SBSP
1682769600000,METAR SBSP 291200Z 13005KT 9999 OVC013 18/16 Q1022=,SBSP
1682773200000,METAR SBSP 291300Z 09007KT 040V120 9999 BKN017 19/15 Q1022=,SBSP
1682776800000,METAR SBSP 291400Z 11008KT 9999 BKN019 20/15 Q1022=,SBSP
1682780400000,METAR SBSP 291500Z 03006KT 9999 SCT021 BKN026 21/15 Q1021=,SBSP
1682784000000,METAR SBSP 291600Z 13006KT 080V160 9999 BKN023 BKN043 22/16 Q1020=,SBSP
1682787600000,METAR SBSP 291700Z 16009KT 130V190 9999 BKN025 21/17 Q1020=,SBSP
1682791200000,METAR SBSP 291800Z 17010KT 130V200 9000 BKN030 21/17 Q1019=,SBSP
1682794800000,METAR SBSP 291900Z 16011KT 8000 BKN017 21/16 Q1020=,SBSP
1682798400000,METAR SBSP 292000Z 16012KT 8000 BKN015 19/16 Q1020=,SBSP
1682802000000,METAR SBSP 292100Z 15010KT 8000 BKN009 19/16 Q1021=,SBSP
1682805600000,METAR SBSP 292200Z 15008KT 8000 BKN009 18/16 Q1021=,SBSP
1682809200000,METAR SBSP 292300Z 15007KT 9000 BKN015 18/16 Q1022=,SBSP
1682726400000,METAR SBSV 290000Z 07007KT 9999 FEW020 27/24 Q1015=,SBSV
1682730000000,METAR SBSV 290100Z 07010KT 9999 FEW020 28/24 Q1015=,SBSV
1682733600000,METAR SBSV 290200Z 08009KT 9999 FEW018 28/24 Q1015=,SBSV
1682737200000,METAR SBSV 290300Z 07008KT 9999 SCT018 27/24 Q1015=,SBSV
1682740800000,METAR SBSV 290400Z 07005KT 9999 SCT018 27/24 Q1014=,SBSV
1682744400000,METAR SBSV 290500Z 08007KT 9999 SCT018 27/24 Q1014=,SBSV
1682748000000,METAR SBSV 290600Z 05005KT 9999 SCT018 27/24 Q1014=,SBSV
1682751600000,METAR SBSV 290700Z 27002KT 9999 SCT018 25/24 Q1014=,SBSV
1682755200000,METAR SBSV 290800Z 27004KT 9999 SCT020 25/24 Q1014=,SBSV
1682758800000,METAR SBSV 290900Z 30002KT 9999 FEW020 24/23 Q1014=,SBSV
1682762400000,METAR SBSV 291000Z 27003KT 9999 FEW020 26/24 Q1015=,SBSV
1682766000000,METAR SBSV 291100Z 05002KT 9999 FEW020 29/25 Q1016=,SBSV
1682769600000,METAR SBSV 291200Z 10005KT 9999 SCT020 29/24 Q1016=,SBSV
1682773200000,METAR SBSV 291300Z 10006KT 9999 SCT020 30/24 Q1016=,SBSV
1682776800000,METAR SBSV 291400Z 11008KT 9999 SCT020 31/24 Q1016=,SBSV
1682780400000,METAR SBSV 291500Z 12007KT 9999 SCT020 30/24 Q1015=,SBSV
1682784000000,METAR SBSV 291600Z 12008KT 9999 SCT020 31/24 Q1014=,SBSV
1682787600000,METAR SBSV 291700Z 15008KT 100V200 9999 FEW025 30/24 Q1013=,SBSV
1682791200000,METAR SBSV 291800Z 15009KT 110V170 9999 FEW025 30/24 Q1013=,SBSV
1682794800000,METAR SBSV 291900Z 14009KT 100V160 9999 FEW025 30/24 Q1013=,SBSV
1682798400000,METAR SBSV 292000Z 13008KT 090V160 9999 FEW030 29/24 Q1014=,SBSV
1682802000000,METAR SBSV 292100Z 13007KT 100V160 9999 FEW030 29/24 Q1014=,SBSV
1682805600000,METAR SBSV 292200Z 13007KT 090V210 9999 FEW030 29/24 Q1014=,SBSV
1682809200000,METAR SBSV 292300Z 12009KT 080V150 9999 FEW030 29/24 Q1015=,SBSV
