hora,metar,aero
1665100800000,METAR SBBR 070000Z 29003KT CAVOK 26/14 Q1016=,SBBR
1665104400000,METAR SBBR 070100Z VRB02KT CAVOK 26/14 Q1017=,SBBR
1665108000000,METAR SBBR 070200Z 26001KT CAVOK 25/14 Q1017=,SBBR
1665111600000,METAR SBBR 070300Z VRB02KT CAVOK 24/14 Q1017=,SBBR
1665115200000,METAR SBBR 070400Z 20003KT 170V330 CAVOK 24/14 Q1016=,SBBR
1665118800000,METAR SBBR 070500Z 07003KT 010V080 CAVOK 23/14 Q1016=,SBBR
1665122400000,METAR SBBR 070600Z 00000KT CAVOK 24/15 Q1015=,SBBR
1665126000000,METAR SBBR 070700Z 00000KT CAVOK 24/15 Q1015=,SBBR
1665129600000,METAR SBBR 070800Z 30003KT 270V340 CAVOK 24/16 Q1016=,SBBR
1665133200000,METAR SBBR 070900Z 28002KT 9999 FEW030 BKN100 23/16 Q1016=,SBBR
1665136800000,METAR SBBR 071000Z 19003KT 160V240 9999 FEW030 BKN100 23/16 Q1017=,SBBR
1665140400000,METAR SBBR 071100Z 27005KT 240V300 9000 FEW030 BKN090 25/17 Q1018=,SBBR
1665144000000,METAR SBBR 071200Z 23012KT 9000 VCSH SCT020 FEW025TCU BKN100 23/18 Q1020=,SBBR
1665147600000,METAR SBBR 071300Z 23014KT 9000 SCT018 FEW025TCU BKN090 24/18 Q1020=,SBBR
1665151200000,METAR SBBR 071400Z 23013KT 9999 SCT020 FEW025TCU BKN090 24/17 Q1020=,SBBR
1665154800000,METAR SBBR 071500Z 19011KT 9999 BKN015 BKN080 23/17 Q1020=,SBBR
1665158400000,METAR SBBR 071600Z 20011KT 9999 BKN015 BKN080 22/17 Q1019=,SBBR
1665162000000,METAR SBBR 071700Z 20013KT 9999 SCT020 BKN030 23/17 Q1017=,SBBR
1665165600000,METAR SBBR 071800Z 20009KT 9999 SCT030 BKN090 23/17 Q1017=,SBBR
1665169200000,METAR SBBR 071900Z 20009KT 9999 SCT030 SCT090 24/16 Q1016=,SBBR
1665172800000,METAR SBBR 072000Z 21006KT 9999 FEW035 BKN090 24/16 Q1017=,SBBR
1665176400000,METAR SBBR 072100Z 19002KT 9999 FEW040 BKN100 24/16 Q1017=,SBBR
1665180000000,METAR SBBR 072200Z 01009G24KT 9999 SCT035 BKN100 23/15 Q1019=,SBBR
1665183600000,METAR SBBR 072300Z 34009KT 9999 FEW040 BKN100 21/14 Q1018=,SBBR
1665100800000,METAR SBCF 070000Z 03003KT CAVOK 25/17 Q1016=,SBCF
1665104400000,METAR SBCF 070100Z 04006KT CAVOK 24/17 Q1017=,SBCF
1665108000000,METAR SBCF 070200Z 03008KT CAVOK 24/17 Q1016=,SBCF
1665111600000,METAR SBCF 070300Z 04006KT CAVOK 23/17 Q1016=,SBCF
1665115200000,METAR SBCF 070400Z 04007KT CAVOK 23/18 Q1015=,SBCF
1665118800000,METAR SBCF 070500Z 05006KT CAVOK 23/17 Q1014=,SBCF
1665122400000,METAR SBCF 070600Z 08004KT CAVOK 22/17 Q1014=,SBCF
1665126000000,METAR SBCF 070700Z 06005KT CAVOK 22/17 Q1014=,SBCF
1665129600000,METAR SBCF 070800Z 06005KT CAVOK 22/17 Q1014=,SBCF
1665133200000,METAR SBCF 070900Z 08005KT 9999 FEW020 BKN080 22/17 Q1014=,SBCF
1665136800000,METAR SBCF 071000Z 20004KT 130V230 9999 FEW025 BKN080 21/17 Q1017=,SBCF
1665140400000,METAR SBCF 071100Z 18006KT 150V220 9000 FEW035 BKN080 23/18 Q1018=,SBCF
1665144000000,METAR SBCF 071200Z 15004KT 100V180 9999 FEW030 BKN100 23/18 Q1017=,SBCF
1665147600000,METAR SBCF 071300Z 33007KT 9999 FEW030 BKN100 26/17 Q1017=,SBCF
1665151200000,METAR SBCF 071400Z 33008KT 220V010 9999 FEW030 BKN080 27/15 Q1017=,SBCF
1665154800000,METAR SBCF 071500Z 31009KT 270V360 8000 VCSH SCT040 FEW050TCU BKN070 27/17 Q1016=,SBCF
1665155940000,SPECI SBCF 071519Z 35014KT 4000 RA SCT040 FEW050TCU 23/18 Q1016=,SBCF
1665157380000,SPECI SBCF 071543Z 35009KT 3000 +RA BKN040 FEW050TCU 23/19 Q1016 RERA=,SBCF
1665158400000,METAR SBCF 071600Z 25009KT 3000 -TSRA BKN030 FEW040CB 23/19 Q1016 RERA=,SBCF
1665162000000,METAR SBCF 071700Z 22011KT 4000 -TSRA SCT020 BKN030 FEW045CB 21/18 Q1016=,SBCF
1665165600000,METAR SBCF 071800Z 29010KT 4000 -RA VCTS SCT040 FEW045CB BKN060 21/18 Q1015 RETS=,SBCF
1665168300000,SPECI SBCF 071845Z 35009KT 8000 FEW040 BKN080 21/18 Q1015=,SBCF
1665169200000,METAR SBCF 071900Z 36009KT 8000 SCT040 BKN080 21/18 Q1015=,SBCF
1665172800000,METAR SBCF 072000Z 32009KT 9000 FEW005 SCT040 BKN100 20/19 Q1015=,SBCF
1665176400000,METAR SBCF 072100Z 02003KT 320V050 9999 FEW009 SCT050 BKN100 20/18 Q1015=,SBCF
1665180000000,METAR SBCF 072200Z 35003KT 320V020 7000 BCFG FEW005 SCT050 BKN100 20/18 Q1016=,SBCF
1665183600000,METAR SBCF 072300Z VRB02KT 6000 BCFG FEW003 SCT050 BKN100 20/19 Q1016=,SBCF
1665184380000,SPECI SBCF 072313Z 06004KT 2000 BR BCFG FEW003 BKN100 20/19 Q1016=,SBCF
1665100800000,METAR SBCT 070000Z 01009KT 9999 -RA FEW010 BKN070 17/16 Q1012=,SBCT
1665104400000,METAR SBCT 070100Z 02008KT 9000 -RA FEW012 BKN070 17/16 Q1012=,SBCT
1665108000000,METAR SBCT 070200Z 01010KT 8000 -RA FEW010 BKN080 16/16 Q1012=,SBCT
1665111600000,METAR SBCT 070300Z 30006KT 9000 FEW010 BKN080 16/16 Q1011=,SBCT
1665115200000,METAR SBCT 070400Z 35005KT 9000 FEW008 BKN090 16/16 Q1009=,SBCT
1665118800000,METAR SBCT 070500Z 29010KT 9000 BKN008 BKN090 16/16 Q1009=,SBCT
1665122400000,METAR SBCT 070600Z 30007KT 9000 BKN008 BKN035 16/16 Q1009=,SBCT
1665126000000,METAR SBCT 070700Z 29009KT 4000 -RA BR BKN010 BKN025 16/16 Q1009=,SBCT
1665129600000,METAR SBCT 070800Z 30009KT 8000 BKN010 BKN030 16/16 Q1008=,SBCT
1665133200000,METAR SBCT 070900Z 30010KT 270V330 9000 BKN013 BKN030 16/15 Q1009=,SBCT
1665136800000,METAR SBCT 071000Z 27008KT 9999 BKN013 BKN040 17/15 Q1010=,SBCT
1665137400000,SPECI SBCT 071010Z 28012KT 9999 FEW014 BKN050 17/15 Q1010=,SBCT
1665140400000,METAR SBCT 071100Z 27013KT 9999 SCT017 BKN050 17/14 Q1011=,SBCT
1665144000000,METAR SBCT 071200Z 27019G30KT 9999 BKN025 18/12 Q1011=,SBCT
1665147600000,METAR SBCT 071300Z 27015KT 9999 BKN030 20/12 Q1012=,SBCT
1665151200000,METAR SBCT 071400Z 26015KT 9999 BKN030 20/11 Q1012=,SBCT
1665154800000,METAR SBCT 071500Z 27016G27KT 9999 SCT035 21/11 Q1012=,SBCT
1665158400000,METAR SBCT 071600Z 27017KT 9999 SCT040 20/09 Q1011=,SBCT
1665162000000,METAR SBCT 071700Z 28016KT 9999 SCT040 21/10 Q1011=,SBCT
1665165600000,METAR SBCT 071800Z 26015KT 9999 BKN045 20/08 Q1011=,SBCT
1665169200000,METAR SBCT 071900Z 25016KT 9999 BKN045 21/08 Q1011=,SBCT
1665172800000,METAR SBCT 072000Z 27013KT 9999 SCT045 21/08 Q1012=,SBCT
1665176400000,METAR SBCT 072100Z 25008KT 9999 SCT045 19/08 Q1013=,SBCT
1665180000000,METAR SBCT 072200Z 24005KT 9999 FEW045 18/07 Q1014=,SBCT
1665183600000,METAR SBCT 072300Z 22005KT 9999 FEW045 17/08 Q1015=,SBCT
1665100800000,METAR SBFL 070000Z 35011KT 8000 -RA BKN007 BKN015 OVC070 20/19 Q1008=,SBFL
1665104400000,METAR SBFL 070100Z 36008KT 8000 -RA BKN008 BKN015 OVC070 20/19 Q1007=,SBFL
1665108000000,METAR SBFL 070200Z 36013KT 9999 BKN006 BKN015 OVC070 20/19 Q1007=,SBFL
1665111600000,METAR SBFL 070300Z 36011KT 9999 BKN008 BKN020 OVC080 20/19 Q1005=,SBFL
1665115200000,METAR SBFL 070400Z 35009KT 9999 BKN007 BKN020 OVC080 20/19 Q1004=,SBFL
1665118800000,METAR SBFL 070500Z 36006KT 9999 BKN008 BKN020 OVC080 20/19 Q1003=,SBFL
1665122400000,METAR SBFL 070600Z 36005KT 9999 BKN007 OVC100 20/19 Q1002=,SBFL
1665126000000,METAR SBFL 070700Z 36007KT 9999 BKN007 20/19 Q1002=,SBFL
1665129600000,METAR SBFL 070800Z 36007KT 9999 SCT008 20/19 Q1002=,SBFL
1665133200000,METAR SBFL 070900Z 31004KT 200V010 9999 SCT010 SCT070 20/18 Q1003=,SBFL
1665136800000,METAR SBFL 071000Z 30004KT 260V360 9999 SCT012 SCT080 21/19 Q1003=,SBFL
1665140400000,METAR SBFL 071100Z 34009KT 9999 FEW015 SCT100 22/19 Q1004=,SBFL
1665144000000,METAR SBFL 071200Z 15015KT 9999 FEW015 SCT050 22/17 Q1005=,SBFL
1665147600000,METAR SBFL 071300Z 15014KT 9999 SCT018 SCT050 BKN100 21/18 Q1006=,SBFL
1665151200000,METAR SBFL 071400Z 14008KT 9999 BKN025 SCT050 BKN100 22/17 Q1006=,SBFL
1665154800000,METAR SBFL 071500Z 11008KT 9999 SCT025 SCT060 BKN100 21/17 Q1006=,SBFL
1665158400000,METAR SBFL 071600Z 10008KT 9999 SCT025 BKN070 22/17 Q1006=,SBFL
1665162000000,METAR SBFL 071700Z 13011KT 9999 SCT025 BKN070 21/16 Q1006=,SBFL
1665165600000,METAR SBFL 071800Z 11009KT 9999 FEW040 22/16 Q1006=,SBFL
1665169200000,METAR SBFL 071900Z 10010KT 9999 SCT045 22/16 Q1007=,SBFL
1665172800000,METAR SBFL 072000Z 10008KT 9999 FEW045 21/15 Q1008=,SBFL
1665176400000,METAR SBFL 072100Z 10008KT CAVOK 20/14 Q1008=,SBFL
1665180000000,METAR SBFL 072200Z 10007KT CAVOK 19/14 Q1009=,SBFL
1665183600000,METAR SBFL 072300Z 11006KT CAVOK 18/15 Q1010=,SBFL
1665100800000,METAR SBGL 070000Z 09007KT 9999 FEW033 SCT100 24/20 Q1009=,SBGL
1665104400000,METAR SBGL 070100Z 11005KT 9999 FEW033 SCT100 24/20 Q1009=,SBGL
1665108000000,METAR SBGL 070200Z 11008KT 9999 FEW033 SCT100 23/20 Q1009=,SBGL
1665111600000,METAR SBGL 070300Z 18004KT 9999 FEW033 SCT100 23/20 Q1008=,SBGL
1665115200000,METAR SBGL 070400Z 12004KT 9999 FEW030 SCT100 23/20 Q1008=,SBGL
1665118800000,METAR SBGL 070500Z 09004KT 9999 FEW030 22/20 Q1007=,SBGL
1665122400000,METAR SBGL 070600Z 36003KT 9999 FEW030 22/20 Q1007=,SBGL
1665126000000,METAR SBGL 070700Z 33003KT 9999 FEW030 22/20 Q1007=,SBGL
1665129600000,METAR SBGL 070800Z 26008KT 9999 FEW033 SCT100 24/21 Q1007=,SBGL
1665133200000,METAR SBGL 070900Z 25011KT 9999 FEW030 BKN100 25/20 Q1009=,SBGL
1665136800000,METAR SBGL 071000Z 25006KT 7000 -TSRA SCT030 FEW033CB OVC100 23/21 Q1010=,SBGL
1665140400000,METAR SBGL 071100Z 12002KT 6000 -RA SCT030 OVC100 24/21 Q1011 RETS=,SBGL
1665141300000,SPECI SBGL 071115Z 30002KT 3500 -RA BR SCT025 OVC100 24/21 Q1011=,SBGL
1665144000000,METAR SBGL 071200Z 35002KT 7000 -RA SCT025 OVC100 23/21 Q1011=,SBGL
1665147600000,METAR SBGL 071300Z 08008KT 7000 -RA FEW004 SCT025 OVC100 23/22 Q1009=,SBGL
1665151200000,METAR SBGL 071400Z 07010KT 7000 -RA FEW006 SCT025 OVC100 24/22 Q1009=,SBGL
1665154800000,METAR SBGL 071500Z 07005KT 5000 -RA BR SCT025 OVC100 24/22 Q1008=,SBGL
1665158400000,METAR SBGL 071600Z 18002KT 9999 FEW020 OVC090 26/21 Q1007=,SBGL
1665162000000,METAR SBGL 071700Z 20004KT 9999 FEW020 OVC080 26/22 Q1006=,SBGL
1665165600000,METAR SBGL 071800Z 24006KT 9999 FEW020 OVC100 28/21 Q1005=,SBGL
1665169200000,METAR SBGL 071900Z 30006KT 9999 FEW020 OVC100 29/19 Q1005=,SBGL
1665172800000,METAR SBGL 072000Z 28005KT 9999 FEW020 BKN100 29/20 Q1006=,SBGL
1665176400000,METAR SBGL 072100Z 28002KT 9999 FEW020 BKN100 27/21 Q1006=,SBGL
1665180000000,METAR SBGL 072200Z 16002KT 9999 FEW020 BKN100 26/21 Q1007=,SBGL
1665183600000,METAR SBGL 072300Z 12002KT CAVOK 24/21 Q1008=,SBGL
1665100800000,METAR SBGR 070000Z 25005KT CAVOK 23/19 Q1013=,SBGR
1665102000000,SPECI COR SBGR 070020Z 20004KT 5000 RA BR SCT009 BKN070 21/20 Q1013=,SBGR
1665103200000,SPECI SBGR 070040Z 20004KT 5000 RA BR BKN009 BKN070 21/20 Q1013=,SBGR
1665104400000,METAR SBGR 070100Z 24005KT 5000 -RA BR BKN009 BKN070 20/19 Q1014 RERA=,SBGR
1665106500000,SPECI COR SBGR 070135Z 21010G20KT 2000 +TSRA BR BKN010 FEW050CB BKN070 19/18 Q1013 RERA=,SBGR
1665108000000,METAR COR SBGR 070200Z 21003KT 5000 RA BR BKN007 FEW050TCU BKN070 20/20 Q1014 RETSRA=,SBGR
1665111600000,METAR SBGR 070300Z 24004KT 8000 -RA SCT011 BKN040 BKN070 20/18 Q1014 RERA=,SBGR
1665115200000,METAR SBGR 070400Z 28005KT 8000 -RA BKN040 BKN070 20/18 Q1014=,SBGR
1665118800000,METAR SBGR 070500Z 31005KT 8000 -RA NSC 19/18 Q1013=,SBGR
1665122400000,METAR SBGR 070600Z 32007KT 8000 -RA SCT020 20/18 Q1012=,SBGR
1665126000000,METAR SBGR 070700Z 32012KT 8000 -RA NSC 20/17 Q1011=,SBGR
1665129600000,METAR SBGR 070800Z 36010KT 8000 -RA NSC 20/17 Q1010=,SBGR
1665133200000,METAR SBGR 070900Z 02010KT 9999 -RA FEW010 20/17 Q1010=,SBGR
1665136800000,METAR SBGR 071000Z 01012KT 9999 FEW010 21/17 Q1009=,SBGR
1665140400000,METAR SBGR 071100Z 29006KT 9999 FEW020 22/17 Q1012=,SBGR
1665144000000,METAR SBGR 071200Z 31013KT 9999 FEW015 SCT030 FEW040TCU BKN100 23/17 Q1013=,SBGR
1665145200000,SPECI SBGR 071220Z 31018G28KT 9999 BKN030 FEW040TCU BKN100 22/17 Q1013=,SBGR
1665147600000,METAR COR SBGR 071300Z 32018G29KT 9999 SCT025 23/17 Q1013=,SBGR
1665151200000,METAR SBGR 071400Z 31019G29KT 9999 BKN030 23/17 Q1013=,SBGR
1665154800000,METAR SBGR 071500Z 32021G34KT 9999 SCT030 23/16 Q1012=,SBGR
1665158400000,METAR SBGR 071600Z 33017G29KT 9999 VCSH SCT030 FEW040TCU 26/16 Q1011=,SBGR
1665162000000,METAR SBGR 071700Z 29015KT 9999 SCT036 FEW040TCU 24/16 Q1011=,SBGR
1665165600000,METAR SBGR 071800Z 31014KT 9999 SCT036 FEW040TCU SCT083 26/16 Q1010=,SBGR
1665169200000,METAR SBGR 071900Z 30016KT 9999 SCT040 FEW040TCU SCT083 25/15 Q1010=,SBGR
1665172800000,METAR SBGR 072000Z 28017KT 9999 SCT049 BKN083 25/14 Q1011=,SBGR
1665176400000,METAR SBGR 072100Z 28009KT 9999 FEW030 BKN100 24/13 Q1012=,SBGR
1665180000000,METAR SBGR 072200Z 27010KT CAVOK 22/13 Q1013=,SBGR
1665183600000,METAR SBGR 072300Z 26007KT CAVOK 20/12 Q1014=,SBGR
1665100800000,METAR SBKP 070000Z 02013G23KT 9999 -RA VCTS FEW020 FEW040CB OVC100 27/17 Q1011=,SBKP
1665102060000,SPECI SBKP 070021Z 25020G32KT 6000 TSRA FEW015 BKN040 FEW040CB 22/19 Q1013=,SBKP
1665104400000,METAR SBKP 070100Z 21009KT 6000 TSRA FEW008 BKN040 FEW040CB 21/18 Q1014=,SBKP
1665105600000,SPECI SBKP 070120Z 23009KT 190V260 9999 -RA FEW008 SCT033 BKN100 21/18 Q1014 RETSRA=,SBKP
1665108000000,METAR SBKP 070200Z 20006KT 9999 FEW033 BKN100 21/18 Q1014 RETSRA=,SBKP
1665111600000,METAR SBKP 070300Z 25005KT 180V290 9999 -RA FEW045 BKN100 21/18 Q1014=,SBKP
1665112200000,SPECI SBKP 070310Z 25006KT 180V280 8000 RA SCT023 FEW030TCU BKN100 20/18 Q1014=,SBKP
1665115200000,METAR SBKP 070400Z VRB02KT 9999 -RA FEW023 OVC070 20/18 Q1014 RERA=,SBKP
1665118800000,METAR SBKP 070500Z 05004KT 9999 -RA FEW005 BKN050 OVC070 20/19 Q1013=,SBKP
1665119580000,SPECI SBKP 070513Z 02006KT 2500 RA BR FEW005 SCT030 BKN050 20/19 Q1013=,SBKP
1665122400000,METAR SBKP 070600Z 03006KT 4000 -RA BR SCT003 BKN050 OVC070 19/19 Q1012 RERA=,SBKP
1665126000000,METAR SBKP 070700Z 04007KT 9999 FEW003 BKN100 19/18 Q1011=,SBKP
1665129600000,METAR SBKP 070800Z 03012KT 9999 -RA FEW006 OVC100 20/18 Q1010=,SBKP
1665133200000,METAR SBKP 070900Z 04015G26KT 9999 -RA SCT006 OVC100 20/18 Q1010=,SBKP
1665136800000,METAR SBKP 071000Z 36009KT 9999 FEW009 SCT070 20/18 Q1011=,SBKP
1665140400000,METAR SBKP 071100Z 32011KT 290V350 9999 SCT010 BKN040 BKN100 20/18 Q1013=,SBKP
1665144000000,METAR SBKP 071200Z 35010KT 9999 FEW010 BKN040 OVC100 21/18 Q1014=,SBKP
1665147600000,METAR SBKP 071300Z 34011KT 9999 FEW010 BKN040 OVC100 21/18 Q1014=,SBKP
1665151200000,METAR SBKP 071400Z 32014KT 9999 SCT020 BKN080 22/18 Q1014=,SBKP
1665154800000,METAR SBKP 071500Z 33013KT 9999 SCT025 SCT080 24/18 Q1013=,SBKP
1665158400000,METAR SBKP 071600Z 31013KT 9999 SCT025 SCT080 24/18 Q1012=,SBKP
1665162000000,METAR SBKP 071700Z 31015KT 9999 BKN030 SCT080 26/17 Q1011=,SBKP
1665165600000,METAR SBKP 071800Z 29016KT 9999 BKN043 26/16 Q1011=,SBKP
1665169200000,METAR SBKP 071900Z 30015KT 9999 BKN043 FEW050TCU 26/16 Q1011=,SBKP
1665172800000,METAR SBKP 072000Z 30014KT 9999 SCT046 BKN100 25/15 Q1011=,SBKP
1665176400000,METAR SBKP 072100Z 28010KT 9999 SCT046 BKN100 25/15 Q1012=,SBKP
1665180000000,METAR SBKP 072200Z 28007KT 9999 FEW046 BKN100 23/13 Q1013=,SBKP
1665183600000,METAR SBKP 072300Z 28006KT CAVOK 22/13 Q1014=,SBKP
1665169200000,METAR SBPA 071900Z 29017KT 9999 FEW040 SCT050 23/12 Q1007=,SBPA
1665100800000,METAR SBPA 070000Z 12003KT 9999 FEW030 19/19 Q1002=,SBPA
1665104400000,METAR SBPA 070100Z 09004KT 7000 FEW040 BKN090 19/19 Q1002=,SBPA
1665108000000,METAR SBPA 070200Z 00000KT 8000 FEW040 BKN100 19/19 Q1002=,SBPA
1665111600000,METAR SBPA 070300Z VRB02KT 7000 FEW040 BKN100 20/19 Q1002=,SBPA
1665115200000,METAR SBPA 070400Z VRB01KT 7000 FEW040 BKN090 19/19 Q1002=,SBPA
1665116040000,SPECI SBPA 070414Z 27008KT 210V280 4000 -RA BKN006 FEW040TCU OVC070 19/19 Q1002=,SBPA
1665118800000,METAR SBPA 070500Z 23012KT 4000 -RA BKN007 FEW040TCU OVC070 19/18 Q1002=,SBPA
1665122400000,METAR SBPA 070600Z 25008KT 4000 -RA BKN009 FEW040TCU OVC100 18/17 Q1003=,SBPA
1665126000000,METAR SBPA 070700Z 28014KT 4000 -RA BR BKN008 OVC020 18/17 Q1004=,SBPA
1665129600000,METAR SBPA 070800Z 28011KT 6000 BKN008 OVC023 17/16 Q1005=,SBPA
1665133200000,METAR SBPA 070900Z 28012KT 9999 BKN013 BKN070 17/15 Q1006=,SBPA
1665134100000,SPECI SBPA 070915Z 28012KT 9999 BKN015 BKN080 16/15 Q1007=,SBPA
1665136800000,METAR SBPA 071000Z 28014KT 9999 SCT020 BKN100 17/15 Q1007=,SBPA
1665140400000,METAR SBPA 071100Z 28017KT 9999 SCT017 BKN040 17/14 Q1008=,SBPA
1665144000000,METAR SBPA 071200Z 28013KT 9999 BKN017 OVC047 17/14 Q1009=,SBPA
1665147600000,METAR SBPA 071300Z 27012KT 250V310 9999 SCT022 BKN050 18/14 Q1009=,SBPA
1665151200000,METAR SBPA 071400Z 26015KT 9999 SCT027 BKN050 20/13 Q1009=,SBPA
1665154800000,METAR SBPA 071500Z 27016KT 240V300 9999 BKN033 BKN065 20/14 Q1009=,SBPA
1665158400000,METAR SBPA 071600Z 26015KT 9999 BKN033 BKN070 21/14 Q1009=,SBPA
1665162000000,METAR SBPA 071700Z 26015KT 230V290 9999 BKN036 22/13 Q1008=,SBPA
1665165600000,METAR SBPA 071800Z 28014KT 9999 BKN039 23/12 Q1007=,SBPA
1665172800000,METAR SBPA 072000Z 29015KT 9999 FEW040 SCT051 23/12 Q1008=,SBPA
1665176400000,METAR SBPA 072100Z 30013KT 9999 FEW040 22/13 Q1008=,SBPA
1665180000000,METAR SBPA 072200Z 31007KT 290V350 CAVOK 20/13 Q1009=,SBPA
1665183600000,METAR SBPA 072300Z 30007KT 260V340 CAVOK 20/13 Q1010=,SBPA
1665100800000,METAR SBRF 070000Z 10004KT 9999 FEW008 BKN018 BKN040 26/23 Q1015=,SBRF
1665104400000,METAR SBRF 070100Z 10002KT 9999 SCT020 BKN040 26/22 Q1015=,SBRF
1665108000000,METAR SBRF 070200Z VRB02KT 9999 BKN017 BKN050 25/23 Q1014=,SBRF
1665111600000,METAR SBRF 070300Z 11006KT 040V170 5000 -SHRA BR SCT012 BKN016 BKN040 25/21 Q1014=,SBRF
1665115200000,METAR SBRF 070400Z 00000KT 9999 BKN015 BKN050 24/22 Q1012=,SBRF
1665118800000,METAR SBRF 070500Z 12007KT 9999 SCT017 BKN040 26/22 Q1012=,SBRF
1665122400000,METAR SBRF 070600Z 12006KT 9999 SCT018 BKN040 26/22 Q1012=,SBRF
1665126000000,METAR SBRF 070700Z 12007KT 9999 SCT019 BKN050 26/22 Q1012=,SBRF
1665129600000,METAR SBRF 070800Z 12009KT 9999 SCT021 BKN060 26/21 Q1013=,SBRF
1665133200000,METAR SBRF 070900Z 13008KT 9999 SCT018 BKN060 26/22 Q1013=,SBRF
1665136800000,METAR SBRF 071000Z VRB08KT 9999 BKN018 BKN060 27/22 Q1014=,SBRF
1665140400000,METAR SBRF 071100Z 13010KT 090V160 9999 BKN020 28/22 Q1015=,SBRF
1665144000000,METAR SBRF 071200Z 12009KT 9999 BKN020 28/22 Q1015=,SBRF
1665147600000,METAR SBRF 071300Z 13009KT 9999 BKN020 29/23 Q1015=,SBRF
1665151200000,METAR SBRF 071400Z 13009KT 9999 SCT020 29/23 Q1014=,SBRF
1665154800000,METAR SBRF 071500Z 12009KT 9999 SCT020 29/23 Q1014=,SBRF
1665158400000,METAR SBRF 071600Z 12010KT 9999 BKN020 29/23 Q1013=,SBRF
1665162000000,METAR SBRF 071700Z 12008KT 060V170 9999 BKN020 29/22 Q1012=,SBRF
1665165600000,METAR SBRF 071800Z 13009KT 9999 SCT020 28/22 Q1012=,SBRF
1665169200000,METAR SBRF 071900Z 14010KT 9999 SCT020 27/22 Q1012=,SBRF
1665172800000,METAR SBRF 072000Z 14008KT 9999 SCT020 27/22 Q1012=,SBRF
1665176400000,METAR SBRF 072100Z 14007KT 070V160 9999 SCT020 SCT070 27/22 Q1012=,SBRF
1665180000000,METAR SBRF 072200Z 14009KT 110V170 9999 SCT020 SCT070 26/21 Q1013=,SBRF
1665183600000,METAR SBRF 072300Z 14007KT 9999 SCT020 SCT070 26/22 Q1013=,SBRF
1665129600000,METAR SBRJ 070800Z 19012KT 9999 FEW035 SCT100 24/21 Q1007=,SBRJ
1665100800000,METAR SBRJ 070000Z 16004KT 120V190 CAVOK 24/21 Q1009=,SBRJ
1665104400000,METAR SBRJ 070100Z 06006KT 9999 FEW040 SCT100 24/21 Q1009=,SBRJ
1665108000000,METAR SBRJ 070200Z 12003KT 9999 FEW040 SCT100 24/21 Q1009=,SBRJ
1665111600000,METAR SBRJ 070300Z VRB01KT CAVOK 24/20 Q1008=,SBRJ
1665115200000,METAR SBRJ 070400Z 35003KT 9999 FEW035 SCT100 24/21 Q1007=,SBRJ
1665118800000,METAR SBRJ 070500Z 33003KT 9999 FEW035 BKN100 24/21 Q1006=,SBRJ
1665122400000,METAR SBRJ 070600Z 36004KT 9999 FEW035 BKN100 23/22 Q1006=,SBRJ
1665126000000,METAR SBRJ 070700Z 01004KT 9999 FEW030 SCT100 23/21 Q1006=,SBRJ
1665133200000,METAR SBRJ 070900Z 19009KT 9999 FEW008 BKN050 BKN080 23/21 Q1008=,SBRJ
1665136800000,METAR SBRJ 071000Z 29003KT 230V340 7000 -RA SCT020 BKN050 OVC100 25/21 Q1010=,SBRJ
1665140400000,METAR SBRJ 071100Z VRB03KT 9000 -RA SCT020 BKN050 OVC100 25/21 Q1010=,SBRJ
1665144000000,METAR SBRJ 071200Z 34005KT 290V010 6000 -RA SCT020 BKN050 OVC100 24/22 Q1011=,SBRJ
1665147600000,METAR SBRJ 071300Z 02006KT 9999 FEW020 BKN100 24/22 Q1009=,SBRJ
1665151200000,METAR SBRJ 071400Z 34008KT 9999 FEW020 BKN100 24/23 Q1008=,SBRJ
1665154800000,METAR SBRJ 071500Z 32007KT 280V340 9999 FEW007 SCT017 BKN080 24/23 Q1008=,SBRJ
1665158400000,METAR SBRJ 071600Z 34007KT 300V360 9999 FEW020 SCT050 BKN100 24/23 Q1007=,SBRJ
1665162000000,METAR SBRJ 071700Z 32005KT 9999 FEW020 SCT050 BKN100 25/23 Q1006=,SBRJ
1665165600000,METAR SBRJ 071800Z 25006KT 220V280 9999 FEW020 SCT050 BKN100 29/20 Q1005=,SBRJ
1665169200000,METAR SBRJ 071900Z 09005KT 9999 FEW020 SCT050 BKN100 27/22 Q1005=,SBRJ
1665172800000,METAR SBRJ 072000Z VRB03KT 9999 FEW020 SCT050 BKN100 27/21 Q1005=,SBRJ
1665176400000,METAR SBRJ 072100Z 36003KT 270V030 9999 FEW020 SCT050 BKN100 28/21 Q1006=,SBRJ
1665180000000,METAR SBRJ 072200Z 33008KT 280V360 9999 FEW020 SCT050 BKN100 27/21 Q1007=,SBRJ
1665183600000,METAR SBRJ 072300Z 17008KT 9999 FEW020 SCT050 BKN100 25/21 Q1008=,SBRJ
1665100800000,METAR SBSP 070000Z 22009KT 180V260 9000 FEW008 BKN046 BKN083 20/18 Q1014=,SBSP
1665104400000,METAR COR SBSP 070100Z 24011KT 200V260 9999 -RA SCT009 SCT043 BKN090 20/18 Q1015=,SBSP
1665105000000,SPECI SBSP 070110Z 23012KT 200V270 4000 RA BR BKN009 BKN090 19/18 Q1016=,SBSP
1665106020000,SPECI SBSP 070127Z 28006KT 210V340 5000 TSRA BKN009 FEW043CB OVC090 19/18 Q1016=,SBSP
1665108000000,METAR SBSP 070200Z 24006KT 190V280 9000 SCT009 SCT026 BKN036 19/18 Q1016 RETSRA=,SBSP
1665108060000,SPECI SBSP 070201Z 25006KT 210V300 9999 FEW005 SCT008 19/18 Q1015 RETSRA=,SBSP
1665111600000,METAR SBSP 070300Z AUTO 23003KT 9999 FEW007 19/17 Q1014=,SBSP
1665115200000,METAR SBSP 070400Z AUTO 33005KT 9999 -RA SCT046 19/18 Q1014=,SBSP
1665118800000,METAR SBSP 070500Z AUTO 35009KT 9999 -RA FEW045 19/18 Q1012=,SBSP
1665122400000,METAR SBSP 070600Z AUTO 34012KT 310V010 9999 -RA FEW013 19/18 Q1011=,SBSP
1665125640000,SPECI SBSP 070654Z AUTO 35015G25KT 9999 FEW013 19/17 Q1010=,SBSP
1665126000000,METAR SBSP 070700Z AUTO 35014G25KT 9999 FEW013 19/17 Q1010=,SBSP
1665129600000,METAR SBSP 070800Z AUTO 35011KT 320V020 CAVOK 19/17 Q1010=,SBSP
1665133200000,METAR SBSP 070900Z 02012KT CAVOK 20/17 Q1009=,SBSP
1665136800000,METAR SBSP 071000Z 01011KT CAVOK 21/16 Q1011=,SBSP
1665140400000,METAR SBSP 071100Z 32013KT 290V350 9999 FEW015 20/17 Q1013=,SBSP
1665144000000,METAR SBSP 071200Z 33015KT 9999 FEW020 BKN021 BKN066 22/17 Q1014=,SBSP
1665147600000,METAR SBSP 071300Z 33016KT 9999 BKN021 SCT030 BKN073 22/17 Q1013=,SBSP
1665151200000,METAR SBSP 071400Z 33018KT 300V360 9999 BKN023 SCT030 22/17 Q1013=,SBSP
1665154800000,METAR SBSP 071500Z 31014KT 9999 BKN023 SCT033 21/17 Q1013=,SBSP
1665158400000,METAR SBSP 071600Z 33017KT 9999 SCT040 SCT066 22/17 Q1012=,SBSP
1665162000000,METAR SBSP 071700Z 32019G32KT 9999 FEW033 SCT100 25/13 Q1011=,SBSP
1665165600000,METAR SBSP 071800Z 31017KT 9999 FEW043 SCT100 25/13 Q1011=,SBSP
1665169200000,METAR SBSP 071900Z 32014G26KT 9999 FEW046 BKN066 25/13 Q1011=,SBSP
1665172800000,METAR SBSP 072000Z 31011G21KT 9999 SCT046 24/12 Q1012=,SBSP
1665176400000,METAR SBSP 072100Z 29010KT 260V320 9999 FEW046 24/10 Q1013=,SBSP
1665180000000,METAR SBSP 072200Z 31007KT CAVOK 23/10 Q1014=,SBSP
1665183600000,METAR SBSP 072300Z 29005KT 250V330 CAVOK 22/10 Q1015=,SBSP
1665100800000,METAR SBSV 070000Z 09010KT 9999 FEW020 26/24 Q1015=,SBSV
1665104400000,METAR SBSV 070100Z 08010KT 9999 FEW020 26/24 Q1015=,SBSV
1665108000000,METAR SBSV 070200Z 08010KT 9999 FEW020 26/23 Q1015=,SBSV
1665111600000,METAR SBSV 070300Z 09008KT 9999 FEW020 26/23 Q1014=,SBSV
1665115200000,METAR SBSV 070400Z 10007KT 9999 FEW020 26/23 Q1013=,SBSV
1665118800000,METAR SBSV 070500Z 09006KT 9999 FEW020 26/23 Q1013=,SBSV
1665122400000,METAR SBSV 070600Z 07007KT 9999 FEW020 25/23 Q1013=,SBSV
1665126000000,METAR SBSV 070700Z 08007KT 9999 FEW020 26/23 Q1013=,SBSV
1665129600000,METAR SBSV 070800Z 09005KT 9999 FEW020 26/23 Q1014=,SBSV
1665133200000,METAR SBSV 070900Z 07003KT 9999 SCT020 26/23 Q1014=,SBSV
1665136800000,METAR SBSV 071000Z 09011KT 9999 SCT019 28/23 Q1015=,SBSV
1665140400000,METAR SBSV 071100Z 07011KT 9999 BKN019 28/23 Q1016=,SBSV
1665144000000,METAR SBSV 071200Z 07012KT 9999 SCT020 29/23 Q1016=,SBSV
1665147600000,METAR SBSV 071300Z 09014KT 9999 SCT019 29/23 Q1016=,SBSV
1665151200000,METAR SBSV 071400Z 07014KT 9999 SCT019 SCT080 29/23 Q1016=,SBSV
1665154800000,METAR SBSV 071500Z 08015KT 9999 SCT021 29/23 Q1015=,SBSV
1665158400000,METAR SBSV 071600Z 08016KT 9999 SCT019 30/24 Q1014=,SBSV
1665162000000,METAR SBSV 071700Z 07015KT 9999 FEW020 29/23 Q1013=,SBSV
1665165600000,METAR SBSV 071800Z 07014KT 9999 FEW019 29/24 Q1012=,SBSV
1665169200000,METAR SBSV 071900Z 07013KT 9999 FEW020 28/23 Q1012=,SBSV
1665172800000,METAR SBSV 072000Z 08011KT 9999 FEW020 27/23 Q1012=,SBSV
1665176400000,METAR SBSV 072100Z 07012KT CAVOK 26/23 Q1012=,SBSV
1665180000000,METAR SBSV 072200Z 06012KT CAVOK 26/23 Q1012=,SBSV
1665183600000,METAR SBSV 072300Z 06011KT 9999 SCT020 26/23 Q1013=,SBSV
