hora,metar,aero
1679961600000,METAR SBBR 280000Z 12003KT 9999 VCTS FEW040CB 26/15 Q1018=,SBBR
1679965200000,METAR SBBR 280100Z 09003KT CAVOK 25/15 Q1019=,SBBR
1679968800000,METAR SBBR 280200Z 08001KT CAVOK 23/16 Q1019=,SBBR
1679972400000,METAR SBBR 280300Z 18003KT CAVOK 23/16 Q1019=,SBBR
1679976000000,METAR SBBR 280400Z 20005KT CAVOK 23/16 Q1018=,SBBR
1679979600000,METAR SBBR 280500Z 24003KT CAVOK 22/16 Q1018=,SBBR
1679983200000,METAR SBBR 280600Z 18001KT CAVOK 22/16 Q1018=,SBBR
1679986800000,METAR SBBR 280700Z 27001KT CAVOK 20/17 Q1017=,SBBR
1679990400000,METAR SBBR 280800Z 25002KT CAVOK 21/16 Q1018=,SBBR
1679994000000,METAR SBBR 280900Z 00000KT 9999 FEW045 SCT100 20/16 Q1018=,SBBR
1679997600000,METAR SBBR 281000Z VRB02KT 9999 FEW045 SCT100 20/16 Q1019=,SBBR
1680001200000,METAR SBBR 281100Z 07003KT 9999 FEW045 BKN100 22/17 Q1020=,SBBR
1680004800000,METAR SBBR 281200Z 08002KT 9999 FEW045 BKN100 24/17 Q1020=,SBBR
1680008400000,METAR SBBR 281300Z 08008KT 9999 FEW045 BKN100 25/17 Q1020=,SBBR
1680012000000,METAR SBBR 281400Z 09006KT 9999 FEW045 BKN100 26/17 Q1020=,SBBR
1680015600000,METAR SBBR 281500Z 09009KT 9999 FEW045 BKN100 28/17 Q1019=,SBBR
1680019200000,METAR SBBR 281600Z 08010KT 050V120 9999 FEW045 BKN100 28/17 Q1018=,SBBR
1680022800000,METAR SBBR 281700Z 07008KT 340V120 9999 SCT045 BKN100 29/16 Q1017=,SBBR
1680026400000,METAR SBBR 281800Z 08008KT 9999 SCT030 FEW040TCU 28/16 Q1016=,SBBR
1680030000000,METAR SBBR 281900Z 03005KT 9999 BKN030 FEW040TCU BKN100 28/16 Q1017=,SBBR
1680031560000,SPECI SBBR 281926Z 15015G31KT 7000 3000NE RA BKN020 FEW030TCU BKN100 23/16 Q1017=,SBBR
1680033600000,METAR SBBR 282000Z 12006KT 090V160 9999 BKN030 FEW040TCU BKN100 23/18 Q1017 RERA=,SBBR
1680037200000,METAR SBBR 282100Z 30003KT 250V010 9999 SCT030 FEW040TCU BKN100 22/20 Q1017=,SBBR
1680040800000,METAR SBBR 282200Z 13004KT 100V170 9999 FEW030 SCT100 23/17 Q1018=,SBBR
1680044400000,METAR SBBR 282300Z VRB02KT 9999 FEW030 23/18 Q1018=,SBBR
1679961600000,METAR SBCF 280000Z 08008KT CAVOK 26/18 Q1018=,SBCF
1679965200000,METAR SBCF 280100Z 08008KT CAVOK 26/18 Q1018=,SBCF
1679968800000,METAR SBCF 280200Z 12008KT CAVOK 24/18 Q1019=,SBCF
1679972400000,METAR SBCF 280300Z 12008KT CAVOK 23/17 Q1019=,SBCF
1679976000000,METAR SBCF 280400Z 14007KT CAVOK 22/18 Q1018=,SBCF
1679979600000,METAR SBCF 280500Z 11008KT CAVOK 22/18 Q1018=,SBCF
1679983200000,METAR SBCF 280600Z 12008KT CAVOK 21/18 Q1018=,SBCF
1679986800000,METAR SBCF 280700Z 08010KT CAVOK 22/18 Q1018=,SBCF
1679990400000,METAR SBCF 280800Z 10010KT CAVOK 22/18 Q1018=,SBCF
1679994000000,METAR SBCF 280900Z 10009KT 9999 FEW025 21/18 Q1019=,SBCF
1679997600000,METAR SBCF 281000Z 11006KT 080V140 9999 FEW025 21/18 Q1019=,SBCF
1680001200000,METAR SBCF 281100Z 09008KT 9999 FEW025 23/18 Q1020=,SBCF
1680004800000,METAR SBCF 281200Z 11006KT 070V170 9999 SCT020 25/18 Q1020=,SBCF
1680008400000,METAR SBCF 281300Z 08005KT 330V120 9999 BKN023 26/18 Q1020=,SBCF
1680012000000,METAR SBCF 281400Z 06006KT 040V100 9999 BKN030 27/18 Q1020=,SBCF
1680015600000,METAR SBCF 281500Z VRB04KT 9999 BKN030 28/18 Q1019=,SBCF
1680019200000,METAR SBCF 281600Z VRB03KT 9999 BKN036 29/18 Q1018=,SBCF
1680022800000,METAR SBCF 281700Z 05007KT 9999 SCT040 28/18 Q1017=,SBCF
1680026400000,METAR SBCF 281800Z 02006KT 9999 SCT040 30/17 Q1017=,SBCF
1680030000000,METAR SBCF 281900Z 05007KT 9999 SCT043 29/17 Q1016=,SBCF
1680033600000,METAR SBCF 282000Z 05005KT 9999 SCT043 29/17 Q1016=,SBCF
1680037200000,METAR SBCF 282100Z 08011KT 9999 -SHRA SCT036 FEW040TCU 27/18 Q1017=,SBCF
1680040800000,METAR SBCF 282200Z 09009KT 9999 FEW036 26/17 Q1017=,SBCF
1680044400000,METAR SBCF 282300Z 09009KT 9999 FEW036 26/17 Q1018=,SBCF
1679961600000,METAR SBCT 280000Z 09005KT 9999 BKN020 16/14 Q1022=,SBCT
1679965200000,METAR SBCT 280100Z 10006KT 9999 FEW011 BKN020 16/15 Q1022=,SBCT
1679965920000,SPECI SBCT 280112Z 10006KT 9999 BKN014 16/15 Q1022=,SBCT
1679968800000,METAR SBCT 280200Z 11005KT 9999 BKN014 15/14 Q1022=,SBCT
1679972400000,METAR SBCT 280300Z 10003KT 9999 BKN014 15/14 Q1022=,SBCT
1679976000000,METAR SBCT 280400Z 11003KT 9999 BKN014 14/13 Q1021=,SBCT
1679979600000,METAR SBCT 280500Z 10003KT 9999 BKN014 14/13 Q1020=,SBCT
1679983200000,METAR SBCT 280600Z 13003KT 9999 BKN010 13/13 Q1020=,SBCT
1679986800000,METAR SBCT 280700Z 11002KT 9999 BKN010 14/14 Q1019=,SBCT
1679990400000,METAR SBCT 280800Z 10003KT 9999 BKN010 15/14 Q1020=,SBCT
1679994000000,METAR SBCT 280900Z 01002KT 9999 BKN014 15/14 Q1020=,SBCT
1679995500000,SPECI SBCT 280925Z 11002KT 9999 FEW014 15/14 Q1020=,SBCT
1679997600000,METAR SBCT 281000Z 13003KT CAVOK 15/14 Q1020=,SBCT
1680001200000,METAR SBCT 281100Z 09003KT 050V140 9999 FEW015 17/16 Q1021=,SBCT
1680004800000,METAR SBCT 281200Z 06005KT 020V100 9999 FEW017 19/15 Q1021=,SBCT
1680008400000,METAR SBCT 281300Z 06004KT 350V150 9999 FEW020 21/15 Q1021=,SBCT
1680012000000,METAR SBCT 281400Z VRB03KT 9999 SCT025 22/16 Q1021=,SBCT
1680015600000,METAR SBCT 281500Z 07006KT 020V150 9999 SCT030 BKN080 24/16 Q1020=,SBCT
1680019200000,METAR SBCT 281600Z 10005KT 040V160 9999 BKN030 BKN080 23/16 Q1020=,SBCT
1680022800000,METAR SBCT 281700Z 09007KT 9999 BKN030 BKN080 23/17 Q1019=,SBCT
1680026400000,METAR SBCT 281800Z 08006KT 050V110 9999 BKN035 BKN080 23/18 Q1018=,SBCT
1680030000000,METAR SBCT 281900Z 07009KT 9999 BKN035 BKN080 22/18 Q1018=,SBCT
1680033600000,METAR SBCT 282000Z 08009KT 050V110 9999 FEW013 BKN028 BKN080 20/17 Q1018=,SBCT
1680037200000,METAR SBCT 282100Z 07009KT 8000 SCT010 SCT100 20/18 Q1018=,SBCT
1680037500000,SPECI SBCT 282105Z 07009KT 8000 BKN009 SCT100 20/18 Q1018=,SBCT
1680040800000,METAR SBCT 282200Z 08006KT 9000 BKN008 19/18 Q1018=,SBCT
1680044400000,METAR SBCT 282300Z 06006KT 9999 OVC007 19/18 Q1019=,SBCT
1679961600000,METAR SBFL 280000Z 18006KT 9999 FEW030 22/17 Q1018=,SBFL
1679965200000,METAR SBFL 280100Z 18005KT CAVOK 22/17 Q1018=,SBFL
1679968800000,METAR SBFL 280200Z 21004KT CAVOK 22/18 Q1018=,SBFL
1679972400000,METAR SBFL 280300Z VRB02KT CAVOK 22/18 Q1018=,SBFL
1679976000000,METAR SBFL 280400Z 28002KT CAVOK 21/17 Q1018=,SBFL
1679979600000,METAR SBFL 280500Z 26003KT CAVOK 20/18 Q1017=,SBFL
1679983200000,METAR SBFL 280600Z 01004KT CAVOK 20/19 Q1017=,SBFL
1679986800000,METAR SBFL 280700Z 26003KT CAVOK 20/18 Q1016=,SBFL
1679990400000,METAR SBFL 280800Z 29005KT CAVOK 20/18 Q1016=,SBFL
1679994000000,METAR SBFL 280900Z 27002KT CAVOK 20/18 Q1016=,SBFL
1679997600000,METAR SBFL 281000Z 27003KT 230V300 CAVOK 21/19 Q1017=,SBFL
1680001200000,METAR SBFL 281100Z 29005KT CAVOK 22/19 Q1017=,SBFL
1680004800000,METAR SBFL 281200Z 35001KT CAVOK 23/19 Q1018=,SBFL
1680008400000,METAR SBFL 281300Z 31003KT CAVOK 24/18 Q1018=,SBFL
1680012000000,METAR SBFL 281400Z 31004KT CAVOK 25/17 Q1017=,SBFL
1680015600000,METAR SBFL 281500Z 35009KT CAVOK 27/17 Q1017=,SBFL
1680019200000,METAR SBFL 281600Z 34008KT CAVOK 27/18 Q1016=,SBFL
1680022800000,METAR SBFL 281700Z 36010KT CAVOK 28/18 Q1015=,SBFL
1680026400000,METAR SBFL 281800Z 36012KT 330V030 9999 FEW010 SCT035 26/18 Q1014=,SBFL
1680030000000,METAR SBFL 281900Z 36014KT 9999 SCT040 27/19 Q1014=,SBFL
1680033600000,METAR SBFL 282000Z 01013KT 9999 FEW040 26/20 Q1014=,SBFL
1680037200000,METAR SBFL 282100Z 36009KT 9999 SCT030 25/20 Q1014=,SBFL
1680040800000,METAR SBFL 282200Z 36008KT 9999 SCT025 25/20 Q1014=,SBFL
1680044400000,METAR SBFL 282300Z 34009KT 9999 BKN025 25/21 Q1015=,SBFL
1679961600000,METAR SBGL 280000Z 32006KT 3000 -RA BR FEW005 BKN013 OVC030 23/22 Q1017=,SBGL
1679965200000,METAR SBGL 280100Z 04005KT 6000 -RA BKN013 OVC040 23/21 Q1017=,SBGL
1679968800000,METAR SBGL 280200Z 32003KT 9999 BKN015 OVC040 23/22 Q1017=,SBGL
1679971200000,SPECI SBGL 280240Z 26002KT 3000 -DZ BR FEW009 BKN015 OVC040 23/22 Q1017=,SBGL
1679972400000,METAR SBGL 280300Z 31003KT 3500 -DZ BR FEW009 BKN015 OVC040 23/22 Q1017=,SBGL
1679973000000,SPECI SBGL 280310Z 02003KT 3500 -DZ BR SCT005 BKN010 OVC040 23/22 Q1017=,SBGL
1679974500000,SPECI SBGL 280335Z 04004KT 8000 SCT005 SCT012 OVC040 22/21 Q1017=,SBGL
1679976000000,METAR SBGL 280400Z 32002KT 9999 FEW006 SCT015 OVC040 22/21 Q1017=,SBGL
1679979600000,METAR SBGL 280500Z 28004KT 9999 FEW006 SCT015 OVC040 23/22 Q1016=,SBGL
1679983200000,METAR SBGL 280600Z 30005KT 8000 SCT015 OVC040 23/22 Q1016=,SBGL
1679986800000,METAR SBGL 280700Z 29004KT 8000 SCT015 OVC040 23/22 Q1016=,SBGL
1679990400000,METAR SBGL 280800Z 35004KT 8000 SCT015 OVC040 23/22 Q1016=,SBGL
1679994000000,METAR SBGL 280900Z 13002KT 8000 BKN009 OVC040 23/21 Q1016=,SBGL
1679995800000,SPECI SBGL 280930Z 30002KT 9999 FEW010 OVC040 23/22 Q1016=,SBGL
1679997600000,METAR SBGL 281000Z 33003KT 9999 FEW015 OVC040 23/21 Q1016=,SBGL
1680001200000,METAR SBGL 281100Z 32003KT 300V010 9999 SCT009 BKN040 OVC050 24/21 Q1017=,SBGL
1680004800000,METAR SBGL 281200Z 03003KT 340V070 9999 FEW030 BKN050 OVC070 25/21 Q1017=,SBGL
1680008400000,METAR SBGL 281300Z 35004KT 9999 FEW017 BKN070 27/21 Q1017=,SBGL
1680012000000,METAR SBGL 281400Z 01007KT 9999 FEW020 SCT070 28/21 Q1016=,SBGL
1680015600000,METAR SBGL 281500Z 11005KT 080V150 9999 FEW025 BKN060 28/20 Q1016=,SBGL
1680019200000,METAR SBGL 281600Z 14008KT 9999 FEW030 BKN040 OVC050 27/20 Q1015=,SBGL
1680022800000,METAR SBGL 281700Z 14009KT 9999 FEW030 BKN043 OVC050 27/20 Q1015=,SBGL
1680026400000,METAR SBGL 281800Z 10010KT 9999 FEW030 BKN043 OVC046 27/20 Q1015=,SBGL
1680030000000,METAR SBGL 281900Z 14010KT 9999 FEW030 BKN040 OVC046 26/20 Q1015=,SBGL
1680033600000,METAR SBGL 282000Z 13012KT 9999 FEW030 OVC043 26/20 Q1015=,SBGL
1680037200000,METAR SBGL 282100Z 13009KT 9999 FEW030 OVC040 26/21 Q1015=,SBGL
1680040800000,METAR SBGL 282200Z 13006KT 9999 FEW025 OVC040 25/21 Q1015=,SBGL
1680044400000,METAR SBGL 282300Z 12006KT 9999 SCT020 OVC035 26/21 Q1016=,SBGL
1679961600000,METAR SBGR 280000Z 14006KT 9999 OVC011 19/17 Q1021=,SBGR
1679965200000,METAR SBGR 280100Z 12007KT 9999 OVC013 20/17 Q1021=,SBGR
1679968800000,METAR SBGR 280200Z 10006KT 9999 BKN013 OVC030 20/17 Q1021=,SBGR
1679972400000,METAR SBGR 280300Z 10005KT 9999 BKN013 OVC026 20/17 Q1021=,SBGR
1679976000000,METAR SBGR 280400Z 10005KT 9999 BKN015 20/17 Q1020=,SBGR
1679979600000,METAR SBGR 280500Z 12005KT 9999 BKN013 OVC025 20/17 Q1019=,SBGR
1679983200000,METAR SBGR 280600Z 10003KT 9999 BKN023 20/17 Q1019=,SBGR
1679986800000,METAR SBGR 280700Z 12004KT 8000 SCT013 OVC020 19/17 Q1019=,SBGR
1679990400000,METAR SBGR 280800Z 08005KT 8000 OVC015 19/17 Q1019=,SBGR
1679994000000,METAR SBGR 280900Z 11003KT 8000 SCT013 OVC017 19/17 Q1019=,SBGR
1679997600000,METAR SBGR 281000Z 06006KT 9999 OVC016 20/17 Q1020=,SBGR
1680001200000,METAR SBGR 281100Z 07010KT 9999 FEW013 OVC015 20/17 Q1020=,SBGR
1680004800000,METAR SBGR 281200Z 07009KT 9999 OVC015 21/18 Q1020=,SBGR
1680008400000,METAR SBGR 281300Z 07009KT 9999 SCT013 OVC017 21/18 Q1020=,SBGR
1680012000000,METAR SBGR 281400Z 07007KT 9999 SCT013 OVC015 21/18 Q1020=,SBGR
1680015600000,METAR SBGR 281500Z 06007KT 9999 OVC019 23/18 Q1019=,SBGR
1680019200000,METAR SBGR 281600Z 12004KT 9999 OVC020 24/18 Q1019=,SBGR
1680022800000,METAR SBGR 281700Z 11004KT 9999 OVC020 24/19 Q1018=,SBGR
1680026400000,METAR SBGR 281800Z 00000KT 9999 BKN025 26/19 Q1017=,SBGR
1680030000000,METAR SBGR 281900Z 12008KT 9999 OVC020 24/19 Q1017=,SBGR
1680033600000,METAR SBGR 282000Z 13007KT 9999 BKN015 OVC030 23/19 Q1018=,SBGR
1680037200000,METAR SBGR 282100Z 14006KT 9999 SCT013 OVC025 22/19 Q1018=,SBGR
1680039300000,SPECI SBGR 282135Z 11005KT 9999 OVC013 21/19 Q1019=,SBGR
1680040800000,METAR SBGR 282200Z 12006KT 9999 BKN013 OVC025 21/19 Q1019=,SBGR
1680044400000,METAR SBGR 282300Z 13004KT 9999 SCT011 BKN025 21/19 Q1019=,SBGR
1679961600000,METAR SBKP 280000Z 13014KT CAVOK 22/18 Q1018=,SBKP
1679965200000,METAR SBKP 280100Z 13012KT CAVOK 21/17 Q1019=,SBKP
1679968800000,METAR SBKP 280200Z 13016KT 9999 FEW015 21/17 Q1019=,SBKP
1679972400000,METAR SBKP 280300Z 13012KT 9999 FEW015 20/17 Q1019=,SBKP
1679976000000,METAR SBKP 280400Z 12010KT 9999 FEW015 20/17 Q1018=,SBKP
1679979600000,METAR SBKP 280500Z 12012KT 9999 FEW015 20/17 Q1017=,SBKP
1679983200000,METAR SBKP 280600Z 11006KT 9999 FEW015 20/17 Q1017=,SBKP
1679986800000,METAR SBKP 280700Z 12009KT CAVOK 20/17 Q1017=,SBKP
1679990400000,METAR SBKP 280800Z 11008KT 9999 FEW015 SCT100 19/16 Q1017=,SBKP
1679994000000,METAR SBKP 280900Z 12011KT 9999 FEW015 SCT100 19/17 Q1017=,SBKP
1679997600000,METAR SBKP 281000Z 12010KT CAVOK 20/17 Q1018=,SBKP
1680001200000,METAR SBKP 281100Z 12013KT CAVOK 21/17 Q1018=,SBKP
1680004800000,METAR SBKP 281200Z 13009KT CAVOK 23/18 Q1019=,SBKP
1680008400000,METAR SBKP 281300Z 13007KT 070V170 CAVOK 25/18 Q1019=,SBKP
1680012000000,METAR SBKP 281400Z VRB03KT 9999 FEW030 27/19 Q1018=,SBKP
1680015600000,METAR SBKP 281500Z VRB03KT 9999 FEW036 29/19 Q1018=,SBKP
1680019200000,METAR SBKP 281600Z 33005KT 270V050 9999 SCT040 SCT100 29/19 Q1017=,SBKP
1680022800000,METAR SBKP 281700Z VRB03KT 9999 SCT045 30/19 Q1016=,SBKP
1680026400000,METAR SBKP 281800Z VRB03KT 9999 SCT045 31/19 Q1015=,SBKP
1680028500000,SPECI SBKP 281835Z 22007KT 190V260 9999 4000N -TSRA SCT045 FEW050CB 30/19 Q1015=,SBKP
1680030000000,METAR SBKP 281900Z 02010KT 330V060 9999 4000N -TSRA SCT045 FEW050CB 27/18 Q1015=,SBKP
1680032100000,SPECI SBKP 281935Z 14004KT 050V220 9000 3000SW TSRA SCT040 FEW045CB 26/18 Q1015=,SBKP
1680033600000,METAR SBKP 282000Z 21006KT 180V250 4000 TSRA BR SCT040 FEW045CB SCT080 23/20 Q1016=,SBKP
1680034800000,SPECI SBKP 282020Z 13008KT 9000 4000SW -TSRA FEW040 FEW045CB BKN100 22/20 Q1016 RERA=,SBKP
1680037200000,METAR SBKP 282100Z 14009KT 9999 3000SW -TSRA FEW040 FEW045CB BKN080 23/20 Q1016 RERA=,SBKP
1680040800000,METAR SBKP 282200Z 12010KT 9999 -RA VCTS FEW040 FEW050CB 22/20 Q1017 RETS=,SBKP
1680044400000,METAR SBKP 282300Z 11006KT 9999 -RA VCTS FEW045 FEW050CB SCT080 22/20 Q1018=,SBKP
1679961600000,METAR SBPA 280000Z 10008KT CAVOK 21/15 Q1017=,SBPA
1679965200000,METAR SBPA 280100Z 11007KT CAVOK 20/15 Q1017=,SBPA
1679968800000,METAR SBPA 280200Z 09008KT CAVOK 20/15 Q1017=,SBPA
1679972400000,METAR SBPA 280300Z 09008KT CAVOK 19/15 Q1016=,SBPA
1679976000000,METAR SBPA 280400Z 08008KT CAVOK 19/15 Q1016=,SBPA
1679979600000,METAR SBPA 280500Z 09006KT CAVOK 17/15 Q1015=,SBPA
1679983200000,METAR SBPA 280600Z 07004KT CAVOK 17/15 Q1015=,SBPA
1679986800000,METAR SBPA 280700Z 07004KT CAVOK 16/15 Q1015=,SBPA
1679990400000,METAR SBPA 280800Z 08003KT CAVOK 17/15 Q1015=,SBPA
1679994000000,METAR SBPA 280900Z 10003KT CAVOK 17/15 Q1015=,SBPA
1679997600000,METAR SBPA 281000Z 09003KT CAVOK 17/15 Q1015=,SBPA
1680001200000,METAR SBPA 281100Z 08004KT CAVOK 20/17 Q1016=,SBPA
1680004800000,METAR SBPA 281200Z 08006KT CAVOK 23/16 Q1015=,SBPA
1680008400000,METAR SBPA 281300Z 08009KT CAVOK 24/16 Q1015=,SBPA
1680012000000,METAR SBPA 281400Z 07006KT 040V120 CAVOK 26/16 Q1015=,SBPA
1680015600000,METAR SBPA 281500Z 09006KT 010V130 CAVOK 27/17 Q1014=,SBPA
1680019200000,METAR SBPA 281600Z 10006KT 060V150 CAVOK 28/18 Q1013=,SBPA
1680022800000,METAR SBPA 281700Z 07004KT 360V120 9999 FEW035 30/19 Q1012=,SBPA
1680026400000,METAR SBPA 281800Z 11004KT 060V210 9999 FEW040 30/19 Q1011=,SBPA
1680030000000,METAR SBPA 281900Z 11003KT 020V190 9999 FEW045 31/18 Q1010=,SBPA
1680033600000,METAR SBPA 282000Z 11006KT 9999 FEW045 31/19 Q1010=,SBPA
1680037200000,METAR SBPA 282100Z 10013KT CAVOK 28/19 Q1010=,SBPA
1680040800000,METAR SBPA 282200Z 10012KT CAVOK 26/19 Q1010=,SBPA
1680044400000,METAR SBPA 282300Z 10011KT CAVOK 24/19 Q1011=,SBPA
1679961600000,METAR SBRF 280000Z 12007KT 070V150 9999 SCT025 28/21 Q1012=,SBRF
1679965200000,METAR SBRF 280100Z 14006KT 9999 SCT023 28/22 Q1013=,SBRF
1679968800000,METAR SBRF 280200Z 13005KT 040V160 9999 BKN023 28/22 Q1012=,SBRF
1679972400000,METAR SBRF 280300Z 13007KT 9999 SCT025 SCT060 28/21 Q1012=,SBRF
1679976000000,METAR SBRF 280400Z 13005KT 9999 BKN025 27/21 Q1012=,SBRF
1679979600000,METAR SBRF 280500Z 12005KT 9999 SCT025 27/21 Q1011=,SBRF
1679983200000,METAR SBRF 280600Z 23004KT 9999 BKN023 25/21 Q1011=,SBRF
1679986800000,METAR SBRF 280700Z 24004KT 9999 BKN023 25/21 Q1011=,SBRF
1679990400000,METAR SBRF 280800Z 24003KT 9999 BKN021 25/21 Q1012=,SBRF
1679994000000,METAR SBRF 280900Z 20005KT 9999 VCSH SCT023 25/22 Q1012=,SBRF
1679997600000,METAR SBRF 281000Z 21006KT 9999 VCSH SCT023 BKN060 26/22 Q1013=,SBRF
1680001200000,METAR SBRF 281100Z 19008KT 8000 VCSH BKN023 27/23 Q1013=,SBRF
1680004800000,METAR SBRF 281200Z 21008KT 180V240 9999 SCT023 27/22 Q1014=,SBRF
1680008400000,METAR SBRF 281300Z 21003KT 140V300 9999 SCT023 28/22 Q1014=,SBRF
1680012000000,METAR SBRF 281400Z 14006KT 080V190 9999 SCT023 30/23 Q1013=,SBRF
1680015600000,METAR SBRF 281500Z 15007KT 9999 FEW023 30/22 Q1012=,SBRF
1680019200000,METAR SBRF 281600Z 12007KT 030V160 9999 FEW023 30/22 Q1011=,SBRF
1680022800000,METAR SBRF 281700Z 13008KT 100V170 9999 FEW023 30/23 Q1011=,SBRF
1680026400000,METAR SBRF 281800Z 15010KT 110V180 9999 FEW023 29/23 Q1010=,SBRF
1680030000000,METAR SBRF 281900Z 14011KT 9999 FEW025 29/22 Q1010=,SBRF
1680033600000,METAR SBRF 282000Z 15012KT 9999 FEW025 28/22 Q1011=,SBRF
1680037200000,METAR SBRF 282100Z 14007KT 9999 SCT024 29/22 Q1011=,SBRF
1680040800000,METAR SBRF 282200Z 15012KT 9999 SCT024 28/22 Q1012=,SBRF
1680044400000,METAR SBRF 282300Z 14011KT 9999 SCT024 28/22 Q1012=,SBRF
1679961600000,METAR SBRJ 280000Z 33004KT 9999 FEW013 SCT020 OVC050 24/22 Q1016=,SBRJ
1679965200000,METAR SBRJ 280100Z 33006KT 9999 SCT020 BKN050 24/22 Q1016=,SBRJ
1679968800000,METAR SBRJ 280200Z 34004KT 8000 -RA FEW010 BKN015 OVC025 24/21 Q1017=,SBRJ
1679972400000,METAR SBRJ 280300Z 01006KT 9000 FEW010 BKN018 OVC045 23/21 Q1016=,SBRJ
1679976000000,METAR SBRJ 280400Z 32007KT 9999 FEW010 BKN025 OVC050 23/21 Q1016=,SBRJ
1679979600000,METAR SBRJ 280500Z 27004KT 9999 FEW015 SCT025 OVC050 24/21 Q1016=,SBRJ
1679983200000,METAR SBRJ 280600Z 27005KT 240V300 9999 FEW015 SCT025 OVC050 24/22 Q1015=,SBRJ
1679986800000,METAR SBRJ 280700Z 11008KT 9999 FEW015 SCT025 OVC050 24/22 Q1015=,SBRJ
1679990400000,METAR SBRJ 280800Z 18007KT 8000 -RA SCT013 SCT025 OVC040 22/21 Q1015=,SBRJ
1679994000000,METAR SBRJ 280900Z VRB02KT 9999 FEW015 SCT025 OVC045 23/21 Q1015=,SBRJ
1679997600000,METAR SBRJ 281000Z 30003KT 270V330 9999 FEW015 SCT025 BKN045 24/21 Q1016=,SBRJ
1680001200000,METAR SBRJ 281100Z 02005KT 9999 FEW015 SCT020 BKN050 24/22 Q1017=,SBRJ
1680004800000,METAR SBRJ 281200Z 33005KT 290V360 9999 FEW018 SCT030 BKN050 25/21 Q1017=,SBRJ
1680008400000,METAR SBRJ 281300Z 34005KT 9999 FEW018 SCT050 BKN070 26/22 Q1017=,SBRJ
1680012000000,METAR SBRJ 281400Z 33005KT 290V350 9999 SCT020 BKN070 26/22 Q1016=,SBRJ
1680015600000,METAR SBRJ 281500Z 06003KT 010V130 9999 FEW020 SCT050 BKN070 28/22 Q1016=,SBRJ
1680019200000,METAR SBRJ 281600Z 16008KT 9999 FEW040 BKN060 27/21 Q1015=,SBRJ
1680022800000,METAR SBRJ 281700Z 17008KT 9999 FEW040 OVC050 27/20 Q1015=,SBRJ
1680026400000,METAR SBRJ 281800Z 17008KT 9999 FEW030 OVC050 27/21 Q1015=,SBRJ
1680030000000,METAR SBRJ 281900Z 18010KT 9999 FEW030 OVC050 26/20 Q1014=,SBRJ
1680033600000,METAR SBRJ 282000Z 16009KT 9999 FEW020 SCT030 OVC050 26/22 Q1015=,SBRJ
1680037200000,METAR SBRJ 282100Z 18008KT 9999 FEW020 SCT030 OVC040 25/22 Q1015=,SBRJ
1680040800000,METAR SBRJ 282200Z 12007KT 9999 FEW020 SCT030 OVC040 25/22 Q1015=,SBRJ
1680044400000,METAR SBRJ 282300Z 14006KT 9999 FEW020 SCT030 OVC040 25/22 Q1016=,SBRJ
1679961600000,METAR SBSP 280000Z 13008KT 9999 SCT011 SCT021 19/16 Q1021=,SBSP
1679965200000,METAR SBSP 280100Z 13009KT 9999 SCT011 BKN015 19/16 Q1022=,SBSP
1679968800000,METAR SBSP 280200Z 13008KT 9999 BKN043 19/16 Q1022=,SBSP
1679968800000,SPECI SBSP 280200Z 13007KT 100V160 9999 FEW017 SCT033 BKN045 19/16 Q1022=,SBSP
1679972400000,METAR SBSP 280300Z AUTO 13007KT 9999 FEW012 OVC030 18/16 Q1021=,SBSP
1679976000000,METAR SBSP 280400Z AUTO 13008KT 9999 FEW010 OVC030 19/16 Q1020=,SBSP
1679979480000,SPECI SBSP 280458Z AUTO 12006KT 090V160 9999 BKN014 OVC026 19/16 Q1020=,SBSP
1679979600000,METAR SBSP 280500Z AUTO 12006KT 090V160 9999 BKN014 OVC026 19/16 Q1020=,SBSP
1679983140000,SPECI SBSP 280559Z AUTO 13008KT 110V170 9999 SCT006 OVC009 19/17 Q1020=,SBSP
1679983200000,METAR SBSP 280600Z AUTO 13008KT 110V170 9999 SCT006 OVC009 19/17 Q1020=,SBSP
1679984640000,SPECI SBSP 280624Z AUTO 13008KT 090V150 9999 BKN008 OVC010 19/17 Q1019=,SBSP
1679986500000,SPECI SBSP 280655Z AUTO 14007KT 100V170 9999 BKN009 OVC026 19/17 Q1019=,SBSP
1679986800000,METAR SBSP 280700Z AUTO 14007KT 100V170 9999 BKN009 OVC026 19/17 Q1019=,SBSP
1679987220000,SPECI SBSP 280707Z AUTO 13007KT 9999 FEW009 OVC024 19/17 Q1019=,SBSP
1679990400000,METAR SBSP 280800Z AUTO 13005KT 9999 FEW010 OVC021 19/17 Q1019=,SBSP
1679991060000,SPECI SBSP 280811Z AUTO 12007KT 100V160 9999 BKN012 BKN018 OVC022 19/17 Q1019=,SBSP
1679994000000,METAR SBSP 280900Z 10006KT 060V130 9999 SCT009 BKN015 19/17 Q1020=,SBSP
1679997600000,METAR SBSP 281000Z 12005KT 9999 SCT011 BKN013 19/17 Q1020=,SBSP
1680001200000,METAR SBSP 281100Z 13006KT 9999 SCT011 BKN015 20/17 Q1021=,SBSP
1680004800000,METAR SBSP 281200Z 10006KT 9999 SCT011 BKN013 20/17 Q1021=,SBSP
1680008400000,METAR SBSP 281300Z 11007KT 070V140 9999 BKN013 21/17 Q1021=,SBSP
1680012000000,METAR SBSP 281400Z 08006KT 040V150 9999 BKN019 22/17 Q1021=,SBSP
1680015600000,METAR SBSP 281500Z 10005KT 050V140 9999 SCT019 BKN021 23/18 Q1020=,SBSP
1680019200000,METAR SBSP 281600Z 08005KT 030V140 9999 BKN026 24/18 Q1020=,SBSP
1680022800000,METAR SBSP 281700Z 15006KT 9999 FEW019 BKN030 24/18 Q1019=,SBSP
1680026400000,METAR SBSP 281800Z 16008KT 130V200 9000 FEW015 BKN023 25/19 Q1018=,SBSP
1680030000000,METAR SBSP 281900Z 15012KT 9000 FEW013 BKN017 23/19 Q1018=,SBSP
1680033600000,METAR SBSP 282000Z 17012KT 8000 FEW007 OVC011 21/19 Q1019=,SBSP
1680037200000,METAR SBSP 282100Z 14008KT 9000 SCT007 OVC009 20/18 Q1019=,SBSP
1680040800000,METAR SBSP 282200Z 13008KT 7000 SCT006 OVC011 20/18 Q1020=,SBSP
1680044400000,METAR SBSP 282300Z 14007KT 9999 SCT009 BKN011 21/18 Q1020=,SBSP
1679961600000,METAR SBSV 280000Z 12009KT 9999 FEW027 28/23 Q1013=,SBSV
1679965200000,METAR SBSV 280100Z 10009KT 9999 FEW027 28/22 Q1014=,SBSV
1679968800000,METAR SBSV 280200Z 10008KT 9999 FEW027 28/22 Q1014=,SBSV
1679972400000,METAR SBSV 280300Z 11009KT 9999 FEW027 28/22 Q1013=,SBSV
1679976000000,METAR SBSV 280400Z 09013KT 5000 SHRA SCT013 SCT023 FEW023TCU 24/22 Q1014=,SBSV
1679976600000,SPECI SBSV 280410Z VRB05KT 6000 -RA SCT015 SCT023 FEW023TCU 24/23 Q1013 RESHRA=,SBSV
1679979600000,METAR SBSV 280500Z 16009KT 8000 VCSH SCT023 FEW023TCU 25/23 Q1013 RESHRA=,SBSV
1679983200000,METAR SBSV 280600Z 27004KT 9999 SCT023 FEW023TCU SCT080 25/23 Q1013=,SBSV
1679986800000,METAR SBSV 280700Z 12003KT 9999 SCT023 FEW023TCU SCT080 25/23 Q1013=,SBSV
1679990400000,METAR SBSV 280800Z 34005KT 9999 SCT023 FEW026TCU SCT080 24/23 Q1013=,SBSV
1679994000000,METAR SBSV 280900Z 35003KT 280V030 9999 SCT023 FEW026TCU BKN080 24/23 Q1013=,SBSV
1679997600000,METAR SBSV 281000Z 35003KT 9999 VCSH SCT023 FEW026TCU BKN080 25/23 Q1014=,SBSV
1680001200000,METAR SBSV 281100Z 32003KT 9999 VCSH SCT023 FEW026TCU BKN060 27/23 Q1015=,SBSV
1680003000000,SPECI SBSV 281130Z 16007KT 090V200 3000 SHRA BKN016 FEW020TCU BKN060 26/24 Q1015=,SBSV
1680004800000,METAR SBSV 281200Z 25004KT 210V280 6000 -RA BKN016 FEW020TCU BKN060 26/24 Q1015 RESHRA=,SBSV
1680008400000,METAR SBSV 281300Z 19006KT 9999 SCT020 FEW023TCU BKN060 28/24 Q1015=,SBSV
1680012000000,METAR SBSV 281400Z 17012KT 9999 VCSH SCT020 FEW023TCU BKN060 28/24 Q1015=,SBSV
1680015600000,METAR SBSV 281500Z 12007KT 9999 SCT020 FEW023TCU 29/24 Q1014=,SBSV
1680019200000,METAR SBSV 281600Z 13011KT 9999 SCT020 FEW023TCU 29/24 Q1013=,SBSV
1680022800000,METAR SBSV 281700Z 11011KT 9999 SCT020 30/23 Q1012=,SBSV
1680026400000,METAR SBSV 281800Z 11009KT 9999 SCT020 30/22 Q1012=,SBSV
1680030000000,METAR SBSV 281900Z 11009KT 9999 SCT020 FEW023TCU 29/23 Q1012=,SBSV
1680033600000,METAR SBSV 282000Z 09008KT 9999 SCT020 FEW023TCU 29/23 Q1012=,SBSV
1680037200000,METAR SBSV 282100Z 10009KT 9999 SCT020 FEW023TCU 28/23 Q1013=,SBSV
1680040800000,METAR SBSV 282200Z 11009KT 9999 SCT020 SCT060 28/23 Q1013=,SBSV
1680044400000,METAR SBSV 282300Z 10010KT 9999 SCT020 SCT060 28/23 Q1014=,SBSV
