hora,metar,aero
1669161600000,METAR SBBR 230000Z 08005KT 030V100 9999 SCT040 FEW045TCU BKN100 24/18 Q1016=,SBBR
1669165200000,METAR SBBR 230100Z 07003KT 9999 FEW040 SCT100 23/18 Q1017=,SBBR
1669168800000,METAR SBBR 230200Z 10005KT CAVOK 22/18 Q1017=,SBBR
1669172400000,METAR SBBR 230300Z 27003KT CAVOK 21/18 Q1016=,SBBR
1669176000000,METAR SBBR 230400Z 28004KT CAVOK 21/18 Q1015=,SBBR
1669179600000,METAR SBBR 230500Z 34002KT CAVOK 21/18 Q1015=,SBBR
1669183200000,METAR SBBR 230600Z VRB01KT CAVOK 21/18 Q1014=,SBBR
1669186800000,METAR SBBR 230700Z VRB01KT CAVOK 21/18 Q1015=,SBBR
1669190400000,METAR SBBR 230800Z VRB01KT 9999 FEW030 BKN080 20/18 Q1015=,SBBR
1669194000000,METAR SBBR 230900Z VRB02KT 9999 FEW030 BKN090 20/18 Q1016=,SBBR
1669197600000,METAR SBBR 231000Z VRB01KT 9999 FEW030 BKN090 22/18 Q1016=,SBBR
1669201200000,METAR SBBR 231100Z 35003KT 9999 SCT030 BKN090 23/17 Q1017=,SBBR
1669204800000,METAR SBBR 231200Z 32003KT 9999 SCT030 BKN090 25/18 Q1017=,SBBR
1669208400000,METAR SBBR 231300Z 27009KT 9999 VCSH BKN030 FEW040TCU BKN090 24/18 Q1017=,SBBR
1669212000000,METAR SBBR 231400Z 22011KT 9000 2000SE -TSRA BKN025 FEW035CB BKN090 20/17 Q1018=,SBBR
1669215600000,METAR SBBR 231500Z 18004KT 9000 -RA BKN030 FEW035TCU BKN090 20/19 Q1017 RETS=,SBBR
1669219200000,METAR SBBR 231600Z 27007KT 9999 SCT025 FEW035TCU BKN100 24/20 Q1016=,SBBR
1669222800000,METAR SBBR 231700Z 27006KT 9999 SCT030 FEW035TCU BKN100 25/18 Q1015=,SBBR
1669226400000,METAR SBBR 231800Z 16012KT 9999 SCT030 FEW035TCU BKN100 25/19 Q1014=,SBBR
1669230000000,METAR SBBR 231900Z 13015KT 9999 SCT030 FEW035TCU BKN100 23/18 Q1014=,SBBR
1669233600000,METAR SBBR 232000Z 11009KT 9999 SCT030 FEW035TCU BKN100 23/18 Q1014=,SBBR
1669237200000,METAR SBBR 232100Z 08007KT 9999 FEW010 SCT030 BKN100 21/19 Q1014=,SBBR
1669240800000,METAR SBBR 232200Z 07006KT 9999 FEW010 SCT030 BKN100 21/19 Q1015=,SBBR
1669244400000,METAR SBBR 232300Z 09004KT 050V120 9999 FEW010 BKN100 21/19 Q1016=,SBBR
1669161600000,METAR SBCF 230000Z 09008KT CAVOK 23/17 Q1016=,SBCF
1669165200000,METAR SBCF 230100Z 11008KT CAVOK 22/17 Q1017=,SBCF
1669168800000,METAR SBCF 230200Z 07006KT CAVOK 22/17 Q1017=,SBCF
1669172400000,METAR SBCF 230300Z 09003KT CAVOK 21/17 Q1016=,SBCF
1669176000000,METAR SBCF 230400Z 12004KT CAVOK 20/17 Q1016=,SBCF
1669179600000,METAR SBCF 230500Z 10007KT CAVOK 20/17 Q1015=,SBCF
1669183200000,METAR SBCF 230600Z 10007KT CAVOK 20/17 Q1014=,SBCF
1669186800000,METAR SBCF 230700Z 09009KT CAVOK 20/17 Q1015=,SBCF
1669190400000,METAR SBCF 230800Z 08007KT 9999 FEW020 SCT070 20/17 Q1015=,SBCF
1669194000000,METAR SBCF 230900Z 08009KT 9999 FEW020 SCT070 20/17 Q1016=,SBCF
1669197600000,METAR SBCF 231000Z 10008KT 9999 FEW020 SCT080 21/18 Q1017=,SBCF
1669201200000,METAR SBCF 231100Z 09008KT 9999 SCT025 23/18 Q1017=,SBCF
1669204800000,METAR SBCF 231200Z 08005KT 040V210 9999 BKN020 24/18 Q1018=,SBCF
1669208400000,METAR SBCF 231300Z 05005KT 350V110 9999 BKN025 24/18 Q1017=,SBCF
1669212000000,METAR SBCF 231400Z 09006KT 050V130 9999 BKN026 26/18 Q1017=,SBCF
1669215600000,METAR SBCF 231500Z 14006KT 110V180 9999 VCSH BKN030 FEW035TCU 26/17 Q1016=,SBCF
1669219200000,METAR SBCF 231600Z 13005KT 070V230 9999 VCSH BKN030 FEW035TCU 26/18 Q1015=,SBCF
1669222800000,METAR SBCF 231700Z 02008KT 350V050 9999 VCSH VCTS BKN030 FEW035CB 24/18 Q1014=,SBCF
1669223100000,SPECI SBCF 231705Z 01007KT 9999 TS VCSH BKN030 FEW035CB 24/17 Q1014=,SBCF
1669226400000,METAR SBCF 231800Z 33010KT 9000 -TSRA SCT035 FEW040CB BKN066 20/18 Q1015=,SBCF
1669228380000,SPECI SBCF 231833Z 33007KT 9999 SCT030 FEW040TCU BKN100 21/19 Q1014 RETS=,SBCF
1669230000000,METAR SBCF 231900Z 34009KT 9999 VCSH FEW020 SCT030 FEW040TCU BKN100 21/18 Q1014 RETS=,SBCF
1669233600000,METAR SBCF 232000Z 01009KT 9999 VCSH FEW020 SCT030 FEW040TCU BKN100 21/18 Q1014=,SBCF
1669237200000,METAR SBCF 232100Z VRB04KT 9999 -RA FEW007 SCT030 FEW040TCU BKN100 20/18 Q1014=,SBCF
1669240800000,METAR SBCF 232200Z VRB02KT 9999 SCT030 BKN100 20/18 Q1014=,SBCF
1669244400000,METAR SBCF 232300Z 29005KT 9999 FEW025 SCT100 20/18 Q1015=,SBCF
1669161600000,METAR SBCT 230000Z 07003KT CAVOK 19/18 Q1016=,SBCT
1669165200000,METAR COR SBCT 230100Z 05003KT 9999 3000SE SCT005 BKN100 18/18 Q1016=,SBCT
1669166580000,SPECI SBCT 230123Z 05004KT 7000 3000SE BKN004 BKN100 18/18 Q1016=,SBCT
1669168800000,METAR SBCT 230200Z 08003KT 060V120 2000 BR BKN002 18/18 Q1016=,SBCT
1669170060000,SPECI SBCT 230221Z 06004KT 0600 R15/0650 R33/1000 FG VV002 18/18 Q1016=,SBCT
1669172400000,METAR SBCT 230300Z 05004KT 020V090 0600 R15/0600 R33/0600 FG VV002 18/18 Q1015=,SBCT
1669174500000,SPECI SBCT 230335Z 01004KT 320V050 1500 R33/1700 R15/P2000 BR BCFG OVC003 18/18 Q1015=,SBCT
1669176000000,METAR SBCT 230400Z 01004KT 340V040 3000 BR OVC003 18/18 Q1015=,SBCT
1669179600000,METAR SBCT 230500Z 01003KT 6000 BKN003 18/18 Q1015=,SBCT
1669183200000,METAR SBCT 230600Z 36004KT 4500 BR SCT009 17/17 Q1014=,SBCT
1669186800000,METAR SBCT 230700Z 02003KT 6000 BKN008 18/18 Q1014=,SBCT
1669190400000,METAR SBCT 230800Z 04003KT 4000 BR MIFG SCT007 17/17 Q1014=,SBCT
1669194000000,METAR SBCT 230900Z VRB01KT 4000 BR SCT008 SCT050 17/17 Q1015=,SBCT
1669197600000,METAR SBCT 231000Z 02003KT 330V030 8000 FEW009 BKN040 BKN070 19/19 Q1015=,SBCT
1669201200000,METAR SBCT 231100Z 31005KT 280V340 9999 FEW009 BKN040 BKN070 20/19 Q1015=,SBCT
1669204800000,METAR SBCT 231200Z 30008KT 260V340 9999 SCT014 BKN100 22/19 Q1016=,SBCT
1669208400000,METAR SBCT 231300Z 27009KT 9999 FEW020 SCT040 24/18 Q1016=,SBCT
1669212000000,METAR SBCT 231400Z 31008KT 250V360 9999 FEW028 SCT040 25/18 Q1015=,SBCT
1669215600000,METAR SBCT 231500Z 26009KT 240V300 9999 SCT030 BKN045 FEW050TCU 25/18 Q1015=,SBCT
1669219200000,METAR SBCT 231600Z 35007KT 310V030 9999 VCTS SCT035 BKN045 FEW050CB 24/20 Q1014=,SBCT
1669222800000,METAR SBCT 231700Z 33006KT 9999 FEW028 BKN040 FEW050TCU 24/20 Q1013=,SBCT
1669226400000,METAR SBCT 231800Z 13008KT 090V170 9999 SCT020 FEW040TCU BKN045 26/20 Q1012=,SBCT
1669228500000,SPECI SBCT 231835Z 13014KT 9999 TS SCT015 FEW035CB BKN040 23/20 Q1012=,SBCT
1669230000000,METAR SBCT 231900Z 13014KT 080V150 9999 TS BKN013 FEW030CB BKN035 21/19 Q1012=,SBCT
1669230900000,SPECI SBCT 231915Z 13015KT 2000 TSRA BKN008 FEW030CB BKN035 20/19 Q1013=,SBCT
1669231500000,SPECI SBCT 231925Z 11011KT 1500 R33/1900 R15/P2000 +TSRA BR BKN005 FEW025CB OVC030 19/19 Q1014 RERA=,SBCT
1669233600000,METAR SBCT 232000Z 09010KT 3000 -TSRA BR BKN005 FEW025CB OVC030 19/19 Q1013 RERA=,SBCT
1669234500000,SPECI SBCT 232015Z 04007KT 2000 TSRA BR BKN004 FEW025CB OVC030 19/19 Q1013=,SBCT
1669236000000,SPECI SBCT 232040Z 12008KT 080V140 5000 -TSRA BR BKN004 FEW025CB BKN030 18/18 Q1013 RERA=,SBCT
1669237200000,METAR SBCT 232100Z 11012KT 7000 -TSRA BKN007 FEW025CB BKN030 17/17 Q1014 RERA=,SBCT
1669240800000,METAR SBCT 232200Z 12010KT 080V140 8000 -RA FEW004 BKN007 OVC020 17/17 Q1015 RETS=,SBCT
1669244400000,METAR SBCT 232300Z 13012KT 090V150 9000 -RA VCTS BKN006 FEW017CB OVC020 16/16 Q1015=,SBCT
1669161600000,METAR SBFL 230000Z 02009KT 9999 BKN030 BKN100 24/21 Q1011=,SBFL
1669165200000,METAR COR SBFL 230100Z 35009KT 9999 SCT010 BKN030 24/23 Q1009=,SBFL
1669168800000,METAR SBFL 230200Z 36010KT 9999 FEW013 BKN035 BKN070 25/22 Q1011=,SBFL
1669172400000,METAR SBFL 230300Z 35011KT 9999 FEW013 BKN035 BKN070 24/23 Q1010=,SBFL
1669176000000,METAR SBFL 230400Z 35009KT 9999 SCT010 BKN035 BKN070 24/23 Q1009=,SBFL
1669179600000,METAR SBFL 230500Z 34006KT 9999 SCT010 BKN035 BKN070 24/22 Q1009=,SBFL
1669183200000,METAR SBFL 230600Z 34008KT 9999 SCT010 BKN035 BKN070 24/22 Q1009=,SBFL
1669186800000,METAR SBFL 230700Z 30004KT 9999 SCT035 BKN070 24/22 Q1009=,SBFL
1669190400000,METAR SBFL 230800Z 12005KT 9999 SCT035 BKN070 23/22 Q1009=,SBFL
1669194000000,METAR SBFL 230900Z 08007KT 8000 FEW011 BKN035 BKN070 21/20 Q1010=,SBFL
1669197600000,METAR SBFL 231000Z 11007KT 9999 SCT009 BKN035 BKN070 22/20 Q1010=,SBFL
1669201200000,METAR SBFL 231100Z 18011KT 9999 BKN015 SCT033 BKN090 22/19 Q1011=,SBFL
1669204800000,METAR SBFL 231200Z 16010G20KT 9999 VCSH SCT015 SCT033 BKN090 22/18 Q1012=,SBFL
1669206300000,SPECI SBFL 231225Z 13008KT 4000 -RA SCT015 SCT033 BKN090 21/19 Q1012=,SBFL
1669208400000,METAR SBFL 231300Z 14007KT 4500 -RA SCT015 SCT033 BKN090 20/19 Q1012=,SBFL
1669212000000,METAR SBFL 231400Z 13012KT 9999 BKN036 BKN090 22/19 Q1013=,SBFL
1669215600000,METAR SBFL 231500Z 16011KT 9999 BKN036 BKN090 23/18 Q1012=,SBFL
1669219200000,METAR SBFL 231600Z 16012KT 9999 BKN036 BKN090 24/18 Q1011=,SBFL
1669222800000,METAR SBFL 231700Z 14015KT 9999 SCT030 BKN090 25/19 Q1011=,SBFL
1669226400000,METAR SBFL 231800Z 14016KT 9999 SCT020 BKN090 23/19 Q1011=,SBFL
1669230000000,METAR SBFL 231900Z 16012KT 9999 SCT020 BKN090 24/18 Q1010=,SBFL
1669233600000,METAR SBFL 232000Z 19011KT 9999 SCT020 BKN090 22/19 Q1011=,SBFL
1669237200000,METAR SBFL 232100Z 20012KT 9999 SCT017 BKN090 22/19 Q1011=,SBFL
1669240800000,METAR SBFL 232200Z 19008KT 9999 BKN014 BKN090 22/19 Q1012=,SBFL
1669244400000,METAR SBFL 232300Z 19007KT 9999 SCT014 BKN090 21/19 Q1013=,SBFL
1669161600000,METAR SBGL 230000Z 11005KT CAVOK 25/20 Q1012=,SBGL
1669165200000,METAR SBGL 230100Z 11004KT 080V140 CAVOK 25/21 Q1012=,SBGL
1669168800000,METAR SBGL 230200Z 12003KT 080V170 CAVOK 24/20 Q1012=,SBGL
1669172400000,METAR SBGL 230300Z 12004KT CAVOK 24/20 Q1011=,SBGL
1669176000000,METAR SBGL 230400Z 10004KT CAVOK 23/20 Q1010=,SBGL
1669179600000,METAR SBGL 230500Z 11004KT CAVOK 23/19 Q1010=,SBGL
1669183200000,METAR SBGL 230600Z 10002KT CAVOK 23/19 Q1010=,SBGL
1669186800000,METAR SBGL 230700Z 10003KT CAVOK 23/19 Q1010=,SBGL
1669190400000,METAR SBGL 230800Z 10003KT CAVOK 22/19 Q1011=,SBGL
1669194000000,METAR SBGL 230900Z 09002KT CAVOK 23/20 Q1011=,SBGL
1669197600000,METAR SBGL 231000Z 09003KT 040V130 CAVOK 25/20 Q1011=,SBGL
1669201200000,METAR SBGL 231100Z 05005KT 020V100 9999 FEW020 26/21 Q1011=,SBGL
1669204800000,METAR SBGL 231200Z 07005KT 040V100 9999 FEW020 28/19 Q1011=,SBGL
1669208400000,METAR SBGL 231300Z 07005KT 030V120 9999 FEW025 30/21 Q1011=,SBGL
1669212000000,METAR SBGL 231400Z 35005KT 250V050 9999 FEW030 31/21 Q1011=,SBGL
1669215600000,METAR SBGL 231500Z 36007KT 9999 FEW030 32/20 Q1010=,SBGL
1669219200000,METAR SBGL 231600Z 07007KT 350V130 9999 FEW030 32/20 Q1009=,SBGL
1669222800000,METAR SBGL 231700Z 11008KT 9999 FEW033 31/22 Q1008=,SBGL
1669226400000,METAR SBGL 231800Z 13011KT 9999 FEW033 30/22 Q1008=,SBGL
1669230000000,METAR SBGL 231900Z 14011KT 9999 FEW033 29/21 Q1007=,SBGL
1669233600000,METAR SBGL 232000Z 14009KT 9999 FEW033 29/21 Q1007=,SBGL
1669237200000,METAR SBGL 232100Z 15007KT 9999 FEW033 BKN083 28/22 Q1008=,SBGL
1669240800000,METAR SBGL 232200Z 12007KT 9999 FEW033 SCT083 27/22 Q1008=,SBGL
1669244400000,METAR SBGL 232300Z 10006KT 9999 FEW030 SCT090 27/22 Q1009=,SBGL
1669161600000,METAR SBGR 230000Z 05007KT 9999 -RA FEW008 OVC100 20/19 Q1016=,SBGR
1669165200000,METAR SBGR 230100Z 07008KT 9999 -RA FEW010 OVC100 20/19 Q1017=,SBGR
1669168800000,METAR SBGR 230200Z 07009KT 9999 -RA FEW010 OVC100 19/19 Q1017=,SBGR
1669172400000,METAR SBGR 230300Z 07005KT CAVOK 19/18 Q1016=,SBGR
1669176000000,METAR SBGR 230400Z 00000KT CAVOK 19/19 Q1015=,SBGR
1669179600000,METAR SBGR 230500Z 07005KT 9999 -RA NSC 19/19 Q1014=,SBGR
1669183200000,METAR SBGR 230600Z 08006KT CAVOK 19/19 Q1014=,SBGR
1669186800000,METAR SBGR 230700Z 06005KT CAVOK 19/18 Q1014=,SBGR
1669190400000,METAR SBGR 230800Z 13005KT CAVOK 19/18 Q1014=,SBGR
1669194000000,METAR SBGR 230900Z 07006KT CAVOK 19/18 Q1015=,SBGR
1669197600000,METAR SBGR 231000Z 07008KT CAVOK 19/19 Q1015=,SBGR
1669201200000,METAR SBGR 231100Z 06006KT 9999 FEW007 BKN100 20/19 Q1015=,SBGR
1669204800000,METAR SBGR 231200Z 06004KT CAVOK 22/19 Q1016=,SBGR
1669208400000,METAR SBGR 231300Z 36008KT CAVOK 25/18 Q1015=,SBGR
1669212000000,METAR SBGR 231400Z 36005KT 9999 SCT035 27/19 Q1015=,SBGR
1669215600000,METAR SBGR 231500Z 33007KT 9999 BKN040 27/17 Q1015=,SBGR
1669219200000,METAR SBGR 231600Z 29008KT 9999 BKN040 28/17 Q1014=,SBGR
1669222800000,METAR SBGR 231700Z 31010KT 9999 VCSH BKN040 FEW045TCU 28/17 Q1013=,SBGR
1669225500000,SPECI SBGR 231745Z 07012KT 9999 VCSH BKN040 FEW045TCU 25/18 Q1012=,SBGR
1669226400000,METAR SBGR 231800Z 08011KT 9999 VCSH BKN040 FEW045TCU 25/19 Q1012=,SBGR
1669230000000,METAR SBGR 231900Z 33010KT 9999 SCT045 FEW050TCU 28/17 Q1011=,SBGR
1669233600000,METAR SBGR 232000Z 16011G22KT 9999 VCTS SCT025 SCT045 FEW050CB 22/17 Q1012=,SBGR
1669237200000,METAR SBGR 232100Z 07005KT 9999 -RA BKN030 SCT040 FEW045TCU 22/17 Q1012=,SBGR
1669238280000,SPECI SBGR 232118Z 14004KT 8000 -TSRA SCT035 SCT040 FEW045CB BKN090 20/18 Q1012=,SBGR
1669240800000,METAR SBGR 232200Z 02003KT 9000 -TSRA BKN030 SCT040 FEW045CB BKN090 20/17 Q1014=,SBGR
1669243500000,SPECI SBGR 232245Z 24009KT 7000 TSRA BKN025 SCT030 FEW040CB OVC090 18/16 Q1014=,SBGR
1669244400000,METAR SBGR 232300Z 07004KT 7000 TSRA SCT025 SCT030 SCT040CB OVC090 18/16 Q1015=,SBGR
1669246200000,SPECI SBGR 232330Z 25002KT 9999 -TSRA BKN013 FEW040CB OVC090 18/17 Q1015 RERA=,SBGR
1669161600000,METAR SBKP 230000Z 05007KT 9999 -RA FEW049 BKN100 21/18 Q1016=,SBKP
1669165200000,METAR SBKP 230100Z 06006KT CAVOK 21/18 Q1016=,SBKP
1669168800000,METAR SBKP 230200Z 07006KT 9999 -RA NSC 21/18 Q1016=,SBKP
1669172400000,METAR SBKP 230300Z 08005KT CAVOK 20/18 Q1015=,SBKP
1669176000000,METAR SBKP 230400Z 09003KT CAVOK 20/18 Q1014=,SBKP
1669179600000,METAR SBKP 230500Z 09004KT CAVOK 20/18 Q1013=,SBKP
1669183200000,METAR SBKP 230600Z 00000KT CAVOK 21/18 Q1013=,SBKP
1669186800000,METAR SBKP 230700Z 00000KT CAVOK 20/18 Q1013=,SBKP
1669190400000,METAR SBKP 230800Z 12004KT 8000 NSC 20/18 Q1013=,SBKP
1669194000000,METAR SBKP 230900Z 00000KT 9000 NSC 19/18 Q1014=,SBKP
1669197600000,METAR SBKP 231000Z 34003KT 310V030 5000 BR NSC 20/18 Q1014=,SBKP
1669201200000,METAR SBKP 231100Z 01004KT 330V040 7000 NSC 21/18 Q1015=,SBKP
1669204800000,METAR SBKP 231200Z 01004KT 330V060 CAVOK 23/18 Q1015=,SBKP
1669208400000,METAR SBKP 231300Z 36007KT CAVOK 25/18 Q1015=,SBKP
1669212000000,METAR SBKP 231400Z 35008KT 300V030 9999 FEW030 27/18 Q1015=,SBKP
1669215600000,METAR SBKP 231500Z 35009KT 9999 BKN040 28/17 Q1014=,SBKP
1669219200000,METAR SBKP 231600Z 31010KT 250V340 9999 BKN040 FEW050TCU 29/16 Q1013=,SBKP
1669222800000,METAR SBKP 231700Z 35010KT 9999 SCT045 29/17 Q1012=,SBKP
1669226400000,METAR SBKP 231800Z 01010KT 330V050 9999 SCT040 FEW050TCU 29/16 Q1011=,SBKP
1669230000000,METAR SBKP 231900Z 35007KT 9999 VCSH SCT040 FEW050TCU 29/16 Q1011=,SBKP
1669233600000,METAR SBKP 232000Z 34006KT 260V340 9999 VCSH SCT040 FEW050TCU 29/16 Q1010=,SBKP
1669237200000,METAR SBKP 232100Z 29005KT 9999 VCSH SCT033 FEW040TCU SCT080 28/16 Q1010=,SBKP
1669240800000,METAR SBKP 232200Z VRB06KT 9999 4000SW -RA SCT040 FEW045TCU SCT080 26/18 Q1011=,SBKP
1669244400000,METAR SBKP 232300Z 20005KT 160V260 9999 VCTS SCT040 SCT045CB OVC070 26/18 Q1011=,SBKP
1669246680000,SPECI SBKP 232338Z 18012G24KT 6000 RA VCTS FEW008 SCT040 SCT045CB OVC070 23/19 Q1012=,SBKP
1669161600000,METAR SBPA 230000Z 07004KT 9999 FEW020 SCT040 20/18 Q1012=,SBPA
1669165200000,METAR SBPA 230100Z 09004KT 9999 BKN022 BKN040 20/19 Q1012=,SBPA
1669168800000,METAR SBPA 230200Z VRB02KT 9999 FEW005 BKN036 20/19 Q1012=,SBPA
1669172400000,METAR SBPA 230300Z VRB01KT 9999 SCT033 SCT040 19/19 Q1012=,SBPA
1669174500000,SPECI SBPA 230335Z 00000KT 9999 VCSH BKN010 BKN034 20/19 Q1012=,SBPA
1669176000000,METAR SBPA 230400Z VRB02KT 9999 BKN010 BKN034 20/19 Q1012=,SBPA
1669179600000,METAR SBPA 230500Z VRB02KT 8000 -RA BKN010 BKN034 20/19 Q1011=,SBPA
1669183200000,METAR SBPA 230600Z 14003KT 100V190 9999 BKN010 BKN025 20/19 Q1011=,SBPA
1669186800000,METAR SBPA 230700Z 18004KT 140V230 9999 FEW010 BKN024 BKN080 20/17 Q1011=,SBPA
1669190400000,METAR SBPA 230800Z 16003KT 110V230 9999 FEW010 SCT024 FEW030TCU 19/18 Q1012=,SBPA
1669194000000,METAR SBPA 230900Z 13003KT 100V180 9999 FEW005 SCT030 19/18 Q1012=,SBPA
1669197600000,METAR SBPA 231000Z 18004KT 160V220 9999 FEW010 SCT040 21/18 Q1013=,SBPA
1669201200000,METAR SBPA 231100Z VRB02KT 9999 BKN020 22/18 Q1014=,SBPA
1669204800000,METAR SBPA 231200Z VRB02KT 9999 BKN020 BKN035 23/18 Q1014=,SBPA
1669208400000,METAR SBPA 231300Z VRB02KT 9999 FEW025 SCT035 24/17 Q1014=,SBPA
1669212000000,METAR SBPA 231400Z 23005KT 170V280 9999 SCT033 24/17 Q1014=,SBPA
1669215600000,METAR SBPA 231500Z 27007KT 210V300 9999 SCT035 SCT060 25/14 Q1013=,SBPA
1669219200000,METAR SBPA 231600Z VRB05KT 9999 SCT035 26/15 Q1012=,SBPA
1669222800000,METAR SBPA 231700Z 11009KT 080V150 9999 SCT040 SCT075 25/18 Q1012=,SBPA
1669226400000,METAR SBPA 231800Z 12009KT 090V160 9999 SCT040 SCT075 25/17 Q1012=,SBPA
1669230000000,METAR SBPA 231900Z 13009KT 090V160 9999 SCT040 SCT080 24/16 Q1012=,SBPA
1669233600000,METAR SBPA 232000Z 12008KT 9999 SCT040 24/15 Q1011=,SBPA
1669237200000,METAR SBPA 232100Z 14009KT 9999 SCT040 23/15 Q1012=,SBPA
1669240800000,METAR SBPA 232200Z 11011KT 9999 SCT035 22/16 Q1012=,SBPA
1669244400000,METAR SBPA 232300Z 12010KT 090V150 9999 SCT040 21/17 Q1013=,SBPA
1669161600000,METAR SBRF 230000Z 30002KT 6000 BKN010 BKN015 BKN050 24/21 Q1012 RERA=,SBRF
1669165200000,METAR SBRF 230100Z 10006KT 9999 SCT010 BKN025 BKN050 26/21 Q1012=,SBRF
1669168800000,METAR SBRF 230200Z 11005KT 070V130 9999 BKN023 BKN050 26/21 Q1012=,SBRF
1669172400000,METAR SBRF 230300Z 11005KT 6000 BKN021 BKN060 26/22 Q1011=,SBRF
1669176000000,METAR SBRF 230400Z 10005KT 010V140 9999 BKN021 SCT060 26/21 Q1010=,SBRF
1669179600000,METAR SBRF 230500Z 08005KT 030V110 9999 SCT021 SCT060 26/21 Q1010=,SBRF
1669183200000,METAR SBRF 230600Z 10005KT 050V130 9999 SCT021 SCT060 26/21 Q1010=,SBRF
1669186800000,METAR SBRF 230700Z 12005KT 9999 SCT021 SCT060 26/21 Q1010=,SBRF
1669190400000,METAR SBRF 230800Z 19002KT 9999 BKN021 24/21 Q1010=,SBRF
1669194000000,METAR SBRF 230900Z 35004KT 9999 BKN019 24/22 Q1011=,SBRF
1669197600000,METAR SBRF 231000Z 36002KT 9999 BKN019 26/22 Q1012=,SBRF
1669201200000,METAR SBRF 231100Z 12006KT 9999 BKN025 28/22 Q1012=,SBRF
1669204800000,METAR SBRF 231200Z 13007KT 9999 FEW025 29/23 Q1012=,SBRF
1669208400000,METAR SBRF 231300Z 10006KT 020V150 9999 FEW025 29/21 Q1012=,SBRF
1669212000000,METAR SBRF 231400Z 12007KT 050V180 9999 FEW025 29/21 Q1012=,SBRF
1669215600000,METAR SBRF 231500Z 10008KT 050V180 9999 FEW025 28/21 Q1011=,SBRF
1669219200000,METAR SBRF 231600Z 11007KT 030V150 9999 FEW025 29/21 Q1010=,SBRF
1669222800000,METAR SBRF 231700Z 13008KT 100V160 9999 FEW025 29/22 Q1010=,SBRF
1669226400000,METAR SBRF 231800Z 11007KT 030V160 9999 FEW025 29/21 Q1010=,SBRF
1669230000000,METAR SBRF 231900Z 13007KT 360V170 9999 FEW025 28/21 Q1010=,SBRF
1669233600000,METAR SBRF 232000Z 10005KT 050V150 9999 FEW025 28/20 Q1010=,SBRF
1669237200000,METAR SBRF 232100Z 08005KT 020V130 9999 FEW025 27/21 Q1011=,SBRF
1669240800000,METAR SBRF 232200Z 09006KT 050V130 9999 FEW025 27/21 Q1011=,SBRF
1669244400000,METAR SBRF 232300Z 10005KT 060V130 9999 SCT023 27/21 Q1012=,SBRF
1669161600000,METAR SBRJ 230000Z 07005KT 050V130 CAVOK 26/21 Q1011=,SBRJ
1669165200000,METAR SBRJ 230100Z 07004KT 040V120 CAVOK 26/21 Q1012=,SBRJ
1669168800000,METAR SBRJ 230200Z 07002KT CAVOK 25/21 Q1011=,SBRJ
1669172400000,METAR SBRJ 230300Z 01004KT CAVOK 25/21 Q1011=,SBRJ
1669176000000,METAR SBRJ 230400Z 35003KT CAVOK 24/20 Q1010=,SBRJ
1669179600000,METAR SBRJ 230500Z 36003KT CAVOK 24/20 Q1010=,SBRJ
1669183200000,METAR SBRJ 230600Z 30001KT CAVOK 24/20 Q1009=,SBRJ
1669186800000,METAR SBRJ 230700Z VRB01KT CAVOK 24/20 Q1010=,SBRJ
1669190400000,METAR SBRJ 230800Z 36003KT CAVOK 24/20 Q1010=,SBRJ
1669194000000,METAR SBRJ 230900Z 36002KT CAVOK 24/20 Q1011=,SBRJ
1669197600000,METAR SBRJ 231000Z 03004KT CAVOK 25/21 Q1011=,SBRJ
1669201200000,METAR SBRJ 231100Z 29004KT 260V320 CAVOK 26/21 Q1011=,SBRJ
1669204800000,METAR SBRJ 231200Z 28004KT 230V300 CAVOK 27/21 Q1011=,SBRJ
1669208400000,METAR SBRJ 231300Z 05003KT CAVOK 28/21 Q1011=,SBRJ
1669212000000,METAR SBRJ 231400Z 15007KT 9999 FEW025 28/22 Q1010=,SBRJ
1669215600000,METAR SBRJ 231500Z 15009KT 9999 FEW025 29/21 Q1010=,SBRJ
1669219200000,METAR SBRJ 231600Z 17008KT 9999 FEW030 30/22 Q1009=,SBRJ
1669222800000,METAR SBRJ 231700Z 19012KT 170V230 9999 FEW030 29/22 Q1008=,SBRJ
1669226400000,METAR SBRJ 231800Z 18012KT 9999 FEW025 FEW035TCU 27/22 Q1008=,SBRJ
1669230000000,METAR SBRJ 231900Z 19012KT 9999 FEW030 28/22 Q1007=,SBRJ
1669233600000,METAR SBRJ 232000Z 18010KT CAVOK 27/21 Q1007=,SBRJ
1669237200000,METAR SBRJ 232100Z 18008KT 9999 FEW040 BKN100 27/22 Q1007=,SBRJ
1669240800000,METAR SBRJ 232200Z 17006KT 9999 FEW040 BKN100 27/22 Q1008=,SBRJ
1669244400000,METAR SBRJ 232300Z 14005KT CAVOK 25/22 Q1008=,SBRJ
1669161600000,METAR SBSP 230000Z 10005KT 050V130 8000 -RA NSC 20/18 Q1017=,SBSP
1669165200000,METAR SBSP 230100Z 05007KT 9999 -RA NSC 20/18 Q1017=,SBSP
1669168800000,METAR SBSP 230200Z 03006KT CAVOK 20/18 Q1017=,SBSP
1669168980000,SPECI SBSP 230203Z 03006KT 350V060 CAVOK 20/18 Q1017=,SBSP
1669172400000,METAR SBSP 230300Z AUTO 04007KT 010V070 9999 -RA NCD 20/18 Q1016=,SBSP
1669176000000,METAR SBSP 230400Z AUTO 03004KT CAVOK 20/18 Q1015=,SBSP
1669179600000,METAR SBSP 230500Z AUTO 04003KT CAVOK 20/18 Q1014=,SBSP
1669183200000,METAR SBSP 230600Z AUTO 06003KT CAVOK 20/18 Q1014=,SBSP
1669186800000,METAR SBSP 230700Z AUTO 34004KT CAVOK 20/18 Q1014=,SBSP
1669190400000,METAR SBSP 230800Z AUTO 03003KT 350V060 CAVOK 20/17 Q1014=,SBSP
1669194000000,METAR SBSP 230900Z 06003KT CAVOK 20/17 Q1015=,SBSP
1669197600000,METAR SBSP 231000Z 03004KT CAVOK 21/16 Q1015=,SBSP
1669201200000,METAR SBSP 231100Z 02005KT CAVOK 21/17 Q1016=,SBSP
1669204800000,METAR SBSP 231200Z 02006KT CAVOK 23/17 Q1016=,SBSP
1669208400000,METAR SBSP 231300Z 36007KT CAVOK 25/17 Q1016=,SBSP
1669212000000,METAR SBSP 231400Z 32011KT 9999 FEW040 26/16 Q1016=,SBSP
1669215600000,METAR SBSP 231500Z 33010KT 9999 FEW043 28/16 Q1015=,SBSP
1669219200000,METAR SBSP 231600Z 32007KT 9999 FEW046 27/16 Q1014=,SBSP
1669222800000,METAR SBSP 231700Z 31008KT 280V340 9999 SCT046 25/15 Q1013=,SBSP
1669226400000,METAR SBSP 231800Z 30009KT 9999 BKN046 28/15 Q1012=,SBSP
1669230000000,METAR SBSP 231900Z 14011KT 9999 SCT023 BKN046 24/20 Q1012=,SBSP
1669233600000,METAR COR SBSP 232000Z 10007KT 9999 VCTS SCT036 BKN046 FEW050CB 23/19 Q1012=,SBSP
1669235820000,SPECI SBSP 232037Z 09005KT 360V160 6000 RA VCTS SCT036 BKN040 FEW050CB 23/18 Q1013=,SBSP
1669236000000,SPECI COR SBSP 232040Z 07005KT 360V150 3500 +TSRA HZ SCT036 BKN040 FEW050CB 22/17 Q1013 RERA=,SBSP
1669236360000,SPECI COR SBSP 232046Z 05005KT 360V130 1400 R17/P2000 R35/P2000 +TSRA BR SCT036 BKN040 FEW050CB 21/18 Q1013 RERA=,SBSP
1669237200000,METAR SBSP 232100Z 15011KT 9999 TSRA SCT017 BKN040 FEW050CB 20/18 Q1013 RERA=,SBSP
1669239120000,SPECI SBSP 232132Z 09007KT 050V120 6000 -TSRA SCT017 BKN040 FEW050CB 20/19 Q1013 RERA=,SBSP
1669240800000,METAR COR SBSP 232200Z 08007KT 7000 -RA VCTS SCT017 BKN040 FEW050CB 19/17 Q1014 RETSRA=,SBSP
1669241940000,SPECI SBSP 232219Z 11005KT 8000 -TSRA SCT017 BKN040 FEW050CB 19/16 Q1016=,SBSP
1669242780000,SPECI SBSP 232233Z 20007KT 6000 TSRA SCT017 BKN040 FEW050CB 19/17 Q1016=,SBSP
1669244400000,METAR SBSP 232300Z 19007KT 160V240 6000 -TSRA SCT007 BKN011 FEW050CB 19/17 Q1016 RERA=,SBSP
1669161600000,METAR SBSV 230000Z 09010KT 9999 SCT023 SCT070 27/23 Q1013=,SBSV
1669165200000,METAR SBSV 230100Z 09011KT 9999 SCT023 SCT070 27/22 Q1013=,SBSV
1669168800000,METAR SBSV 230200Z 09010KT 9999 SCT023 SCT070 27/22 Q1013=,SBSV
1669172400000,METAR SBSV 230300Z 09011KT 9999 SCT023 SCT070 26/22 Q1012=,SBSV
1669176000000,METAR SBSV 230400Z 08008KT 9999 SCT023 SCT070 26/22 Q1012=,SBSV
1669179600000,METAR SBSV 230500Z 08008KT 9999 SCT023 SCT070 26/21 Q1011=,SBSV
1669183200000,METAR SBSV 230600Z 08007KT 9999 SCT023 SCT070 26/22 Q1011=,SBSV
1669186800000,METAR SBSV 230700Z 08006KT 9999 SCT023 SCT070 25/22 Q1011=,SBSV
1669190400000,METAR SBSV 230800Z 36002KT 9999 SCT023 25/22 Q1011=,SBSV
1669194000000,METAR SBSV 230900Z 00000KT 9999 SCT023 25/22 Q1012=,SBSV
1669197600000,METAR SBSV 231000Z 07007KT 9999 FEW023 27/22 Q1013=,SBSV
1669201200000,METAR SBSV 231100Z 09008KT 050V130 9999 FEW023 28/22 Q1013=,SBSV
1669204800000,METAR SBSV 231200Z 09008KT 9999 FEW023 28/22 Q1013=,SBSV
1669208400000,METAR SBSV 231300Z 10008KT 9999 FEW023 29/22 Q1013=,SBSV
1669212000000,METAR SBSV 231400Z 10009KT 060V160 9999 FEW023 29/22 Q1013=,SBSV
1669215600000,METAR SBSV 231500Z 10009KT 060V140 9999 FEW023 29/22 Q1013=,SBSV
1669219200000,METAR SBSV 231600Z 09010KT 070V130 9999 FEW023 29/23 Q1012=,SBSV
1669222800000,METAR SBSV 231700Z 12010KT 9999 FEW023 29/22 Q1011=,SBSV
1669226400000,METAR SBSV 231800Z 10010KT 9999 FEW023 28/22 Q1010=,SBSV
1669230000000,METAR SBSV 231900Z 10010KT 9999 FEW023 28/22 Q1010=,SBSV
1669233600000,METAR SBSV 232000Z 09010KT 9999 SCT023 28/22 Q1010=,SBSV
1669237200000,METAR SBSV 232100Z 11009KT 9999 SCT023 FEW025TCU 27/23 Q1010=,SBSV
1669240800000,METAR SBSV 232200Z 09010KT 9999 FEW023 27/22 Q1011=,SBSV
1669244400000,METAR SBSV 232300Z 09009KT 9999 FEW023 27/22 Q1012=,SBSV
