hora,metar,aero
1659312000000,METAR SBBR 010000Z 16003KT 110V210 CAVOK 23/10 Q1020=,SBBR
1659315600000,METAR SBBR 010100Z VRB02KT CAVOK 22/09 Q1020=,SBBR
1659319200000,METAR SBBR 010200Z VRB02KT CAVOK 19/10 Q1021=,SBBR
1659322800000,METAR SBBR 010300Z 00000KT CAVOK 18/10 Q1021=,SBBR
1659326400000,METAR SBBR 010400Z 26003KT CAVOK 18/10 Q1020=,SBBR
1659330000000,METAR SBBR 010500Z 23003KT CAVOK 17/10 Q1020=,SBBR
1659333600000,METAR SBBR 010600Z 00000KT CAVOK 14/10 Q1020=,SBBR
1659337200000,METAR SBBR 010700Z 00000KT CAVOK 14/10 Q1019=,SBBR
1659340800000,METAR SBBR 010800Z 35002KT CAVOK 12/09 Q1019=,SBBR
1659344400000,METAR SBBR 010900Z 20002KT CAVOK 14/09 Q1020=,SBBR
1659348000000,METAR SBBR 011000Z VRB02KT CAVOK 14/09 Q1020=,SBBR
1659351600000,METAR SBBR 011100Z VRB02KT CAVOK 16/10 Q1021=,SBBR
1659355200000,METAR SBBR 011200Z VRB02KT CAVOK 20/11 Q1021=,SBBR
1659358800000,METAR SBBR 011300Z 06006KT 350V100 CAVOK 23/10 Q1022=,SBBR
1659362400000,METAR SBBR 011400Z VRB06KT CAVOK 26/10 Q1022=,SBBR
1659366000000,METAR SBBR 011500Z 05011KT 360V080 CAVOK 28/09 Q1021=,SBBR
1659369600000,METAR SBBR 011600Z 06008KT 020V110 CAVOK 29/07 Q1020=,SBBR
1659373200000,METAR SBBR 011700Z 09008KT 060V120 9999 SCT045 29/06 Q1019=,SBBR
1659376800000,METAR SBBR 011800Z 08008KT 030V150 9999 SCT045 29/06 Q1018=,SBBR
1659380400000,METAR SBBR 011900Z 08006KT 9999 SCT045 29/07 Q1018=,SBBR
1659384000000,METAR SBBR 012000Z 04006KT 9999 SCT045 28/07 Q1018=,SBBR
1659387600000,METAR SBBR 012100Z 08008KT 9999 FEW045 SCT100 27/08 Q1018=,SBBR
1659391200000,METAR SBBR 012200Z 08006KT CAVOK 25/07 Q1019=,SBBR
1659394800000,METAR SBBR 012300Z 10005KT CAVOK 24/08 Q1019=,SBBR
1659312000000,METAR SBCF 010000Z 08008KT CAVOK 21/14 Q1021=,SBCF
1659315600000,METAR SBCF 010100Z 10007KT CAVOK 20/15 Q1021=,SBCF
1659319200000,METAR SBCF 010200Z 12006KT CAVOK 19/14 Q1021=,SBCF
1659322800000,METAR SBCF 010300Z 12008KT CAVOK 18/15 Q1021=,SBCF
1659326400000,METAR SBCF 010400Z 11007KT CAVOK 18/14 Q1021=,SBCF
1659330000000,METAR SBCF 010500Z 13005KT CAVOK 17/14 Q1021=,SBCF
1659333600000,METAR SBCF 010600Z 10006KT CAVOK 17/14 Q1020=,SBCF
1659337200000,METAR SBCF 010700Z 11005KT CAVOK 16/14 Q1020=,SBCF
1659340800000,METAR SBCF 010800Z 12003KT CAVOK 16/14 Q1020=,SBCF
1659344400000,METAR SBCF 010900Z 13004KT CAVOK 16/14 Q1021=,SBCF
1659348000000,METAR SBCF 011000Z 13003KT CAVOK 16/14 Q1021=,SBCF
1659351600000,METAR SBCF 011100Z 13004KT CAVOK 17/14 Q1022=,SBCF
1659355200000,METAR SBCF 011200Z 08007KT 9999 FEW025 20/14 Q1023=,SBCF
1659358800000,METAR SBCF 011300Z 08005KT 9999 SCT025 20/14 Q1023=,SBCF
1659362400000,METAR SBCF 011400Z 06006KT 9999 SCT030 23/14 Q1022=,SBCF
1659366000000,METAR SBCF 011500Z 08005KT 9999 FEW030 24/14 Q1022=,SBCF
1659369600000,METAR SBCF 011600Z 10004KT 9999 FEW030 26/14 Q1021=,SBCF
1659373200000,METAR SBCF 011700Z 10006KT 9999 SCT035 26/14 Q1020=,SBCF
1659376800000,METAR SBCF 011800Z 05005KT 9999 SCT040 26/13 Q1019=,SBCF
1659380400000,METAR SBCF 011900Z 09009KT 9999 SCT045 25/14 Q1019=,SBCF
1659384000000,METAR SBCF 012000Z 08011KT CAVOK 24/14 Q1019=,SBCF
1659387600000,METAR SBCF 012100Z 06009KT CAVOK 22/14 Q1020=,SBCF
1659391200000,METAR SBCF 012200Z 05004KT CAVOK 20/13 Q1020=,SBCF
1659394800000,METAR SBCF 012300Z 10005KT CAVOK 19/13 Q1020=,SBCF
1659312000000,METAR SBCT 010000Z 09004KT CAVOK 10/08 Q1020=,SBCT
1659315600000,METAR SBCT 010100Z 05004KT CAVOK 09/08 Q1020=,SBCT
1659319200000,METAR SBCT 010200Z 03006KT CAVOK 11/09 Q1020=,SBCT
1659322800000,METAR SBCT 010300Z 10003KT CAVOK 09/08 Q1021=,SBCT
1659326400000,METAR SBCT 010400Z 18003KT CAVOK 08/08 Q1021=,SBCT
1659330000000,METAR SBCT 010500Z 10003KT CAVOK 07/07 Q1021=,SBCT
1659333600000,METAR SBCT 010600Z 18002KT CAVOK 07/07 Q1020=,SBCT
1659337200000,METAR SBCT 010700Z 15002KT CAVOK 07/07 Q1020=,SBCT
1659340800000,METAR SBCT 010800Z 05002KT CAVOK 07/07 Q1020=,SBCT
1659344400000,METAR SBCT 010900Z 04004KT CAVOK 07/06 Q1020=,SBCT
1659348000000,METAR SBCT 011000Z 06005KT 8000 NSC 06/06 Q1020=,SBCT
1659351600000,METAR SBCT 011100Z VRB02KT 9000 NSC 09/09 Q1020=,SBCT
1659355200000,METAR SBCT 011200Z 07003KT 9000 NSC 13/10 Q1020=,SBCT
1659358800000,METAR SBCT 011300Z VRB02KT 9000 NSC 16/10 Q1021=,SBCT
1659362400000,METAR SBCT 011400Z VRB03KT 9000 NSC 17/10 Q1021=,SBCT
1659366000000,METAR SBCT 011500Z 29004KT 210V340 9000 NSC 18/10 Q1021=,SBCT
1659369600000,METAR SBCT 011600Z 31006KT 230V010 CAVOK 21/10 Q1020=,SBCT
1659373200000,METAR SBCT 011700Z 29007KT 240V020 CAVOK 22/09 Q1019=,SBCT
1659376800000,METAR SBCT 011800Z 28009KT 250V310 CAVOK 23/09 Q1018=,SBCT
1659380400000,METAR SBCT 011900Z 27005KT 220V310 CAVOK 23/09 Q1018=,SBCT
1659384000000,METAR SBCT 012000Z 27006KT CAVOK 22/09 Q1018=,SBCT
1659387600000,METAR SBCT 012100Z 24004KT 9999 FEW045 20/09 Q1019=,SBCT
1659391200000,METAR SBCT 012200Z 26003KT 9000 FEW035 19/10 Q1019=,SBCT
1659394800000,METAR SBCT 012300Z 24002KT 9000 NSC 18/10 Q1019=,SBCT
1659312000000,METAR SBFL 010000Z 34004KT 300V020 9999 FEW021 16/12 Q1019=,SBFL
1659315600000,METAR SBFL 010100Z 33008KT CAVOK 16/13 Q1019=,SBFL
1659319200000,METAR SBFL 010200Z 33007KT CAVOK 16/13 Q1019=,SBFL
1659322800000,METAR SBFL 010300Z 32007KT CAVOK 15/13 Q1019=,SBFL
1659326400000,METAR SBFL 010400Z 31006KT CAVOK 15/13 Q1019=,SBFL
1659330000000,METAR SBFL 010500Z 30008KT CAVOK 15/13 Q1018=,SBFL
1659333600000,METAR SBFL 010600Z 30007KT CAVOK 14/12 Q1018=,SBFL
1659337200000,METAR SBFL 010700Z 30008KT CAVOK 14/12 Q1018=,SBFL
1659340800000,METAR SBFL 010800Z 32008KT CAVOK 14/13 Q1017=,SBFL
1659344400000,METAR SBFL 010900Z 33006KT CAVOK 15/12 Q1017=,SBFL
1659348000000,METAR SBFL 011000Z 31008KT CAVOK 14/12 Q1017=,SBFL
1659351600000,METAR SBFL 011100Z 30007KT CAVOK 15/13 Q1018=,SBFL
1659355200000,METAR SBFL 011200Z 31009KT CAVOK 17/13 Q1018=,SBFL
1659358800000,METAR SBFL 011300Z 33013KT CAVOK 18/13 Q1018=,SBFL
1659362400000,METAR SBFL 011400Z 35015KT CAVOK 19/13 Q1017=,SBFL
1659366000000,METAR SBFL 011500Z 35014KT CAVOK 21/13 Q1016=,SBFL
1659369600000,METAR SBFL 011600Z 36010KT 320V020 CAVOK 22/13 Q1016=,SBFL
1659373200000,METAR SBFL 011700Z 35010KT CAVOK 23/14 Q1015=,SBFL
1659376800000,METAR SBFL 011800Z 36008KT CAVOK 23/14 Q1014=,SBFL
1659380400000,METAR SBFL 011900Z 34006KT 280V360 CAVOK 22/14 Q1014=,SBFL
1659384000000,METAR SBFL 012000Z 33005KT CAVOK 21/15 Q1015=,SBFL
1659387600000,METAR SBFL 012100Z VRB01KT CAVOK 19/15 Q1015=,SBFL
1659391200000,METAR SBFL 012200Z VRB02KT CAVOK 17/15 Q1016=,SBFL
1659394800000,METAR SBFL 012300Z VRB02KT CAVOK 16/14 Q1017=,SBFL
1659312000000,METAR SBGL 010000Z 10008KT 9999 FEW020 OVC035 20/14 Q1020=,SBGL
1659315600000,METAR SBGL 010100Z 07010KT 9999 FEW020 OVC035 20/14 Q1020=,SBGL
1659319200000,METAR SBGL 010200Z 11007KT 9999 BKN040 18/15 Q1020=,SBGL
1659322800000,METAR SBGL 010300Z 10005KT 9999 SCT045 18/14 Q1020=,SBGL
1659326400000,METAR SBGL 010400Z 10004KT 9999 SCT045 17/14 Q1020=,SBGL
1659330000000,METAR SBGL 010500Z 08003KT 9999 FEW045 17/14 Q1019=,SBGL
1659333600000,METAR SBGL 010600Z 09002KT 9999 FEW040 16/14 Q1018=,SBGL
1659337200000,METAR SBGL 010700Z 10002KT 9999 SCT040 16/14 Q1018=,SBGL
1659340800000,METAR SBGL 010800Z 33002KT 9999 FEW030 16/15 Q1018=,SBGL
1659344400000,METAR SBGL 010900Z 32002KT 9999 SCT030 16/15 Q1018=,SBGL
1659348000000,METAR SBGL 011000Z 00000KT 9999 FEW040 15/14 Q1019=,SBGL
1659351600000,METAR SBGL 011100Z 32005KT 9000 FEW030 18/16 Q1019=,SBGL
1659355200000,METAR SBGL 011200Z 32003KT 260V020 9999 FEW030 20/15 Q1019=,SBGL
1659358800000,METAR SBGL 011300Z VRB02KT 9999 FEW020 22/15 Q1019=,SBGL
1659362400000,METAR SBGL 011400Z VRB02KT 9999 FEW020 23/16 Q1018=,SBGL
1659366000000,METAR SBGL 011500Z 35005KT 310V040 CAVOK 24/16 Q1017=,SBGL
1659369600000,METAR SBGL 011600Z 34003KT 310V020 CAVOK 26/16 Q1016=,SBGL
1659373200000,METAR SBGL 011700Z 03004KT 360V070 CAVOK 27/16 Q1015=,SBGL
1659376800000,METAR SBGL 011800Z 05005KT 010V110 CAVOK 27/17 Q1014=,SBGL
1659380400000,METAR SBGL 011900Z 11005KT CAVOK 27/16 Q1014=,SBGL
1659384000000,METAR SBGL 012000Z 05003KT CAVOK 26/16 Q1014=,SBGL
1659387600000,METAR SBGL 012100Z 13004KT CAVOK 23/18 Q1015=,SBGL
1659391200000,METAR SBGL 012200Z 13004KT 9999 FEW020 SCT100 22/18 Q1015=,SBGL
1659394800000,METAR SBGL 012300Z 15006KT 130V200 CAVOK 22/19 Q1015=,SBGL
1659312000000,METAR SBGR 010000Z 12001KT CAVOK 13/11 Q1021=,SBGR
1659315600000,METAR SBGR 010100Z 00000KT 8000 NSC 12/11 Q1021=,SBGR
1659319200000,METAR SBGR 010200Z 00000KT 7000 NSC 11/10 Q1022=,SBGR
1659322800000,METAR SBGR 010300Z 10002KT 7000 NSC 11/10 Q1021=,SBGR
1659326400000,METAR SBGR 010400Z 00000KT 6000 NSC 10/10 Q1021=,SBGR
1659330000000,METAR SBGR 010500Z 18002KT 4500 BR NSC 10/10 Q1021=,SBGR
1659333600000,METAR SBGR 010600Z 10002KT 4500 BR BKN007 10/09 Q1020=,SBGR
1659337200000,METAR SBGR 010700Z 08004KT 0400 R09L/1300D R09R/1600D R27R/1700D R27L/P2000 FG OVC003 11/11 Q1020=,SBGR
1659340800000,METAR SBGR 010800Z 06010KT 0300 R09R/0800N R09L/0800N R27R/0900U R27L/0900N -DZ FG OVC002 12/12 Q1020=,SBGR
1659344400000,METAR SBGR 010900Z 06009KT 0600 R27L/1400U R09L/1600U R27R/1600U R09R/1700U FG OVC002 11/11 Q1020=,SBGR
1659348000000,METAR SBGR 011000Z 06010KT 0700 R27R/1500N R27L/1600U R09R/1800U R09L/1900U FG OVC002 11/11 Q1021=,SBGR
1659351600000,METAR SBGR 011100Z 07006KT 0500 R09R/1300D R27L/1600U R09L/1900U R27R/1900N FG OVC002 12/12 Q1021=,SBGR
1659354000000,SPECI SBGR 011140Z 06005KT 1000 R27R/1700U R27L/1700U R09L/1900U R09R/P2000 BR OVC002 12/12 Q1021=,SBGR
1659355200000,METAR SBGR 011200Z 05006KT 1000 R09R/P2000 R09L/P2000 R27R/P2000 R27L/P2000 BR OVC003 12/12 Q1021=,SBGR
1659357300000,SPECI SBGR 011235Z 05007KT 3000 BR BKN004 13/13 Q1021=,SBGR
1659358800000,METAR SBGR 011300Z 06006KT 5000 BR BKN005 13/13 Q1021=,SBGR
1659360600000,SPECI SBGR 011330Z 07007KT 9999 SCT006 15/13 Q1021=,SBGR
1659362400000,METAR SBGR 011400Z 07007KT CAVOK 16/13 Q1021=,SBGR
1659366000000,METAR SBGR 011500Z 06008KT CAVOK 20/13 Q1020=,SBGR
1659369600000,METAR SBGR 011600Z 06004KT CAVOK 24/13 Q1019=,SBGR
1659373200000,METAR SBGR 011700Z 26014KT CAVOK 28/06 Q1018=,SBGR
1659376800000,METAR SBGR 011800Z 27015KT CAVOK 27/06 Q1017=,SBGR
1659380400000,METAR SBGR 011900Z 25008KT CAVOK 26/06 Q1017=,SBGR
1659384000000,METAR SBGR 012000Z 19007KT CAVOK 23/11 Q1018=,SBGR
1659387600000,METAR SBGR 012100Z 20002KT CAVOK 20/13 Q1018=,SBGR
1659391200000,METAR SBGR 012200Z 14003KT CAVOK 18/13 Q1019=,SBGR
1659394800000,METAR SBGR 012300Z 11001KT CAVOK 16/12 Q1019=,SBGR
1659312000000,METAR SBKP 010000Z 06003KT CAVOK 17/10 Q1019=,SBKP
1659315600000,METAR SBKP 010100Z 12006KT CAVOK 16/10 Q1020=,SBKP
1659319200000,METAR SBKP 010200Z 12010KT CAVOK 16/10 Q1020=,SBKP
1659322800000,METAR SBKP 010300Z 12010KT CAVOK 15/11 Q1020=,SBKP
1659326400000,METAR SBKP 010400Z 12010KT CAVOK 15/11 Q1020=,SBKP
1659330000000,METAR SBKP 010500Z 12010KT CAVOK 14/11 Q1019=,SBKP
1659333600000,METAR SBKP 010600Z 11010KT CAVOK 14/11 Q1019=,SBKP
1659337200000,METAR SBKP 010700Z 15007KT CAVOK 14/11 Q1019=,SBKP
1659340800000,METAR SBKP 010800Z 12005KT CAVOK 13/11 Q1019=,SBKP
1659344400000,METAR SBKP 010900Z 10008KT CAVOK 12/11 Q1019=,SBKP
1659348000000,METAR SBKP 011000Z 13005KT 9000 NSC 12/10 Q1019=,SBKP
1659351600000,METAR SBKP 011100Z 13003KT 9000 NSC 13/11 Q1020=,SBKP
1659355200000,METAR SBKP 011200Z 10005KT 9000 NSC 16/11 Q1020=,SBKP
1659358800000,METAR SBKP 011300Z 04004KT CAVOK 20/11 Q1020=,SBKP
1659362400000,METAR SBKP 011400Z 36003KT 290V050 CAVOK 23/11 Q1020=,SBKP
1659366000000,METAR SBKP 011500Z 02008KT CAVOK 25/10 Q1020=,SBKP
1659369600000,METAR SBKP 011600Z 36006KT 280V060 CAVOK 27/08 Q1019=,SBKP
1659373200000,METAR SBKP 011700Z 32009KT 270V360 9999 FEW030 28/07 Q1017=,SBKP
1659376800000,METAR SBKP 011800Z 29012KT 240V330 9999 FEW040 29/07 Q1017=,SBKP
1659380400000,METAR SBKP 011900Z 28010KT 9999 FEW045 BKN100 28/06 Q1017=,SBKP
1659384000000,METAR SBKP 012000Z 26008KT CAVOK 27/06 Q1017=,SBKP
1659387600000,METAR SBKP 012100Z 22007KT 150V240 CAVOK 26/07 Q1017=,SBKP
1659391200000,METAR SBKP 012200Z 18005KT 150V210 CAVOK 24/08 Q1017=,SBKP
1659394800000,METAR SBKP 012300Z 17006KT 140V210 CAVOK 23/08 Q1018=,SBKP
1659312000000,METAR SBPA 010000Z 11003KT CAVOK 15/12 Q1017=,SBPA
1659315600000,METAR SBPA 010100Z 14002KT CAVOK 13/12 Q1017=,SBPA
1659319200000,METAR SBPA 010200Z VRB01KT CAVOK 12/11 Q1018=,SBPA
1659322800000,METAR SBPA 010300Z VRB01KT 9000 NSC 11/11 Q1018=,SBPA
1659326400000,METAR SBPA 010400Z VRB01KT 4500 BR NSC 11/11 Q1017=,SBPA
1659328080000,SPECI SBPA 010428Z 08003KT 2500 BR BCFG NSC 11/10 Q1017=,SBPA
1659330000000,METAR SBPA 010500Z VRB02KT 2500 BR BCFG FEW008 10/10 Q1017=,SBPA
1659333600000,METAR SBPA 010600Z 24003KT 0300 R11/P2000 R29/P2000 FG VV003 10/10 Q1017=,SBPA
1659334260000,SPECI SBPA 010611Z 29002KT 0200 R11/0275 R29/P2000 FG VV002 10/10 Q1016=,SBPA
1659337200000,METAR SBPA 010700Z VRB02KT 0200 R11/0450 R29/0450 FG VV002 12/12 Q1016=,SBPA
1659340800000,METAR SBPA 010800Z 23003KT 190V260 0200 R11/0500 R29/0500 FG VV002 12/12 Q1016=,SBPA
1659343020000,SPECI SBPA 010837Z 24003KT 0250 R11/0650 R29/0900 FG VV002 12/12 Q1016=,SBPA
1659344400000,METAR SBPA 010900Z 00000KT 0350 R29/0800 R11/0900 FG VV002 12/12 Q1016=,SBPA
1659348000000,METAR SBPA 011000Z VRB02KT 0350 R29/0600 R11/1600 FG BKN002 OVC005 13/13 Q1017=,SBPA
1659349200000,SPECI SBPA 011020Z 09004KT 0350 R29/0500 R11/0550 FG VV002 12/12 Q1017=,SBPA
1659351600000,METAR SBPA 011100Z 08004KT 0100 R11/0450 R29/0450 FG VV002 12/12 Q1017=,SBPA
1659355200000,METAR SBPA 011200Z VRB02KT 0350 R29/1000 R11/1000 FG VV002 12/12 Q1018=,SBPA
1659355980000,SPECI SBPA 011213Z VRB02KT 0800 R11/P2000 R29/P2000 FG BKN002 OVC009 13/13 Q1018=,SBPA
1659358800000,METAR SBPA 011300Z VRB02KT 3000 BR BKN009 14/14 Q1018=,SBPA
1659362400000,METAR SBPA 011400Z 32003KT 4000 BR BKN010 15/14 Q1018=,SBPA
1659366000000,METAR SBPA 011500Z 27005KT 6000 BKN012 16/14 Q1018=,SBPA
1659367740000,SPECI SBPA 011529Z 29006KT 260V320 9999 SCT016 17/14 Q1018=,SBPA
1659369600000,METAR SBPA 011600Z 27007KT 230V300 9999 FEW018 17/14 Q1018=,SBPA
1659373200000,METAR SBPA 011700Z 28007KT CAVOK 17/14 Q1017=,SBPA
1659376800000,METAR SBPA 011800Z 28006KT CAVOK 17/14 Q1016=,SBPA
1659380400000,METAR SBPA 011900Z 26007KT CAVOK 17/14 Q1016=,SBPA
1659384000000,METAR SBPA 012000Z 24006KT CAVOK 17/14 Q1016=,SBPA
1659387600000,METAR SBPA 012100Z 17007KT CAVOK 15/13 Q1016=,SBPA
1659391200000,METAR SBPA 012200Z 17004KT CAVOK 14/13 Q1017=,SBPA
1659394800000,METAR SBPA 012300Z 17005KT 9000 FEW020 13/12 Q1018=,SBPA
1659396960000,SPECI SBPA 012336Z 13003KT 070V170 8000 FEW011 BKN014 13/12 Q1018=,SBPA
1659312000000,METAR SBRF 010000Z 14008KT 9999 SCT023 26/21 Q1016=,SBRF
1659315600000,METAR SBRF 010100Z 14009KT 9999 BKN023 26/21 Q1016=,SBRF
1659319200000,METAR SBRF 010200Z 15010KT 110V170 9999 SCT025 26/21 Q1016=,SBRF
1659322800000,METAR SBRF 010300Z 14011KT 9999 SCT025 26/20 Q1016=,SBRF
1659326400000,METAR SBRF 010400Z 14009KT 9999 BKN023 BKN060 26/20 Q1015=,SBRF
1659330000000,METAR SBRF 010500Z 14008KT 9999 SCT025 BKN060 25/20 Q1015=,SBRF
1659333600000,METAR SBRF 010600Z 14008KT 110V170 9999 SCT023 BKN060 25/20 Q1015=,SBRF
1659337200000,METAR SBRF 010700Z 15009KT 9999 SCT023 25/20 Q1014=,SBRF
1659340800000,METAR SBRF 010800Z 15009KT 9999 SCT023 25/20 Q1015=,SBRF
1659344400000,METAR SBRF 010900Z 15012KT 9999 VCSH SCT020 25/20 Q1015=,SBRF
1659348000000,METAR SBRF 011000Z 15011KT 9999 FEW025 25/20 Q1015=,SBRF
1659351600000,METAR SBRF 011100Z 15013KT 9999 SCT025 27/21 Q1016=,SBRF
1659355200000,METAR SBRF 011200Z 16015KT 9999 SCT025 27/20 Q1016=,SBRF
1659358800000,METAR SBRF 011300Z 16015KT 9999 FEW025 27/20 Q1016=,SBRF
1659362400000,METAR SBRF 011400Z 15015KT 9999 FEW025 28/19 Q1016=,SBRF
1659366000000,METAR SBRF 011500Z 17016KT 9999 SCT025 28/20 Q1016=,SBRF
1659369600000,METAR SBRF 011600Z 16016KT 9999 SCT025 28/20 Q1015=,SBRF
1659373200000,METAR SBRF 011700Z 16015KT 9999 SCT025 26/20 Q1014=,SBRF
1659376800000,METAR SBRF 011800Z 17013KT 9999 SCT025 27/20 Q1014=,SBRF
1659380400000,METAR SBRF 011900Z 18013KT 9999 SCT025 27/20 Q1014=,SBRF
1659384000000,METAR SBRF 012000Z 18015KT 9999 SCT025 26/20 Q1014=,SBRF
1659387600000,METAR SBRF 012100Z 18012KT 9999 SCT025 SCT070 26/19 Q1014=,SBRF
1659391200000,METAR SBRF 012200Z 19008KT 9999 SCT025 SCT070 25/19 Q1014=,SBRF
1659394800000,METAR SBRF 012300Z 17015KT 9999 SCT025 BKN070 25/19 Q1015=,SBRF
1659312000000,METAR SBRJ 010000Z 07008KT 9999 FEW025 BKN040 21/16 Q1019=,SBRJ
1659315600000,METAR SBRJ 010100Z 07005KT 040V100 9999 FEW025 BKN035 21/16 Q1019=,SBRJ
1659319200000,METAR SBRJ 010200Z 07008KT 9999 SCT035 21/15 Q1019=,SBRJ
1659343800000,SPECI SBRJ 010850Z 05004KT 9999 FEW020 18/16 Q1018=,SBRJ
1659344400000,METAR SBRJ 010900Z 05003KT 9999 FEW020 18/16 Q1018=,SBRJ
1659348000000,METAR SBRJ 011000Z VRB02KT 9999 FEW040 18/16 Q1019=,SBRJ
1659351600000,METAR SBRJ 011100Z 35005KT 9999 FEW018 19/17 Q1019=,SBRJ
1659355200000,METAR SBRJ 011200Z 33007KT 9999 FEW013 19/17 Q1019=,SBRJ
1659358800000,METAR SBRJ 011300Z 36006KT 9999 FEW018 21/17 Q1019=,SBRJ
1659362400000,METAR SBRJ 011400Z 33006KT 9999 FEW020 21/16 Q1018=,SBRJ
1659366000000,METAR SBRJ 011500Z 33006KT 300V360 CAVOK 22/16 Q1017=,SBRJ
1659369600000,METAR SBRJ 011600Z 33005KT 290V010 CAVOK 24/17 Q1016=,SBRJ
1659373200000,METAR SBRJ 011700Z 36004KT CAVOK 24/17 Q1015=,SBRJ
1659376800000,METAR SBRJ 011800Z 35005KT 300V020 CAVOK 26/17 Q1014=,SBRJ
1659378000000,SPECI SBRJ 011820Z 16006KT CAVOK 25/18 Q1014=,SBRJ
1659380400000,METAR SBRJ 011900Z 17008KT CAVOK 24/19 Q1014=,SBRJ
1659384000000,METAR SBRJ 012000Z 17009KT CAVOK 23/19 Q1014=,SBRJ
1659387600000,METAR SBRJ 012100Z 19012KT CAVOK 23/20 Q1014=,SBRJ
1659391200000,METAR SBRJ 012200Z 19012KT CAVOK 23/20 Q1015=,SBRJ
1659394800000,METAR SBRJ 012300Z 19011KT CAVOK 23/21 Q1015=,SBRJ
1659312000000,METAR SBSP 010000Z 16004KT CAVOK 12/11 Q1022=,SBSP
1659315600000,METAR SBSP 010100Z 15004KT 9000 NSC 12/11 Q1022=,SBSP
1659319200000,METAR SBSP 010200Z 16002KT 8000 NSC 12/11 Q1022=,SBSP
1659319260000,SPECI SBSP 010201Z 16003KT 8000 NSC 12/11 Q1022=,SBSP
1659322800000,METAR SBSP 010300Z AUTO 15003KT 9000 NCD 12/11 Q1022=,SBSP
1659326400000,METAR SBSP 010400Z AUTO 17004KT 8000 NCD 12/11 Q1021=,SBSP
1659330000000,METAR SBSP 010500Z AUTO 18004KT 7000 NCD 11/11 Q1021=,SBSP
1659333600000,METAR SBSP 010600Z AUTO 00000KT 9000 NCD 12/11 Q1020=,SBSP
1659337200000,METAR SBSP 010700Z AUTO 06003KT 9000 NCD 12/11 Q1020=,SBSP
1659340260000,SPECI SBSP 010751Z AUTO 06004KT 020V090 6000 SCT001 BKN005 12/11 Q1020=,SBSP
1659340800000,METAR SBSP 010800Z AUTO 05004KT 010V090 6000 SCT001 BKN005 12/11 Q1020=,SBSP
1659340860000,SPECI SBSP 010801Z AUTO 04005KT 010V070 5000 BR SCT001 BKN004 12/12 Q1020=,SBSP
1659342120000,SPECI SBSP 010822Z AUTO 05004KT 010V100 4600 BR SCT001 OVC004 13/12 Q1020=,SBSP
1659344400000,METAR SBSP 010900Z 04005KT 2000 R17/1500D R35/P2000 BR SCT001 OVC004 12/12 Q1020=,SBSP
1659348000000,METAR SBSP 011000Z 07005KT 020V100 2500 BR SCT002 OVC003 13/12 Q1021=,SBSP
1659351600000,METAR SBSP 011100Z 06004KT 020V090 3000 BR SCT001 OVC005 13/12 Q1021=,SBSP
1659355200000,METAR SBSP 011200Z 04004KT 010V090 4000 BR SCT002 BKN006 14/13 Q1022=,SBSP
1659358800000,METAR SBSP 011300Z 06004KT 020V110 5000 HZ FEW006 16/13 Q1022=,SBSP
1659362400000,METAR SBSP 011400Z 02004KT 330V060 7000 NSC 19/12 Q1021=,SBSP
1659366000000,METAR SBSP 011500Z 03004KT 340V090 8000 NSC 21/12 Q1021=,SBSP
1659369600000,METAR SBSP 011600Z 34006KT 270V050 9000 NSC 24/11 Q1019=,SBSP
1659373200000,METAR SBSP 011700Z 30012KT 250V330 CAVOK 26/05 Q1019=,SBSP
1659376800000,METAR SBSP 011800Z 25011KT 210V290 CAVOK 26/05 Q1018=,SBSP
1659380400000,METAR SBSP 011900Z 18013KT CAVOK 23/14 Q1019=,SBSP
1659384000000,METAR SBSP 012000Z 17010KT CAVOK 21/12 Q1019=,SBSP
1659387600000,METAR SBSP 012100Z 18008KT CAVOK 20/12 Q1019=,SBSP
1659391200000,METAR SBSP 012200Z 16005KT CAVOK 19/12 Q1020=,SBSP
1659394800000,METAR SBSP 012300Z 13003KT CAVOK 18/12 Q1020=,SBSP
1659312000000,METAR SBSV 010000Z 09008KT CAVOK 25/21 Q1018=,SBSV
1659315600000,METAR SBSV 010100Z 09009KT 9999 FEW020 25/22 Q1018=,SBSV
1659319200000,METAR SBSV 010200Z 10007KT 9999 FEW020 25/22 Q1018=,SBSV
1659322800000,METAR SBSV 010300Z 09008KT 9999 FEW020 25/21 Q1018=,SBSV
1659326400000,METAR SBSV 010400Z 10008KT 9999 FEW020 25/21 Q1018=,SBSV
1659330000000,METAR SBSV 010500Z 11006KT 9999 FEW020 25/21 Q1017=,SBSV
1659333600000,METAR SBSV 010600Z 11008KT 9999 FEW020 25/21 Q1017=,SBSV
1659337200000,METAR SBSV 010700Z 13007KT 9999 FEW020 25/20 Q1017=,SBSV
1659340800000,METAR SBSV 010800Z 13007KT 9999 FEW020 25/20 Q1017=,SBSV
1659344400000,METAR SBSV 010900Z 13008KT 9999 SCT020 25/20 Q1017=,SBSV
1659348000000,METAR SBSV 011000Z 13007KT 090V160 9999 FEW020 26/20 Q1018=,SBSV
1659351600000,METAR SBSV 011100Z 13009KT 100V160 9999 FEW020 26/21 Q1018=,SBSV
1659355200000,METAR SBSV 011200Z 14010KT 110V170 9999 FEW020 27/21 Q1019=,SBSV
1659358800000,METAR SBSV 011300Z 13011KT 100V170 9999 FEW020 28/21 Q1019=,SBSV
1659362400000,METAR SBSV 011400Z 13011KT 9999 SCT020 28/21 Q1019=,SBSV
1659366000000,METAR SBSV 011500Z 11012KT 9999 SCT020 27/21 Q1018=,SBSV
1659369600000,METAR SBSV 011600Z 12010KT 080V150 9999 SCT020 FEW025TCU 27/21 Q1018=,SBSV
1659373200000,METAR SBSV 011700Z 12010KT 100V160 9999 SCT020 27/21 Q1017=,SBSV
1659376800000,METAR SBSV 011800Z 12010KT 090V170 9999 SCT023 27/20 Q1017=,SBSV
1659380400000,METAR SBSV 011900Z 12009KT 090V150 9999 SCT023 27/20 Q1016=,SBSV
1659384000000,METAR SBSV 012000Z 12007KT 9999 SCT023 26/20 Q1016=,SBSV
1659387600000,METAR SBSV 012100Z 12007KT 9999 FEW023 26/20 Q1016=,SBSV
1659391200000,METAR SBSV 012200Z 11008KT 080V150 9999 FEW023 26/20 Q1016=,SBSV
1659394800000,METAR SBSV 012300Z 12007KT 090V170 9999 FEW023 26/20 Q1017=,SBSV
