hora,metar,aero
1683590400000,METAR SBBR 090000Z 11007KT CAVOK 22/13 Q1020=,SBBR
1683594000000,METAR SBBR 090100Z 08003KT 360V110 CAVOK 21/13 Q1021=,SBBR
1683597600000,METAR SBBR 090200Z 26002KT CAVOK 19/14 Q1021=,SBBR
1683601200000,METAR SBBR 090300Z 28003KT CAVOK 17/14 Q1021=,SBBR
1683604800000,METAR SBBR 090400Z VRB02KT CAVOK 18/14 Q1021=,SBBR
1683608400000,METAR SBBR 090500Z 19004KT CAVOK 18/14 Q1020=,SBBR
1683612000000,METAR SBBR 090600Z 18001KT CAVOK 14/13 Q1020=,SBBR
1683615600000,METAR SBBR 090700Z 26002KT CAVOK 15/13 Q1020=,SBBR
1683619200000,METAR SBBR 090800Z 28003KT CAVOK 15/13 Q1021=,SBBR
1683622800000,METAR SBBR 090900Z VRB01KT CAVOK 15/13 Q1021=,SBBR
1683626400000,METAR SBBR 091000Z VRB01KT CAVOK 16/12 Q1022=,SBBR
1683630000000,METAR SBBR 091100Z 06003KT 010V110 CAVOK 18/14 Q1022=,SBBR
1683633600000,METAR SBBR 091200Z 09003KT 030V140 CAVOK 22/14 Q1022=,SBBR
1683637200000,METAR SBBR 091300Z 08005KT 040V130 CAVOK 24/14 Q1022=,SBBR
1683640800000,METAR SBBR 091400Z 08006KT 030V150 CAVOK 25/14 Q1022=,SBBR
1683644400000,METAR SBBR 091500Z 03004KT 360V100 CAVOK 26/11 Q1021=,SBBR
1683648000000,METAR SBBR 091600Z 28004KT 230V360 CAVOK 27/12 Q1020=,SBBR
1683651600000,METAR SBBR 091700Z 07005KT 9999 FEW040 SCT100 27/12 Q1019=,SBBR
1683655200000,METAR SBBR 091800Z 03005KT 350V080 9999 FEW040 SCT100 27/13 Q1018=,SBBR
1683658800000,METAR SBBR 091900Z 16009KT 9999 FEW040 SCT100 27/14 Q1019=,SBBR
1683662400000,METAR SBBR 092000Z 16007KT 9999 FEW045 SCT100 26/14 Q1019=,SBBR
1683666000000,METAR SBBR 092100Z 15005KT 9999 FEW045 BKN080 25/14 Q1019=,SBBR
1683669600000,METAR SBBR 092200Z 22003KT 9999 FEW045 BKN080 23/15 Q1020=,SBBR
1683673200000,METAR SBBR 092300Z 22002KT 9999 FEW045 BKN070 23/15 Q1020=,SBBR
1683590400000,METAR SBCF 090000Z 05008KT CAVOK 21/14 Q1021=,SBCF
1683594000000,METAR SBCF 090100Z 07004KT CAVOK 20/14 Q1021=,SBCF
1683597600000,METAR SBCF 090200Z 10002KT CAVOK 18/15 Q1021=,SBCF
1683601200000,METAR SBCF 090300Z 13002KT CAVOK 18/15 Q1021=,SBCF
1683604800000,METAR SBCF 090400Z 10006KT CAVOK 18/15 Q1020=,SBCF
1683608400000,METAR SBCF 090500Z 23023KT CAVOK 16/15 Q1020=,SBCF
1683612000000,METAR SBCF 090600Z 15003KT CAVOK 17/15 Q1020=,SBCF
1683615600000,METAR SBCF 090700Z 14003KT CAVOK 16/15 Q1020=,SBCF
1683619200000,METAR SBCF 090800Z 13002KT CAVOK 16/15 Q1020=,SBCF
1683622800000,METAR SBCF 090900Z 00000KT CAVOK 16/15 Q1020=,SBCF
1683626400000,METAR SBCF 091000Z 16002KT CAVOK 16/14 Q1021=,SBCF
1683630000000,METAR SBCF 091100Z 16002KT CAVOK 17/15 Q1022=,SBCF
1683633600000,METAR SBCF 091200Z 16003KT 9999 FEW017 20/16 Q1022=,SBCF
1683637200000,METAR SBCF 091300Z 06005KT 9999 FEW019 23/16 Q1022=,SBCF
1683640800000,METAR SBCF 091400Z 07003KT 9999 SCT030 24/15 Q1022=,SBCF
1683644400000,METAR SBCF 091500Z 12002KT 9999 SCT035 25/15 Q1021=,SBCF
1683648000000,METAR SBCF 091600Z 17004KT 9999 SCT040 25/14 Q1020=,SBCF
1683651600000,METAR SBCF 091700Z 18004KT 100V230 9999 SCT040 26/14 Q1019=,SBCF
1683655200000,METAR SBCF 091800Z VRB04KT 9999 SCT045 27/14 Q1018=,SBCF
1683658800000,METAR SBCF 091900Z VRB03KT 9999 FEW045 27/14 Q1018=,SBCF
1683662400000,METAR SBCF 092000Z 22002KT 9999 FEW045 26/14 Q1018=,SBCF
1683666000000,METAR SBCF 092100Z 28001KT 9999 FEW045 24/13 Q1019=,SBCF
1683669600000,METAR SBCF 092200Z 00000KT 9999 FEW045 23/13 Q1019=,SBCF
1683673200000,METAR SBCF 092300Z 08005KT CAVOK 23/15 Q1020=,SBCF
1683590400000,METAR SBCT 090000Z VRB02KT 9999 VCTS FEW020 FEW030CB BKN080 20/18 Q1020=,SBCT
1683594000000,METAR SBCT 090100Z 07002KT 9999 FEW020 BKN080 20/18 Q1020=,SBCT
1683597600000,METAR SBCT 090200Z 07002KT 9000 FEW020 BKN070 19/19 Q1021=,SBCT
1683601200000,METAR SBCT 090300Z 00000KT 9999 FEW020 BKN060 19/18 Q1021=,SBCT
1683604800000,METAR SBCT 090400Z 30001KT 9999 FEW020 BKN060 20/18 Q1021=,SBCT
1683608400000,METAR SBCT 090500Z 12004KT 9999 BKN016 BKN060 18/17 Q1020=,SBCT
1683612000000,METAR SBCT 090600Z 08003KT 8000 OVC014 18/18 Q1020=,SBCT
1683615600000,METAR SBCT 090700Z 12002KT 7000 OVC014 18/18 Q1020=,SBCT
1683619200000,METAR SBCT 090800Z 06003KT 4000 BR BKN003 OVC014 18/18 Q1019=,SBCT
1683622800000,METAR SBCT 090900Z 05003KT 6000 BKN004 OVC010 18/18 Q1020=,SBCT
1683626400000,METAR SBCT 091000Z 05002KT 3500 -DZ BR BKN005 OVC013 18/18 Q1021=,SBCT
1683630000000,METAR SBCT 091100Z 02004KT 9999 OVC005 19/18 Q1022=,SBCT
1683633600000,METAR SBCT 091200Z 04004KT 9999 OVC005 19/18 Q1022=,SBCT
1683637200000,METAR SBCT 091300Z 09005KT 9999 OVC009 20/18 Q1022=,SBCT
1683640800000,METAR SBCT 091400Z 10005KT 9999 OVC010 19/17 Q1023=,SBCT
1683644400000,METAR SBCT 091500Z 07006KT 9999 BKN011 20/17 Q1022=,SBCT
1683648000000,METAR SBCT 091600Z 11006KT 9999 BKN013 21/18 Q1021=,SBCT
1683651600000,METAR SBCT 091700Z 08009KT 9999 BKN014 21/17 Q1020=,SBCT
1683652500000,SPECI SBCT 091715Z 10008KT 070V140 9999 SCT015 21/17 Q1020=,SBCT
1683655200000,METAR SBCT 091800Z 10007KT 070V140 9999 SCT020 BKN100 21/17 Q1020=,SBCT
1683658800000,METAR SBCT 091900Z 09009KT 9999 FEW010 SCT020 BKN100 19/16 Q1020=,SBCT
1683662400000,METAR SBCT 092000Z 09008KT 060V120 9999 BKN012 BKN100 18/16 Q1020=,SBCT
1683666000000,METAR SBCT 092100Z 10007KT 9999 FEW005 BKN010 OVC020 17/15 Q1020=,SBCT
1683669600000,METAR SBCT 092200Z 09008KT 9999 BKN006 OVC015 17/15 Q1021=,SBCT
1683673200000,METAR SBCT 092300Z 10006KT 9999 BKN007 OVC020 17/15 Q1021=,SBCT
1683590400000,METAR SBFL 090000Z 16009KT 9999 FEW010 BKN018 22/20 Q1017=,SBFL
1683594000000,METAR SBFL 090100Z 17008KT 9999 BKN016 BKN020 22/21 Q1017=,SBFL
1683597600000,METAR SBFL 090200Z 18005KT 9999 -RA BKN018 BKN025 21/21 Q1017=,SBFL
1683601200000,METAR SBFL 090300Z 19007KT 9999 -RA BKN017 BKN024 21/21 Q1018=,SBFL
1683604800000,METAR SBFL 090400Z 18007KT 9999 BKN019 BKN030 21/20 Q1017=,SBFL
1683608400000,METAR SBFL 090500Z 17007KT 140V200 9999 SCT020 BKN030 21/18 Q1017=,SBFL
1683612000000,METAR SBFL 090600Z 18008KT 9999 FEW020 BKN030 21/18 Q1016=,SBFL
1683615600000,METAR SBFL 090700Z 18008KT 9999 FEW020 BKN032 21/18 Q1016=,SBFL
1683619200000,METAR SBFL 090800Z 20005KT 9999 FEW021 BKN028 21/18 Q1017=,SBFL
1683622800000,METAR SBFL 090900Z 16007KT 9999 FEW025 BKN032 21/15 Q1017=,SBFL
1683626400000,METAR SBFL 091000Z 17006KT 130V200 9999 SCT030 20/15 Q1018=,SBFL
1683630000000,METAR SBFL 091100Z 17008KT 9999 SCT025 SCT070 20/12 Q1019=,SBFL
1683633600000,METAR SBFL 091200Z 17006KT 150V210 9999 BKN025 BKN080 20/13 Q1020=,SBFL
1683637200000,METAR SBFL 091300Z VRB06KT 9999 FEW020 BKN030 BKN080 22/10 Q1020=,SBFL
1683640800000,METAR SBFL 091400Z 12006KT 070V170 9999 FEW020 SCT030 23/12 Q1019=,SBFL
1683644400000,METAR SBFL 091500Z 14004KT 090V210 9999 FEW020 BKN035 BKN070 23/11 Q1019=,SBFL
1683648000000,METAR SBFL 091600Z 14011KT 9999 SCT025 SCT070 24/13 Q1018=,SBFL
1683651600000,METAR SBFL 091700Z 12010KT 9999 SCT030 SCT070 23/13 Q1018=,SBFL
1683655200000,METAR SBFL 091800Z 14008KT 9999 FEW030 SCT080 24/13 Q1017=,SBFL
1683658800000,METAR SBFL 091900Z 13007KT 9999 SCT040 BKN080 22/12 Q1017=,SBFL
1683662400000,METAR SBFL 092000Z 13007KT 9999 BKN040 BKN080 22/13 Q1018=,SBFL
1683666000000,METAR SBFL 092100Z 15006KT 9999 BKN040 BKN080 22/13 Q1018=,SBFL
1683669600000,METAR SBFL 092200Z 16005KT 140V230 9999 BKN045 BKN100 22/14 Q1018=,SBFL
1683673200000,METAR SBFL 092300Z 20002KT 9999 SCT045 BKN100 19/15 Q1018=,SBFL
1683590400000,METAR SBGL 090000Z 05005KT CAVOK 24/21 Q1016=,SBGL
1683594000000,METAR SBGL 090100Z 09005KT CAVOK 24/21 Q1016=,SBGL
1683597600000,METAR SBGL 090200Z 08003KT CAVOK 23/21 Q1015=,SBGL
1683601200000,METAR SBGL 090300Z 11003KT CAVOK 23/21 Q1015=,SBGL
1683604800000,METAR SBGL 090400Z 07002KT CAVOK 22/21 Q1015=,SBGL
1683608400000,METAR SBGL 090500Z 05005KT 9999 FEW007 22/21 Q1014=,SBGL
1683612000000,METAR SBGL 090600Z 30002KT 9999 SCT007 22/21 Q1015=,SBGL
1683615600000,METAR SBGL 090700Z 04003KT 9999 FEW007 21/20 Q1014=,SBGL
1683619200000,METAR SBGL 090800Z 35004KT 9999 FEW007 22/21 Q1014=,SBGL
1683622800000,METAR SBGL 090900Z 04003KT 8000 FEW007 21/20 Q1015=,SBGL
1683626400000,METAR SBGL 091000Z VRB01KT 8000 FEW007 21/20 Q1015=,SBGL
1683630000000,METAR SBGL 091100Z 35002KT 7000 SCT003 23/21 Q1016=,SBGL
1683633600000,METAR SBGL 091200Z VRB02KT 7000 FEW004 24/22 Q1016=,SBGL
1683637200000,METAR SBGL 091300Z 14002KT 8000 FEW004 27/22 Q1016=,SBGL
1683640800000,METAR SBGL 091400Z 04005KT 8000 FEW004 28/22 Q1016=,SBGL
1683644400000,METAR SBGL 091500Z 05005KT 9000 NSC 28/22 Q1015=,SBGL
1683648000000,METAR SBGL 091600Z 05007KT CAVOK 30/22 Q1014=,SBGL
1683651600000,METAR SBGL 091700Z 12008KT CAVOK 27/21 Q1014=,SBGL
1683655200000,METAR SBGL 091800Z 13007KT CAVOK 27/22 Q1014=,SBGL
1683658800000,METAR SBGL 091900Z 21011KT 9999 FEW045 28/21 Q1014=,SBGL
1683662400000,METAR SBGL 092000Z 23009KT CAVOK 27/20 Q1015=,SBGL
1683666000000,METAR SBGL 092100Z 25005KT CAVOK 25/20 Q1015=,SBGL
1683669600000,METAR SBGL 092200Z 29008KT CAVOK 25/21 Q1015=,SBGL
1683673200000,METAR SBGL 092300Z 27004KT CAVOK 25/22 Q1016=,SBGL
1683590400000,METAR SBGR 090000Z 08002KT CAVOK 21/17 Q1020=,SBGR
1683594000000,METAR SBGR 090100Z 00000KT CAVOK 18/17 Q1020=,SBGR
1683597600000,METAR SBGR 090200Z 00000KT CAVOK 18/17 Q1020=,SBGR
1683601200000,METAR SBGR 090300Z 00000KT CAVOK 18/17 Q1020=,SBGR
1683604800000,METAR SBGR 090400Z 06005KT 9000 NSC 18/17 Q1020=,SBGR
1683608400000,METAR SBGR 090500Z 20002KT 9000 NSC 17/17 Q1020=,SBGR
1683612000000,METAR SBGR 090600Z 06001KT 9000 NSC 18/17 Q1019=,SBGR
1683615600000,METAR SBGR 090700Z 09001KT 8000 NSC 17/16 Q1019=,SBGR
1683619200000,METAR SBGR 090800Z 12001KT 8000 NSC 16/16 Q1019=,SBGR
1683622800000,METAR SBGR 090900Z 00000KT 9000 NSC 17/16 Q1019=,SBGR
1683626400000,METAR SBGR 091000Z 00000KT 8000 NSC 16/16 Q1020=,SBGR
1683630000000,METAR SBGR 091100Z 08001KT 8000 NSC 19/17 Q1020=,SBGR
1683633600000,METAR SBGR 091200Z 05003KT 8000 NSC 21/18 Q1021=,SBGR
1683637200000,METAR SBGR 091300Z 24004KT 3000 HZ NSC 23/18 Q1021=,SBGR
1683640800000,METAR SBGR 091400Z 00000KT 4000 HZ SCT025 25/17 Q1021=,SBGR
1683644400000,METAR SBGR 091500Z 16002KT 5000 HZ SCT035 26/18 Q1020=,SBGR
1683648000000,METAR SBGR 091600Z 28005KT 4000 HZ SCT040 26/16 Q1019=,SBGR
1683651600000,METAR SBGR 091700Z 24005KT 4000 HZ BKN040 26/17 Q1019=,SBGR
1683655200000,METAR SBGR 091800Z 21003KT 5000 HZ SCT040 26/17 Q1018=,SBGR
1683658800000,METAR SBGR 091900Z 20005KT 8000 BKN040 25/18 Q1018=,SBGR
1683662400000,METAR SBGR 092000Z 17007KT 9999 BKN021 22/18 Q1019=,SBGR
1683666000000,METAR SBGR 092100Z 16005KT 9999 SCT021 21/18 Q1019=,SBGR
1683669600000,METAR SBGR 092200Z 15003KT 9999 BKN019 21/18 Q1020=,SBGR
1683673200000,METAR SBGR 092300Z 16004KT 9999 BKN023 21/18 Q1020=,SBGR
1683590400000,METAR SBKP 090000Z 13003KT CAVOK 22/17 Q1019=,SBKP
1683594000000,METAR SBKP 090100Z 10004KT CAVOK 21/17 Q1019=,SBKP
1683597600000,METAR SBKP 090200Z 12006KT CAVOK 20/17 Q1019=,SBKP
1683601200000,METAR SBKP 090300Z 12007KT CAVOK 20/17 Q1019=,SBKP
1683604800000,METAR SBKP 090400Z 11007KT CAVOK 20/16 Q1019=,SBKP
1683608400000,METAR SBKP 090500Z 12004KT CAVOK 19/16 Q1019=,SBKP
1683612000000,METAR SBKP 090600Z 11004KT CAVOK 19/16 Q1018=,SBKP
1683615600000,METAR SBKP 090700Z 11005KT CAVOK 18/16 Q1019=,SBKP
1683619200000,METAR SBKP 090800Z 11006KT 9999 FEW008 18/16 Q1018=,SBKP
1683622800000,METAR SBKP 090900Z 11005KT CAVOK 17/16 Q1019=,SBKP
1683626400000,METAR SBKP 091000Z 12006KT 8000 NSC 17/16 Q1019=,SBKP
1683630000000,METAR SBKP 091100Z 12003KT 8000 3500E NSC 19/16 Q1020=,SBKP
1683633600000,METAR SBKP 091200Z 06003KT 340V150 8000 NSC 22/17 Q1021=,SBKP
1683637200000,METAR SBKP 091300Z VRB03KT CAVOK 24/17 Q1021=,SBKP
1683640800000,METAR SBKP 091400Z VRB03KT 9999 FEW030 26/17 Q1020=,SBKP
1683644400000,METAR SBKP 091500Z VRB02KT 9999 FEW030 27/17 Q1020=,SBKP
1683648000000,METAR SBKP 091600Z 21007KT 170V280 9999 FEW035 27/17 Q1019=,SBKP
1683651600000,METAR SBKP 091700Z 23006KT 180V270 9999 FEW040 26/17 Q1018=,SBKP
1683655200000,METAR SBKP 091800Z 24005KT 200V310 CAVOK 27/17 Q1018=,SBKP
1683658800000,METAR SBKP 091900Z 27007KT 240V320 CAVOK 26/17 Q1018=,SBKP
1683662400000,METAR SBKP 092000Z 25006KT 9999 FEW045 26/18 Q1018=,SBKP
1683666000000,METAR SBKP 092100Z 19006KT 130V220 CAVOK 25/19 Q1018=,SBKP
1683669600000,METAR SBKP 092200Z 13006KT 9999 2500SE NSC 23/19 Q1018=,SBKP
1683673200000,METAR SBKP 092300Z 13010KT CAVOK 22/18 Q1019=,SBKP
1683590400000,METAR SBPA 090000Z 29005KT CAVOK 17/15 Q1019=,SBPA
1683594000000,METAR SBPA 090100Z 28004KT CAVOK 16/14 Q1019=,SBPA
1683597600000,METAR SBPA 090200Z 29004KT CAVOK 16/14 Q1020=,SBPA
1683601200000,METAR SBPA 090300Z 27004KT CAVOK 16/14 Q1019=,SBPA
1683604800000,METAR SBPA 090400Z VRB01KT CAVOK 15/14 Q1019=,SBPA
1683608400000,METAR SBPA 090500Z VRB01KT CAVOK 14/14 Q1019=,SBPA
1683612000000,METAR SBPA 090600Z 32001KT CAVOK 14/13 Q1019=,SBPA
1683615600000,METAR SBPA 090700Z 31002KT CAVOK 13/13 Q1019=,SBPA
1683619200000,METAR SBPA 090800Z 24002KT CAVOK 13/12 Q1018=,SBPA
1683622800000,METAR SBPA 090900Z 28005KT 260V340 CAVOK 14/14 Q1019=,SBPA
1683626400000,METAR SBPA 091000Z 29003KT 280V350 CAVOK 13/13 Q1019=,SBPA
1683630000000,METAR SBPA 091100Z 27006KT CAVOK 14/14 Q1020=,SBPA
1683633600000,METAR SBPA 091200Z 26006KT 9999 FEW003 16/14 Q1020=,SBPA
1683637200000,METAR SBPA 091300Z 27006KT 250V310 9999 FEW007 17/15 Q1021=,SBPA
1683640800000,METAR SBPA 091400Z 29006KT 250V330 CAVOK 19/16 Q1020=,SBPA
1683644400000,METAR SBPA 091500Z 30008KT 260V330 CAVOK 21/15 Q1020=,SBPA
1683648000000,METAR SBPA 091600Z 27012KT 9999 FEW035 22/14 Q1019=,SBPA
1683651600000,METAR SBPA 091700Z 28012KT 240V300 9999 FEW033 23/15 Q1018=,SBPA
1683655200000,METAR SBPA 091800Z 26009KT 230V300 9999 SCT040 23/14 Q1018=,SBPA
1683658800000,METAR SBPA 091900Z 26011KT 9999 FEW040 22/14 Q1018=,SBPA
1683662400000,METAR SBPA 092000Z 27009KT 9999 FEW040 22/14 Q1018=,SBPA
1683666000000,METAR SBPA 092100Z 26006KT 9999 FEW040 20/14 Q1018=,SBPA
1683669600000,METAR SBPA 092200Z 25004KT CAVOK 19/15 Q1018=,SBPA
1683673200000,METAR SBPA 092300Z VRB01KT CAVOK 17/15 Q1019=,SBPA
1683590400000,METAR SBRF 090000Z 15006KT 130V200 9999 SCT023 27/22 Q1014=,SBRF
1683594000000,METAR SBRF 090100Z 22004KT 170V240 9999 SCT023 26/22 Q1014=,SBRF
1683597600000,METAR SBRF 090200Z 21003KT 170V250 9999 SCT023 26/22 Q1014=,SBRF
1683601200000,METAR SBRF 090300Z 24003KT 200V300 9999 SCT022 26/22 Q1014=,SBRF
1683604800000,METAR SBRF 090400Z 23005KT 190V250 9999 SCT023 25/22 Q1013=,SBRF
1683608400000,METAR SBRF 090500Z 20004KT 160V240 9999 SCT023 SCT060 25/22 Q1013=,SBRF
1683612000000,METAR SBRF 090600Z VRB02KT 9999 SCT023 24/22 Q1012=,SBRF
1683615600000,METAR SBRF 090700Z 19003KT 150V220 9999 -RA SCT020 SCT070 24/22 Q1012=,SBRF
1683619200000,METAR SBRF 090800Z 20003KT 160V250 9999 SCT023 24/22 Q1013=,SBRF
1683622800000,METAR SBRF 090900Z 00000KT 9999 SCT023 24/22 Q1013=,SBRF
1683626400000,METAR SBRF 091000Z 23005KT 9999 SCT023 25/22 Q1013=,SBRF
1683630000000,METAR SBRF 091100Z 19007KT 9999 SCT023 28/23 Q1014=,SBRF
1683633600000,METAR SBRF 091200Z 17011KT 9999 SCT023 29/23 Q1014=,SBRF
1683637200000,METAR SBRF 091300Z 15011KT 120V180 9999 SCT023 FEW025TCU 30/24 Q1014=,SBRF
1683640800000,METAR SBRF 091400Z 14012KT 120V180 9999 SCT023 FEW025TCU 29/23 Q1013=,SBRF
1683644400000,METAR SBRF 091500Z 15010KT 120V180 9999 SCT023 FEW025TCU 30/23 Q1013=,SBRF
1683648000000,METAR SBRF 091600Z 13011KT 090V160 9999 SCT023 FEW025TCU 29/23 Q1012=,SBRF
1683651600000,METAR SBRF 091700Z 15010KT 110V180 9999 SCT023 30/23 Q1011=,SBRF
1683655200000,METAR SBRF 091800Z 14010KT 100V170 9999 SCT023 29/23 Q1011=,SBRF
1683658800000,METAR SBRF 091900Z 15010KT 9999 SCT023 29/23 Q1011=,SBRF
1683662400000,METAR SBRF 092000Z 15011KT 9999 SCT020 28/23 Q1011=,SBRF
1683666000000,METAR SBRF 092100Z 15010KT 9999 SCT020 28/23 Q1012=,SBRF
1683669600000,METAR SBRF 092200Z 15009KT 9999 SCT023 28/22 Q1013=,SBRF
1683673200000,METAR SBRF 092300Z 14008KT 9999 FEW023 28/22 Q1013=,SBRF
1683590400000,METAR SBRJ 090000Z 36002KT CAVOK 25/21 Q1015=,SBRJ
1683594000000,METAR SBRJ 090100Z 34006KT CAVOK 25/22 Q1015=,SBRJ
1683597600000,METAR SBRJ 090200Z 35006KT CAVOK 24/22 Q1015=,SBRJ
1683601200000,METAR SBRJ 090300Z 34005KT CAVOK 24/22 Q1015=,SBRJ
1683604800000,METAR SBRJ 090400Z 01004KT CAVOK 24/22 Q1015=,SBRJ
1683608400000,METAR SBRJ 090500Z 01005KT CAVOK 23/22 Q1014=,SBRJ
1683612000000,METAR SBRJ 090600Z 36003KT 9999 FEW015 23/22 Q1014=,SBRJ
1683615600000,METAR SBRJ 090700Z 02004KT 9999 BKN008 23/22 Q1014=,SBRJ
1683619200000,METAR SBRJ 090800Z 01007KT 9999 BKN008 23/22 Q1014=,SBRJ
1683622800000,METAR SBRJ 090900Z 02006KT 9999 BKN008 23/22 Q1014=,SBRJ
1683626400000,METAR SBRJ 091000Z 03006KT 9999 SCT008 BKN012 23/22 Q1015=,SBRJ
1683630000000,METAR SBRJ 091100Z 36008KT 8000 FEW007 BKN010 23/22 Q1015=,SBRJ
1683631500000,SPECI COR SBRJ 091125Z 36008KT 6000 BKN004 OVC010 23/22 Q1016=,SBRJ
1683633600000,METAR SBRJ 091200Z 36006KT 320V020 5000 BR BKN005 23/22 Q1016=,SBRJ
1683634500000,SPECI SBRJ 091215Z 02005KT 6000 SCT005 24/22 Q1016=,SBRJ
1683637200000,METAR SBRJ 091300Z 02004KT 8000 NSC 25/22 Q1016=,SBRJ
1683640800000,METAR SBRJ 091400Z 04003KT 9000 NSC 26/23 Q1016=,SBRJ
1683644400000,METAR SBRJ 091500Z 01005KT 330V030 9000 FEW030 SCT060 27/23 Q1015=,SBRJ
1683648000000,METAR SBRJ 091600Z 09004KT 030V170 9999 FEW030 SCT060 28/23 Q1014=,SBRJ
1683651600000,METAR SBRJ 091700Z 14010KT 9999 FEW030 SCT060 26/23 Q1014=,SBRJ
1683655200000,METAR SBRJ 091800Z 15010KT 9999 FEW040 25/22 Q1014=,SBRJ
1683658800000,METAR SBRJ 091900Z 17014KT 9999 FEW040 26/22 Q1014=,SBRJ
1683662400000,METAR SBRJ 092000Z 19009KT 9999 FEW030 26/21 Q1014=,SBRJ
1683666000000,METAR SBRJ 092100Z 18008KT CAVOK 25/21 Q1015=,SBRJ
1683669600000,METAR SBRJ 092200Z 16005KT CAVOK 25/22 Q1015=,SBRJ
1683673200000,METAR SBRJ 092300Z VRB02KT CAVOK 24/22 Q1015=,SBRJ
1683590400000,METAR SBSP 090000Z 14003KT 8000 NSC 21/18 Q1021=,SBSP
1683594000000,METAR SBSP 090100Z VRB02KT 8000 NSC 22/18 Q1021=,SBSP
1683597600000,METAR SBSP 090200Z VRB01KT 8000 NSC 21/18 Q1021=,SBSP
1683597660000,SPECI SBSP 090201Z 00000KT 9000 NSC 21/18 Q1021=,SBSP
1683601200000,METAR SBSP 090300Z AUTO 05001KT 9000 NCD 21/17 Q1021=,SBSP
1683604800000,METAR SBSP 090400Z AUTO 04001KT 7000 NCD 21/17 Q1020=,SBSP
1683608400000,METAR SBSP 090500Z AUTO VRB01KT 7000 NCD 20/17 Q1020=,SBSP
1683612000000,METAR SBSP 090600Z AUTO 30001KT 7000 NCD 20/17 Q1019=,SBSP
1683615600000,METAR SBSP 090700Z AUTO 04002KT 7000 NCD 19/17 Q1019=,SBSP
1683619200000,METAR SBSP 090800Z AUTO 34002KT 9000 NCD 20/18 Q1019=,SBSP
1683622800000,METAR SBSP 090900Z 33003KT 9000 NSC 19/17 Q1020=,SBSP
1683626400000,METAR SBSP 091000Z VRB01KT 8000 NSC 19/17 Q1021=,SBSP
1683630000000,METAR SBSP 091100Z 23004KT 160V290 7000 FEW011 21/18 Q1022=,SBSP
1683633600000,METAR SBSP 091200Z 18004KT 110V230 7000 NSC 22/18 Q1022=,SBSP
1683637200000,METAR SBSP 091300Z VRB01KT 9000 NSC 24/18 Q1022=,SBSP
1683640800000,METAR SBSP 091400Z VRB02KT 9000 FEW033 25/17 Q1022=,SBSP
1683644400000,METAR SBSP 091500Z VRB05KT 9000 FEW036 26/16 Q1021=,SBSP
1683648000000,METAR SBSP 091600Z 26007KT 200V300 9999 FEW030 FEW050TCU 26/17 Q1021=,SBSP
1683651600000,METAR SBSP 091700Z 23005KT 170V300 9999 BKN040 FEW050TCU 25/17 Q1020=,SBSP
1683655200000,METAR SBSP 091800Z 23010KT 190V280 9999 FEW025 BKN035 25/18 Q1020=,SBSP
1683658800000,METAR SBSP 091900Z 22010KT 180V270 9999 SCT015 BKN025 22/18 Q1020=,SBSP
1683660120000,SPECI SBSP 091922Z 19009KT 9999 BKN012 BKN025 22/18 Q1020=,SBSP
1683662400000,METAR SBSP 092000Z 19010KT 9999 FEW007 BKN011 BKN020 21/19 Q1020=,SBSP
1683664560000,SPECI SBSP 092036Z 17007KT 9999 FEW010 BKN020 21/18 Q1020=,SBSP
1683666000000,METAR SBSP 092100Z 17008KT 140V230 9999 SCT009 BKN020 21/18 Q1020=,SBSP
1683667620000,SPECI SBSP 092127Z 17008KT 9999 BKN010 SCT020 20/18 Q1021=,SBSP
1683669600000,METAR SBSP 092200Z 18008KT 9999 FEW009 BKN013 21/18 Q1021=,SBSP
1683673200000,METAR SBSP 092300Z 17007KT 9999 SCT008 BKN011 20/18 Q1021=,SBSP
1683590400000,METAR SBSV 090000Z 23003KT 9999 BKN020 FEW021TCU BKN060 25/24 Q1016=,SBSV
1683594000000,METAR SBSV 090100Z 20004KT 9999 FEW020 FEW021TCU BKN060 25/24 Q1015=,SBSV
1683597600000,METAR SBSV 090200Z 25003KT 9999 FEW020 FEW021TCU BKN060 25/24 Q1016=,SBSV
1683601200000,METAR SBSV 090300Z 25002KT 9999 SCT020 25/24 Q1015=,SBSV
1683604800000,METAR SBSV 090400Z 28002KT 9999 FEW012 BKN015 25/24 Q1015=,SBSV
1683608400000,METAR SBSV 090500Z 24004KT 9999 FEW012 BKN015 25/23 Q1014=,SBSV
1683612000000,METAR SBSV 090600Z 29002KT 9999 BKN015 BKN100 24/24 Q1014=,SBSV
1683615600000,METAR SBSV 090700Z 28002KT 9999 SCT015 BKN100 24/23 Q1014=,SBSV
1683619200000,METAR SBSV 090800Z 26003KT 9999 SCT015 BKN100 24/23 Q1014=,SBSV
1683622800000,METAR SBSV 090900Z 27002KT 9999 FEW015 24/24 Q1014=,SBSV
1683626400000,METAR SBSV 091000Z 26004KT 9999 SCT015 25/24 Q1014=,SBSV
1683630000000,METAR SBSV 091100Z 24004KT 200V280 9999 VCSH SCT015 FEW020TCU 28/25 Q1015=,SBSV
1683633600000,METAR SBSV 091200Z VRB04KT 8000 VCSH SCT015 FEW020TCU 28/24 Q1015=,SBSV
1683637200000,METAR SBSV 091300Z 22007KT 9000 VCSH SCT015 FEW020TCU SCT070 28/24 Q1015=,SBSV
1683640800000,METAR SBSV 091400Z 21009KT 140V240 9999 VCSH SCT015 FEW020TCU SCT070 29/25 Q1015=,SBSV
1683644400000,METAR SBSV 091500Z 24011KT 9999 VCSH SCT015 FEW020TCU SCT070 27/23 Q1014=,SBSV
1683648000000,METAR SBSV 091600Z 23012KT 9999 VCSH SCT015 FEW020TCU SCT070 27/23 Q1013=,SBSV
1683651600000,METAR SBSV 091700Z 21010KT 9999 VCSH SCT016 FEW020TCU SCT070 27/23 Q1013=,SBSV
1683655200000,METAR SBSV 091800Z 17009KT 9999 VCSH BKN016 FEW020TCU 29/24 Q1012=,SBSV
1683658800000,METAR SBSV 091900Z 15005KT 8000 VCSH BKN016 FEW020TCU 27/24 Q1013=,SBSV
1683659280000,SPECI SBSV 091908Z 19009KT 5000 2000W SHRA BKN010 BKN016 FEW020TCU 26/24 Q1013=,SBSV
1683662400000,METAR SBSV 092000Z 11006KT 8000 -RA SCT010 BKN016 FEW020TCU 25/24 Q1013 RESHRA=,SBSV
1683666000000,METAR SBSV 092100Z 00000KT 9999 FEW011 SCT016 FEW020TCU 25/24 Q1013=,SBSV
1683669600000,METAR SBSV 092200Z 34002KT 9999 SCT015 FEW020TCU BKN060 25/24 Q1014=,SBSV
1683673200000,METAR SBSV 092300Z 36002KT 9999 SCT015 FEW020TCU BKN060 25/24 Q1014=,SBSV
