hora,metar,aero
1673568000000,METAR SBBR 130000Z VRB02KT CAVOK 21/19 Q1017=,SBBR
1673571600000,METAR SBBR 130100Z 10003KT CAVOK 21/18 Q1018=,SBBR
1673575200000,METAR SBBR 130200Z 10003KT CAVOK 21/18 Q1017=,SBBR
1673578800000,METAR SBBR 130300Z VRB02KT CAVOK 19/18 Q1017=,SBBR
1673582400000,METAR SBBR 130400Z 23002KT CAVOK 19/18 Q1017=,SBBR
1673586000000,METAR SBBR 130500Z 31001KT CAVOK 19/18 Q1016=,SBBR
1673589600000,METAR SBBR 130600Z VRB01KT CAVOK 19/17 Q1016=,SBBR
1673593200000,METAR SBBR 130700Z 20003KT CAVOK 18/17 Q1016=,SBBR
1673596800000,METAR SBBR 130800Z VRB01KT CAVOK 18/17 Q1016=,SBBR
1673600400000,METAR SBBR 130900Z 21001KT 9999 SCT040 BKN090 18/17 Q1017=,SBBR
1673604000000,METAR SBBR 131000Z 00000KT 9999 FEW020 BKN080 19/17 Q1018=,SBBR
1673607600000,METAR SBBR 131100Z VRB02KT 9999 FEW020 BKN080 22/18 Q1018=,SBBR
1673611200000,METAR SBBR 131200Z VRB02KT 9999 SCT020 BKN100 23/16 Q1019=,SBBR
1673614800000,METAR SBBR 131300Z 12003KT 9999 SCT020 BKN100 25/17 Q1019=,SBBR
1673618400000,METAR SBBR 131400Z 30005KT 260V350 9999 SCT020 BKN100 26/18 Q1018=,SBBR
1673622000000,METAR SBBR 131500Z VRB03KT 9999 VCSH BKN020 FEW030TCU BKN100 26/16 Q1017=,SBBR
1673624460000,SPECI SBBR 131541Z 30012KT 2000 TSRA SCT025 FEW030CB BKN100 21/18 Q1017=,SBBR
1673625600000,METAR SBBR 131600Z 14003KT 070V190 9999 3000S -TSRA SCT025 FEW030CB BKN100 21/18 Q1017 RERA=,SBBR
1673629200000,METAR SBBR 131700Z 33005KT 290V360 9999 TS VCSH BKN025 FEW030CB BKN100 22/18 Q1017=,SBBR
1673632800000,METAR SBBR 131800Z 35012G24KT 3000 -TSRA BKN015 FEW025CB BKN090 20/18 Q1017=,SBBR
1673636400000,METAR SBBR 131900Z 36007KT 330V030 4000 -TSRA BKN011 FEW025CB BKN080 19/17 Q1017=,SBBR
1673638200000,SPECI SBBR 131930Z 32005KT 280V340 6000 -RA VCTS FEW015 FEW025CB BKN080 19/16 Q1016 RETS=,SBBR
1673640000000,METAR SBBR 132000Z VRB02KT 7000 -RA FEW015 FEW025TCU BKN080 19/17 Q1016 RETS=,SBBR
1673643600000,METAR SBBR 132100Z VRB02KT 8000 -RA FEW015 FEW025TCU BKN080 19/17 Q1016=,SBBR
1673647200000,METAR SBBR 132200Z VRB02KT 6000 -RA FEW015 FEW025TCU BKN090 19/17 Q1017=,SBBR
1673650800000,METAR SBBR 132300Z VRB02KT 9999 -RA FEW015 FEW025TCU BKN100 19/18 Q1018=,SBBR
1673568000000,METAR SBCF 130000Z 07006KT CAVOK 22/18 Q1016=,SBCF
1673571600000,METAR SBCF 130100Z 14002KT CAVOK 21/18 Q1017=,SBCF
1673575200000,METAR SBCF 130200Z 19002KT CAVOK 20/18 Q1016=,SBCF
1673578800000,METAR SBCF 130300Z 11002KT CAVOK 19/18 Q1016=,SBCF
1673582400000,METAR SBCF 130400Z 04006KT CAVOK 20/18 Q1016=,SBCF
1673586000000,METAR SBCF 130500Z 13004KT CAVOK 19/18 Q1015=,SBCF
1673589600000,METAR SBCF 130600Z 13003KT CAVOK 19/18 Q1015=,SBCF
1673593200000,METAR SBCF 130700Z 09004KT CAVOK 19/17 Q1015=,SBCF
1673596800000,METAR SBCF 130800Z 15003KT CAVOK 19/17 Q1016=,SBCF
1673600400000,METAR SBCF 130900Z 21002KT 9999 BCFG FEW025 SCT100 18/17 Q1017=,SBCF
1673604000000,METAR SBCF 131000Z 21001KT 9999 BCFG FEW030 20/18 Q1018=,SBCF
1673607600000,METAR SBCF 131100Z 03003KT 9999 FEW030 23/19 Q1018=,SBCF
1673611200000,METAR SBCF 131200Z 05003KT 9999 FEW030 26/19 Q1018=,SBCF
1673614800000,METAR SBCF 131300Z 01004KT 9999 SCT035 26/19 Q1018=,SBCF
1673618400000,METAR SBCF 131400Z 36006KT 9999 SCT030 FEW040TCU SCT080 27/20 Q1017=,SBCF
1673622000000,METAR SBCF 131500Z 30007KT 9999 VCSH SCT030 FEW040TCU SCT080 28/18 Q1017=,SBCF
1673625600000,METAR SBCF 131600Z 29003KT 9999 SCT030 FEW040TCU SCT100 29/20 Q1015=,SBCF
1673629200000,METAR SBCF 131700Z 32005KT 210V020 9999 SCT030 FEW040TCU SCT100 29/18 Q1014=,SBCF
1673632800000,METAR SBCF 131800Z VRB03KT 9999 VCSH SCT030 FEW040TCU SCT100 30/18 Q1014=,SBCF
1673636400000,METAR SBCF 131900Z 26002KT 9999 TS VCSH SCT030 FEW040CB SCT100 30/17 Q1013=,SBCF
1673640000000,METAR SBCF 132000Z 03010KT 9999 TS VCSH SCT035 FEW040CB SCT070 26/18 Q1014=,SBCF
1673643600000,METAR SBCF 132100Z 26006KT 9999 TS VCSH SCT040 FEW045CB BKN100 22/19 Q1015=,SBCF
1673647200000,METAR SBCF 132200Z 28004KT 9999 VCSH VCTS FEW040 FEW045CB BKN100 21/19 Q1015 RETS=,SBCF
1673650800000,METAR SBCF 132300Z 16005KT 9999 VCTS FEW045 FEW050CB BKN070 22/19 Q1017=,SBCF
1673568000000,METAR SBCT 130000Z 04004KT 9999 -RA FEW013 OVC090 19/19 Q1013=,SBCT
1673571600000,METAR SBCT 130100Z 02003KT 350V050 CAVOK 19/19 Q1013=,SBCT
1673575200000,METAR SBCT 130200Z 00000KT CAVOK 19/19 Q1014=,SBCT
1673578800000,METAR SBCT 130300Z 13004KT CAVOK 18/18 Q1013=,SBCT
1673582400000,METAR SBCT 130400Z 05003KT CAVOK 18/18 Q1013=,SBCT
1673586000000,METAR SBCT 130500Z VRB01KT CAVOK 18/18 Q1013=,SBCT
1673589600000,METAR SBCT 130600Z 08003KT CAVOK 17/17 Q1012=,SBCT
1673593200000,METAR SBCT 130700Z 06002KT 9000 FEW005 17/17 Q1012=,SBCT
1673596800000,METAR SBCT 130800Z 06002KT 6000 FEW009 17/17 Q1012=,SBCT
1673600400000,METAR SBCT 130900Z 04004KT 5000 BR FEW006 SCT100 17/17 Q1013=,SBCT
1673604000000,METAR SBCT 131000Z VRB02KT 7000 FEW015 18/18 Q1013=,SBCT
1673607600000,METAR SBCT 131100Z 32005KT 9999 FEW015 21/21 Q1014=,SBCT
1673611200000,METAR SBCT 131200Z 31010KT 9999 SCT016 23/19 Q1014=,SBCT
1673614800000,METAR SBCT 131300Z 31010KT 280V340 9999 SCT020 25/20 Q1014=,SBCT
1673618400000,METAR SBCT 131400Z 31014KT 9999 FEW025 BKN035 26/19 Q1014=,SBCT
1673622000000,METAR SBCT 131500Z 31011KT 270V350 9999 SCT030 BKN040 27/19 Q1014=,SBCT
1673625600000,METAR SBCT 131600Z 28008KT 230V310 9999 SCT035 FEW040TCU BKN050 26/19 Q1013=,SBCT
1673629200000,METAR SBCT 131700Z 29007KT 240V340 9999 SCT035 27/18 Q1012=,SBCT
1673632800000,METAR SBCT 131800Z 31012KT 270V340 9999 SCT040 28/18 Q1011=,SBCT
1673636400000,METAR SBCT 131900Z 30010KT 270V340 9999 SCT040 SCT100 27/19 Q1010=,SBCT
1673640000000,METAR SBCT 132000Z 30009KT 260V330 9999 SCT040 SCT100 27/19 Q1010=,SBCT
1673643600000,METAR SBCT 132100Z 30008KT 260V320 9999 FEW030 BKN100 26/19 Q1011=,SBCT
1673647200000,METAR SBCT 132200Z 30009KT 250V330 9999 SCT025 BKN030 BKN100 24/20 Q1011=,SBCT
1673650800000,METAR SBCT 132300Z 35006KT 9999 SCT009 BKN100 23/20 Q1012=,SBCT
1673568000000,METAR SBFL 130000Z 36007KT 9999 FEW015 26/24 Q1008=,SBFL
1673571600000,METAR SBFL 130100Z 36007KT 340V040 9999 FEW015 SCT030 26/24 Q1009=,SBFL
1673575200000,METAR SBFL 130200Z 36007KT 330V050 9999 SCT012 26/24 Q1008=,SBFL
1673578800000,METAR SBFL 130300Z 34008KT 9999 SCT011 26/25 Q1008=,SBFL
1673582400000,METAR SBFL 130400Z 34008KT 9999 BKN011 26/24 Q1007=,SBFL
1673586000000,METAR SBFL 130500Z 36004KT 9999 BKN011 26/25 Q1007=,SBFL
1673589600000,METAR SBFL 130600Z 36005KT 9999 SCT010 26/25 Q1007=,SBFL
1673593200000,METAR SBFL 130700Z 34007KT 9999 BKN010 26/25 Q1006=,SBFL
1673596800000,METAR SBFL 130800Z 28007KT 9999 BKN010 25/24 Q1007=,SBFL
1673600400000,METAR SBFL 130900Z 30006KT 9999 SCT012 25/24 Q1007=,SBFL
1673604000000,METAR SBFL 131000Z 32005KT 9999 FEW009 26/25 Q1007=,SBFL
1673607600000,METAR SBFL 131100Z 33005KT 9999 FEW015 26/25 Q1008=,SBFL
1673611200000,METAR SBFL 131200Z 33008KT 9999 FEW015 27/25 Q1008=,SBFL
1673614800000,METAR SBFL 131300Z 36009KT 9999 FEW020 28/24 Q1008=,SBFL
1673618400000,METAR SBFL 131400Z 01009KT 9999 FEW025 29/24 Q1008=,SBFL
1673622000000,METAR SBFL 131500Z 30008KT 330V060 9999 FEW025 30/23 Q1007=,SBFL
1673625600000,METAR SBFL 131600Z 35008KT 9999 FEW030 31/22 Q1006=,SBFL
1673629200000,METAR SBFL 131700Z 35007KT 320V040 9999 FEW030 32/24 Q1005=,SBFL
1673632800000,METAR SBFL 131800Z 34012KT 9999 SCT030 31/25 Q1004=,SBFL
1673636400000,METAR SBFL 131900Z 02006KT 9999 SCT030 SCT100 31/24 Q1004=,SBFL
1673640000000,METAR SBFL 132000Z 01010KT 9999 SCT027 FEW035TCU SCT100 29/24 Q1004=,SBFL
1673643600000,METAR SBFL 132100Z 36009KT 9999 SCT027 FEW035TCU BKN100 28/24 Q1004=,SBFL
1673647200000,METAR SBFL 132200Z 35012KT 9999 SCT025 FEW030TCU BKN080 27/24 Q1005=,SBFL
1673649720000,SPECI SBFL 132242Z 02006KT 350V060 7000 -TSRA BKN025 FEW030CB BKN050 OVC100 27/25 Q1006=,SBFL
1673650800000,METAR SBFL 132300Z 36003KT 9000 -TSRA FEW015 BKN025 FEW030CB BKN050 26/25 Q1007=,SBFL
1673568000000,METAR SBGL 130000Z 27009KT 9999 TS FEW025CB SCT050 28/22 Q1009=,SBGL
1673571600000,METAR SBGL 130100Z 25016KT 9999 TS FEW025CB SCT080 26/23 Q1010=,SBGL
1673575200000,METAR SBGL 130200Z 25008KT CAVOK 26/22 Q1010 RETS=,SBGL
1673578800000,METAR SBGL 130300Z 34004KT CAVOK 25/22 Q1009=,SBGL
1673582400000,METAR SBGL 130400Z 31004KT 9999 FEW015 OVC100 25/22 Q1009=,SBGL
1673586000000,METAR SBGL 130500Z 31003KT 9999 FEW015 OVC100 25/22 Q1008=,SBGL
1673589600000,METAR SBGL 130600Z 32004KT 9999 FEW015 OVC100 25/22 Q1008=,SBGL
1673593200000,METAR SBGL 130700Z 03003KT 9999 FEW015 OVC100 24/22 Q1008=,SBGL
1673596800000,METAR SBGL 130800Z 08002KT 8000 FEW015 OVC100 24/22 Q1008=,SBGL
1673600400000,METAR SBGL 130900Z 19002KT 9999 FEW015 SCT100 24/22 Q1009=,SBGL
1673604000000,METAR SBGL 131000Z 13002KT 9999 FEW015 SCT100 25/23 Q1010=,SBGL
1673607600000,METAR SBGL 131100Z 15005KT 9999 FEW019 BKN100 27/23 Q1010=,SBGL
1673611200000,METAR SBGL 131200Z 34006KT 9999 FEW019 BKN100 29/24 Q1010=,SBGL
1673614800000,METAR SBGL 131300Z 01005KT 9999 FEW019 SCT100 31/23 Q1010=,SBGL
1673618400000,METAR SBGL 131400Z 31016KT 9999 FEW019 SCT100 34/20 Q1009=,SBGL
1673622000000,METAR SBGL 131500Z 32010KT 9999 FEW019 SCT100 35/21 Q1009=,SBGL
1673625600000,METAR SBGL 131600Z 28013KT 9999 FEW020 36/21 Q1008=,SBGL
1673629200000,METAR SBGL 131700Z 34008KT 9999 FEW020 FEW030TCU 36/20 Q1007=,SBGL
1673632800000,METAR SBGL 131800Z 12014KT 9999 VCTS FEW030 FEW040CB 31/23 Q1007=,SBGL
1673636400000,METAR SBGL 131900Z 14015KT 7000 VCSH VCTS FEW030 FEW040CB SCT100 31/22 Q1007=,SBGL
1673640000000,METAR SBGL 132000Z 32017KT 7000 TS VCSH SCT030 FEW040CB SCT080 30/22 Q1008=,SBGL
1673643600000,METAR SBGL 132100Z 32004KT 8000 TS SCT026 FEW033CB BKN100 27/23 Q1009=,SBGL
1673647200000,METAR SBGL 132200Z 01009KT 8000 -RA SCT026 FEW033TCU BKN100 26/23 Q1010 RETS=,SBGL
1673650800000,METAR SBGL 132300Z 26010KT 9000 FEW020 BKN050 26/23 Q1011=,SBGL
1673568000000,METAR SBGR 130000Z 12004KT CAVOK 24/21 Q1013=,SBGR
1673571600000,METAR SBGR 130100Z 12004KT CAVOK 23/20 Q1014=,SBGR
1673575200000,METAR SBGR 130200Z 06006KT 9999 FEW013 SCT015 22/20 Q1014=,SBGR
1673578800000,METAR SBGR 130300Z 08006KT CAVOK 22/21 Q1014=,SBGR
1673582400000,METAR SBGR 130400Z 08004KT CAVOK 21/20 Q1013=,SBGR
1673586000000,METAR SBGR 130500Z 00000KT 9999 FEW006 20/20 Q1013=,SBGR
1673589600000,METAR SBGR 130600Z 07004KT CAVOK 21/20 Q1013=,SBGR
1673593200000,METAR SBGR 130700Z 08003KT CAVOK 21/20 Q1012=,SBGR
1673596800000,METAR SBGR 130800Z 36004KT 9999 FEW040 22/19 Q1013=,SBGR
1673600400000,METAR SBGR 130900Z 34006KT 9999 -RA SCT040 BKN070 21/20 Q1013=,SBGR
1673604000000,METAR SBGR 131000Z 34010KT CAVOK 22/19 Q1014=,SBGR
1673607600000,METAR SBGR 131100Z 33009KT CAVOK 24/20 Q1014=,SBGR
1673611200000,METAR SBGR 131200Z 34011KT CAVOK 24/20 Q1015=,SBGR
1673614800000,METAR SBGR 131300Z 33012KT 9999 FEW023 26/20 Q1015=,SBGR
1673618400000,METAR SBGR 131400Z 32013KT 290V350 9999 BKN030 27/20 Q1015=,SBGR
1673622000000,METAR SBGR 131500Z 32011KT 9999 BKN033 27/20 Q1014=,SBGR
1673625600000,METAR COR SBGR 131600Z 32013KT 290V350 9999 SHRA BKN033 27/20 Q1014=,SBGR
1673629200000,METAR SBGR 131700Z 32014KT 9999 BKN033 FEW040TCU 28/20 Q1013 RESHRA=,SBGR
1673632800000,METAR SBGR 131800Z 29017G27KT 8000 -RA BKN026 FEW050TCU BKN080 23/20 Q1013=,SBGR
1673636400000,METAR SBGR 131900Z 30007KT 9999 BKN045 BKN090 28/19 Q1012=,SBGR
1673640000000,METAR SBGR 132000Z 36008KT 9999 SCT045 FEW050TCU BKN100 25/20 Q1012=,SBGR
1673643600000,METAR SBGR 132100Z 36005KT CAVOK 24/19 Q1012=,SBGR
1673647200000,METAR SBGR 132200Z 02006KT CAVOK 24/19 Q1013=,SBGR
1673650800000,METAR SBGR 132300Z 02006KT CAVOK 24/19 Q1014=,SBGR
1673568000000,METAR SBKP 130000Z 06003KT CAVOK 24/20 Q1012=,SBKP
1673571600000,METAR SBKP 130100Z 25004KT 190V270 9999 -RA VCTS FEW045 FEW050CB BKN090 24/20 Q1013=,SBKP
1673573160000,SPECI SBKP 130126Z 27005KT 9999 TS SCT040 FEW050CB BKN090 23/21 Q1013=,SBKP
1673573880000,SPECI SBKP 130138Z 27008KT 2000 +TSRA BR SCT005 BKN030 FEW050CB BKN090 22/21 Q1014 RERA=,SBKP
1673575200000,METAR SBKP 130200Z 06011KT 2000 +TSRA BR BKN010 BKN030 FEW050CB BKN090 20/19 Q1013 RERA=,SBKP
1673575920000,SPECI SBKP 130212Z 04007KT 9999 TS FEW010 BKN030 FEW050CB BKN090 21/20 Q1013 RERA=,SBKP
1673578800000,METAR SBKP 130300Z 12004KT CAVOK 21/20 Q1013 RETS=,SBKP
1673582400000,METAR SBKP 130400Z 09003KT 9999 FEW040 BKN100 21/20 Q1013=,SBKP
1673586000000,METAR SBKP 130500Z 10002KT 9999 SCT040 SCT070 BKN100 21/20 Q1012=,SBKP
1673589600000,METAR SBKP 130600Z 08003KT 9999 BKN045 SCT100 21/20 Q1012=,SBKP
1673591160000,SPECI SBKP 130626Z 27013KT 2000 +TSRA BR BKN005 BKN020 FEW040CB 21/20 Q1012 RERA=,SBKP
1673591940000,SPECI SBKP 130639Z 31009KT 5000 -TSRA BR SCT005 BKN020 FEW040CB 21/20 Q1012 RERA=,SBKP
1673593200000,METAR SBKP 130700Z 30008KT 9000 -TSRA SCT008 BKN017 FEW040CB 21/20 Q1012 RERA=,SBKP
1673593680000,SPECI SBKP 130708Z 32006KT 9000 -TSRA BKN003 BKN015 FEW040CB 21/20 Q1012=,SBKP
1673596800000,METAR SBKP 130800Z 03004KT 9999 BKN003 21/20 Q1013 RETS=,SBKP
1673597640000,SPECI SBKP 130814Z 05005KT 9999 SCT003 SCT040 21/20 Q1013=,SBKP
1673600400000,METAR SBKP 130900Z 04005KT 9999 FEW005 SCT040 21/20 Q1013=,SBKP
1673604000000,METAR SBKP 131000Z 04005KT 9999 FEW020 BKN100 21/20 Q1014=,SBKP
1673607600000,METAR SBKP 131100Z 01008KT 9999 FEW015 BKN080 23/20 Q1014=,SBKP
1673611200000,METAR SBKP 131200Z 01012KT 9999 FEW015 BKN090 24/21 Q1015=,SBKP
1673614800000,METAR SBKP 131300Z 35011KT 9999 BKN018 BKN090 25/21 Q1015=,SBKP
1673618400000,METAR SBKP 131400Z 34012KT 9999 SCT020 BKN028 BKN090 26/21 Q1015=,SBKP
1673622000000,METAR SBKP 131500Z 32015KT 9999 FEW025 SCT030 FEW035TCU BKN090 27/20 Q1014=,SBKP
1673625600000,METAR SBKP 131600Z 30015KT 9999 VCSH SCT030 FEW035TCU SCT090 28/20 Q1013=,SBKP
1673629200000,METAR SBKP 131700Z 32014KT 9999 VCSH SCT035 FEW040TCU SCT080 28/20 Q1012=,SBKP
1673631720000,SPECI SBKP 131742Z 36011KT 9999 TS VCSH FEW033 SCT040CB BKN100 27/20 Q1011=,SBKP
1673632800000,METAR SBKP 131800Z 35012KT 9999 -TSRA FEW030 FEW040CB BKN080 28/20 Q1011=,SBKP
1673636400000,METAR SBKP 131900Z 01010KT 9999 -RA FEW013 FEW040TCU OVC080 23/21 Q1011 RETS=,SBKP
1673640000000,METAR SBKP 132000Z 06007KT 030V090 9999 FEW013 24/22 Q1011=,SBKP
1673643600000,METAR SBKP 132100Z 05007KT 9999 FEW040 25/20 Q1011=,SBKP
1673647200000,METAR SBKP 132200Z 04005KT 9999 FEW050TCU SCT080 25/20 Q1012=,SBKP
1673650800000,METAR SBKP 132300Z 03005KT 9999 VCTS FEW050CB SCT070 24/20 Q1013=,SBKP
1673653200000,SPECI SBKP 132340Z 02004KT 8000 -TSRA BKN030 FEW035CB BKN070 24/20 Q1014=,SBKP
1673568000000,METAR SBPA 130000Z 09005KT 9999 FEW040 SCT100 28/19 Q1006=,SBPA
1673571600000,METAR SBPA 130100Z 10006KT 9999 FEW040 BKN100 27/20 Q1006=,SBPA
1673575200000,METAR SBPA 130200Z 10006KT CAVOK 27/20 Q1007=,SBPA
1673578800000,METAR SBPA 130300Z 07003KT CAVOK 27/20 Q1007=,SBPA
1673582400000,METAR SBPA 130400Z VRB01KT CAVOK 27/20 Q1006=,SBPA
1673586000000,METAR SBPA 130500Z 00000KT CAVOK 27/20 Q1006=,SBPA
1673589600000,METAR SBPA 130600Z 10002KT CAVOK 26/20 Q1005=,SBPA
1673593200000,METAR SBPA 130700Z 00000KT 9999 FEW040 26/20 Q1005=,SBPA
1673596800000,METAR SBPA 130800Z VRB01KT 9999 FEW040 BKN100 25/20 Q1005=,SBPA
1673600400000,METAR SBPA 130900Z 04005KT 9999 FEW040 SCT100 25/21 Q1005=,SBPA
1673604000000,METAR SBPA 131000Z 06004KT 030V090 CAVOK 26/20 Q1006=,SBPA
1673607600000,METAR SBPA 131100Z VRB01KT 9999 FEW040 SCT100 29/20 Q1007=,SBPA
1673611200000,METAR SBPA 131200Z 26006KT 230V300 9999 FEW035 SCT100 28/22 Q1007=,SBPA
1673614800000,METAR SBPA 131300Z 26005KT 9999 FEW030 BKN100 29/21 Q1007=,SBPA
1673618400000,METAR SBPA 131400Z 31008KT 270V020 9999 FEW035 BKN100 30/20 Q1007=,SBPA
1673622000000,METAR SBPA 131500Z 23005KT 170V310 9999 FEW040 BKN100 31/21 Q1006=,SBPA
1673625600000,METAR SBPA 131600Z 23008KT 190V300 9999 SCT040 SCT100 32/20 Q1005=,SBPA
1673629200000,METAR SBPA 131700Z 25006KT 180V320 9999 SCT035 FEW040TCU 31/20 Q1004=,SBPA
1673631060000,SPECI SBPA 131731Z 32005KT 260V010 9999 TS VCSH SCT035 FEW040CB BKN100 31/20 Q1005=,SBPA
1673632800000,METAR SBPA 131800Z 03015KT 8000 -TSRA FEW025 FEW035CB SCT055 BKN100 27/22 Q1005=,SBPA
1673633040000,SPECI SBPA 131804Z 01015KT 330V040 3000 TSRA FEW025 FEW035CB SCT045 BKN060 26/23 Q1005=,SBPA
1673633400000,SPECI SBPA 131810Z 34019KT 1500 R29/1100 R11/1300 +TSRA FEW020 FEW035CB SCT045 BKN060 23/22 Q1006 RERA=,SBPA
1673634600000,SPECI SBPA 131830Z 07005KT 310V110 2000 TSRA SCT020 FEW035CB BKN045 22/22 Q1006 RERA=,SBPA
1673635200000,SPECI SBPA 131840Z 12008KT 8000 TS BKN020 FEW035CB BKN045 22/22 Q1005 RERA=,SBPA
1673636400000,METAR SBPA 131900Z 08008KT 9999 SCT026 FEW035TCU BKN043 23/22 Q1005 RETSRA=,SBPA
1673640000000,METAR COR SBPA 132000Z 02006KT 330V070 9999 FEW015 FEW030TCU SCT035 25/23 Q1005=,SBPA
1673641800000,SPECI SBPA 132030Z 17004KT 130V220 9999 BKN013 SCT035 25/23 Q1005=,SBPA
1673643600000,METAR SBPA 132100Z 13003KT 070V160 9999 BKN013 SCT035 25/22 Q1005=,SBPA
1673644260000,SPECI SBPA 132111Z 06004KT 9999 SCT017 SCT030 25/23 Q1005=,SBPA
1673647200000,METAR SBPA 132200Z 08007KT 9999 FEW017 BKN100 25/22 Q1005=,SBPA
1673650800000,METAR SBPA 132300Z 07007KT 9999 FEW010 SCT059 24/22 Q1005=,SBPA
1673568000000,METAR SBRF 130000Z 10006KT 9999 SCT020 27/22 Q1013=,SBRF
1673571600000,METAR SBRF 130100Z 10006KT 070V140 9999 SCT019 27/22 Q1013=,SBRF
1673575200000,METAR SBRF 130200Z 09006KT 050V130 9999 BKN019 28/22 Q1013=,SBRF
1673578800000,METAR SBRF 130300Z 09007KT 030V110 9999 BKN017 27/22 Q1012=,SBRF
1673582400000,METAR SBRF 130400Z 10006KT 060V120 9999 SCT017 27/22 Q1012=,SBRF
1673586000000,METAR SBRF 130500Z 09006KT 060V130 9999 SCT017 27/22 Q1012=,SBRF
1673589600000,METAR SBRF 130600Z 09006KT 060V130 9999 SCT017 27/22 Q1011=,SBRF
1673593200000,METAR SBRF 130700Z 07004KT 010V120 9999 SCT017 27/22 Q1011=,SBRF
1673596800000,METAR SBRF 130800Z 08004KT 040V150 9999 SCT018 27/22 Q1012=,SBRF
1673600400000,METAR SBRF 130900Z 08003KT 040V110 9999 BKN019 27/22 Q1012=,SBRF
1673604000000,METAR SBRF 131000Z 10005KT 060V140 9999 SCT020 28/22 Q1012=,SBRF
1673607600000,METAR SBRF 131100Z 12007KT 9999 BKN020 29/23 Q1013=,SBRF
1673611200000,METAR SBRF 131200Z 11007KT 050V170 9999 SCT021 30/22 Q1013=,SBRF
1673614800000,METAR SBRF 131300Z 12007KT 060V190 9999 SCT022 29/23 Q1013=,SBRF
1673618400000,METAR SBRF 131400Z 10008KT 050V160 9999 SCT022 29/22 Q1013=,SBRF
1673622000000,METAR SBRF 131500Z 10008KT 060V160 9999 SCT023 29/23 Q1012=,SBRF
1673625600000,METAR SBRF 131600Z 12009KT 9999 SCT023 30/22 Q1012=,SBRF
1673629200000,METAR SBRF 131700Z 10009KT 050V150 9999 SCT023 30/23 Q1011=,SBRF
1673632800000,METAR SBRF 131800Z 10008KT 050V150 9999 BKN023 30/23 Q1011=,SBRF
1673636400000,METAR SBRF 131900Z 11009KT 070V140 9000 VCSH BKN023 29/22 Q1011=,SBRF
1673640000000,METAR SBRF 132000Z 10006KT 050V130 9999 BKN023 28/23 Q1011=,SBRF
1673643600000,METAR SBRF 132100Z 10006KT 030V140 9999 SCT020 BKN060 28/22 Q1011=,SBRF
1673647200000,METAR SBRF 132200Z 09005KT 040V130 9000 VCSH SCT020 BKN060 28/22 Q1011=,SBRF
1673650800000,METAR SBRF 132300Z 10006KT 050V150 9999 SCT020 28/22 Q1012=,SBRF
1673568000000,METAR SBRJ 130000Z 18006KT 9999 -RA SCT035 BKN080 28/22 Q1008=,SBRJ
1673568480000,SPECI SBRJ 130008Z 14004KT 9999 -TSRA SCT035 FEW040CB BKN080 26/23 Q1008=,SBRJ
1673570700000,SPECI SBRJ 130045Z 21010KT 180V270 9999 TS SCT025 FEW040CB BKN080 26/23 Q1009=,SBRJ
1673571600000,METAR SBRJ 130100Z 20013KT 180V240 9999 TS SCT015 FEW040CB BKN080 26/23 Q1010=,SBRJ
1673575200000,METAR SBRJ 130200Z 16005KT 9999 TS SCT015 FEW040CB BKN080 26/23 Q1010=,SBRJ
1673578800000,METAR SBRJ 130300Z 19004KT 9999 FEW013 SCT020 BKN100 25/22 Q1009 RETS=,SBRJ
1673582400000,METAR SBRJ 130400Z 36004KT 9999 SCT020 BKN100 25/22 Q1008=,SBRJ
1673586000000,METAR SBRJ 130500Z 34006KT 9999 SCT020 BKN100 25/23 Q1008=,SBRJ
1673589600000,METAR SBRJ 130600Z 03006KT 9999 FEW020 BKN100 25/23 Q1007=,SBRJ
1673593200000,METAR SBRJ 130700Z 02006KT 9999 FEW020 BKN100 25/23 Q1007=,SBRJ
1673596800000,METAR SBRJ 130800Z 02003KT 9999 FEW020 BKN100 25/23 Q1008=,SBRJ
1673600400000,METAR SBRJ 130900Z 30002KT 9999 FEW020 BKN100 25/23 Q1009=,SBRJ
1673604000000,METAR SBRJ 131000Z 32004KT 280V350 9999 FEW030 BKN100 26/23 Q1009=,SBRJ
1673607600000,METAR SBRJ 131100Z VRB02KT 9999 FEW030 BKN100 26/24 Q1009=,SBRJ
1673611200000,METAR SBRJ 131200Z 34007KT 9999 FEW030 BKN100 27/23 Q1010=,SBRJ
1673614800000,METAR SBRJ 131300Z 32005KT 300V360 9999 FEW030 BKN100 29/24 Q1010=,SBRJ
1673618400000,METAR SBRJ 131400Z 36003KT 310V060 9999 FEW030 SCT100 30/24 Q1009=,SBRJ
1673622000000,METAR SBRJ 131500Z 02009KT 9999 FEW030 32/23 Q1009=,SBRJ
1673625600000,METAR SBRJ 131600Z 33009KT 290V020 9999 FEW030 FEW035TCU 35/22 Q1008=,SBRJ
1673626680000,SPECI SBRJ 131618Z 15010KT 110V240 9999 FEW030 FEW035TCU 31/23 Q1008=,SBRJ
1673629200000,METAR SBRJ 131700Z 15011KT 9999 FEW030 FEW035TCU 30/24 Q1007=,SBRJ
1673632800000,METAR SBRJ 131800Z 16013KT 9999 FEW030 FEW035TCU 30/24 Q1007=,SBRJ
1673636400000,METAR SBRJ 131900Z 16013KT 9999 FEW030 FEW035TCU 31/23 Q1007=,SBRJ
1673640000000,METAR SBRJ 132000Z 18012KT 9999 VCTS FEW030 FEW035CB 29/23 Q1007=,SBRJ
1673643600000,METAR SBRJ 132100Z 21005KT 9999 -RA VCTS FEW030 FEW035CB SCT060 30/21 Q1008=,SBRJ
1673647200000,METAR SBRJ 132200Z 35012KT 9999 -RA FEW030 SCT060 BKN100 27/23 Q1009=,SBRJ
1673650800000,METAR SBRJ 132300Z 34004KT 9999 FEW030 SCT060 BKN100 27/23 Q1010=,SBRJ
1673568000000,METAR SBSP 130000Z 14004KT 9000 FEW033 SCT066 21/19 Q1014=,SBSP
1673571600000,METAR SBSP 130100Z 20004KT 130V250 8000 SCT030 22/20 Q1015=,SBSP
1673575200000,METAR SBSP 130200Z VRB02KT 7000 NSC 22/20 Q1014=,SBSP
1673575260000,SPECI SBSP 130201Z VRB02KT 9000 FEW035 22/20 Q1014=,SBSP
1673578800000,METAR SBSP 130300Z AUTO 06002KT 9999 -RA SCT012 22/20 Q1014=,SBSP
1673579220000,SPECI SBSP 130307Z AUTO VRB02KT 9999 -RA FEW010 BKN012 22/20 Q1014=,SBSP
1673581080000,SPECI SBSP 130338Z AUTO VRB02KT 9999 -RA FEW010 SCT013 22/20 Q1014=,SBSP
1673582400000,METAR SBSP 130400Z AUTO 03003KT 9999 FEW010 SCT012 22/20 Q1014=,SBSP
1673586000000,METAR SBSP 130500Z AUTO 02003KT CAVOK 22/20 Q1013=,SBSP
1673589600000,METAR SBSP 130600Z AUTO 36005KT CAVOK 22/19 Q1013=,SBSP
1673593200000,METAR SBSP 130700Z AUTO 32004KT CAVOK 21/19 Q1013=,SBSP
1673596800000,METAR SBSP 130800Z AUTO 33008KT 9999 -RA FEW038 21/19 Q1013=,SBSP
1673600400000,METAR SBSP 130900Z 01009KT 9999 FEW046 21/19 Q1014=,SBSP
1673604000000,METAR SBSP 131000Z 34009KT CAVOK 21/19 Q1015=,SBSP
1673607600000,METAR SBSP 131100Z 33011KT 300V010 9999 FEW013 SCT015 22/19 Q1015=,SBSP
1673611200000,METAR SBSP 131200Z 34009KT 300V010 9999 FEW017 BKN022 24/20 Q1015=,SBSP
1673614800000,METAR SBSP 131300Z 35014KT 9999 FEW021 SCT023 25/20 Q1015=,SBSP
1673618400000,METAR SBSP 131400Z 34013KT 310V010 9999 SCT026 BKN036 27/19 Q1015=,SBSP
1673622000000,METAR SBSP 131500Z 32013KT 290V360 9999 BKN030 26/18 Q1015=,SBSP
1673624700000,SPECI SBSP 131545Z 32016G29KT 7000 SHRA BKN030 24/18 Q1015=,SBSP
1673625600000,METAR SBSP 131600Z 33008KT 290V010 9999 VCSH VCTS SCT033 FEW050CB 24/20 Q1014 RESHRA=,SBSP
1673626080000,SPECI SBSP 131608Z 34009KT 310V030 9999 TS SCT043 FEW050CB 25/20 Q1014=,SBSP
1673626860000,SPECI SBSP 131621Z 33016KT 9999 VCSH VCTS FEW043CB SCT050 26/18 Q1014 RETS=,SBSP
1673629200000,METAR SBSP 131700Z 33015KT 290V360 9999 FEW036 SCT050 27/18 Q1013 RETS=,SBSP
1673632800000,METAR SBSP 131800Z 30012KT 260V350 9999 VCSH SCT036 BKN043 FEW050TCU 29/18 Q1013=,SBSP
1673636400000,METAR SBSP 131900Z 30009KT 250V350 9999 VCSH FEW040 SCT042 FEW050TCU 28/18 Q1012=,SBSP
1673640000000,METAR SBSP 132000Z 33009KT 280V020 9999 VCSH SCT036 BKN043 FEW050TCU 27/18 Q1012=,SBSP
1673640300000,SPECI SBSP 132005Z 34011KT 290V030 8000 RA BKN033 BKN041 25/19 Q1012=,SBSP
1673641800000,SPECI SBSP 132030Z 35010KT 9999 VCSH FEW010 SCT050 BKN100 24/20 Q1012 RERA=,SBSP
1673643600000,METAR SBSP 132100Z 34008KT 310V010 9999 VCSH FEW043 SCT063 BKN100 23/20 Q1012 RERA=,SBSP
1673647200000,METAR SBSP 132200Z 36004KT 330V030 9999 SCT049 BKN100 24/20 Q1014=,SBSP
1673650800000,METAR SBSP 132300Z 02004KT 350V060 CAVOK 24/19 Q1014=,SBSP
1673568000000,METAR SBSV 130000Z 08010KT 9999 FEW021 27/23 Q1013=,SBSV
1673571600000,METAR SBSV 130100Z 08011KT 9999 SCT023 27/23 Q1013=,SBSV
1673575200000,METAR SBSV 130200Z 08010KT 9999 SCT023 27/23 Q1013=,SBSV
1673578800000,METAR SBSV 130300Z 07009KT 9999 FEW023 27/23 Q1013=,SBSV
1673582400000,METAR SBSV 130400Z 06009KT 9999 SCT020 27/23 Q1012=,SBSV
1673586000000,METAR SBSV 130500Z 05007KT 9999 SCT020 27/23 Q1012=,SBSV
1673589600000,METAR SBSV 130600Z 06007KT 9999 SCT020 27/23 Q1012=,SBSV
1673593200000,METAR SBSV 130700Z 02004KT 9999 SCT018 26/23 Q1012=,SBSV
1673596800000,METAR SBSV 130800Z 36002KT 9999 SCT018 26/23 Q1012=,SBSV
1673600400000,METAR SBSV 130900Z 29003KT 9999 SCT018 26/24 Q1013=,SBSV
1673604000000,METAR SBSV 131000Z VRB02KT 9999 SCT020 26/24 Q1013=,SBSV
1673607600000,METAR SBSV 131100Z 04006KT 9999 BKN023 28/24 Q1013=,SBSV
1673611200000,METAR SBSV 131200Z 07010KT 040V100 9999 BKN023 30/23 Q1014=,SBSV
1673614800000,METAR SBSV 131300Z 07012KT 9999 SCT023 30/23 Q1014=,SBSV
1673618400000,METAR SBSV 131400Z 07012KT 050V110 9999 SCT023 FEW025TCU 31/24 Q1014=,SBSV
1673622000000,METAR SBSV 131500Z 09010KT 9999 SCT023 30/22 Q1013=,SBSV
1673625600000,METAR SBSV 131600Z 08014KT 9999 FEW023 30/23 Q1012=,SBSV
1673629200000,METAR SBSV 131700Z 09014KT 060V120 9999 FEW023 31/23 Q1012=,SBSV
1673632800000,METAR SBSV 131800Z 10014KT 9999 FEW023 30/23 Q1011=,SBSV
1673636400000,METAR SBSV 131900Z 09013KT 9999 FEW023 30/23 Q1011=,SBSV
1673640000000,METAR SBSV 132000Z 08013KT 9999 FEW023 29/23 Q1011=,SBSV
1673643600000,METAR SBSV 132100Z 08013KT 9999 FEW023 28/23 Q1011=,SBSV
1673647200000,METAR SBSV 132200Z 08011KT 9999 FEW023 28/24 Q1011=,SBSV
1673650800000,METAR SBSV 132300Z 08012KT 9999 FEW023 28/24 Q1012=,SBSV
