hora,metar,aero
1665964800000,METAR SBBR 170000Z 12009KT CAVOK 25/09 Q1017=,SBBR
1665968400000,METAR SBBR 170100Z 11007KT CAVOK 23/10 Q1018=,SBBR
1665972000000,METAR SBBR 170200Z 08005KT CAVOK 22/10 Q1018=,SBBR
1665975600000,METAR SBBR 170300Z VRB02KT CAVOK 21/10 Q1018=,SBBR
1665979200000,METAR SBBR 170400Z 06003KT CAVOK 21/10 Q1017=,SBBR
1665982800000,METAR SBBR 170500Z VRB02KT CAVOK 21/10 Q1017=,SBBR
1665986400000,METAR SBBR 170600Z VRB01KT CAVOK 19/10 Q1017=,SBBR
1665990000000,METAR SBBR 170700Z 05003KT CAVOK 20/10 Q1017=,SBBR
1665993600000,METAR SBBR 170800Z 10003KT CAVOK 20/10 Q1017=,SBBR
1665997200000,METAR SBBR 170900Z 02002KT CAVOK 18/10 Q1018=,SBBR
1666000800000,METAR SBBR 171000Z 09006KT 060V120 CAVOK 21/10 Q1019=,SBBR
1666004400000,METAR SBBR 171100Z 08011KT CAVOK 23/11 Q1019=,SBBR
1666008000000,METAR SBBR 171200Z 07011KT CAVOK 25/11 Q1020=,SBBR
1666011600000,METAR SBBR 171300Z 06012KT 030V090 CAVOK 27/11 Q1019=,SBBR
1666015200000,METAR SBBR 171400Z 04010KT 010V070 CAVOK 28/10 Q1019=,SBBR
1666018800000,METAR SBBR 171500Z 04009KT 320V130 CAVOK 30/09 Q1018=,SBBR
1666022400000,METAR SBBR 171600Z 06010G20KT CAVOK 31/07 Q1017=,SBBR
1666026000000,METAR SBBR 171700Z 10007KT 360V160 CAVOK 31/06 Q1016=,SBBR
1666029600000,METAR SBBR 171800Z 09007KT 040V140 CAVOK 32/02 Q1015=,SBBR
1666033200000,METAR SBBR 171900Z 10004KT CAVOK 31/06 Q1015=,SBBR
1666036800000,METAR SBBR 172000Z 12008KT CAVOK 31/06 Q1015=,SBBR
1666040400000,METAR SBBR 172100Z 10008KT CAVOK 30/06 Q1016=,SBBR
1666044000000,METAR SBBR 172200Z 12009KT CAVOK 28/05 Q1017=,SBBR
1666047600000,METAR SBBR 172300Z 11009KT CAVOK 26/05 Q1016=,SBBR
1665964800000,METAR SBCF 170000Z 08010KT CAVOK 23/10 Q1019=,SBCF
1665968400000,METAR SBCF 170100Z 06009KT CAVOK 22/10 Q1019=,SBCF
1665972000000,METAR SBCF 170200Z 08008KT CAVOK 22/10 Q1019=,SBCF
1665975600000,METAR SBCF 170300Z 06005KT CAVOK 20/10 Q1018=,SBCF
1665979200000,METAR SBCF 170400Z 13003KT CAVOK 19/10 Q1018=,SBCF
1665982800000,METAR SBCF 170500Z 13001KT CAVOK 18/10 Q1018=,SBCF
1665986400000,METAR SBCF 170600Z 11005KT CAVOK 19/10 Q1017=,SBCF
1665990000000,METAR SBCF 170700Z 12002KT CAVOK 18/10 Q1017=,SBCF
1665993600000,METAR SBCF 170800Z 13003KT CAVOK 18/10 Q1018=,SBCF
1665997200000,METAR SBCF 170900Z 15003KT CAVOK 17/10 Q1019=,SBCF
1666000800000,METAR SBCF 171000Z 15003KT 110V180 CAVOK 18/12 Q1019=,SBCF
1666004400000,METAR SBCF 171100Z 04006KT 350V080 CAVOK 21/12 Q1020=,SBCF
1666008000000,METAR SBCF 171200Z 06008KT 040V130 CAVOK 23/13 Q1020=,SBCF
1666011600000,METAR SBCF 171300Z VRB03KT CAVOK 25/13 Q1020=,SBCF
1666015200000,METAR SBCF 171400Z VRB02KT CAVOK 26/12 Q1019=,SBCF
1666018800000,METAR SBCF 171500Z VRB04KT 9999 FEW035 28/12 Q1019=,SBCF
1666022400000,METAR SBCF 171600Z VRB04KT 9999 FEW040 30/13 Q1017=,SBCF
1666026000000,METAR SBCF 171700Z 13007KT CAVOK 29/12 Q1016=,SBCF
1666029600000,METAR SBCF 171800Z 06010KT 9999 FEW040 29/13 Q1016=,SBCF
1666033200000,METAR SBCF 171900Z 07009KT 9999 FEW040 29/12 Q1016=,SBCF
1666036800000,METAR SBCF 172000Z 08009KT CAVOK 28/13 Q1016=,SBCF
1666040400000,METAR SBCF 172100Z 06009KT CAVOK 27/13 Q1017=,SBCF
1666044000000,METAR SBCF 172200Z 07008KT CAVOK 25/13 Q1017=,SBCF
1666047600000,METAR SBCF 172300Z 08006KT CAVOK 24/14 Q1018=,SBCF
1665964800000,METAR SBCT 170000Z 12004KT 1100 R15/1800 R33/P2000 BR BCFG OVC002 16/16 Q1019=,SBCT
1665966300000,SPECI SBCT 170025Z 12003KT 0700 R33/1300 R15/1400 FG VV002 16/16 Q1019=,SBCT
1665968400000,METAR SBCT 170100Z 11003KT 0600 R33/1500 R15/1800 FG VV001 16/16 Q1019=,SBCT
1665972000000,METAR SBCT 170200Z 13002KT 0200 R15/0650 R33/0650 FG VV001 16/16 Q1019=,SBCT
1665972600000,SPECI SBCT 170210Z 17002KT 0100 R15/0500 R33/0500 FG VV001 16/16 Q1019=,SBCT
1665975600000,METAR SBCT 170300Z 00000KT 0100 R33/0450 R15/0550 FG VV001 16/16 Q1019=,SBCT
1665979200000,METAR SBCT 170400Z 28001KT 0100 R33/0550 R15/0600 FG VV001 16/16 Q1018=,SBCT
1665980400000,SPECI SBCT 170420Z 26001KT 0200 R15/0900 R33/0900 FG VV001 16/16 Q1018=,SBCT
1665982800000,METAR SBCT 170500Z 19001KT 0500 R33/0900 R15/1800 FG VV002 16/16 Q1018=,SBCT
1665986400000,METAR SBCT 170600Z 12002KT 0500 R15/1800 R33/P2000 FG VV002 15/15 Q1018=,SBCT
1665990000000,METAR SBCT 170700Z 14006KT 1000 R33/P2000 R15/P2000 BR BCFG SCT002 OVC005 15/15 Q1017=,SBCT
1665993600000,METAR SBCT 170800Z 14004KT 2000 BR BCFG SCT002 OVC005 15/15 Q1018=,SBCT
1665997200000,METAR SBCT 170900Z 11004KT 5000 BR OVC007 15/15 Q1019=,SBCT
1666000800000,METAR SBCT 171000Z 15004KT 110V180 8000 OVC008 16/16 Q1019=,SBCT
1666004400000,METAR SBCT 171100Z 16005KT 9999 OVC009 16/16 Q1020=,SBCT
1666008000000,METAR SBCT 171200Z 14004KT 100V180 9999 OVC009 18/16 Q1020=,SBCT
1666011600000,METAR SBCT 171300Z 11005KT 9999 BKN013 19/16 Q1020=,SBCT
1666015200000,METAR SBCT 171400Z 14005KT 9999 BKN017 20/16 Q1020=,SBCT
1666018800000,METAR SBCT 171500Z 11009KT 080V150 9999 BKN020 22/17 Q1019=,SBCT
1666022400000,METAR SBCT 171600Z 15008KT 9999 BKN025 22/16 Q1019=,SBCT
1666026000000,METAR SBCT 171700Z 13010KT 9999 BKN025 24/16 Q1018=,SBCT
1666029600000,METAR SBCT 171800Z 10011KT 9999 SCT030 22/15 Q1018=,SBCT
1666033200000,METAR SBCT 171900Z 10010KT 070V130 9999 SCT020 21/15 Q1018=,SBCT
1666036800000,METAR SBCT 172000Z 10010KT 080V140 9999 BKN017 19/15 Q1018=,SBCT
1666038000000,SPECI SBCT 172020Z 11010KT 9999 BKN013 19/16 Q1019=,SBCT
1666040400000,METAR SBCT 172100Z 12011KT 9999 BKN010 18/16 Q1019=,SBCT
1666044000000,METAR SBCT 172200Z 11009KT 9999 BKN009 17/15 Q1019=,SBCT
1666047600000,METAR SBCT 172300Z 11006KT 9999 OVC008 16/16 Q1020=,SBCT
1665964800000,METAR SBFL 170000Z 33003KT 9999 FEW012 BKN090 20/19 Q1016=,SBFL
1665968400000,METAR SBFL 170100Z 34006KT 9999 FEW012 BKN040 20/19 Q1016=,SBFL
1665972000000,METAR SBFL 170200Z 34006KT 9999 FEW012 BKN040 20/19 Q1016=,SBFL
1665975600000,METAR SBFL 170300Z 35004KT 9999 FEW012 BKN040 20/19 Q1016=,SBFL
1665979200000,METAR SBFL 170400Z 33003KT 9999 SCT012 BKN040 20/19 Q1015=,SBFL
1665982800000,METAR SBFL 170500Z 33004KT 9999 FEW012 SCT040 19/18 Q1015=,SBFL
1665986400000,METAR SBFL 170600Z 21001KT 9999 FEW012 SCT040 18/18 Q1014=,SBFL
1665990000000,METAR SBFL 170700Z 23001KT 9999 FEW012 SCT040 18/18 Q1014=,SBFL
1665993600000,METAR SBFL 170800Z 00000KT 9999 SCT007 BKN015 19/18 Q1015=,SBFL
1665997200000,METAR SBFL 170900Z 00000KT 9999 SCT007 BKN013 19/19 Q1016=,SBFL
1666000800000,METAR SBFL 171000Z 20003KT 180V260 9999 FEW006 BKN013 19/19 Q1017=,SBFL
1666004400000,METAR SBFL 171100Z 19006KT 160V220 8000 SCT006 BKN020 20/20 Q1017=,SBFL
1666008000000,METAR SBFL 171200Z 14010KT 9999 SCT008 SCT015 21/20 Q1018=,SBFL
1666011600000,METAR SBFL 171300Z 14006KT 110V170 9999 SCT015 23/19 Q1018=,SBFL
1666015200000,METAR SBFL 171400Z 12010KT 090V150 9999 SCT020 23/19 Q1017=,SBFL
1666018800000,METAR SBFL 171500Z 14016KT 9999 SCT020 23/18 Q1017=,SBFL
1666022400000,METAR SBFL 171600Z 14014KT 9999 SCT025 23/18 Q1017=,SBFL
1666026000000,METAR SBFL 171700Z 14015KT 9999 SCT025 SCT050 23/16 Q1017=,SBFL
1666029600000,METAR SBFL 171800Z 14013KT 9999 SCT040 BKN050 22/15 Q1016=,SBFL
1666033200000,METAR SBFL 171900Z 13007KT 110V180 9999 FEW035 BKN050 22/15 Q1016=,SBFL
1666036800000,METAR SBFL 172000Z 16009KT 130V200 9999 FEW035 BKN050 22/16 Q1017=,SBFL
1666040400000,METAR SBFL 172100Z 15007KT 120V190 9999 FEW035 SCT050 BKN083 21/16 Q1017=,SBFL
1666044000000,METAR COR SBFL 172200Z 16004KT 9999 FEW035 SCT050 BKN083 21/16 Q1018=,SBFL
1666047600000,METAR SBFL 172300Z 18006KT 150V230 CAVOK 21/16 Q1018=,SBFL
1665964800000,METAR SBGL 170000Z 13008KT CAVOK 22/18 Q1015=,SBGL
1665968400000,METAR SBGL 170100Z 09007KT CAVOK 22/18 Q1015=,SBGL
1665972000000,METAR SBGL 170200Z 10005KT CAVOK 21/18 Q1015=,SBGL
1665975600000,METAR SBGL 170300Z 08004KT CAVOK 21/18 Q1014=,SBGL
1665979200000,METAR SBGL 170400Z 06004KT CAVOK 20/18 Q1014=,SBGL
1665982800000,METAR SBGL 170500Z 03004KT CAVOK 20/18 Q1014=,SBGL
1665986400000,METAR SBGL 170600Z 33003KT CAVOK 20/18 Q1013=,SBGL
1665990000000,METAR SBGL 170700Z 31003KT CAVOK 20/18 Q1013=,SBGL
1665993600000,METAR SBGL 170800Z 30004KT 8000 NSC 20/18 Q1014=,SBGL
1665997200000,METAR SBGL 170900Z 02002KT 8000 NSC 20/18 Q1014=,SBGL
1666000800000,METAR SBGL 171000Z 36003KT 9000 NSC 22/19 Q1015=,SBGL
1666004400000,METAR SBGL 171100Z 34003KT CAVOK 23/20 Q1015=,SBGL
1666008000000,METAR SBGL 171200Z 32003KT CAVOK 27/20 Q1015=,SBGL
1666011600000,METAR SBGL 171300Z 30003KT CAVOK 28/20 Q1014=,SBGL
1666015200000,METAR SBGL 171400Z 07008KT CAVOK 29/19 Q1014=,SBGL
1666018800000,METAR SBGL 171500Z 13010KT CAVOK 29/19 Q1014=,SBGL
1666022400000,METAR SBGL 171600Z 12012KT CAVOK 29/18 Q1013=,SBGL
1666026000000,METAR SBGL 171700Z 13015KT CAVOK 28/20 Q1013=,SBGL
1666029600000,METAR SBGL 171800Z 13014KT CAVOK 27/19 Q1013=,SBGL
1666033200000,METAR SBGL 171900Z 14010KT CAVOK 27/19 Q1013=,SBGL
1666036800000,METAR COR SBGL 172000Z 14005KT 9999 FEW020 26/19 Q1014=,SBGL
1666040400000,METAR SBGL 172100Z 22008KT 9999 FEW020 25/20 Q1015=,SBGL
1666044000000,METAR SBGL 172200Z 23008KT 9999 SCT020 24/19 Q1015=,SBGL
1666047600000,METAR SBGL 172300Z 24007KT 9999 FEW025 SCT040 BKN050 24/19 Q1016=,SBGL
1665964800000,METAR SBGR 170000Z 00000KT CAVOK 20/17 Q1019=,SBGR
1665968400000,METAR SBGR 170100Z 14003KT CAVOK 19/17 Q1018=,SBGR
1665972000000,METAR SBGR 170200Z 10001KT CAVOK 19/17 Q1019=,SBGR
1665975600000,METAR SBGR 170300Z 08004KT CAVOK 19/17 Q1018=,SBGR
1665979200000,METAR SBGR 170400Z 00000KT 7000 NSC 17/17 Q1017=,SBGR
1665982800000,METAR SBGR 170500Z 00000KT 7000 NSC 17/16 Q1017=,SBGR
1665986400000,METAR SBGR 170600Z 00000KT 7000 NSC 16/16 Q1017=,SBGR
1665990000000,METAR SBGR 170700Z 12001KT CAVOK 16/16 Q1017=,SBGR
1665993600000,METAR SBGR 170800Z 07003KT 5000 BR NSC 16/16 Q1017=,SBGR
1665994980000,SPECI SBGR 170823Z 06002KT 2500 BR NSC 16/16 Q1017=,SBGR
1665997200000,METAR SBGR 170900Z 00000KT 2500 BR NSC 16/15 Q1018=,SBGR
1666000800000,METAR SBGR 171000Z 06004KT 4000 1500E R10R/P2000 R10L/P2000 R28R/P2000 R28L/P2000 BR SCT005 18/17 Q1018=,SBGR
1666004400000,METAR SBGR 171100Z 14003KT 7000 FEW010 20/17 Q1019=,SBGR
1666008000000,METAR SBGR 171200Z 06003KT 9000 NSC 23/17 Q1019=,SBGR
1666011600000,METAR SBGR 171300Z 09003KT 9999 FEW020 24/16 Q1018=,SBGR
1666015200000,METAR SBGR 171400Z 12004KT 9999 FEW025 SCT080 26/16 Q1018=,SBGR
1666018800000,METAR SBGR 171500Z 22003KT 9999 FEW040 27/15 Q1017=,SBGR
1666022400000,METAR SBGR 171600Z 17009KT 9999 SCT045 27/18 Q1017=,SBGR
1666026000000,METAR SBGR 171700Z 17008KT 7000 NSC 26/18 Q1016=,SBGR
1666029600000,METAR SBGR 171800Z 15008KT CAVOK 25/16 Q1016=,SBGR
1666033200000,METAR SBGR 171900Z 20006KT CAVOK 23/16 Q1017=,SBGR
1666036800000,METAR SBGR 172000Z 17008KT 8000 SCT015 20/16 Q1017=,SBGR
1666040400000,METAR SBGR 172100Z 16007KT 9999 BKN013 19/16 Q1019=,SBGR
1666044000000,METAR SBGR 172200Z 16007KT 9999 OVC011 18/16 Q1019=,SBGR
1666047600000,METAR SBGR 172300Z 15006KT 9999 OVC013 18/16 Q1020=,SBGR
1665964800000,METAR SBKP 170000Z 14010KT 9999 FEW020TCU BKN045 BKN070 21/18 Q1017=,SBKP
1665968400000,METAR SBKP 170100Z VRB02KT 9999 -TSRA FEW020 FEW025CB SCT035 BKN070 21/17 Q1018=,SBKP
1665969900000,SPECI SBKP 170125Z 11005KT 9999 BKN030 BKN070 20/18 Q1017 RETS=,SBKP
1665972000000,METAR SBKP 170200Z 13004KT 9999 FEW035 BKN080 20/19 Q1017 RETS=,SBKP
1665975600000,METAR SBKP 170300Z 10005KT 9999 FEW035 BKN100 20/18 Q1017=,SBKP
1665979200000,METAR SBKP 170400Z 13009KT CAVOK 20/18 Q1016=,SBKP
1665982800000,METAR SBKP 170500Z 13008KT CAVOK 20/18 Q1016=,SBKP
1665986400000,METAR SBKP 170600Z 13007KT CAVOK 19/17 Q1015=,SBKP
1665990000000,METAR SBKP 170700Z 12008KT CAVOK 19/17 Q1015=,SBKP
1665993600000,METAR SBKP 170800Z 13006KT 8000 NSC 19/17 Q1016=,SBKP
1665997200000,METAR SBKP 170900Z 15008KT 5000 BR NSC 19/17 Q1016=,SBKP
1666000800000,METAR SBKP 171000Z 12003KT 5000 BR NSC 20/17 Q1017=,SBKP
1666004400000,METAR SBKP 171100Z 14007KT 7000 NSC 22/17 Q1017=,SBKP
1666008000000,METAR SBKP 171200Z 13007KT CAVOK 24/17 Q1018=,SBKP
1666011600000,METAR SBKP 171300Z 00000KT CAVOK 27/17 Q1017=,SBKP
1666015200000,METAR SBKP 171400Z 05003KT 340V150 9999 FEW030 SCT080 28/16 Q1017=,SBKP
1666018800000,METAR SBKP 171500Z VRB04KT 9999 SCT040 SCT080 29/16 Q1016=,SBKP
1666022400000,METAR SBKP 171600Z VRB11KT 9999 SCT040 SCT080 29/15 Q1016=,SBKP
1666026000000,METAR SBKP 171700Z 25011KT 220V320 9999 SCT040 30/15 Q1015=,SBKP
1666029600000,METAR SBKP 171800Z 20007KT 150V320 9999 SCT040 SCT100 30/16 Q1014=,SBKP
1666033200000,METAR SBKP 171900Z 24007KT 200V310 9999 FEW045 FEW050TCU 29/15 Q1014=,SBKP
1666036800000,METAR SBKP 172000Z 21008KT 160V230 9999 FEW040 FEW045TCU 29/16 Q1014=,SBKP
1666040400000,METAR SBKP 172100Z 13009KT CAVOK 27/18 Q1015=,SBKP
1666044000000,METAR SBKP 172200Z 13017KT CAVOK 24/15 Q1015=,SBKP
1666047600000,METAR SBKP 172300Z 13015KT CAVOK 21/16 Q1017=,SBKP
1665964800000,METAR SBPA 170000Z 10003KT 9999 BKN040 19/16 Q1016=,SBPA
1665968400000,METAR SBPA 170100Z 19004KT 9999 BKN040 19/15 Q1017=,SBPA
1665972000000,METAR SBPA 170200Z 14002KT 9999 FEW040 SCT070 19/15 Q1017=,SBPA
1665975600000,METAR SBPA 170300Z 22004KT 190V260 CAVOK 18/15 Q1017=,SBPA
1665979200000,METAR SBPA 170400Z VRB02KT 9999 SCT011 17/16 Q1017=,SBPA
1665982800000,METAR SBPA 170500Z VRB02KT 9999 FEW013 17/15 Q1017=,SBPA
1665986400000,METAR SBPA 170600Z VRB02KT 9999 SCT012 17/15 Q1016=,SBPA
1665990000000,METAR SBPA 170700Z VRB02KT 9999 SCT012 16/15 Q1017=,SBPA
1665993600000,METAR SBPA 170800Z VRB02KT 9999 SCT012 BKN040 17/15 Q1017=,SBPA
1665997200000,METAR SBPA 170900Z VRB01KT 9999 FEW013 BKN040 16/15 Q1018=,SBPA
1666000800000,METAR SBPA 171000Z VRB02KT 9999 FEW011 SCT030 17/15 Q1019=,SBPA
1666004400000,METAR SBPA 171100Z 21004KT 170V240 9999 BKN016 18/15 Q1019=,SBPA
1666008000000,METAR SBPA 171200Z 26006KT 230V290 9999 SCT018 BKN038 19/15 Q1020=,SBPA
1666011600000,METAR SBPA 171300Z 25005KT 190V330 9999 SCT020 BKN038 20/15 Q1019=,SBPA
1666015200000,METAR SBPA 171400Z 23005KT 190V300 9999 FEW027 BKN038 20/15 Q1019=,SBPA
1666018800000,METAR SBPA 171500Z 28007KT 210V320 9999 BKN031 22/15 Q1018=,SBPA
1666022400000,METAR SBPA 171600Z 25006KT 220V290 9999 BKN036 23/13 Q1017=,SBPA
1666026000000,METAR SBPA 171700Z VRB04KT 9999 BKN042 24/13 Q1017=,SBPA
1666029600000,METAR SBPA 171800Z 08003KT 030V140 9999 FEW040TCU SCT046 24/13 Q1017=,SBPA
1666033200000,METAR SBPA 171900Z 13009KT 9999 FEW040 BKN050 24/15 Q1017=,SBPA
1666036800000,METAR SBPA 172000Z 12017KT 9999 FEW030 SCT040 23/16 Q1017=,SBPA
1666039500000,SPECI SBPA 172045Z 11014G24KT 9999 FEW030 22/15 Q1018=,SBPA
1666040400000,METAR SBPA 172100Z 12017KT 9999 FEW030 22/15 Q1018=,SBPA
1666042860000,SPECI SBPA 172141Z 11013G23KT 080V140 9999 FEW020 20/16 Q1019=,SBPA
1666044000000,METAR SBPA 172200Z 11013KT 9999 FEW015 20/16 Q1019=,SBPA
1666047600000,METAR SBPA 172300Z 11013KT 9999 FEW010 BKN018 20/16 Q1020=,SBPA
1666048140000,SPECI SBPA 172309Z 11015G25KT 080V140 9999 BKN018 19/16 Q1019=,SBPA
1665964800000,METAR SBRF 170000Z 13008KT 9999 SCT020 26/21 Q1014=,SBRF
1665968400000,METAR SBRF 170100Z 14009KT 9999 SCT019 26/21 Q1014=,SBRF
1665972000000,METAR SBRF 170200Z 13006KT 9999 SCT020 27/21 Q1013=,SBRF
1665975600000,METAR SBRF 170300Z 13008KT 9999 BKN018 SCT070 26/21 Q1013=,SBRF
1665979200000,METAR SBRF 170400Z 12005KT 9999 SCT019 25/21 Q1013=,SBRF
1665982800000,METAR SBRF 170500Z 12007KT 9999 FEW020 25/21 Q1012=,SBRF
1665986400000,METAR SBRF 170600Z 11004KT 8000 -RA SCT018 26/21 Q1012=,SBRF
1665990000000,METAR SBRF 170700Z 12009KT 9999 SCT020 26/21 Q1013=,SBRF
1665993600000,METAR SBRF 170800Z 11008KT 080V160 6000 -RA BKN021 25/20 Q1013=,SBRF
1665997200000,METAR SBRF 170900Z 14012KT 9999 BKN020 25/21 Q1013=,SBRF
1666000800000,METAR SBRF 171000Z 12010KT 9999 BKN022 26/21 Q1014=,SBRF
1666004400000,METAR SBRF 171100Z 12012KT 9999 BKN025 27/21 Q1015=,SBRF
1666008000000,METAR SBRF 171200Z 13010KT 080V160 9999 SCT024 28/21 Q1015=,SBRF
1666011600000,METAR SBRF 171300Z 12011KT 090V150 9999 SCT024 28/21 Q1015=,SBRF
1666015200000,METAR SBRF 171400Z 12012KT 9999 SCT025 28/21 Q1014=,SBRF
1666018800000,METAR SBRF 171500Z 11010KT 9999 SCT025 29/21 Q1014=,SBRF
1666022400000,METAR SBRF 171600Z 13011KT 9999 SCT025 28/21 Q1013=,SBRF
1666026000000,METAR SBRF 171700Z 12012KT 9999 SCT024 28/21 Q1012=,SBRF
1666029600000,METAR SBRF 171800Z 12012KT 9999 SCT024 28/20 Q1012=,SBRF
1666033200000,METAR SBRF 171900Z 12011KT 080V150 9999 SCT023 27/20 Q1012=,SBRF
1666036800000,METAR SBRF 172000Z 12009KT 9999 SCT023 27/21 Q1013=,SBRF
1666040400000,METAR SBRF 172100Z 12009KT 070V150 9999 SCT023 27/21 Q1013=,SBRF
1666044000000,METAR SBRF 172200Z 12009KT 9999 SCT023 27/21 Q1014=,SBRF
1666047600000,METAR SBRF 172300Z 14010KT 9999 SCT023 26/21 Q1015=,SBRF
1665964800000,METAR SBRJ 170000Z VRB03KT CAVOK 23/18 Q1014=,SBRJ
1665968400000,METAR SBRJ 170100Z 07004KT 030V130 CAVOK 23/19 Q1015=,SBRJ
1665972000000,METAR SBRJ 170200Z 08004KT CAVOK 23/19 Q1014=,SBRJ
1665975600000,METAR SBRJ 170300Z 06002KT CAVOK 22/19 Q1014=,SBRJ
1665979200000,METAR SBRJ 170400Z 05004KT CAVOK 23/19 Q1013=,SBRJ
1665982800000,METAR SBRJ 170500Z 02004KT CAVOK 22/19 Q1013=,SBRJ
1665986400000,METAR SBRJ 170600Z 04003KT CAVOK 22/19 Q1012=,SBRJ
1665990000000,METAR SBRJ 170700Z 05004KT CAVOK 22/19 Q1012=,SBRJ
1665993600000,METAR SBRJ 170800Z 01003KT CAVOK 21/19 Q1013=,SBRJ
1665997200000,METAR SBRJ 170900Z 03005KT CAVOK 22/19 Q1013=,SBRJ
1666000800000,METAR SBRJ 171000Z 35004KT 310V040 CAVOK 22/19 Q1014=,SBRJ
1666004400000,METAR SBRJ 171100Z 01004KT 340V040 CAVOK 23/20 Q1015=,SBRJ
1666008000000,METAR SBRJ 171200Z 01005KT CAVOK 24/20 Q1015=,SBRJ
1666011600000,METAR SBRJ 171300Z 03003KT 330V060 9999 FEW030 25/21 Q1015=,SBRJ
1666015200000,METAR SBRJ 171400Z 14011KT CAVOK 26/20 Q1014=,SBRJ
1666018800000,METAR SBRJ 171500Z 15013KT 9999 FEW030 26/19 Q1014=,SBRJ
1666022400000,METAR SBRJ 171600Z 17013KT 9999 FEW018 27/20 Q1013=,SBRJ
1666026000000,METAR SBRJ 171700Z 18016KT 9999 FEW018 27/21 Q1013=,SBRJ
1666029600000,METAR SBRJ 171800Z 18017KT 9999 FEW013 26/20 Q1013=,SBRJ
1666033200000,METAR SBRJ 171900Z 18016KT 9999 FEW012 25/21 Q1013=,SBRJ
1666036800000,METAR SBRJ 172000Z 18016KT 9999 FEW011 SCT035 24/21 Q1013=,SBRJ
1666040400000,METAR SBRJ 172100Z 19011KT 9999 FEW011 24/21 Q1014=,SBRJ
1666044000000,METAR SBRJ 172200Z 19011KT 9999 FEW011 SCT035 24/20 Q1015=,SBRJ
1666047600000,METAR SBRJ 172300Z 18010KT 9999 FEW011 BKN050 24/20 Q1015=,SBRJ
1665964800000,METAR SBSP 170000Z 18005KT 9999 -RA NSC 19/17 Q1019=,SBSP
1665968400000,METAR SBSP 170100Z 18004KT 140V220 CAVOK 19/17 Q1019=,SBSP
1665972000000,METAR COR SBSP 170200Z 00000KT CAVOK 19/17 Q1019=,SBSP
1665972180000,SPECI SBSP 170203Z 00000KT CAVOK 19/17 Q1019=,SBSP
1665975600000,METAR SBSP 170300Z AUTO 19002KT CAVOK 18/17 Q1018=,SBSP
1665979200000,METAR SBSP 170400Z AUTO 19004KT 9000 NCD 18/17 Q1018=,SBSP
1665982800000,METAR SBSP 170500Z AUTO VRB02KT 8000 NCD 18/17 Q1017=,SBSP
1665985860000,SPECI SBSP 170551Z AUTO 18002KT 3400 NCD 18/17 Q1017=,SBSP
1665986400000,METAR SBSP 170600Z AUTO 20002KT 3000 BR NCD 18/17 Q1017=,SBSP
1665986880000,SPECI SBSP 170608Z AUTO 19003KT 8000 NCD 18/17 Q1017=,SBSP
1665990000000,METAR SBSP 170700Z AUTO 19004KT 6000 NCD 17/17 Q1017=,SBSP
1665990120000,SPECI SBSP 170702Z AUTO 20004KT 4500 BR NCD 17/17 Q1017=,SBSP
1665990240000,SPECI SBSP 170704Z AUTO 20004KT 1400 R17/P2000N BR NCD 17/17 Q1017=,SBSP
1665992220000,SPECI SBSP 170737Z AUTO 20004KT 0500 R17/1000D FG BKN000 17/17 Q1017=,SBSP
1665993600000,METAR SBSP 170800Z AUTO 19004KT 160V220 0900 R17/1600U FG BKN000 17/16 Q1017=,SBSP
1665994020000,SPECI SBSP 170807Z AUTO 17005KT 0750 R17/0900N FG OVC000 17/16 Q1017=,SBSP
1665995340000,SPECI SBSP 170829Z AUTO 16004KT 0700 R17/0700D FG BKN001 17/16 Q1018=,SBSP
1665997200000,METAR SBSP 170900Z 20003KT 7000 BCFG SCT003 17/16 Q1018=,SBSP
1665998340000,SPECI SBSP 170919Z 20006KT 170V240 6000 SCT003 BKN005 17/16 Q1019=,SBSP
1665999120000,SPECI SBSP 170932Z 20005KT 3000 BR SCT003 OVC005 17/16 Q1019=,SBSP
1665999660000,SPECI SBSP 170941Z 21004KT 180V250 0500 R35/0800N R17/0900U FG VV002 17/16 Q1019=,SBSP
1666000800000,METAR SBSP 171000Z 20005KT 160V230 0800 R35/0650D R17/1100D FG VV002 17/16 Q1019=,SBSP
1666003620000,SPECI SBSP 171047Z 19004KT 160V230 3000 BR FEW001 OVC003 16/16 Q1020=,SBSP
1666004400000,METAR SBSP 171100Z VRB02KT 8000 FEW002 OVC004 17/16 Q1020=,SBSP
1666006200000,SPECI SBSP 171130Z VRB02KT 9999 SCT005 18/18 Q1020=,SBSP
1666008000000,METAR SBSP 171200Z 20004KT 160V250 9999 FEW009 19/18 Q1020=,SBSP
1666011600000,METAR SBSP 171300Z 22007KT 160V270 CAVOK 21/17 Q1020=,SBSP
1666015200000,METAR SBSP 171400Z 20008KT 170V250 9000 NSC 22/17 Q1019=,SBSP
1666018800000,METAR SBSP 171500Z 21008KT 160V240 9000 NSC 24/17 Q1019=,SBSP
1666022400000,METAR SBSP 171600Z 22009KT CAVOK 25/16 Q1018=,SBSP
1666026000000,METAR SBSP 171700Z 17012KT 9999 FEW021 24/17 Q1018=,SBSP
1666029600000,METAR SBSP 171800Z 17011KT 9999 FEW019 24/17 Q1018=,SBSP
1666033200000,METAR SBSP 171900Z 17012KT 9999 FEW015 22/17 Q1018=,SBSP
1666036800000,METAR SBSP 172000Z 16013KT 9999 FEW011 BKN013 19/16 Q1018=,SBSP
1666039620000,SPECI SBSP 172047Z 19011KT 9999 SCT006 OVC009 18/16 Q1019=,SBSP
1666040400000,METAR SBSP 172100Z 20011KT 9999 SCT006 OVC009 18/16 Q1019=,SBSP
1666044000000,METAR SBSP 172200Z 20010KT 8000 SCT011 BKN013 18/15 Q1020=,SBSP
1666047600000,METAR SBSP 172300Z 15008KT 8000 FEW009 BKN011 17/16 Q1021=,SBSP
1665964800000,METAR SBSV 170000Z 13008KT 9999 FEW025 26/21 Q1015=,SBSV
1665968400000,METAR SBSV 170100Z 10008KT 9999 SCT025 26/20 Q1016=,SBSV
1665972000000,METAR SBSV 170200Z 10008KT 9999 FEW025 26/20 Q1015=,SBSV
1665975600000,METAR SBSV 170300Z 11006KT 9999 FEW025 26/21 Q1015=,SBSV
1665979200000,METAR SBSV 170400Z 10008KT 9999 SCT020 26/21 Q1014=,SBSV
1665982800000,METAR SBSV 170500Z 09007KT 9999 SCT020 26/21 Q1014=,SBSV
1665986400000,METAR SBSV 170600Z 10007KT 9999 SCT020 25/21 Q1014=,SBSV
1665990000000,METAR SBSV 170700Z 09007KT 9999 SCT020 25/21 Q1014=,SBSV
1665993600000,METAR SBSV 170800Z 10008KT 9999 SCT020 25/20 Q1014=,SBSV
1665997200000,METAR SBSV 170900Z 09007KT 9999 SCT020 26/21 Q1015=,SBSV
1666000800000,METAR SBSV 171000Z 09008KT 9999 SCT020 27/21 Q1016=,SBSV
1666004400000,METAR SBSV 171100Z 07010KT 9999 SCT021 28/21 Q1016=,SBSV
1666008000000,METAR SBSV 171200Z 08012KT 9999 SCT023 28/21 Q1017=,SBSV
1666011600000,METAR SBSV 171300Z 08011KT 9999 SCT023 29/22 Q1017=,SBSV
1666015200000,METAR SBSV 171400Z 08011KT 9999 SCT025 29/22 Q1016=,SBSV
1666018800000,METAR SBSV 171500Z 09011KT 9999 SCT025 29/23 Q1016=,SBSV
1666022400000,METAR SBSV 171600Z 09012KT 9999 SCT025 29/22 Q1014=,SBSV
1666026000000,METAR SBSV 171700Z 09012KT 9999 SCT023 29/21 Q1014=,SBSV
1666029600000,METAR SBSV 171800Z 10013KT 9999 SCT023 29/22 Q1013=,SBSV
1666033200000,METAR SBSV 171900Z 09013KT 9999 SCT023 28/21 Q1013=,SBSV
1666036800000,METAR SBSV 172000Z 09011KT 9999 SCT023 27/21 Q1014=,SBSV
1666040400000,METAR SBSV 172100Z 08010KT 9999 SCT023 26/21 Q1014=,SBSV
1666044000000,METAR SBSV 172200Z 09011KT 9999 SCT023 26/21 Q1015=,SBSV
1666047600000,METAR SBSV 172300Z 09011KT 9999 SCT023 26/21 Q1016=,SBSV
