hora,metar,aero
1676073600000,METAR SBBR 110000Z 12006KT 100V170 9999 BKN040 FEW045TCU BKN080 26/16 Q1017=,SBBR
1676077200000,METAR SBBR 110100Z 11004KT 9999 BKN040 FEW045TCU BKN080 25/16 Q1018=,SBBR
1676080800000,METAR SBBR 110200Z 14005KT 9999 BKN040 FEW045TCU BKN080 25/15 Q1018=,SBBR
1676084400000,METAR SBBR 110300Z 31002KT 9999 SCT040 FEW045TCU BKN070 22/18 Q1018=,SBBR
1676088000000,METAR SBBR 110400Z 20004KT 9999 SCT040 FEW045TCU BKN070 22/18 Q1018=,SBBR
1676091600000,METAR SBBR 110500Z 18005KT 9999 FEW045 BKN080 21/18 Q1017=,SBBR
1676095200000,METAR SBBR 110600Z 19004KT 9999 FEW045 BKN080 21/18 Q1017=,SBBR
1676098800000,METAR SBBR 110700Z 17003KT 9999 FEW045 BKN100 20/18 Q1017=,SBBR
1676102400000,METAR SBBR 110800Z 14003KT 9999 FEW045 BKN100 19/19 Q1017=,SBBR
1676106000000,METAR SBBR 110900Z 19003KT CAVOK 20/18 Q1018=,SBBR
1676109600000,METAR SBBR 111000Z 20003KT 160V250 CAVOK 20/18 Q1018=,SBBR
1676113200000,METAR SBBR 111100Z 16005KT 9999 FEW045 SCT100 20/18 Q1019=,SBBR
1676116800000,METAR SBBR 111200Z 16005KT 080V240 9999 FEW010 SCT090 23/18 Q1020=,SBBR
1676120400000,METAR SBBR 111300Z 10007KT CAVOK 25/15 Q1020=,SBBR
1676124000000,METAR SBBR 111400Z 08008KT 030V120 9999 FEW040 26/16 Q1019=,SBBR
1676127600000,METAR SBBR 111500Z 05007KT 360V090 9999 FEW045 27/16 Q1019=,SBBR
1676131200000,METAR SBBR 111600Z 06007KT 350V130 9999 SCT045 28/14 Q1018=,SBBR
1676134800000,METAR SBBR 111700Z VRB05KT 9999 SCT045 29/14 Q1017=,SBBR
1676138400000,METAR SBBR 111800Z 05007KT 9999 BKN040 29/14 Q1016=,SBBR
1676142000000,METAR SBBR 111900Z 03007KT 9999 SCT030 30/13 Q1015=,SBBR
1676145600000,METAR SBBR 112000Z 06007KT 9999 SCT030 29/14 Q1014=,SBBR
1676149200000,METAR SBBR 112100Z 08008KT 9999 FEW030 28/14 Q1015=,SBBR
1676152800000,METAR SBBR 112200Z 09005KT 9999 FEW030 27/14 Q1015=,SBBR
1676156400000,METAR SBBR 112300Z 09005KT CAVOK 26/13 Q1016=,SBBR
1676073600000,METAR SBCF 110000Z 10006KT 9999 VCTS FEW045CB SCT100 24/18 Q1017=,SBCF
1676077200000,METAR SBCF 110100Z 11005KT CAVOK 23/18 Q1018=,SBCF
1676080800000,METAR SBCF 110200Z 23002KT CAVOK 22/19 Q1018=,SBCF
1676084400000,METAR SBCF 110300Z 16003KT CAVOK 22/19 Q1018=,SBCF
1676088000000,METAR SBCF 110400Z 13004KT CAVOK 21/18 Q1018=,SBCF
1676091600000,METAR SBCF 110500Z 13003KT CAVOK 21/18 Q1017=,SBCF
1676095200000,METAR SBCF 110600Z 16002KT CAVOK 21/18 Q1017=,SBCF
1676098800000,METAR SBCF 110700Z 12003KT CAVOK 21/17 Q1017=,SBCF
1676102400000,METAR SBCF 110800Z 06004KT CAVOK 21/17 Q1017=,SBCF
1676106000000,METAR SBCF 110900Z 07003KT CAVOK 20/17 Q1018=,SBCF
1676109600000,METAR SBCF 111000Z 05002KT CAVOK 21/17 Q1019=,SBCF
1676113200000,METAR SBCF 111100Z 06006KT CAVOK 23/17 Q1019=,SBCF
1676116800000,METAR SBCF 111200Z 03008KT 9999 FEW030 24/18 Q1020=,SBCF
1676120400000,METAR SBCF 111300Z 05008KT 9999 SCT023 26/18 Q1020=,SBCF
1676124000000,METAR SBCF 111400Z 02009KT 9999 BKN035 27/18 Q1019=,SBCF
1676127600000,METAR SBCF 111500Z 04007KT 9999 BKN036 27/18 Q1018=,SBCF
1676131200000,METAR SBCF 111600Z 36006KT 9999 BKN040 28/17 Q1018=,SBCF
1676134800000,METAR SBCF 111700Z 01005KT 9999 BKN040 29/17 Q1017=,SBCF
1676138400000,METAR SBCF 111800Z 01005KT 9999 SCT040 SCT100 28/16 Q1016=,SBCF
1676142000000,METAR SBCF 111900Z 02006KT 9999 SCT040 SCT100 29/15 Q1015=,SBCF
1676145600000,METAR SBCF 112000Z 05007KT 9999 FEW045 SCT100 28/17 Q1015=,SBCF
1676149200000,METAR SBCF 112100Z 06007KT 9999 FEW045 SCT100 28/18 Q1015=,SBCF
1676152800000,METAR SBCF 112200Z 09007KT 9999 FEW045 26/18 Q1015=,SBCF
1676156400000,METAR SBCF 112300Z 08006KT CAVOK 26/18 Q1016=,SBCF
1676073600000,METAR SBCT 110000Z 12009KT 9999 -RA SCT010 BKN083 17/16 Q1018 RERA=,SBCT
1676077200000,METAR SBCT 110100Z 07004KT CAVOK 17/16 Q1019=,SBCT
1676080800000,METAR SBCT 110200Z 02003KT CAVOK 18/17 Q1019=,SBCT
1676084400000,METAR SBCT 110300Z 09004KT CAVOK 17/16 Q1018=,SBCT
1676088000000,METAR SBCT 110400Z 03003KT CAVOK 17/16 Q1018=,SBCT
1676091600000,METAR SBCT 110500Z 02004KT CAVOK 17/16 Q1017=,SBCT
1676095200000,METAR SBCT 110600Z 01003KT CAVOK 17/16 Q1016=,SBCT
1676098800000,METAR SBCT 110700Z 35002KT CAVOK 17/16 Q1016=,SBCT
1676102400000,METAR SBCT 110800Z 02004KT CAVOK 17/16 Q1016=,SBCT
1676106000000,METAR SBCT 110900Z 10001KT CAVOK 16/16 Q1017=,SBCT
1676109600000,METAR SBCT 111000Z 20003KT CAVOK 18/16 Q1018=,SBCT
1676113200000,METAR SBCT 111100Z VRB02KT CAVOK 20/17 Q1018=,SBCT
1676116800000,METAR SBCT 111200Z 03004KT 340V080 CAVOK 21/18 Q1018=,SBCT
1676120400000,METAR SBCT 111300Z 01007KT 340V050 9999 FEW030 24/17 Q1018=,SBCT
1676124000000,METAR SBCT 111400Z 03007KT 010V070 9999 FEW030 SCT080 25/17 Q1018=,SBCT
1676127600000,METAR SBCT 111500Z 02005KT 290V060 9999 FEW030 BKN090 25/18 Q1017=,SBCT
1676131200000,METAR SBCT 111600Z 01010KT 9999 SCT030 BKN090 23/17 Q1017=,SBCT
1676133120000,SPECI SBCT 111632Z 04006KT 350V080 9999 TS VCSH BKN030 FEW040CB BKN080 24/19 Q1017=,SBCT
1676134800000,METAR COR SBCT 111700Z VRB06KT 9999 -TSRA BKN030 FEW040CB BKN080 23/18 Q1016=,SBCT
1676135400000,SPECI SBCT 111710Z 13009KT 3000 TSRA BKN020 FEW040CB BKN080 21/18 Q1016=,SBCT
1676138400000,METAR SBCT 111800Z 11008KT 4500 BR FEW004 BKN030 BKN100 21/20 Q1016 RETSRA=,SBCT
1676142000000,METAR SBCT 111900Z 09007KT 8000 VCTS FEW007 SCT035 FEW040CB BKN080 22/20 Q1016=,SBCT
1676145600000,METAR SBCT 112000Z 09004KT 9999 VCTS FEW007 SCT040 FEW045CB 22/20 Q1015=,SBCT
1676146380000,SPECI SBCT 112013Z 06006KT 020V090 9000 FEW007 BKN012 FEW045TCU 22/20 Q1015=,SBCT
1676149200000,METAR SBCT 112100Z 10005KT 070V130 9999 FEW009 BKN013 22/20 Q1015=,SBCT
1676152800000,METAR SBCT 112200Z 09005KT 9999 FEW009 SCT013 20/19 Q1016=,SBCT
1676156400000,METAR SBCT 112300Z 12005KT 9999 FEW010 19/18 Q1016=,SBCT
1676073600000,METAR SBFL 110000Z 02005KT 9999 SCT018 BKN036 26/25 Q1013=,SBFL
1676074560000,SPECI SBFL 110016Z 02004KT 9999 VCTS FEW030CB BKN036 26/25 Q1014=,SBFL
1676077200000,METAR SBFL 110100Z 08005KT 050V120 9999 TS FEW030CB BKN030 OVC045 26/24 Q1014=,SBFL
1676077980000,SPECI SBFL 110113Z 32010KT 300V360 8000 -TSRA BKN011 BKN023 FEW030CB 24/23 Q1014=,SBFL
1676080800000,METAR SBFL 110200Z 31010KT 9000 -RA VCTS BKN011 BKN015 FEW030CB 23/23 Q1014 RETS=,SBFL
1676081100000,SPECI SBFL 110205Z 28008KT 9999 -RA SCT011 BKN048 22/22 Q1014 RETS=,SBFL
1676084400000,METAR SBFL 110300Z 31007KT 290V350 9999 SCT012 SCT048 23/23 Q1014 RETS=,SBFL
1676088000000,METAR SBFL 110400Z 30006KT CAVOK 23/23 Q1013=,SBFL
1676091600000,METAR SBFL 110500Z 34003KT CAVOK 23/23 Q1012=,SBFL
1676095200000,METAR SBFL 110600Z 33004KT CAVOK 22/22 Q1012=,SBFL
1676098800000,METAR SBFL 110700Z 31004KT CAVOK 22/22 Q1012=,SBFL
1676102400000,METAR SBFL 110800Z 33006KT CAVOK 22/22 Q1012=,SBFL
1676106000000,METAR SBFL 110900Z 34005KT CAVOK 23/23 Q1012=,SBFL
1676109600000,METAR SBFL 111000Z 35005KT CAVOK 24/24 Q1012=,SBFL
1676113200000,METAR SBFL 111100Z 35006KT CAVOK 26/24 Q1013=,SBFL
1676116800000,METAR SBFL 111200Z 33005KT 290V360 CAVOK 27/23 Q1014=,SBFL
1676120400000,METAR SBFL 111300Z 33004KT 9999 FEW035 28/22 Q1014=,SBFL
1676124000000,METAR SBFL 111400Z 33005KT 270V030 9999 FEW035 29/21 Q1013=,SBFL
1676127600000,METAR SBFL 111500Z 01006KT 310V070 9999 FEW035 30/21 Q1013=,SBFL
1676131200000,METAR SBFL 111600Z 01006KT 310V080 9999 FEW035 31/22 Q1012=,SBFL
1676134800000,METAR SBFL 111700Z 36007KT 330V050 9999 FEW035 32/21 Q1011=,SBFL
1676138400000,METAR SBFL 111800Z 09014KT 9999 FEW035 FEW035TCU 31/23 Q1010=,SBFL
1676142000000,METAR SBFL 111900Z 09012KT 9999 FEW035 FEW035TCU 30/23 Q1010=,SBFL
1676145600000,METAR SBFL 112000Z 11015KT 9999 FEW035 FEW035TCU 29/23 Q1011=,SBFL
1676149200000,METAR SBFL 112100Z 10010KT 9999 FEW035 FEW035TCU 28/24 Q1011=,SBFL
1676152800000,METAR SBFL 112200Z 11008KT 9999 BKN030 FEW035TCU 27/25 Q1012=,SBFL
1676156400000,METAR SBFL 112300Z 13006KT 9999 BKN030 FEW035TCU 26/25 Q1012=,SBFL
1676073600000,METAR SBGL 110000Z 30007KT 9999 FEW015 BKN100 24/22 Q1014=,SBGL
1676077200000,METAR SBGL 110100Z 30005KT 9999 FEW015 BKN100 24/22 Q1014=,SBGL
1676080800000,METAR SBGL 110200Z 02007KT 9999 FEW009 SCT100 24/22 Q1014=,SBGL
1676084400000,METAR SBGL 110300Z 01004KT 350V060 9999 SCT009 SCT100 24/22 Q1014=,SBGL
1676088000000,METAR SBGL 110400Z 10002KT 9999 FEW010 SCT100 23/22 Q1013=,SBGL
1676091600000,METAR SBGL 110500Z 14002KT 9999 FEW010 24/22 Q1012=,SBGL
1676093160000,SPECI SBGL 110526Z 06008KT 9999 FEW007 BKN009 OVC100 24/22 Q1012=,SBGL
1676095200000,METAR SBGL 110600Z VRB02KT 9999 SCT007 BKN011 BKN100 24/22 Q1011=,SBGL
1676098800000,METAR SBGL 110700Z 10005KT 9999 FEW008 23/22 Q1011=,SBGL
1676102400000,METAR SBGL 110800Z 10005KT 9999 FEW007 23/22 Q1011=,SBGL
1676106000000,METAR SBGL 110900Z VRB02KT 9999 FEW009 23/22 Q1012=,SBGL
1676109600000,METAR SBGL 111000Z VRB02KT 9999 FEW010 25/23 Q1013=,SBGL
1676113200000,METAR SBGL 111100Z 00000KT CAVOK 27/22 Q1013=,SBGL
1676116800000,METAR SBGL 111200Z 35003KT CAVOK 27/23 Q1013=,SBGL
1676120400000,METAR SBGL 111300Z 05004KT CAVOK 27/23 Q1013=,SBGL
1676124000000,METAR SBGL 111400Z 12004KT CAVOK 30/24 Q1013=,SBGL
1676127600000,METAR SBGL 111500Z 13004KT CAVOK 30/23 Q1012=,SBGL
1676131200000,METAR SBGL 111600Z 12008KT 9999 FEW020 BKN100 31/22 Q1011=,SBGL
1676134800000,METAR SBGL 111700Z 12010KT 9999 FEW020 BKN100 31/22 Q1011=,SBGL
1676138400000,METAR SBGL 111800Z 12010KT 9999 FEW020 BKN100 30/22 Q1010=,SBGL
1676142000000,METAR SBGL 111900Z 10012KT 9999 FEW020 BKN100 30/24 Q1010=,SBGL
1676145600000,METAR SBGL 112000Z 12005KT 9999 SCT020 FEW025TCU BKN100 28/23 Q1011=,SBGL
1676149200000,METAR SBGL 112100Z 27006KT 7000 -TSRA SCT020 FEW025CB BKN100 27/23 Q1012=,SBGL
1676151000000,SPECI SBGL 112130Z 27012KT 4000 -TSRA BR BKN018 FEW025CB BKN100 25/22 Q1012=,SBGL
1676152800000,METAR SBGL 112200Z 27012KT 4000 -TSRA BR SCT012 BKN018 FEW020CB 25/22 Q1012=,SBGL
1676155200000,SPECI SBGL 112240Z 33008KT 6000 -TSRA SCT012 FEW020CB BKN030 24/22 Q1014=,SBGL
1676156400000,METAR SBGL 112300Z 04013KT 6000 -TSRA BKN008 FEW020CB OVC030 23/21 Q1014=,SBGL
1676073600000,METAR SBGR 110000Z 04008KT 8000 -RA BKN030 20/19 Q1018=,SBGR
1676077200000,METAR SBGR 110100Z 07009KT 9999 -RA FEW020 BKN100 20/19 Q1018=,SBGR
1676080800000,METAR SBGR 110200Z 07006KT 9999 FEW017 19/19 Q1018=,SBGR
1676084400000,METAR SBGR 110300Z 08006KT 9999 FEW015 BKN100 19/18 Q1017=,SBGR
1676088000000,METAR SBGR 110400Z 06007KT 9999 FEW006 19/19 Q1016=,SBGR
1676090100000,SPECI SBGR 110435Z 05006KT 9999 BKN006 19/19 Q1016=,SBGR
1676091600000,METAR SBGR 110500Z 08004KT 9999 BKN006 19/19 Q1016=,SBGR
1676095200000,METAR SBGR 110600Z 13003KT 9999 BKN008 19/18 Q1016=,SBGR
1676098800000,METAR SBGR 110700Z 11002KT 9999 BKN008 19/18 Q1016=,SBGR
1676102400000,METAR SBGR 110800Z 06002KT 9999 SCT008 19/18 Q1016=,SBGR
1676106000000,METAR SBGR 110900Z 04003KT 9999 FEW019 BKN100 19/18 Q1017=,SBGR
1676109600000,METAR SBGR 111000Z 00000KT 9999 -RA FEW020 OVC100 20/19 Q1017=,SBGR
1676113200000,METAR SBGR 111100Z 00000KT CAVOK 21/19 Q1018=,SBGR
1676116800000,METAR SBGR 111200Z 28002KT CAVOK 23/19 Q1018=,SBGR
1676120400000,METAR SBGR 111300Z 00000KT 9999 FEW020 SCT080 OVC100 24/19 Q1018=,SBGR
1676124000000,METAR SBGR 111400Z 31003KT 9999 BKN025 OVC100 25/20 Q1018=,SBGR
1676127600000,METAR SBGR 111500Z 32008KT 9999 BKN025 OVC080 26/19 Q1017=,SBGR
1676131200000,METAR SBGR 111600Z 27012KT 8000 -RA BKN030 FEW040TCU OVC080 24/20 Q1016=,SBGR
1676134800000,METAR COR SBGR 111700Z 23005KT 7000 -RA BKN021 BKN040 FEW050TCU 23/21 Q1016=,SBGR
1676138400000,METAR SBGR 111800Z 24007KT 9000 -RA SCT050 FEW051TCU OVC100 22/21 Q1016=,SBGR
1676142000000,METAR SBGR 111900Z 17004KT 9000 SCT008 BKN021 OVC100 22/21 Q1016=,SBGR
1676145600000,METAR SBGR 112000Z 00000KT 9000 FEW013 BKN043 BKN070 22/20 Q1016=,SBGR
1676149200000,METAR SBGR 112100Z 13003KT 9999 SCT010 BKN015 BKN080 23/20 Q1016=,SBGR
1676152800000,METAR SBGR 112200Z 06010KT 9000 -RA SCT006 BKN011 OVC070 21/20 Q1016=,SBGR
1676156400000,METAR SBGR 112300Z 07006KT CAVOK 20/20 Q1016=,SBGR
1676073600000,METAR SBKP 110000Z 10006KT 070V130 CAVOK 23/20 Q1016=,SBKP
1676077200000,METAR SBKP 110100Z 11005KT 080V140 CAVOK 21/19 Q1016=,SBKP
1676080800000,METAR SBKP 110200Z 11004KT CAVOK 21/19 Q1017=,SBKP
1676084400000,METAR SBKP 110300Z 09004KT 9999 FEW040 21/19 Q1016=,SBKP
1676088000000,METAR SBKP 110400Z 08004KT 9999 FEW040 SCT070 BKN100 20/19 Q1015=,SBKP
1676091600000,METAR SBKP 110500Z VRB02KT 9999 FEW040 SCT070 BKN100 20/19 Q1015=,SBKP
1676095200000,METAR SBKP 110600Z 35004KT 9999 VCSH SCT040 SCT070 21/19 Q1015=,SBKP
1676098800000,METAR SBKP 110700Z 20004KT 9999 VCSH SCT040 SCT070 21/19 Q1016=,SBKP
1676102400000,METAR SBKP 110800Z 15003KT 100V190 9999 SCT012 SCT040 21/19 Q1016=,SBKP
1676106000000,METAR SBKP 110900Z 12003KT 6000 BKN045 BKN070 20/19 Q1016=,SBKP
1676109600000,METAR SBKP 111000Z 12004KT 9999 SCT040 BKN100 21/19 Q1016=,SBKP
1676113200000,METAR SBKP 111100Z 10002KT 9999 SCT040 BKN100 21/20 Q1017=,SBKP
1676116800000,METAR SBKP 111200Z 02001KT 9999 SCT013 23/20 Q1018=,SBKP
1676120400000,METAR SBKP 111300Z 34004KT 9999 SCT017 24/20 Q1018=,SBKP
1676124000000,METAR SBKP 111400Z 35007KT 9999 BKN023 25/19 Q1018=,SBKP
1676127600000,METAR SBKP 111500Z 33008KT 9999 4000S SHRA BKN021 24/20 Q1017=,SBKP
1676131200000,METAR COR SBKP 111600Z 33011KT 9999 BKN021 25/19 Q1017 RESHRA=,SBKP
1676134800000,METAR SBKP 111700Z 34007KT 9999 BKN021 25/20 Q1016=,SBKP
1676138400000,METAR SBKP 111800Z 30007KT 9999 BKN019 25/20 Q1015=,SBKP
1676142000000,METAR SBKP 111900Z 34005KT 260V040 9999 SCT020 SCT100 25/20 Q1014=,SBKP
1676145600000,METAR SBKP 112000Z 27003KT 220V010 9999 SCT025 25/19 Q1014=,SBKP
1676149200000,METAR SBKP 112100Z 00000KT 9999 FEW030 26/19 Q1014=,SBKP
1676152800000,METAR SBKP 112200Z 10004KT 9999 FEW040 BKN100 25/19 Q1014=,SBKP
1676156400000,METAR SBKP 112300Z 09003KT CAVOK 24/20 Q1015=,SBKP
1676073600000,METAR SBPA 110000Z 10010KT CAVOK 26/22 Q1012=,SBPA
1676077200000,METAR SBPA 110100Z 10012KT 9999 FEW010 25/23 Q1013=,SBPA
1676080800000,METAR SBPA 110200Z 09011KT 9999 FEW005 24/23 Q1013=,SBPA
1676084400000,METAR SBPA 110300Z 10008KT 9999 FEW005 24/22 Q1012=,SBPA
1676088000000,METAR SBPA 110400Z 10004KT CAVOK 23/22 Q1012=,SBPA
1676091600000,METAR SBPA 110500Z 09002KT CAVOK 22/21 Q1011=,SBPA
1676095200000,METAR SBPA 110600Z VRB01KT CAVOK 22/21 Q1011=,SBPA
1676098800000,METAR SBPA 110700Z 00000KT CAVOK 21/20 Q1012=,SBPA
1676102400000,METAR SBPA 110800Z 07003KT CAVOK 20/20 Q1012=,SBPA
1676106000000,METAR SBPA 110900Z 08003KT 7000 FEW005 21/20 Q1012=,SBPA
1676109600000,METAR SBPA 111000Z 05003KT 020V080 9000 FEW005 22/21 Q1013=,SBPA
1676113200000,METAR SBPA 111100Z 06003KT 010V090 9000 FEW005 23/21 Q1014=,SBPA
1676116800000,METAR SBPA 111200Z 33004KT 290V070 9999 FEW024 26/20 Q1014=,SBPA
1676120400000,METAR SBPA 111300Z 32006KT 280V340 CAVOK 28/20 Q1013=,SBPA
1676124000000,METAR SBPA 111400Z 26006KT 150V320 CAVOK 29/20 Q1013=,SBPA
1676127600000,METAR SBPA 111500Z 31006KT 260V010 9999 FEW045 31/19 Q1012=,SBPA
1676131200000,METAR SBPA 111600Z VRB04KT CAVOK 33/18 Q1012=,SBPA
1676134800000,METAR SBPA 111700Z 21005KT 160V260 9999 FEW035 34/16 Q1011=,SBPA
1676138400000,METAR SBPA 111800Z 17009KT 140V250 9999 FEW040 35/18 Q1011=,SBPA
1676142000000,METAR SBPA 111900Z 13009KT 090V170 9999 FEW040 34/11 Q1010=,SBPA
1676145600000,METAR SBPA 112000Z 11009KT 090V160 9999 FEW040 34/13 Q1010=,SBPA
1676149200000,METAR SBPA 112100Z 12011KT 9999 FEW045 32/13 Q1011=,SBPA
1676152800000,METAR SBPA 112200Z 11012KT CAVOK 30/17 Q1011=,SBPA
1676156400000,METAR SBPA 112300Z 10012KT CAVOK 28/18 Q1011=,SBPA
1676073600000,METAR SBRF 110000Z 11007KT 9999 SCT025 28/21 Q1013=,SBRF
1676077200000,METAR SBRF 110100Z 13005KT 070V240 9999 SCT023 28/22 Q1013=,SBRF
1676080800000,METAR SBRF 110200Z 10005KT 060V160 9999 SCT023 28/22 Q1013=,SBRF
1676084400000,METAR SBRF 110300Z 11004KT 060V140 9999 BKN025 27/21 Q1012=,SBRF
1676088000000,METAR SBRF 110400Z 09005KT 050V150 9999 FEW025 SCT080 27/21 Q1011=,SBRF
1676091600000,METAR SBRF 110500Z 17004KT 120V220 9999 BKN023 26/22 Q1011=,SBRF
1676092200000,SPECI SBRF 110510Z 15009KT 4000 1600S +RA SCT015 BKN023 26/22 Q1011=,SBRF
1676092800000,SPECI SBRF 110520Z 14009KT 5000 -RA SCT015 BKN020 24/22 Q1011 RERA=,SBRF
1676095200000,METAR SBRF 110600Z 15007KT 7000 VCSH SCT015 BKN025 25/21 Q1010 RERA=,SBRF
1676098800000,METAR SBRF 110700Z 21003KT 170V290 9000 VCSH SCT015 SCT025 25/22 Q1011=,SBRF
1676102400000,METAR SBRF 110800Z 22003KT 9999 SCT025 24/22 Q1011=,SBRF
1676106000000,METAR SBRF 110900Z 26003KT 9999 SCT025 24/22 Q1011=,SBRF
1676109600000,METAR SBRF 111000Z 26002KT 9999 BKN025 25/22 Q1012=,SBRF
1676113200000,METAR SBRF 111100Z 22004KT 9999 BKN023 27/23 Q1012=,SBRF
1676116800000,METAR SBRF 111200Z 12007KT 9999 SCT023 29/22 Q1013=,SBRF
1676120400000,METAR SBRF 111300Z 12009KT 9999 BKN025 29/22 Q1013=,SBRF
1676124000000,METAR SBRF 111400Z 15010KT 9999 BKN025 29/22 Q1012=,SBRF
1676127600000,METAR SBRF 111500Z 10007KT 030V190 9999 SCT025 30/22 Q1012=,SBRF
1676131200000,METAR SBRF 111600Z 13009KT 9999 SCT025 30/23 Q1011=,SBRF
1676134800000,METAR SBRF 111700Z 13010KT 9999 SCT025 30/22 Q1010=,SBRF
1676138400000,METAR SBRF 111800Z 13009KT 080V170 9999 SCT025 29/22 Q1010=,SBRF
1676142000000,METAR SBRF 111900Z 13010KT 110V170 9999 SCT024 29/22 Q1010=,SBRF
1676145600000,METAR SBRF 112000Z 13009KT 090V160 9999 SCT024 28/22 Q1010=,SBRF
1676149200000,METAR SBRF 112100Z 12007KT 080V170 9999 SCT024 28/21 Q1011=,SBRF
1676152800000,METAR SBRF 112200Z 13005KT 070V220 9999 FEW025 27/21 Q1012=,SBRF
1676156400000,METAR SBRF 112300Z 14006KT 9999 SCT025 28/21 Q1012=,SBRF
1676073600000,METAR SBRJ 110000Z 34008KT 8000 -RA SCT010 BKN050 OVC100 24/22 Q1013 RETSRA=,SBRJ
1676077200000,METAR SBRJ 110100Z 32006KT 8000 -RA FEW010 BKN050 OVC100 24/22 Q1013=,SBRJ
1676080800000,METAR SBRJ 110200Z 35009KT 9000 -RA SCT009 BKN030 BKN100 24/22 Q1014=,SBRJ
1676084400000,METAR SBRJ 110300Z 35007KT 9999 SCT011 BKN100 24/22 Q1013=,SBRJ
1676088000000,METAR SBRJ 110400Z 34007KT 9999 SCT010 BKN100 24/22 Q1012=,SBRJ
1676091600000,METAR SBRJ 110500Z 02004KT 9999 FEW007 SCT010 BKN100 24/23 Q1011=,SBRJ
1676095200000,METAR SBRJ 110600Z 32005KT 9999 SCT010 BKN100 24/23 Q1011=,SBRJ
1676098800000,METAR SBRJ 110700Z 34007KT 9000 SCT008 BKN100 24/23 Q1011=,SBRJ
1676102400000,METAR SBRJ 110800Z 33005KT 9999 FEW007 SCT100 24/23 Q1011=,SBRJ
1676106000000,METAR SBRJ 110900Z VRB01KT 9999 FEW040 SCT080 24/23 Q1011=,SBRJ
1676109600000,METAR SBRJ 111000Z 35003KT 290V020 CAVOK 25/23 Q1012=,SBRJ
1676113200000,METAR SBRJ 111100Z 07003KT CAVOK 26/23 Q1012=,SBRJ
1676116800000,METAR SBRJ 111200Z 03002KT CAVOK 27/23 Q1013=,SBRJ
1676120400000,METAR SBRJ 111300Z VRB03KT CAVOK 27/22 Q1013=,SBRJ
1676124000000,METAR SBRJ 111400Z 14006KT CAVOK 27/23 Q1013=,SBRJ
1676127600000,METAR SBRJ 111500Z 15007KT CAVOK 27/23 Q1012=,SBRJ
1676131200000,METAR SBRJ 111600Z 16008KT 9999 FEW030 29/23 Q1011=,SBRJ
1676134800000,METAR SBRJ 111700Z 15009KT 9999 FEW030 28/23 Q1011=,SBRJ
1676138400000,METAR SBRJ 111800Z 14010KT 9999 FEW030 28/24 Q1010=,SBRJ
1676142000000,METAR SBRJ 111900Z 15012KT 9999 FEW030 28/24 Q1010=,SBRJ
1676145600000,METAR SBRJ 112000Z 16013KT 9999 FEW020 FEW030TCU SCT100 27/23 Q1010=,SBRJ
1676149200000,METAR SBRJ 112100Z 16013KT 9999 -RA VCTS FEW020 FEW030CB SCT080 27/23 Q1011=,SBRJ
1676150580000,SPECI SBRJ 112123Z 18012KT 9000 -TSRA SCT020 FEW030CB BKN080 26/24 Q1011=,SBRJ
1676152800000,METAR SBRJ 112200Z 21004KT 140V270 9000 -TSRA SCT014 FEW030CB BKN100 26/24 Q1012=,SBRJ
1676153400000,SPECI SBRJ 112210Z 28002KT 6000 TSRA BKN014 FEW030CB BKN100 26/23 Q1012=,SBRJ
1676156400000,METAR SBRJ 112300Z 01011KT 6000 TSRA BKN010 FEW030CB BKN100 24/22 Q1013=,SBRJ
1676156580000,SPECI SBRJ 112303Z 05012KT 3000 +TSRA BR BKN010 FEW030CB OVC100 23/23 Q1014 RERA=,SBRJ
1676157780000,SPECI SBRJ 112323Z 24005KT 5000 TSRA BR BKN010 FEW030CB OVC060 22/22 Q1013 RERA=,SBRJ
1676158500000,SPECI SBRJ 112335Z 20007KT 5000 -TSRA BR BKN010 FEW030CB OVC060 23/22 Q1013 RERA=,SBRJ
1676073600000,METAR SBSP 110000Z 07006KT 040V110 9000 -RA SCT012 BKN080 21/18 Q1018=,SBSP
1676077200000,METAR SBSP 110100Z 06007KT 030V090 9999 FEW012 BKN080 21/18 Q1018=,SBSP
1676080800000,METAR SBSP 110200Z 06005KT 020V110 9999 FEW012 BKN080 21/18 Q1018=,SBSP
1676080860000,SPECI SBSP 110201Z 05005KT 010V090 CAVOK 21/18 Q1018=,SBSP
1676084400000,METAR SBSP 110300Z AUTO 06006KT 030V090 CAVOK 21/17 Q1017=,SBSP
1676088000000,METAR SBSP 110400Z AUTO 06007KT 020V090 CAVOK 20/16 Q1017=,SBSP
1676091600000,METAR SBSP 110500Z AUTO 11004KT CAVOK 20/17 Q1017=,SBSP
1676095200000,METAR SBSP 110600Z AUTO 12003KT 090V150 CAVOK 20/17 Q1016=,SBSP
1676098800000,METAR SBSP 110700Z AUTO VRB01KT CAVOK 20/17 Q1017=,SBSP
1676102400000,METAR SBSP 110800Z AUTO 34003KT CAVOK 20/17 Q1017=,SBSP
1676106000000,METAR SBSP 110900Z 02003KT 340V060 9999 FEW015 OVC070 21/18 Q1017=,SBSP
1676109600000,METAR SBSP 111000Z 01003KT 340V040 9000 -RA FEW015 OVC070 21/18 Q1018=,SBSP
1676113200000,METAR SBSP 111100Z 03004KT 9000 FEW025 BKN100 21/18 Q1018=,SBSP
1676116800000,METAR SBSP 111200Z 33004KT 280V020 9000 FEW017 BKN100 23/19 Q1019=,SBSP
1676120400000,METAR SBSP 111300Z 32008KT 290V360 9999 SCT017 BKN100 24/18 Q1019=,SBSP
1676124000000,METAR SBSP 111400Z 32011KT 300V360 9999 SCT025 BKN100 25/18 Q1019=,SBSP
1676127600000,METAR SBSP 111500Z 32012KT 9000 BKN025 OVC100 25/18 Q1018=,SBSP
1676131200000,METAR SBSP 111600Z 31008KT 260V350 9000 BKN020 BKN080 25/19 Q1017=,SBSP
1676131800000,SPECI SBSP 111610Z 31011KT 270V350 3000 -RA HZ BKN017 OVC070 24/19 Q1017=,SBSP
1676134800000,METAR SBSP 111700Z 29007KT 260V350 5000 -RA BR SCT011 BKN015 OVC033 22/20 Q1017=,SBSP
1676136300000,SPECI SBSP 111725Z 29006KT 240V340 9000 -RA SCT015 FEW045TCU OVC050 22/20 Q1017=,SBSP
1676138400000,METAR SBSP 111800Z 32005KT 280V350 9000 -RA FEW013 BKN036 BKN083 22/20 Q1017=,SBSP
1676142000000,METAR SBSP 111900Z 27005KT 210V310 5000 RA BR BKN009 OVC040 21/19 Q1017=,SBSP
1676142900000,SPECI SBSP 111915Z 23005KT 200V260 6000 -RA SCT009 BKN050 BKN066 21/19 Q1017 RERA=,SBSP
1676145600000,METAR SBSP 112000Z 17004KT 130V210 9999 FEW008 BKN083 21/19 Q1016 RERA=,SBSP
1676149200000,METAR SBSP 112100Z 12004KT 9999 SCT011 BKN100 22/19 Q1016=,SBSP
1676152800000,METAR SBSP 112200Z 11004KT 9999 FEW011 BKN083 21/19 Q1016=,SBSP
1676156400000,METAR SBSP 112300Z 11004KT 080V140 9999 FEW011 BKN017 OVC066 21/19 Q1017=,SBSP
1676073600000,METAR SBSV 110000Z 09010KT 9999 FEW023 28/24 Q1013=,SBSV
1676077200000,METAR SBSV 110100Z 10010KT 9999 FEW023 28/24 Q1013=,SBSV
1676080800000,METAR SBSV 110200Z 08011KT 9999 FEW023 28/24 Q1013=,SBSV
1676084400000,METAR SBSV 110300Z 08010KT 9999 SCT020 28/23 Q1013=,SBSV
1676088000000,METAR SBSV 110400Z 08008KT 9999 SCT020 28/24 Q1013=,SBSV
1676091600000,METAR SBSV 110500Z 08008KT 9999 SCT020 28/23 Q1012=,SBSV
1676095200000,METAR SBSV 110600Z 07005KT 9999 SCT020 27/25 Q1012=,SBSV
1676098800000,METAR SBSV 110700Z 09005KT 9999 SCT020 27/24 Q1012=,SBSV
1676102400000,METAR SBSV 110800Z 09007KT 9999 SCT020 27/23 Q1012=,SBSV
1676106000000,METAR SBSV 110900Z 04006KT 9999 SCT020 26/23 Q1013=,SBSV
1676109600000,METAR SBSV 111000Z 36003KT 9999 SCT020 27/24 Q1013=,SBSV
1676113200000,METAR SBSV 111100Z 07008KT 9999 SCT020 29/24 Q1014=,SBSV
1676116800000,METAR SBSV 111200Z 10007KT 9999 SCT020 30/24 Q1014=,SBSV
1676120400000,METAR SBSV 111300Z 08010KT 9999 SCT020 30/23 Q1014=,SBSV
1676124000000,METAR SBSV 111400Z 09010KT 9999 SCT020 31/23 Q1014=,SBSV
1676127600000,METAR SBSV 111500Z 09010KT 9999 SCT020 31/23 Q1014=,SBSV
1676131200000,METAR SBSV 111600Z 10010KT 9999 SCT020 31/23 Q1013=,SBSV
1676134800000,METAR SBSV 111700Z 11011KT 9999 SCT020 31/24 Q1012=,SBSV
1676138400000,METAR SBSV 111800Z 11008KT 070V160 9999 SCT023 30/24 Q1011=,SBSV
1676142000000,METAR SBSV 111900Z 18008KT 150V210 9999 VCSH BKN025 FEW028TCU 27/24 Q1011=,SBSV
1676145600000,METAR SBSV 112000Z 14005KT 090V170 9999 VCSH SCT023 FEW028TCU BKN031 27/22 Q1012=,SBSV
1676149200000,METAR SBSV 112100Z 13006KT 9999 SCT020 FEW023TCU BKN050 28/23 Q1012=,SBSV
1676152800000,METAR SBSV 112200Z 11004KT 9999 FEW020 BKN070 28/23 Q1012=,SBSV
1676156400000,METAR SBSV 112300Z 13004KT 9999 FEW023 SCT090 27/23 Q1013=,SBSV
