hora,metar,aero
1671494400000,METAR SBBR 200000Z 32008KT 280V340 9999 VCTS SCT013 FEW045CB BKN080 21/18 Q1016=,SBBR
1671498000000,METAR SBBR 200100Z VRB05G15KT 9999 SCT015 FEW045TCU BKN080 21/18 Q1017=,SBBR
1671501600000,METAR SBBR 200200Z 36003KT 330V040 9999 BKN014 FEW045TCU BKN100 20/18 Q1017=,SBBR
1671505200000,METAR SBBR 200300Z 33003KT CAVOK 20/18 Q1016=,SBBR
1671507000000,SPECI SBBR 200330Z 36003KT 9999 BKN005 BKN100 20/18 Q1016=,SBBR
1671508800000,METAR SBBR 200400Z 35005KT 9999 BKN007 BKN100 20/18 Q1016=,SBBR
1671512400000,METAR SBBR 200500Z 35005KT 320V020 9999 BKN007 BKN100 20/18 Q1015=,SBBR
1671516000000,METAR SBBR 200600Z 35006KT 9999 BKN007 BKN100 20/18 Q1015=,SBBR
1671519600000,METAR SBBR 200700Z 34007KT 9999 BKN007 BKN100 20/17 Q1015=,SBBR
1671523200000,METAR SBBR 200800Z 34007KT 9999 BKN007 BKN100 20/17 Q1015=,SBBR
1671526800000,METAR SBBR 200900Z 34005KT 310V010 9999 FEW010 BKN100 19/17 Q1015=,SBBR
1671530400000,METAR SBBR 201000Z 34008KT 9999 FEW010 BKN100 20/17 Q1016=,SBBR
1671531000000,SPECI SBBR 201010Z 34011KT 9999 BKN013 BKN100 21/17 Q1016=,SBBR
1671534000000,METAR SBBR 201100Z 34011KT 9999 BKN013 BKN100 21/17 Q1016=,SBBR
1671537600000,METAR SBBR 201200Z 34011KT 9999 BKN020 BKN100 22/17 Q1017=,SBBR
1671541200000,METAR SBBR 201300Z 32016KT 9999 BKN020 FEW025TCU BKN100 23/17 Q1017=,SBBR
1671544800000,METAR SBBR 201400Z 32017G27KT 9999 BKN020 FEW025TCU BKN100 23/17 Q1017=,SBBR
1671548400000,METAR SBBR 201500Z 32015KT 8000 VCSH BKN020 FEW025TCU BKN100 23/17 Q1017=,SBBR
1671549180000,SPECI SBBR 201513Z 34016G26KT 2500 -SHRA BKN020 FEW025TCU BKN100 21/18 Q1017=,SBBR
1671552000000,METAR SBBR 201600Z 32009KT 5000 -RA BKN013 FEW020TCU BKN070 21/19 Q1017=,SBBR
1671555600000,METAR SBBR 201700Z 33012KT 8000 -RA VCSH BKN015 FEW020TCU BKN070 22/18 Q1016=,SBBR
1671557940000,SPECI SBBR 201739Z 33013KT 300V360 2000 -RA BKN013 BKN080 21/19 Q1015=,SBBR
1671559200000,METAR SBBR 201800Z 33010KT 290V010 9999 FEW011 BKN016 BKN080 23/20 Q1015=,SBBR
1671562800000,METAR SBBR 201900Z 32014KT 300V360 9999 BKN017 FEW020TCU BKN100 23/18 Q1014=,SBBR
1671566400000,METAR SBBR 202000Z 30012KT 9999 BKN020 FEW030TCU BKN100 22/17 Q1014=,SBBR
1671570000000,METAR SBBR 202100Z 32011KT 9999 BKN020 FEW030TCU BKN100 22/17 Q1014=,SBBR
1671573600000,METAR SBBR 202200Z 32010KT 9999 BKN020 FEW030TCU BKN100 22/16 Q1015=,SBBR
1671577200000,METAR SBBR 202300Z 34007KT 310V010 9999 FEW030 SCT100 21/16 Q1016=,SBBR
1671494400000,METAR SBCF 200000Z 04003KT 3000 -RA BR FEW013 BKN030 OVC070 20/19 Q1016=,SBCF
1671496200000,SPECI SBCF 200030Z 34003KT 2000 RA BR FEW002 BKN028 BKN040 20/19 Q1016=,SBCF
1671498000000,METAR SBCF 200100Z 07002KT 3000 -RA BR SCT003 BKN013 BKN033 20/19 Q1016 RERA=,SBCF
1671501600000,METAR SBCF 200200Z 13002KT 3000 -RA BCFG FEW013 BKN035 OVC080 20/19 Q1016=,SBCF
1671505200000,METAR SBCF 200300Z 06003KT 8000 -RA BCFG SCT019 BKN035 BKN050 20/19 Q1015=,SBCF
1671508800000,METAR SBCF 200400Z 16002KT 4000 -RA BCFG FEW001 BKN030 BKN050 20/19 Q1014=,SBCF
1671512400000,METAR SBCF 200500Z 00000KT 4000 -RA BCFG BKN018 BKN035 20/19 Q1014=,SBCF
1671516000000,METAR SBCF 200600Z 16001KT 4000 -RA BCFG SCT013 OVC023 20/19 Q1013=,SBCF
1671516420000,SPECI SBCF 200607Z 00000KT 4000 -RA BCFG BKN011 OVC023 20/19 Q1013=,SBCF
1671519600000,METAR SBCF 200700Z 05004KT 3000 -RA BR SCT001 BKN015 BKN030 20/19 Q1013=,SBCF
1671523200000,METAR SBCF 200800Z 12002KT 4000 -RA BCFG FEW002 SCT017 BKN035 20/19 Q1013=,SBCF
1671523860000,SPECI SBCF 200811Z 04002KT 2000 RA BR FEW004 SCT017 OVC035 20/19 Q1013=,SBCF
1671525000000,SPECI SBCF 200830Z 01003KT 1000 R16R/1100D R34L/P2000 +RA BR FEW007 BKN017 OVC025 20/19 Q1014 RERA=,SBCF
1671526800000,METAR SBCF 200900Z 33007KT 1000 R16R/1300 R34L/P2000 RA BR SCT002 BKN010 OVC021 20/19 Q1014 RERA=,SBCF
1671527700000,SPECI SBCF 200915Z 32004KT 2000 RA BR BKN006 BKN015 OVC021 20/19 Q1014=,SBCF
1671529500000,SPECI SBCF 200945Z 34011KT 3000 RA BR BKN006 BKN015 OVC021 19/18 Q1015=,SBCF
1671530400000,METAR SBCF 201000Z 34012KT 3000 -RA BR BKN008 OVC070 19/18 Q1015 RERA=,SBCF
1671531840000,SPECI SBCF 201024Z 34013KT 3000 -RA BR FEW004 SCT008 OVC070 19/18 Q1015=,SBCF
1671532980000,SPECI SBCF 201043Z 34011KT 3000 -RA BKN004 BKN030 OVC070 19/18 Q1015=,SBCF
1671534000000,METAR SBCF 201100Z 35010KT 3000 -RA BR BKN003 BKN030 OVC070 19/18 Q1016=,SBCF
1671535680000,SPECI SBCF 201128Z 36009KT 1400 R16R/P2000 R34L/P2000 -RA BR BKN003 BKN030 OVC070 19/18 Q1016=,SBCF
1671537600000,METAR SBCF 201200Z 36009KT 1200 R16R/P2000 R34L/P2000 -RA BR BKN002 BKN030 OVC070 18/18 Q1016=,SBCF
1671538500000,SPECI SBCF 201215Z 36010KT 2000 -RA BR BKN003 BKN030 OVC070 19/18 Q1016=,SBCF
1671541200000,METAR SBCF 201300Z 35008KT 3000 -RA BR BKN003 BKN030 OVC070 20/19 Q1016=,SBCF
1671544800000,METAR SBCF 201400Z 34010KT 4000 -RA BR BKN004 BKN025 OVC070 20/19 Q1016=,SBCF
1671548400000,METAR SBCF 201500Z 34010KT 7000 -RA BKN006 OVC070 20/19 Q1015=,SBCF
1671552000000,METAR SBCF 201600Z 35009KT 9000 -RA BKN007 OVC070 21/20 Q1014=,SBCF
1671555600000,METAR SBCF 201700Z 35010KT 9000 VCSH BKN012 OVC070 23/20 Q1013=,SBCF
1671559200000,METAR SBCF 201800Z 35012KT 4000 -RA BKN012 BKN035 23/20 Q1012=,SBCF
1671561420000,SPECI SBCF 201837Z 34010KT 8000 BKN012 BKN035 23/20 Q1011=,SBCF
1671562800000,METAR SBCF 201900Z 34009KT 8000 -RA BKN013 BKN035 23/20 Q1011=,SBCF
1671566400000,METAR SBCF 202000Z 34011KT 5000 -RA BKN012 BKN035 22/20 Q1011=,SBCF
1671570000000,METAR SBCF 202100Z 35010KT 6000 -RA BKN012 BKN035 21/19 Q1012=,SBCF
1671573600000,METAR SBCF 202200Z 35010KT 8000 BKN012 BKN035 21/20 Q1013=,SBCF
1671577200000,METAR SBCF 202300Z 35010KT 8000 -RA BKN002 BKN060 21/19 Q1013=,SBCF
1671494400000,METAR SBCT 200000Z 12004KT 9999 -DZ SCT004 OVC008 16/16 Q1017=,SBCT
1671498000000,METAR COR SBCT 200100Z 14002KT 9999 SCT005 OVC010 16/16 Q1017=,SBCT
1671501600000,METAR SBCT 200200Z 07005KT 9999 OVC006 17/17 Q1018=,SBCT
1671505200000,METAR SBCT 200300Z 11001KT 9999 BKN005 16/16 Q1017=,SBCT
1671508800000,METAR SBCT 200400Z 14002KT 9999 BKN005 OVC010 16/16 Q1016=,SBCT
1671512400000,METAR SBCT 200500Z 10002KT 9999 BKN006 OVC010 16/16 Q1016=,SBCT
1671516000000,METAR SBCT 200600Z 08004KT 9999 FEW003 BKN010 16/16 Q1015=,SBCT
1671519600000,METAR SBCT 200700Z 13003KT 9999 FEW003 BKN010 16/16 Q1014=,SBCT
1671523200000,METAR SBCT 200800Z 17004KT 9999 SCT003 BKN009 16/16 Q1015=,SBCT
1671526800000,METAR SBCT 200900Z 17004KT 8000 OVC006 16/16 Q1015=,SBCT
1671528000000,SPECI SBCT 200920Z 17005KT 3000 -DZ BR SCT003 OVC007 17/17 Q1015=,SBCT
1671530400000,METAR SBCT 201000Z 22005KT 180V270 2500 -DZ BR OVC004 17/17 Q1016=,SBCT
1671534000000,METAR SBCT 201100Z 18006KT 6000 -DZ OVC003 17/17 Q1016=,SBCT
1671537600000,METAR SBCT 201200Z 18010KT 2500 -RA OVC005 17/17 Q1017=,SBCT
1671541200000,METAR SBCT 201300Z 18010KT 7000 -RA OVC006 17/17 Q1017=,SBCT
1671544800000,METAR SBCT 201400Z 17013KT 9999 OVC009 18/17 Q1017=,SBCT
1671548400000,METAR SBCT 201500Z 14011KT 9999 OVC011 19/17 Q1017=,SBCT
1671552000000,METAR SBCT 201600Z 14012KT 9999 -DZ BKN008 BKN030 18/18 Q1017=,SBCT
1671555600000,METAR SBCT 201700Z 15014KT 4000 -RA OVC008 17/17 Q1017=,SBCT
1671559200000,METAR SBCT 201800Z 12010KT 100V160 4000 -RA BKN007 OVC011 17/17 Q1017=,SBCT
1671562800000,METAR SBCT 201900Z 12013KT 7000 BKN013 BKN030 18/17 Q1016=,SBCT
1671566400000,METAR SBCT 202000Z 12013KT 100V160 9000 BKN013 BKN080 17/16 Q1016=,SBCT
1671570000000,METAR SBCT 202100Z 12012KT 7000 BKN010 BKN080 17/15 Q1016=,SBCT
1671573600000,METAR SBCT 202200Z 12009KT 080V140 4000 -RA BKN007 OVC014 16/16 Q1017=,SBCT
1671577200000,METAR SBCT 202300Z 12009KT 100V160 9000 BKN008 BKN012 15/15 Q1017=,SBCT
1671494400000,METAR SBFL 200000Z 09012KT 070V130 2000 +RA BKN007 OVC016 21/21 Q1016 RERA=,SBFL
1671498000000,METAR SBFL 200100Z 07015KT 2000 R14/1500 R32/1500 +RA BKN007 OVC016 21/21 Q1016=,SBFL
1671501600000,METAR SBFL 200200Z 04015KT 2000 RA BKN007 OVC016 21/21 Q1015 RERA=,SBFL
1671505200000,METAR SBFL 200300Z 03008KT 2500 +RA BKN007 OVC016 20/20 Q1015 RERA=,SBFL
1671508800000,METAR SBFL 200400Z 30006KT 2000 +RA BKN007 OVC016 21/21 Q1015=,SBFL
1671512400000,METAR SBFL 200500Z 07016KT 2000 +RA BKN007 OVC016 20/20 Q1014=,SBFL
1671516000000,METAR SBFL 200600Z 09012KT 2000 +RA BKN007 OVC016 20/20 Q1014=,SBFL
1671519600000,METAR SBFL 200700Z 14008KT 2000 RA BKN007 OVC016 20/20 Q1014 RERA=,SBFL
1671523200000,METAR SBFL 200800Z 14002KT 0200 RA BKN007 OVC016 20/20 Q1015 RERA=,SBFL
1671524580000,SPECI SBFL 200823Z 17003KT 4000 RA BKN007 OVC016 20/20 Q1015=,SBFL
1671526800000,METAR SBFL 200900Z 12005KT 4000 RA BKN007 OVC016 20/20 Q1015=,SBFL
1671530400000,METAR SBFL 201000Z 10010KT 4000 RA BKN008 OVC016 20/20 Q1015=,SBFL
1671534000000,METAR SBFL 201100Z 10010KT 3000 RA BKN007 OVC016 20/20 Q1015=,SBFL
1671537600000,METAR SBFL 201200Z 13004KT 3000 RA BKN009 OVC016 20/20 Q1016=,SBFL
1671541200000,METAR SBFL 201300Z 18005KT 3500 -RA BKN009 OVC016 20/20 Q1016 RERA=,SBFL
1671544800000,METAR SBFL 201400Z 09007KT 3500 -RA BKN009 OVC016 21/21 Q1016=,SBFL
1671548400000,METAR SBFL 201500Z 10009KT 4000 -RA BKN009 OVC016 21/21 Q1016=,SBFL
1671552000000,METAR SBFL 201600Z 10012KT 4000 -DZ BKN009 OVC017 21/21 Q1016=,SBFL
1671555600000,METAR SBFL 201700Z 11012KT 5000 -SHRA BKN012 BKN020 OVC080 22/21 Q1015=,SBFL
1671559200000,METAR SBFL 201800Z 10009KT 8000 -RA BKN010 BKN020 OVC070 22/20 Q1015=,SBFL
1671562800000,METAR SBFL 201900Z 14005KT 080V170 7000 3000S -RA BKN010 BKN020 OVC070 22/20 Q1015=,SBFL
1671566400000,METAR SBFL 202000Z 09006KT 9999 BKN010 BKN025 OVC070 21/20 Q1015=,SBFL
1671570000000,METAR SBFL 202100Z 10003KT 9999 BKN012 BKN030 OVC080 21/20 Q1015=,SBFL
1671573600000,METAR SBFL 202200Z 16002KT 6000 BKN008 BKN030 OVC080 21/21 Q1015=,SBFL
1671577200000,METAR SBFL 202300Z 13007KT 4000 RA BKN008 BKN025 OVC070 20/20 Q1016=,SBFL
1671578880000,SPECI SBFL 202328Z VRB02KT 5000 -RA BKN008 BKN025 OVC070 20/20 Q1016 RERA=,SBFL
1671494400000,METAR SBGL 200000Z 10010KT 9999 FEW020 BKN060 22/18 Q1014=,SBGL
1671498000000,METAR SBGL 200100Z 10011KT 070V130 9999 FEW020 BKN060 22/18 Q1014=,SBGL
1671501600000,METAR SBGL 200200Z 10011KT 9999 FEW020 BKN060 22/18 Q1014=,SBGL
1671505200000,METAR SBGL 200300Z 08009KT 6000 -RA FEW020 SCT040 OVC055 21/19 Q1013=,SBGL
1671508800000,METAR SBGL 200400Z 11008KT 8000 -RA SCT018 BKN040 OVC070 21/19 Q1012=,SBGL
1671512400000,METAR SBGL 200500Z 15006KT 110V170 6000 -RA FEW009 BKN018 21/19 Q1012=,SBGL
1671516000000,METAR SBGL 200600Z 14005KT 6000 -RA FEW007 BKN015 OVC050 20/19 Q1011=,SBGL
1671518880000,SPECI SBGL 200648Z 12007KT 6000 -RA BKN006 BKN010 21/20 Q1011=,SBGL
1671519600000,METAR SBGL 200700Z 12006KT 6000 -RA SCT005 BKN010 21/20 Q1011=,SBGL
1671523200000,METAR SBGL 200800Z 11005KT 090V150 5000 -RA BR FEW005 BKN010 OVC030 21/20 Q1011=,SBGL
1671523860000,SPECI SBGL 200811Z 12005KT 3500 -RA BR SCT005 BKN010 OVC030 21/20 Q1011=,SBGL
1671526800000,METAR SBGL 200900Z 13006KT 3500 -RA BR SCT004 BKN009 OVC025 21/20 Q1011=,SBGL
1671530400000,METAR SBGL 201000Z 14005KT 3500 -RA BR SCT004 BKN008 21/20 Q1012=,SBGL
1671534000000,METAR SBGL 201100Z 13006KT 3000 RA BR SCT009 BKN023 OVC030 21/20 Q1012=,SBGL
1671537600000,METAR SBGL 201200Z 12010KT 6000 -RA FEW005 BKN006 OVC016 21/20 Q1012 RERA=,SBGL
1671538140000,SPECI SBGL 201209Z 13012KT 4000 -RA BR FEW006 BKN008 OVC020 21/20 Q1013=,SBGL
1671541200000,METAR SBGL 201300Z 14012KT 4000 -RA BR SCT008 BKN040 OVC050 21/19 Q1013=,SBGL
1671544800000,METAR SBGL 201400Z 14011KT 8000 FEW008 SCT040 OVC060 20/18 Q1012=,SBGL
1671548400000,METAR SBGL 201500Z 14005KT 6000 -RA SCT007 BKN060 OVC070 21/19 Q1012=,SBGL
1671549960000,SPECI SBGL 201526Z 14004KT 4000 -RA BR SCT007 BKN035 OVC090 20/19 Q1011=,SBGL
1671552000000,METAR SBGL 201600Z 20002KT 5000 -RA BR SCT007 BKN030 OVC035 21/20 Q1011=,SBGL
1671555600000,METAR SBGL 201700Z 29006KT 6000 SCT007 BKN013 OVC020 22/20 Q1010=,SBGL
1671559200000,METAR SBGL 201800Z 25010KT 6000 SCT007 BKN013 OVC020 22/20 Q1009=,SBGL
1671562800000,METAR SBGL 201900Z 29010KT 6000 BKN010 OVC020 22/20 Q1008=,SBGL
1671566400000,METAR SBGL 202000Z 27010KT 6000 VCSH BKN010 OVC020 22/20 Q1008=,SBGL
1671570000000,METAR SBGL 202100Z 27010KT 6000 BKN013 OVC020 22/20 Q1008=,SBGL
1671573600000,METAR COR SBGL 202200Z 27011KT 6000 BKN009 OVC020 22/20 Q1008=,SBGL
1671577200000,METAR SBGL 202300Z 29012KT 7000 SCT008 BKN009 OVC020 21/20 Q1009=,SBGL
1671494400000,METAR SBGR 200000Z 12005KT 8000 -RA OVC008 18/18 Q1016=,SBGR
1671498000000,METAR SBGR 200100Z 10005KT 8000 -RA SCT006 OVC008 18/18 Q1016=,SBGR
1671501600000,METAR SBGR 200200Z 10007KT 8000 -RA BKN008 OVC011 18/17 Q1016=,SBGR
1671505200000,METAR SBGR 200300Z 09005KT 9999 OVC008 18/17 Q1016=,SBGR
1671508800000,METAR SBGR 200400Z 07007KT 9999 SCT009 OVC011 18/17 Q1015=,SBGR
1671512400000,METAR SBGR 200500Z 08007KT 9999 OVC010 17/17 Q1014=,SBGR
1671516000000,METAR SBGR 200600Z 07007KT 9999 OVC009 18/17 Q1014=,SBGR
1671519600000,METAR SBGR 200700Z 08007KT 9999 OVC010 17/17 Q1014=,SBGR
1671523200000,METAR SBGR 200800Z 06006KT 8000 OVC009 17/17 Q1013=,SBGR
1671526800000,METAR SBGR 200900Z 07007KT 9000 OVC007 17/17 Q1014=,SBGR
1671530400000,METAR SBGR 201000Z 07006KT 020V100 9999 OVC007 18/17 Q1014=,SBGR
1671534000000,METAR SBGR 201100Z 07008KT 9999 BKN008 18/17 Q1014=,SBGR
1671537600000,METAR SBGR 201200Z 06011KT 9999 BKN009 BKN032 19/17 Q1015=,SBGR
1671541200000,METAR SBGR 201300Z 06012KT 9999 BKN011 BKN030 20/17 Q1014=,SBGR
1671544800000,METAR SBGR 201400Z 08008KT 9999 BKN013 20/17 Q1014=,SBGR
1671548400000,METAR SBGR 201500Z 07009KT 5000 -DZ BR BKN009 20/18 Q1014=,SBGR
1671552000000,METAR SBGR 201600Z 11007KT 9999 BKN013 21/18 Q1013=,SBGR
1671555600000,METAR SBGR 201700Z 07006KT 9999 OVC013 20/18 Q1013=,SBGR
1671559200000,METAR SBGR 201800Z 14003KT 6000 -DZ BKN013 OVC025 20/19 Q1012=,SBGR
1671562800000,METAR SBGR 201900Z 09006KT 9999 BKN011 OVC025 22/19 Q1012=,SBGR
1671566400000,METAR SBGR 202000Z 13005KT 9999 BKN011 OVC025 21/18 Q1012=,SBGR
1671570000000,METAR SBGR 202100Z 14006KT 8000 OVC011 20/18 Q1012=,SBGR
1671573600000,METAR SBGR 202200Z 17007KT 9999 OVC009 19/18 Q1013=,SBGR
1671577200000,METAR SBGR 202300Z 15005KT 9999 OVC009 19/18 Q1014=,SBGR
1671494400000,METAR SBKP 200000Z 12012KT 9999 SCT040 BKN070 20/18 Q1014=,SBKP
1671498000000,METAR SBKP 200100Z 12010KT 9000 -RA SCT040 BKN070 OVC100 20/18 Q1015=,SBKP
1671501600000,METAR SBKP 200200Z 13010KT 9999 FEW040 OVC100 20/18 Q1014=,SBKP
1671505200000,METAR SBKP 200300Z 12012KT 9999 FEW040 SCT070 OVC090 20/18 Q1014=,SBKP
1671508800000,METAR SBKP 200400Z 12011KT 9000 -RA BKN030 BKN070 19/18 Q1013=,SBKP
1671512400000,METAR SBKP 200500Z 14009KT 9000 -RA BKN030 BKN070 19/18 Q1013=,SBKP
1671516000000,METAR SBKP 200600Z 12011KT 9999 FEW030 SCT080 19/17 Q1012=,SBKP
1671519600000,METAR SBKP 200700Z 12009KT 9999 -RA NSC 19/17 Q1012=,SBKP
1671523200000,METAR SBKP 200800Z 14010KT CAVOK 19/17 Q1012=,SBKP
1671526800000,METAR SBKP 200900Z 12009KT CAVOK 19/17 Q1012=,SBKP
1671530400000,METAR SBKP 201000Z 12010KT 9999 SCT045 BKN070 19/17 Q1012=,SBKP
1671534000000,METAR SBKP 201100Z 11008KT 080V140 9999 FEW045 BKN070 20/18 Q1013=,SBKP
1671537600000,METAR SBKP 201200Z 14007KT 110V180 CAVOK 22/18 Q1013=,SBKP
1671541200000,METAR SBKP 201300Z 13005KT 110V180 9999 SCT035 BKN070 23/19 Q1013=,SBKP
1671544800000,METAR SBKP 201400Z VRB04KT 9999 FEW025 SCT040 BKN070 25/19 Q1012=,SBKP
1671548400000,METAR SBKP 201500Z 23006KT 150V280 9999 SCT025 BKN030 26/19 Q1012=,SBKP
1671552000000,METAR SBKP 201600Z 22008KT 180V250 9999 SCT030 SCT040 BKN080 26/19 Q1011=,SBKP
1671555600000,METAR SBKP 201700Z 22011KT 190V250 9999 SCT025 FEW030TCU BKN080 27/19 Q1011=,SBKP
1671559200000,METAR SBKP 201800Z 21015KT 9999 SCT025 27/19 Q1010=,SBKP
1671562800000,METAR SBKP 201900Z 19014KT 9999 SCT030 FEW040TCU BKN070 27/15 Q1010=,SBKP
1671566400000,METAR SBKP 202000Z 19014KT 9999 FEW030 SCT035TCU BKN080 26/18 Q1010=,SBKP
1671570000000,METAR SBKP 202100Z 19014KT 9999 VCSH FEW030 SCT035TCU BKN080 25/18 Q1010=,SBKP
1671573600000,METAR SBKP 202200Z 19015KT 9999 BKN035 FEW035TCU SCT080 23/18 Q1011=,SBKP
1671577200000,METAR SBKP 202300Z 19009KT 9999 BKN030 SCT080 22/18 Q1012=,SBKP
1671494400000,METAR SBPA 200000Z 10019G29KT 9999 FEW040TCU BKN070 21/17 Q1014=,SBPA
1671498000000,METAR SBPA 200100Z 10015KT 9999 FEW040TCU BKN070 21/17 Q1015=,SBPA
1671501600000,METAR SBPA 200200Z 09014KT 9999 FEW040 BKN080 21/16 Q1015=,SBPA
1671505200000,METAR SBPA 200300Z 09012KT 9999 FEW040 BKN080 21/17 Q1014=,SBPA
1671508800000,METAR SBPA 200400Z 10009KT 9999 FEW040 21/17 Q1014=,SBPA
1671512400000,METAR SBPA 200500Z 12009KT 9999 FEW040 21/17 Q1014=,SBPA
1671516000000,METAR SBPA 200600Z 12010KT 9999 FEW010 20/18 Q1013=,SBPA
1671519600000,METAR SBPA 200700Z 11008KT 9999 FEW030 20/18 Q1013=,SBPA
1671523200000,METAR SBPA 200800Z 10008KT 9999 FEW010 BKN080 20/18 Q1014=,SBPA
1671526800000,METAR SBPA 200900Z 11007KT 9999 VCSH FEW010 BKN080 20/18 Q1014=,SBPA
1671530400000,METAR SBPA 201000Z 11010KT 9999 VCSH FEW010 BKN070 21/19 Q1015=,SBPA
1671534000000,METAR SBPA 201100Z 11008KT 9999 VCSH FEW015 BKN070 22/19 Q1015=,SBPA
1671537600000,METAR SBPA 201200Z 09010KT 060V120 9999 SCT015 BKN070 25/19 Q1016=,SBPA
1671541200000,METAR SBPA 201300Z 07007KT 020V100 9999 SCT025 SCT070 26/18 Q1015=,SBPA
1671544800000,METAR SBPA 201400Z 09009KT 060V150 9999 BKN030 BKN070 27/18 Q1015=,SBPA
1671548400000,METAR SBPA 201500Z 12010KT 080V150 9999 BKN035 BKN090 27/18 Q1015=,SBPA
1671552000000,METAR SBPA 201600Z 11010KT 090V150 9999 BKN035 BKN080 27/19 Q1015=,SBPA
1671555600000,METAR SBPA 201700Z 12011G25KT 070V150 9999 BKN036 FEW040TCU SCT090 28/19 Q1014=,SBPA
1671559200000,METAR SBPA 201800Z 13012KT 090V170 9999 BKN036 FEW040TCU 28/18 Q1014=,SBPA
1671562800000,METAR SBPA 201900Z 11014KT 090V150 9999 BKN030 27/19 Q1013=,SBPA
1671566400000,METAR SBPA 202000Z 12015KT 9999 BKN026 25/19 Q1014=,SBPA
1671570000000,METAR SBPA 202100Z 11016KT 9999 SCT026 25/18 Q1014=,SBPA
1671573600000,METAR SBPA 202200Z 11018G29KT 9999 SCT026 24/18 Q1014=,SBPA
1671575280000,SPECI SBPA 202228Z 11013KT 9999 FEW026 SCT050 23/17 Q1014=,SBPA
1671577200000,METAR SBPA 202300Z 11018KT 9999 FEW022 SCT043 23/17 Q1015=,SBPA
1671494400000,METAR SBRF 200000Z 07006KT 360V110 9999 SCT023 27/21 Q1013=,SBRF
1671498000000,METAR SBRF 200100Z 10006KT 050V140 9999 SCT023 27/21 Q1013=,SBRF
1671501600000,METAR SBRF 200200Z 08005KT 010V130 9999 SCT023 27/21 Q1013=,SBRF
1671505200000,METAR SBRF 200300Z 09006KT 9999 SCT023 27/21 Q1012=,SBRF
1671508800000,METAR SBRF 200400Z 10006KT 070V130 9999 BKN023 27/21 Q1011=,SBRF
1671512400000,METAR SBRF 200500Z 09004KT 040V140 9999 SCT023 27/21 Q1011=,SBRF
1671516000000,METAR SBRF 200600Z 24004KT 200V280 9999 SCT023 25/21 Q1011=,SBRF
1671519600000,METAR SBRF 200700Z 09003KT 040V140 9999 SCT023 26/21 Q1011=,SBRF
1671523200000,METAR SBRF 200800Z 09005KT 050V120 9999 SCT023 26/20 Q1012=,SBRF
1671526800000,METAR SBRF 200900Z 07004KT 030V120 9999 SCT025 27/21 Q1012=,SBRF
1671530400000,METAR SBRF 201000Z 07006KT 030V110 9999 SCT025 28/20 Q1013=,SBRF
1671534000000,METAR SBRF 201100Z 07008KT 020V110 9999 SCT025 28/21 Q1013=,SBRF
1671537600000,METAR SBRF 201200Z 09007KT 020V150 9999 SCT025 29/22 Q1013=,SBRF
1671541200000,METAR SBRF 201300Z 09009KT 040V120 9999 SCT025 29/22 Q1013=,SBRF
1671544800000,METAR SBRF 201400Z 08008KT 020V130 9999 FEW025 29/20 Q1013=,SBRF
1671548400000,METAR SBRF 201500Z 10010KT 040V140 9999 FEW025 29/20 Q1012=,SBRF
1671552000000,METAR SBRF 201600Z 10008KT 050V150 CAVOK 30/21 Q1011=,SBRF
1671555600000,METAR SBRF 201700Z 10009KT 060V140 9999 FEW025 29/22 Q1011=,SBRF
1671559200000,METAR SBRF 201800Z 10009KT 070V140 9999 FEW025 29/22 Q1010=,SBRF
1671562800000,METAR SBRF 201900Z 09009KT 050V140 9999 FEW025 28/21 Q1010=,SBRF
1671566400000,METAR SBRF 202000Z 09008KT 040V130 9999 FEW025 28/21 Q1010=,SBRF
1671570000000,METAR SBRF 202100Z 09008KT 010V130 9999 FEW025 28/21 Q1011=,SBRF
1671573600000,METAR SBRF 202200Z 07007KT 010V110 9999 SCT025 28/22 Q1011=,SBRF
1671577200000,METAR SBRF 202300Z 07007KT 020V100 9999 SCT025 27/21 Q1012=,SBRF
1671494400000,METAR SBRJ 200000Z 08005KT 9999 FEW030 BKN050 23/18 Q1014=,SBRJ
1671498000000,METAR SBRJ 200100Z 04006KT 9999 FEW030 BKN040 23/19 Q1014=,SBRJ
1671501600000,METAR SBRJ 200200Z 06009KT 9999 -RA SCT020 OVC050 22/20 Q1014=,SBRJ
1671505200000,METAR SBRJ 200300Z 08005KT 9999 -RA BKN018 OVC060 22/19 Q1013=,SBRJ
1671508800000,METAR SBRJ 200400Z 08002KT 6000 -RA FEW005 BKN012 OVC040 22/19 Q1012=,SBRJ
1671512400000,METAR SBRJ 200500Z VRB02KT 6000 -RA FEW005 BKN010 OVC040 21/19 Q1011=,SBRJ
1671516000000,METAR SBRJ 200600Z 16003KT 4000 -RA BR SCT005 BKN010 OVC020 21/20 Q1011=,SBRJ
1671519600000,METAR SBRJ 200700Z 13003KT 100V170 4000 -RA BR FEW007 BKN010 OVC040 21/20 Q1011=,SBRJ
1671523200000,METAR SBRJ 200800Z 09003KT 060V120 4000 -RA BR FEW005 BKN010 OVC030 22/20 Q1011=,SBRJ
1671525300000,SPECI SBRJ 200835Z VRB02KT 3500 RA BR SCT005 BKN010 OVC030 21/20 Q1011=,SBRJ
1671526800000,METAR SBRJ 200900Z 17003KT 4000 RA BR SCT005 BKN010 OVC030 21/20 Q1011=,SBRJ
1671529080000,SPECI SBRJ 200938Z 17003KT 4500 -RA BR SCT005 BKN010 OVC030 21/21 Q1012 RERA=,SBRJ
1671530400000,METAR SBRJ 201000Z 15003KT 110V180 4500 RA BR SCT005 BKN010 OVC030 21/21 Q1012 RERA=,SBRJ
1671531600000,SPECI SBRJ 201020Z 18003KT 4500 -RA BR SCT005 BKN010 OVC030 21/21 Q1012 RERA=,SBRJ
1671533100000,SPECI SBRJ 201045Z 17006KT 4500 RA BR SCT005 BKN010 OVC030 21/21 Q1012 RERA=,SBRJ
1671534000000,METAR SBRJ 201100Z 15006KT 4500 RA BR SCT005 BKN010 OVC020 21/21 Q1012 RERA=,SBRJ
1671534600000,SPECI SBRJ 201110Z 12008KT 4500 -RA BR SCT005 BKN010 OVC020 21/21 Q1012 RERA=,SBRJ
1671537600000,METAR SBRJ 201200Z 12014KT 5000 -RA BR SCT006 BKN010 OVC025 21/20 Q1012 RERA=,SBRJ
1671541200000,METAR SBRJ 201300Z 14013KT 4500 -RA BR SCT006 BKN010 OVC025 21/19 Q1013=,SBRJ
1671542700000,SPECI SBRJ 201325Z 14014KT 6000 FEW006 BKN012 OVC030 21/19 Q1012=,SBRJ
1671544800000,METAR SBRJ 201400Z 14012KT 5000 -RA BR FEW006 BKN012 OVC040 21/19 Q1012=,SBRJ
1671546240000,SPECI SBRJ 201424Z 16009KT 4500 -RA BR SCT006 BKN010 OVC040 20/19 Q1012=,SBRJ
1671548400000,METAR SBRJ 201500Z 16010KT 5000 -RA BR SCT006 BKN010 OVC040 20/20 Q1011=,SBRJ
1671549480000,SPECI SBRJ 201518Z 19009KT 4500 -RA BR BKN007 BKN012 OVC040 21/20 Q1011=,SBRJ
1671552000000,METAR SBRJ 201600Z 21006KT 180V240 4500 -RA BR BKN007 BKN010 OVC040 21/20 Q1010=,SBRJ
1671555600000,METAR SBRJ 201700Z 21008KT 3500 -RA BR BKN007 BKN010 OVC030 21/20 Q1009=,SBRJ
1671559200000,METAR SBRJ 201800Z 21007KT 4000 -RA BR BKN007 BKN010 OVC030 22/21 Q1008=,SBRJ
1671562800000,METAR SBRJ 201900Z 22006KT 3500 -RA BR BKN006 OVC020 22/21 Q1008=,SBRJ
1671564000000,SPECI SBRJ 201920Z 22005KT 4000 -RA BR BKN007 OVC020 22/21 Q1007=,SBRJ
1671566400000,METAR SBRJ 202000Z 22002KT 4000 -RA BR BKN007 OVC020 22/21 Q1007=,SBRJ
1671570000000,METAR SBRJ 202100Z 25003KT 5000 BR BKN010 OVC020 22/21 Q1007=,SBRJ
1671573600000,METAR SBRJ 202200Z 30008KT 8000 BKN010 OVC020 22/21 Q1008=,SBRJ
1671577200000,METAR SBRJ 202300Z 30010KT 7000 -RA BKN010 OVC020 22/21 Q1008=,SBRJ
1671494400000,METAR SBSP 200000Z 14006KT 090V160 9999 -DZ BKN009 OVC025 18/17 Q1017=,SBSP
1671498000000,METAR SBSP 200100Z 13007KT 9999 SCT009 OVC011 18/17 Q1017=,SBSP
1671501600000,SPECI SBSP 200200Z 12007KT 090V150 9999 FEW006 BKN008 OVC011 18/16 Q1017=,SBSP
1671501600000,METAR SBSP 200200Z 13006KT 100V160 9999 BKN009 OVC011 18/16 Q1017=,SBSP
1671505200000,METAR SBSP 200300Z AUTO 13006KT 9999 -RA OVC005 18/17 Q1016=,SBSP
1671505440000,SPECI SBSP 200304Z AUTO 14006KT 9999 -RA OVC004 18/17 Q1016=,SBSP
1671507900000,SPECI SBSP 200345Z AUTO 12007KT 090V160 9999 -RA SCT004 OVC006 17/16 Q1015=,SBSP
1671508800000,METAR SBSP 200400Z AUTO 11007KT 080V140 8000 -RA OVC005 17/16 Q1015=,SBSP
1671512400000,METAR SBSP 200500Z AUTO 14005KT 9999 -RA OVC005 17/16 Q1015=,SBSP
1671515460000,SPECI SBSP 200551Z AUTO 13005KT 080V150 9999 -RA OVC004 17/16 Q1014=,SBSP
1671516000000,METAR SBSP 200600Z AUTO 13005KT 080V150 9999 -RA OVC004 17/16 Q1014=,SBSP
1671516960000,SPECI SBSP 200616Z AUTO 11005KT 080V140 9999 OVC006 17/16 Q1014=,SBSP
1671519600000,METAR SBSP 200700Z AUTO 10006KT 070V130 9999 OVC007 17/16 Q1014=,SBSP
1671523200000,METAR SBSP 200800Z AUTO 11006KT 9999 OVC009 17/16 Q1014=,SBSP
1671524040000,SPECI SBSP 200814Z AUTO 11005KT 070V160 9999 OVC010 17/16 Q1014=,SBSP
1671524280000,SPECI SBSP 200818Z AUTO 11005KT 070V160 9999 OVC009 17/16 Q1014=,SBSP
1671526800000,METAR SBSP 200900Z 09005KT 070V130 9999 OVC009 17/16 Q1014=,SBSP
1671530400000,METAR SBSP 201000Z 11005KT 070V130 9999 OVC008 18/16 Q1015=,SBSP
1671534000000,METAR SBSP 201100Z 10005KT 050V130 9999 OVC009 18/17 Q1015=,SBSP
1671537600000,METAR SBSP 201200Z 08008KT 050V110 9999 BKN011 OVC030 19/16 Q1015=,SBSP
1671541200000,METAR SBSP 201300Z 07006KT 040V110 9999 BKN013 OVC015 20/16 Q1015=,SBSP
1671544800000,METAR SBSP 201400Z 10007KT 070V130 9999 SCT009 BKN011 OVC026 20/17 Q1015=,SBSP
1671548400000,METAR SBSP 201500Z 10007KT 060V130 9999 FEW009 OVC015 20/17 Q1014=,SBSP
1671552000000,METAR SBSP 201600Z 08006KT 040V140 9000 VCSH SCT013 OVC015 21/17 Q1014=,SBSP
1671552660000,SPECI SBSP 201611Z 10004KT 050V150 4000 -RA BR BKN013 OVC017 20/17 Q1014=,SBSP
1671555600000,METAR SBSP 201700Z 11005KT 8000 SCT004 BKN011 20/18 Q1014=,SBSP
1671559200000,METAR SBSP 201800Z 16007KT 9999 SCT009 OVC011 20/18 Q1013=,SBSP
1671562800000,METAR SBSP 201900Z 16008KT 9999 OVC010 20/18 Q1013=,SBSP
1671566400000,METAR SBSP 202000Z 16009KT 9999 OVC007 19/17 Q1013=,SBSP
1671570000000,METAR SBSP 202100Z 17008KT 9999 SCT004 OVC007 19/17 Q1013=,SBSP
1671573600000,METAR SBSP 202200Z 17010KT 9999 SCT003 OVC006 18/17 Q1014=,SBSP
1671576000000,SPECI SBSP 202240Z 18011KT 3000 -DZ BR BKN005 OVC010 18/17 Q1015=,SBSP
1671577200000,METAR SBSP 202300Z 19008KT 4000 -DZ BR BKN005 OVC013 18/17 Q1015=,SBSP
1671494400000,METAR SBSV 200000Z 08008KT CAVOK 27/23 Q1013=,SBSV
1671498000000,METAR SBSV 200100Z 08008KT CAVOK 26/23 Q1013=,SBSV
1671501600000,METAR SBSV 200200Z 08009KT CAVOK 26/23 Q1012=,SBSV
1671505200000,METAR SBSV 200300Z 07010KT CAVOK 26/23 Q1012=,SBSV
1671508800000,METAR SBSV 200400Z 06007KT 9999 FEW020 26/23 Q1011=,SBSV
1671512400000,METAR SBSV 200500Z 05007KT 9999 FEW020 26/23 Q1011=,SBSV
1671516000000,METAR SBSV 200600Z 34004KT 9999 FEW020 25/23 Q1011=,SBSV
1671519600000,METAR SBSV 200700Z 35003KT 9999 FEW020 24/22 Q1011=,SBSV
1671523200000,METAR SBSV 200800Z 30003KT 9999 SCT020 SCT070 24/22 Q1012=,SBSV
1671526800000,METAR SBSV 200900Z 33003KT 9999 SCT020 SCT070 25/23 Q1013=,SBSV
1671530400000,METAR SBSV 201000Z 35005KT 9999 SCT020 26/22 Q1013=,SBSV
1671534000000,METAR SBSV 201100Z 01008KT 9999 SCT020 28/22 Q1014=,SBSV
1671537600000,METAR SBSV 201200Z 04008KT 9999 SCT020 29/22 Q1014=,SBSV
1671541200000,METAR SBSV 201300Z 07014KT 9999 SCT020 30/22 Q1014=,SBSV
1671544800000,METAR SBSV 201400Z 08015KT 9999 FEW020 29/23 Q1013=,SBSV
1671548400000,METAR SBSV 201500Z 07015KT 9999 FEW020 30/23 Q1013=,SBSV
1671552000000,METAR SBSV 201600Z 08015KT 9999 FEW020 30/23 Q1012=,SBSV
1671555600000,METAR SBSV 201700Z 07016KT 9999 FEW020 30/23 Q1011=,SBSV
1671559200000,METAR SBSV 201800Z 09014KT 9999 FEW020 29/23 Q1010=,SBSV
1671562800000,METAR SBSV 201900Z 08011KT 9999 FEW020 28/22 Q1010=,SBSV
1671566400000,METAR SBSV 202000Z 08011KT 9999 FEW020 28/22 Q1010=,SBSV
1671570000000,METAR SBSV 202100Z 08010KT 9999 FEW020 27/22 Q1010=,SBSV
1671573600000,METAR SBSV 202200Z 07010KT 9999 FEW020 27/23 Q1011=,SBSV
1671577200000,METAR SBSV 202300Z 07011KT 9999 FEW020 27/23 Q1011=,SBSV
