hora,metar,aero
1667779200000,METAR SBBR 070000Z 18003KT 140V230 9999 FEW040 FEW045TCU SCT080 21/16 Q1019=,SBBR
1667782800000,METAR SBBR 070100Z 08005KT 9999 SCT040 FEW045TCU SCT080 21/17 Q1019=,SBBR
1667786400000,METAR SBBR 070200Z 33002KT 9999 FEW045 SCT100 20/16 Q1019=,SBBR
1667790000000,METAR SBBR 070300Z 02003KT 350V050 9999 FEW015 SCT080 20/15 Q1019=,SBBR
1667793600000,METAR SBBR 070400Z 02002KT 9999 FEW015 SCT080 20/16 Q1018=,SBBR
1667797200000,METAR SBBR 070500Z 09002KT CAVOK 20/16 Q1017=,SBBR
1667800800000,METAR SBBR 070600Z 02003KT CAVOK 19/16 Q1016=,SBBR
1667804400000,METAR SBBR 070700Z 00000KT CAVOK 19/16 Q1016=,SBBR
1667808000000,METAR SBBR 070800Z VRB02KT CAVOK 17/15 Q1017=,SBBR
1667811600000,METAR SBBR 070900Z 00000KT CAVOK 17/15 Q1018=,SBBR
1667815200000,METAR SBBR 071000Z 07006KT 030V110 CAVOK 20/16 Q1018=,SBBR
1667818800000,METAR SBBR 071100Z 08005KT CAVOK 22/16 Q1019=,SBBR
1667822400000,METAR SBBR 071200Z 04008KT 360V080 9999 FEW040 24/16 Q1020=,SBBR
1667826000000,METAR SBBR 071300Z 03009KT 9999 SCT040 26/16 Q1020=,SBBR
1667829600000,METAR SBBR 071400Z 01010KT 340V050 9999 BKN040 26/16 Q1019=,SBBR
1667833200000,METAR SBBR 071500Z 36008KT 320V070 9999 BKN040 27/15 Q1019=,SBBR
1667836800000,METAR SBBR 071600Z 01009KT 330V050 9999 SCT040 SCT090 29/14 Q1018=,SBBR
1667840400000,METAR SBBR 071700Z 30009KT 250V360 9999 SCT040 SCT090 30/13 Q1017=,SBBR
1667844000000,METAR SBBR 071800Z 29008KT 250V320 9999 SCT040 FEW045TCU SCT090 31/12 Q1016=,SBBR
1667847600000,METAR SBBR 071900Z 28010KT 9999 VCSH SCT040 FEW045TCU BKN090 28/13 Q1016=,SBBR
1667851200000,METAR SBBR 072000Z 28012KT 9999 SCT040 FEW045TCU SCT100 29/14 Q1016=,SBBR
1667854800000,METAR SBBR 072100Z 34006KT 9999 SCT040 FEW045TCU SCT100 27/15 Q1016=,SBBR
1667858400000,METAR SBBR 072200Z 34007KT 9999 VCTS SCT040 FEW045CB SCT100 26/16 Q1017=,SBBR
1667862000000,METAR SBBR 072300Z 13007KT 090V190 9999 VCTS SCT040 FEW045CB SCT100 24/17 Q1018=,SBBR
1667863920000,SPECI SBBR 072332Z VRB02KT 9999 -TSRA BKN040 FEW045CB SCT100 23/18 Q1018=,SBBR
1667779200000,METAR SBCF 070000Z 10006KT CAVOK 21/12 Q1019=,SBCF
1667782800000,METAR SBCF 070100Z 09008KT CAVOK 20/11 Q1019=,SBCF
1667786400000,METAR SBCF 070200Z 08007KT CAVOK 20/11 Q1019=,SBCF
1667790000000,METAR SBCF 070300Z 11005KT CAVOK 19/12 Q1018=,SBCF
1667793600000,METAR SBCF 070400Z 11007KT CAVOK 18/12 Q1018=,SBCF
1667797200000,METAR SBCF 070500Z 11007KT 9999 SCT045 18/12 Q1017=,SBCF
1667800800000,METAR SBCF 070600Z 11006KT 9999 SCT049 18/11 Q1017=,SBCF
1667804400000,METAR SBCF 070700Z 10008KT 9999 FEW030 BKN100 18/11 Q1017=,SBCF
1667808000000,METAR SBCF 070800Z 11006KT 9999 FEW030 BKN100 17/11 Q1017=,SBCF
1667811600000,METAR SBCF 070900Z 13004KT 9999 FEW020 BKN100 17/12 Q1019=,SBCF
1667815200000,METAR SBCF 071000Z 10007KT CAVOK 19/12 Q1019=,SBCF
1667818800000,METAR SBCF 071100Z 05004KT 9999 FEW040 20/12 Q1020=,SBCF
1667822400000,METAR SBCF 071200Z 08005KT 9999 SCT045 22/13 Q1021=,SBCF
1667826000000,METAR SBCF 071300Z 03007KT 9999 FEW045 23/13 Q1020=,SBCF
1667829600000,METAR SBCF 071400Z 04006KT 9999 FEW045 25/13 Q1020=,SBCF
1667833200000,METAR SBCF 071500Z 07006KT 9999 BKN045 25/13 Q1019=,SBCF
1667836800000,METAR SBCF 071600Z 31008KT 9999 BKN045 27/14 Q1018=,SBCF
1667840400000,METAR SBCF 071700Z 33003KT 9999 BKN045 27/14 Q1017=,SBCF
1667844000000,METAR SBCF 071800Z 32009KT 9999 SCT045 27/13 Q1016=,SBCF
1667847600000,METAR SBCF 071900Z 01011KT 9999 SCT045 FEW048TCU SCT100 28/13 Q1015=,SBCF
1667851200000,METAR SBCF 072000Z 08008KT 9999 VCSH VCTS SCT045 FEW048CB BKN100 26/14 Q1015=,SBCF
1667854800000,METAR SBCF 072100Z 17007KT 9999 VCSH VCTS SCT045 FEW048CB BKN100 23/15 Q1017=,SBCF
1667858400000,METAR SBCF 072200Z 23014KT 9999 VCSH VCTS SCT045 FEW048CB BKN100 21/15 Q1018=,SBCF
1667862000000,METAR SBCF 072300Z 17005KT 9999 VCTS SCT035 FEW048CB BKN100 19/16 Q1019=,SBCF
1667779200000,METAR SBCT 070000Z 12008KT 9999 BKN009 11/10 Q1023=,SBCT
1667782800000,METAR SBCT 070100Z 11005KT 9999 SCT015 10/10 Q1023=,SBCT
1667786400000,METAR SBCT 070200Z 12005KT 9999 BKN018 10/10 Q1023=,SBCT
1667790000000,METAR SBCT 070300Z 13007KT 9999 FEW007 BKN020 10/10 Q1023=,SBCT
1667793600000,METAR SBCT 070400Z 11005KT 9999 FEW007 BKN020 10/10 Q1022=,SBCT
1667797200000,METAR SBCT 070500Z 15005KT 9999 FEW007 BKN020 10/10 Q1022=,SBCT
1667800800000,METAR SBCT 070600Z 13003KT 9999 SCT020 09/09 Q1021=,SBCT
1667804400000,METAR SBCT 070700Z 13003KT 9999 SCT020 09/09 Q1021=,SBCT
1667808000000,METAR SBCT 070800Z 21005KT 9999 FEW010 07/07 Q1021=,SBCT
1667811600000,METAR SBCT 070900Z 21005KT 170V230 9999 FEW005 09/09 Q1022=,SBCT
1667815200000,METAR SBCT 071000Z 18007KT 160V220 9999 FEW008 11/10 Q1022=,SBCT
1667818800000,METAR SBCT 071100Z 16005KT 9999 FEW009 BKN013 13/09 Q1023=,SBCT
1667822400000,METAR SBCT 071200Z VRB05KT 9999 SCT015 BKN020 15/09 Q1023=,SBCT
1667826000000,METAR SBCT 071300Z VRB04KT 9999 SCT020 BKN030 15/08 Q1022=,SBCT
1667829600000,METAR SBCT 071400Z VRB05KT 9999 SCT030 BKN045 17/07 Q1022=,SBCT
1667833200000,METAR SBCT 071500Z 24003KT 9999 SCT035 BKN050 18/08 Q1022=,SBCT
1667836800000,METAR SBCT 071600Z 13010KT 080V170 9999 SCT035 BKN045 18/10 Q1021=,SBCT
1667840400000,METAR SBCT 071700Z 12010KT 040V150 9999 SCT030 BKN050 17/08 Q1020=,SBCT
1667844000000,METAR SBCT 071800Z 12007KT 9999 BKN040 19/10 Q1020=,SBCT
1667847600000,METAR SBCT 071900Z 11011KT 9999 BKN035 18/10 Q1020=,SBCT
1667851200000,METAR SBCT 072000Z 12010KT 9999 SCT035 17/10 Q1020=,SBCT
1667854800000,METAR SBCT 072100Z 12010KT 9999 SCT025 15/11 Q1020=,SBCT
1667858400000,METAR SBCT 072200Z 12006KT 9999 SCT017 13/11 Q1021=,SBCT
1667862000000,METAR SBCT 072300Z 12007KT 9999 SCT010 SCT017 12/11 Q1022=,SBCT
1667779200000,METAR SBFL 070000Z 19010KT 6000 -RA FEW020 BKN035 16/14 Q1022=,SBFL
1667782800000,METAR SBFL 070100Z 19005KT 9999 FEW020 BKN035 16/14 Q1022=,SBFL
1667786400000,METAR SBFL 070200Z 21007KT 9999 -SHRA SCT020 BKN030 16/14 Q1022=,SBFL
1667790000000,METAR SBFL 070300Z 22006KT 9999 -RA SCT020 SCT080 16/14 Q1022=,SBFL
1667793600000,METAR COR SBFL 070400Z 17004KT 120V200 9999 -RA BKN025 16/15 Q1021=,SBFL
1667797200000,METAR SBFL 070500Z 20009KT 9999 SCT025 16/14 Q1020=,SBFL
1667800800000,METAR SBFL 070600Z 20007KT 9999 -RA SCT025 BKN080 16/14 Q1020=,SBFL
1667804400000,METAR SBFL 070700Z 20007KT 9999 FEW030 BKN080 16/14 Q1019=,SBFL
1667808000000,METAR SBFL 070800Z 20008KT 9999 BKN025 BKN070 16/14 Q1020=,SBFL
1667811600000,METAR SBFL 070900Z 20007KT 9999 VCSH SCT020 SCT080 16/14 Q1020=,SBFL
1667815200000,METAR SBFL 071000Z 20011KT 9999 SCT020 SCT080 17/15 Q1021=,SBFL
1667818800000,METAR SBFL 071100Z 20012KT 9999 SCT020 SCT030 17/14 Q1021=,SBFL
1667822400000,METAR SBFL 071200Z 20013KT 9999 FEW020 SCT030 20/15 Q1021=,SBFL
1667826000000,METAR SBFL 071300Z 20012KT 9999 SCT030 SCT050 20/14 Q1021=,SBFL
1667829600000,METAR SBFL 071400Z 16016KT 9999 SCT030 SCT050 22/13 Q1021=,SBFL
1667833200000,METAR SBFL 071500Z 16015KT 9999 SCT030 SCT050 20/13 Q1021=,SBFL
1667836800000,METAR SBFL 071600Z 16015KT 9999 SCT030 FEW035TCU 22/13 Q1020=,SBFL
1667840400000,METAR SBFL 071700Z 15017KT 9999 SCT030 FEW035TCU 21/12 Q1020=,SBFL
1667844000000,METAR SBFL 071800Z 16015KT 9999 SCT030 FEW035TCU 21/12 Q1019=,SBFL
1667847600000,METAR SBFL 071900Z 16016KT 9999 SCT030 FEW035TCU 21/13 Q1019=,SBFL
1667851200000,METAR SBFL 072000Z 16014KT 9999 SCT030 FEW035TCU 21/12 Q1020=,SBFL
1667854800000,METAR SBFL 072100Z 15012KT 9999 FEW030 20/14 Q1020=,SBFL
1667858400000,METAR SBFL 072200Z 17011KT 9999 FEW030 19/13 Q1020=,SBFL
1667862000000,METAR SBFL 072300Z 17009KT 9999 FEW030 SCT040 18/14 Q1020=,SBFL
1667779200000,METAR SBGL 070000Z 14004KT 9999 FEW032 OVC050 22/15 Q1020=,SBGL
1667782800000,METAR SBGL 070100Z 15003KT 9999 FEW032 BKN050 OVC060 22/15 Q1020=,SBGL
1667786400000,METAR SBGL 070200Z 33006KT 9999 FEW030 BKN050 OVC060 20/17 Q1019=,SBGL
1667790000000,METAR SBGL 070300Z 32007KT 6000 -RA FEW007 BKN032 OVC045 19/17 Q1019=,SBGL
1667793600000,METAR SBGL 070400Z 30004KT 9999 FEW020 BKN026 OVC040 19/17 Q1018=,SBGL
1667797200000,METAR SBGL 070500Z 28006KT 9999 FEW024 BKN040 OVC100 19/17 Q1017=,SBGL
1667800800000,METAR SBGL 070600Z 27006KT 9999 BKN040 OVC050 18/17 Q1017=,SBGL
1667804400000,METAR SBGL 070700Z 25005KT 9999 FEW028 OVC035 18/16 Q1017=,SBGL
1667808000000,METAR SBGL 070800Z 25007KT 9999 FEW028 OVC035 18/17 Q1017=,SBGL
1667811600000,METAR SBGL 070900Z 28004KT 8000 -RA SCT030 BKN035 OVC100 18/17 Q1018=,SBGL
1667815200000,METAR COR SBGL 071000Z 10005KT 9999 BKN017 OVC030 21/17 Q1017=,SBGL
1667818800000,METAR SBGL 071100Z 28004KT 9999 SCT012 OVC040 20/17 Q1019=,SBGL
1667822400000,METAR SBGL 071200Z 26003KT 9999 SCT012 OVC040 21/16 Q1019=,SBGL
1667826000000,METAR SBGL 071300Z 34004KT 9999 SCT012 OVC035 21/17 Q1019=,SBGL
1667829600000,METAR SBGL 071400Z 28004KT 9999 SCT016 OVC035 22/17 Q1019=,SBGL
1667833200000,METAR SBGL 071500Z 26009KT 9999 BKN018 OVC035 21/16 Q1018=,SBGL
1667836800000,METAR SBGL 071600Z 21006KT 9999 BKN017 OVC030 21/16 Q1017=,SBGL
1667840400000,METAR SBGL 071700Z 22002KT 9999 BKN017 OVC030 21/16 Q1017=,SBGL
1667844000000,METAR SBGL 071800Z 11005KT 9999 BKN017 OVC030 21/16 Q1017=,SBGL
1667847600000,METAR SBGL 071900Z 22006KT 9999 BKN017 OVC030 20/16 Q1017=,SBGL
1667848500000,SPECI SBGL 071915Z 20006KT 9000 3000W -DZ BKN014 OVC025 20/17 Q1017=,SBGL
1667851200000,METAR SBGL 072000Z 18006KT 9999 4000W BKN014 OVC025 19/16 Q1017=,SBGL
1667854800000,METAR SBGL 072100Z 25004KT 9000 BKN016 OVC030 19/16 Q1017=,SBGL
1667858400000,METAR SBGL 072200Z 25006KT 9000 BKN016 OVC030 19/16 Q1018=,SBGL
1667862000000,METAR SBGL 072300Z 25004KT 8000 -RA FEW015 BKN020 OVC030 19/17 Q1019=,SBGL
1667779200000,METAR SBGR 070000Z 13004KT 9999 FEW040 BKN100 14/10 Q1022=,SBGR
1667782800000,METAR SBGR 070100Z 12005KT 9999 FEW017 SCT030 BKN080 14/11 Q1022=,SBGR
1667786400000,METAR SBGR 070200Z 13003KT 9999 FEW017 BKN080 14/11 Q1022=,SBGR
1667790000000,METAR SBGR 070300Z 14002KT 9999 SCT015 BKN070 14/11 Q1021=,SBGR
1667793600000,METAR SBGR 070400Z 13003KT 9999 BKN020 14/11 Q1020=,SBGR
1667797200000,METAR SBGR 070500Z 15004KT 9999 BKN015 14/12 Q1019=,SBGR
1667800800000,METAR SBGR 070600Z 11003KT 9999 BKN015 14/12 Q1019=,SBGR
1667802900000,SPECI SBGR 070635Z 14004KT 9999 BKN013 BKN021 14/12 Q1019=,SBGR
1667804400000,METAR SBGR 070700Z 12005KT 9999 BKN014 BKN020 14/12 Q1019=,SBGR
1667808000000,METAR SBGR 070800Z 13004KT 9999 SCT014 BKN026 14/12 Q1019=,SBGR
1667811600000,METAR SBGR 070900Z 13004KT 9999 SCT015 BKN030 14/12 Q1020=,SBGR
1667815200000,METAR SBGR 071000Z 12005KT 9999 BKN017 15/12 Q1021=,SBGR
1667818800000,METAR SBGR 071100Z 12006KT 9999 BKN013 15/12 Q1021=,SBGR
1667822400000,METAR SBGR 071200Z 11006KT 9999 OVC013 16/13 Q1022=,SBGR
1667826000000,METAR SBGR 071300Z 14005KT 9999 OVC013 15/12 Q1022=,SBGR
1667829600000,METAR SBGR 071400Z 12006KT 9999 BKN020 17/12 Q1021=,SBGR
1667833200000,METAR SBGR 071500Z 15006KT 9999 BKN023 17/12 Q1021=,SBGR
1667836800000,METAR SBGR 071600Z 08006KT 9999 BKN030 20/13 Q1020=,SBGR
1667840400000,METAR SBGR 071700Z 09005KT 9999 BKN035 20/12 Q1019=,SBGR
1667844000000,METAR SBGR 071800Z 12009KT 9999 BKN030 19/11 Q1019=,SBGR
1667847600000,METAR SBGR 071900Z 16007KT 9999 BKN030 BKN045 19/12 Q1019=,SBGR
1667851200000,METAR SBGR 072000Z 16009KT 9999 SCT030 BKN040 17/11 Q1019=,SBGR
1667854800000,METAR SBGR 072100Z 16008KT 9999 SCT025 SCT050 17/11 Q1020=,SBGR
1667858400000,METAR SBGR 072200Z 17005KT 9999 SCT020 15/11 Q1020=,SBGR
1667862000000,METAR SBGR 072300Z 13004KT 9999 FEW020 14/12 Q1021=,SBGR
1667779200000,METAR SBKP 070000Z 13012KT CAVOK 17/11 Q1020=,SBKP
1667782800000,METAR SBKP 070100Z 13014KT CAVOK 17/13 Q1021=,SBKP
1667786400000,METAR SBKP 070200Z 12013KT CAVOK 16/11 Q1021=,SBKP
1667790000000,METAR SBKP 070300Z 13013KT CAVOK 16/10 Q1020=,SBKP
1667793600000,METAR SBKP 070400Z 14013KT CAVOK 15/10 Q1019=,SBKP
1667797200000,METAR SBKP 070500Z 13010KT CAVOK 15/11 Q1018=,SBKP
1667800800000,METAR SBKP 070600Z 13012KT CAVOK 15/11 Q1018=,SBKP
1667804400000,METAR SBKP 070700Z 14009KT CAVOK 14/11 Q1017=,SBKP
1667808000000,METAR SBKP 070800Z 15010KT 9999 FEW040 SCT100 15/11 Q1018=,SBKP
1667811600000,METAR SBKP 070900Z 14009KT 9999 FEW045 SCT070 15/12 Q1019=,SBKP
1667815200000,METAR SBKP 071000Z 14012KT 9999 FEW015 SCT070 15/12 Q1019=,SBKP
1667818800000,METAR SBKP 071100Z 13013KT 9999 FEW020 18/12 Q1020=,SBKP
1667822400000,METAR SBKP 071200Z 12009KT 9999 FEW020 19/12 Q1020=,SBKP
1667826000000,METAR SBKP 071300Z 11007KT 9999 SCT030 21/12 Q1020=,SBKP
1667829600000,METAR SBKP 071400Z 14008KT 9999 BKN033 22/12 Q1019=,SBKP
1667833200000,METAR SBKP 071500Z 15008KT 9999 BKN035 22/11 Q1019=,SBKP
1667836800000,METAR SBKP 071600Z 19007KT 140V250 9999 BKN040 23/12 Q1018=,SBKP
1667840400000,METAR SBKP 071700Z 19007KT 140V250 9999 BKN042 24/12 Q1017=,SBKP
1667844000000,METAR SBKP 071800Z 15009KT 9999 SCT045 24/10 Q1016=,SBKP
1667847600000,METAR SBKP 071900Z 15006KT 9999 SCT045 25/09 Q1016=,SBKP
1667851200000,METAR SBKP 072000Z 13013KT 9999 SCT045 23/11 Q1016=,SBKP
1667854800000,METAR SBKP 072100Z 13017KT 9999 FEW045 21/11 Q1017=,SBKP
1667858400000,METAR SBKP 072200Z 14018KT CAVOK 19/11 Q1018=,SBKP
1667862000000,METAR SBKP 072300Z 14017KT CAVOK 17/11 Q1019=,SBKP
1667779200000,METAR SBPA 070000Z 10010KT 9999 FEW045 17/14 Q1024=,SBPA
1667782800000,METAR SBPA 070100Z 12008KT CAVOK 17/14 Q1024=,SBPA
1667786400000,METAR SBPA 070200Z 12008KT 100V160 CAVOK 17/14 Q1024=,SBPA
1667790000000,METAR SBPA 070300Z 11006KT CAVOK 16/14 Q1024=,SBPA
1667793600000,METAR SBPA 070400Z 11007KT CAVOK 16/14 Q1023=,SBPA
1667797200000,METAR SBPA 070500Z 12007KT 9999 SCT030 16/14 Q1022=,SBPA
1667800800000,METAR SBPA 070600Z 12004KT 9999 SCT030 15/14 Q1022=,SBPA
1667804400000,METAR SBPA 070700Z 12004KT 9999 SCT040 15/13 Q1022=,SBPA
1667808000000,METAR SBPA 070800Z 08003KT 9999 BKN020 BKN030 15/13 Q1022=,SBPA
1667809560000,SPECI SBPA 070826Z 09005KT 050V140 4000 RA BKN020 BKN030 16/14 Q1023=,SBPA
1667811600000,METAR SBPA 070900Z 10005KT 080V140 3000 RA BR FEW015 BKN018 BKN030 16/14 Q1023 RERA=,SBPA
1667812860000,SPECI SBPA 070921Z 12007KT 4500 BR BKN016 BKN025 16/15 Q1023 RERA=,SBPA
1667815200000,METAR SBPA 071000Z 11005KT 080V140 9999 FEW016 SCT030 17/15 Q1023 RERA=,SBPA
1667818800000,METAR SBPA 071100Z 12010KT 9999 SCT045 18/14 Q1024=,SBPA
1667822400000,METAR SBPA 071200Z 09012KT 9999 BKN015 18/15 Q1024=,SBPA
1667826000000,METAR SBPA 071300Z 10010KT 080V140 9999 SCT021 BKN045 20/15 Q1024=,SBPA
1667829600000,METAR SBPA 071400Z 10017KT 9999 BKN030 BKN045 21/14 Q1023=,SBPA
1667833200000,METAR SBPA 071500Z 11014KT 080V140 9999 SCT036 SCT050 22/13 Q1023=,SBPA
1667836800000,METAR SBPA 071600Z 11015G28KT 080V140 9999 BKN040 21/13 Q1022=,SBPA
1667840400000,METAR SBPA 071700Z 10010KT 9999 VCTS BKN040 FEW045CB BKN090 21/12 Q1022=,SBPA
1667844000000,METAR SBPA 071800Z 15008KT 080V180 9999 -TSRA BKN040 FEW045CB BKN080 20/14 Q1022=,SBPA
1667845980000,SPECI SBPA 071833Z 14010KT 100V190 2000 TSRA BKN035 FEW045CB BKN080 19/14 Q1022=,SBPA
1667846940000,SPECI SBPA 071849Z 12011G22KT 080V170 2000 +TSRA BKN035 FEW045CB BKN080 16/15 Q1022 RERA=,SBPA
1667847600000,METAR SBPA 071900Z 09015KT 4500 2000E +TSRA BKN030 FEW045CB BKN090 16/14 Q1022 RERA=,SBPA
1667848260000,SPECI SBPA 071911Z 09013KT 4500 2000E TSRA BKN030 FEW045CB BKN070 16/14 Q1022 RERA=,SBPA
1667848800000,SPECI SBPA 071920Z 09009KT 4500 -TSRA BKN030 FEW045CB BKN070 16/14 Q1022 RERA=,SBPA
1667849940000,SPECI SBPA 071939Z 08007KT 050V110 7000 -TSRA FEW015 SCT030 FEW045CB BKN070 16/15 Q1022 RERA=,SBPA
1667851200000,METAR SBPA 072000Z 08008KT 7000 -RA FEW015 FEW040TCU BKN080 16/15 Q1022 RETSRA=,SBPA
1667854800000,METAR SBPA 072100Z 12009KT 070V140 6000 -RA SCT025 FEW040TCU BKN080 17/15 Q1021=,SBPA
1667858400000,METAR SBPA 072200Z 12008KT 8000 FEW025 FEW040TCU BKN100 17/15 Q1022=,SBPA
1667862000000,METAR SBPA 072300Z 12008KT 100V160 9999 FEW025 BKN100 17/14 Q1022=,SBPA
1667779200000,METAR SBRF 070000Z 13003KT 9999 BKN015 BKN050 26/23 Q1014=,SBRF
1667782800000,METAR SBRF 070100Z 11004KT 070V140 9999 SCT015 BKN050 26/22 Q1014=,SBRF
1667786400000,METAR SBRF 070200Z 09006KT 010V120 9999 SCT016 BKN050 27/22 Q1013=,SBRF
1667790000000,METAR SBRF 070300Z 06005KT 330V100 9999 BKN016 SCT050 27/22 Q1013=,SBRF
1667793600000,METAR SBRF 070400Z 08004KT 9999 BKN016 SCT050 26/22 Q1012=,SBRF
1667797200000,METAR SBRF 070500Z 09004KT 9999 BKN016 SCT050 26/21 Q1012=,SBRF
1667800800000,METAR SBRF 070600Z 08003KT 050V130 9999 BKN016 SCT050 26/22 Q1011=,SBRF
1667804400000,METAR SBRF 070700Z 31002KT 9999 BKN016 SCT050 25/23 Q1012=,SBRF
1667808000000,METAR SBRF 070800Z 33003KT 9999 BKN016 BKN050 25/23 Q1012=,SBRF
1667811600000,METAR SBRF 070900Z 25002KT 9999 BKN016 BKN050 25/23 Q1013=,SBRF
1667815200000,METAR SBRF 071000Z 25002KT 9999 BKN020 BKN050 25/23 Q1014=,SBRF
1667818800000,METAR SBRF 071100Z VRB02KT 9999 SCT010 BKN016 BKN050 26/23 Q1015=,SBRF
1667822400000,METAR SBRF 071200Z 08007KT 040V140 9999 SCT020 BKN060 28/21 Q1015=,SBRF
1667826000000,METAR SBRF 071300Z 10007KT 9999 SCT023 SCT070 29/22 Q1015=,SBRF
1667829600000,METAR SBRF 071400Z 07006KT 020V130 9999 SCT023 30/22 Q1014=,SBRF
1667833200000,METAR SBRF 071500Z 06007KT 020V110 9999 SCT024 29/22 Q1013=,SBRF
1667836800000,METAR SBRF 071600Z 07008KT 010V100 9999 SCT023 30/21 Q1012=,SBRF
1667840400000,METAR SBRF 071700Z 05007KT 9999 SCT023 30/22 Q1012=,SBRF
1667844000000,METAR SBRF 071800Z 07007KT 030V130 9999 SCT023 28/22 Q1012=,SBRF
1667847600000,METAR SBRF 071900Z 07006KT 030V120 9999 SCT023 28/22 Q1012=,SBRF
1667851200000,METAR SBRF 072000Z 09006KT 040V130 9999 FEW023 27/22 Q1012=,SBRF
1667854800000,METAR SBRF 072100Z 06005KT 360V090 9999 FEW023 27/22 Q1013=,SBRF
1667858400000,METAR SBRF 072200Z 09005KT 030V140 9999 SCT023 27/22 Q1014=,SBRF
1667862000000,METAR SBRF 072300Z 11005KT 9999 SCT023 27/22 Q1014=,SBRF
1667779200000,METAR SBRJ 070000Z 17009KT 9999 SCT030 BKN100 22/15 Q1019=,SBRJ
1667782800000,METAR SBRJ 070100Z 17005KT 9999 SCT030 BKN100 22/16 Q1019=,SBRJ
1667786400000,METAR SBRJ 070200Z 16005KT 9999 -RA FEW015 SCT025 OVC050 22/16 Q1019=,SBRJ
1667790000000,METAR SBRJ 070300Z 04004KT 9999 -RA BKN025 OVC050 21/16 Q1018=,SBRJ
1667793600000,METAR SBRJ 070400Z 32008KT 9999 BKN020 BKN040 OVC050 20/18 Q1017=,SBRJ
1667794800000,SPECI SBRJ 070420Z 30007KT 9999 BKN012 BKN035 20/18 Q1017=,SBRJ
1667797200000,METAR SBRJ 070500Z 30007KT 9999 -RA BKN010 BKN020 OVC040 20/18 Q1017=,SBRJ
1667800800000,METAR SBRJ 070600Z 21005KT 180V250 9999 -RA SCT010 BKN018 OVC030 19/17 Q1016=,SBRJ
1667804400000,METAR SBRJ 070700Z 21005KT 9999 FEW010 BKN030 OVC050 19/16 Q1016=,SBRJ
1667808000000,METAR SBRJ 070800Z 22004KT 9999 -RA FEW010 OVC040 19/16 Q1016=,SBRJ
1667811600000,METAR SBRJ 070900Z 31003KT 290V350 9999 OVC035 19/17 Q1017=,SBRJ
1667815200000,METAR SBRJ 071000Z 24002KT 9999 FEW010 BKN035 BKN060 20/17 Q1018=,SBRJ
1667818800000,METAR SBRJ 071100Z 08002KT 9999 FEW010 SCT020 BKN060 22/18 Q1018=,SBRJ
1667822400000,METAR SBRJ 071200Z 35004KT 9999 FEW010 SCT020 OVC060 21/17 Q1018=,SBRJ
1667826000000,METAR SBRJ 071300Z 08002KT 9999 SCT020 BKN035 OVC060 22/17 Q1018=,SBRJ
1667829600000,METAR SBRJ 071400Z 18009KT 9999 SCT020 BKN035 OVC060 22/18 Q1018=,SBRJ
1667833200000,METAR SBRJ 071500Z 19011KT 9999 SCT018 BKN035 OVC060 21/17 Q1018=,SBRJ
1667836800000,METAR SBRJ 071600Z 19012KT 9999 FEW012 SCT018 OVC035 21/17 Q1017=,SBRJ
1667840400000,METAR SBRJ 071700Z 16011KT 9999 FEW012 SCT018 OVC035 20/17 Q1017=,SBRJ
1667844000000,METAR SBRJ 071800Z 16010KT 9999 BKN018 OVC030 21/17 Q1017=,SBRJ
1667847600000,METAR SBRJ 071900Z 15010KT 120V180 9000 BKN018 OVC030 20/16 Q1016=,SBRJ
1667851200000,METAR SBRJ 072000Z 17012KT 9999 BKN018 OVC030 20/16 Q1017=,SBRJ
1667854800000,METAR SBRJ 072100Z 18012KT 9000 BKN017 OVC035 20/16 Q1017=,SBRJ
1667858400000,METAR SBRJ 072200Z 19008KT 9000 FEW008 BKN017 OVC035 19/16 Q1018=,SBRJ
1667862000000,METAR SBRJ 072300Z 19006KT 9000 FEW008 BKN017 OVC025 20/16 Q1018=,SBRJ
1667779200000,METAR SBSP 070000Z 16009KT 9999 FEW013 SCT083 14/11 Q1023=,SBSP
1667782800000,METAR SBSP 070100Z 15007KT 9999 FEW013 BKN015 14/11 Q1023=,SBSP
1667786400000,METAR SBSP 070200Z 15007KT 9999 FEW013 SCT017 BKN076 14/11 Q1023=,SBSP
1667786460000,SPECI SBSP 070201Z 15008KT 9999 SCT012 14/11 Q1022=,SBSP
1667788920000,SPECI SBSP 070242Z AUTO 14007KT 9999 FEW012 BKN014 14/11 Q1022=,SBSP
1667789760000,SPECI SBSP 070256Z AUTO 14007KT 9999 SCT012 SCT014 14/11 Q1022=,SBSP
1667790000000,METAR SBSP 070300Z AUTO 14007KT 9999 SCT012 SCT014 14/11 Q1022=,SBSP
1667793600000,METAR SBSP 070400Z AUTO 16007KT 9999 FEW012 13/11 Q1021=,SBSP
1667797200000,METAR SBSP 070500Z AUTO 15006KT 9999 FEW008 13/11 Q1020=,SBSP
1667797980000,SPECI SBSP 070513Z AUTO 16008KT 9999 FEW010 BKN012 13/12 Q1020=,SBSP
1667800800000,METAR SBSP 070600Z AUTO 15006KT 9999 BKN013 13/11 Q1019=,SBSP
1667801100000,SPECI SBSP 070605Z AUTO 15006KT 9999 FEW010 SCT013 13/11 Q1019=,SBSP
1667801760000,SPECI SBSP 070616Z AUTO 17007KT 9999 FEW010 BKN012 13/11 Q1019=,SBSP
1667803500000,SPECI SBSP 070645Z AUTO 17007KT 9999 FEW011 SCT013 OVC028 13/11 Q1019=,SBSP
1667804400000,METAR SBSP 070700Z AUTO 16007KT 9999 FEW011 SCT015 OVC028 13/11 Q1019=,SBSP
1667804640000,SPECI SBSP 070704Z AUTO 17008KT 9999 FEW011 BKN014 OVC028 14/11 Q1019=,SBSP
1667806020000,SPECI SBSP 070727Z AUTO 17007KT 9999 FEW009 BKN012 OVC014 14/11 Q1019=,SBSP
1667806740000,SPECI SBSP 070739Z AUTO 18007KT 9999 BKN009 OVC013 14/12 Q1019=,SBSP
1667807520000,SPECI SBSP 070752Z AUTO 18006KT 9999 SCT010 BKN013 OVC016 14/12 Q1020=,SBSP
1667808000000,METAR SBSP 070800Z AUTO 18007KT 9999 SCT010 BKN014 OVC016 14/12 Q1020=,SBSP
1667808120000,SPECI SBSP 070802Z AUTO 18006KT 9999 SCT010 OVC016 13/11 Q1020=,SBSP
1667808960000,SPECI SBSP 070816Z AUTO 17006KT 9999 SCT010 BKN014 OVC016 14/12 Q1020=,SBSP
1667811600000,METAR SBSP 070900Z 18007KT 9999 FEW008 BKN011 BKN015 14/11 Q1021=,SBSP
1667815200000,METAR SBSP 071000Z 19008KT 170V230 9000 4000N SCT008 BKN011 OVC015 13/11 Q1021=,SBSP
1667818800000,METAR SBSP 071100Z 16007KT 140V210 9000 BKN012 OVC015 14/11 Q1022=,SBSP
1667822400000,METAR SBSP 071200Z 17007KT 140V220 9999 SCT012 OVC015 15/11 Q1022=,SBSP
1667826000000,METAR SBSP 071300Z 18006KT 140V220 9999 FEW012 BKN017 16/11 Q1022=,SBSP
1667829600000,METAR SBSP 071400Z 15005KT 080V200 9999 BKN020 18/11 Q1022=,SBSP
1667833200000,METAR SBSP 071500Z 14004KT 9999 BKN030 BKN040 19/10 Q1021=,SBSP
1667836800000,METAR SBSP 071600Z 16010KT 110V200 9999 BKN030 FEW035TCU BKN040 18/11 Q1021=,SBSP
1667840400000,METAR SBSP 071700Z 15011KT 110V180 9999 FEW026 BKN030 FEW036TCU 19/11 Q1020=,SBSP
1667844000000,METAR SBSP 071800Z 16013KT 9999 SCT023 BKN030 FEW040TCU 18/11 Q1020=,SBSP
1667847600000,METAR SBSP 071900Z 17012KT 140V200 9999 FEW023 SCT030 18/11 Q1020=,SBSP
1667851200000,METAR SBSP 072000Z 17012KT 9999 FEW023 SCT026 18/11 Q1020=,SBSP
1667854800000,METAR SBSP 072100Z 17012KT 150V210 9999 FEW017 SCT019 16/11 Q1020=,SBSP
1667858400000,METAR SBSP 072200Z 15008KT 9999 FEW015 BKN019 15/11 Q1021=,SBSP
1667862000000,METAR SBSP 072300Z 15010KT 9999 FEW013 BKN021 14/12 Q1021=,SBSP
1667779200000,METAR SBSV 070000Z 17013KT 9999 SCT020 FEW023TCU BKN070 26/20 Q1017=,SBSV
1667782800000,METAR SBSV 070100Z 16013KT 9999 SCT020 FEW023TCU BKN070 26/20 Q1017=,SBSV
1667786400000,METAR SBSV 070200Z 16011KT 9999 SCT020 FEW023TCU BKN070 26/20 Q1016=,SBSV
1667790000000,METAR SBSV 070300Z 17011KT 9999 SCT020 FEW023TCU BKN070 26/20 Q1015=,SBSV
1667793600000,METAR SBSV 070400Z 15012KT 9999 SCT020 FEW023TCU BKN070 26/20 Q1014=,SBSV
1667797200000,METAR SBSV 070500Z 17012KT 9999 FEW020 FEW023TCU SCT070 26/20 Q1014=,SBSV
1667800800000,METAR SBSV 070600Z 17011KT 9999 FEW020 FEW023TCU SCT070 26/20 Q1014=,SBSV
1667804400000,METAR SBSV 070700Z 18011KT 9999 FEW020 SCT070 26/20 Q1014=,SBSV
1667808000000,METAR SBSV 070800Z 16011KT 9999 FEW020 SCT070 26/19 Q1014=,SBSV
1667811600000,METAR SBSV 070900Z 16010KT 9999 FEW020 SCT070 26/19 Q1015=,SBSV
1667815200000,METAR SBSV 071000Z 17010KT 9999 SCT020 BKN070 26/19 Q1015=,SBSV
1667818800000,METAR SBSV 071100Z 18009KT 9999 SCT023 BKN070 27/20 Q1016=,SBSV
1667822400000,METAR SBSV 071200Z 16011KT 9999 SCT023 BKN070 27/20 Q1017=,SBSV
1667826000000,METAR SBSV 071300Z 17011KT 9999 SCT023 BKN070 28/20 Q1017=,SBSV
1667829600000,METAR SBSV 071400Z 19012KT 9999 SCT025 28/20 Q1016=,SBSV
1667833200000,METAR SBSV 071500Z 19012KT 9999 SCT025 28/21 Q1016=,SBSV
1667836800000,METAR SBSV 071600Z 18013KT 9999 SCT025 28/20 Q1015=,SBSV
1667840400000,METAR SBSV 071700Z 18012KT 9999 SCT025 28/21 Q1015=,SBSV
1667844000000,METAR SBSV 071800Z 19012KT 9999 SCT023 FEW026TCU SCT070 27/20 Q1014=,SBSV
1667847600000,METAR SBSV 071900Z 17012KT 9999 VCSH BKN023 FEW026TCU SCT070 27/20 Q1014=,SBSV
1667851200000,METAR SBSV 072000Z 18011KT 9000 VCSH BKN023 FEW026TCU BKN070 25/21 Q1015=,SBSV
1667854800000,METAR SBSV 072100Z 18010KT 140V210 9000 VCSH BKN023 FEW026TCU BKN070 26/21 Q1015=,SBSV
1667858400000,METAR SBSV 072200Z 16012KT 9999 VCSH BKN023 FEW026TCU BKN070 26/20 Q1015=,SBSV
1667862000000,METAR SBSV 072300Z 16011KT 130V200 9999 SCT023 FEW026TCU SCT070 27/21 Q1016=,SBSV
