hora,metar,aero
1656633600000,METAR SBBR 010000Z VRB03KT CAVOK 20/08 Q1021=,SBBR
1656637200000,METAR SBBR 010100Z 19005KT CAVOK 19/08 Q1021=,SBBR
1656640800000,METAR SBBR 010200Z 17003KT CAVOK 19/08 Q1021=,SBBR
1656644400000,METAR SBBR 010300Z 19004KT CAVOK 18/08 Q1021=,SBBR
1656648000000,METAR SBBR 010400Z VRB02KT CAVOK 14/08 Q1021=,SBBR
1656651600000,METAR SBBR 010500Z 00000KT CAVOK 13/09 Q1021=,SBBR
1656655200000,METAR SBBR 010600Z 31001KT CAVOK 12/08 Q1020=,SBBR
1656658800000,METAR SBBR 010700Z 00000KT CAVOK 12/08 Q1020=,SBBR
1656662400000,METAR SBBR 010800Z 03001KT CAVOK 11/08 Q1020=,SBBR
1656666000000,METAR SBBR 010900Z 28004KT CAVOK 12/08 Q1020=,SBBR
1656669600000,METAR SBBR 011000Z VRB02KT CAVOK 11/08 Q1021=,SBBR
1656673200000,METAR SBBR 011100Z VRB02KT CAVOK 15/09 Q1021=,SBBR
1656676800000,METAR SBBR 011200Z VRB02KT CAVOK 19/10 Q1022=,SBBR
1656680400000,METAR SBBR 011300Z 08010KT 050V110 CAVOK 21/10 Q1022=,SBBR
1656684000000,METAR SBBR 011400Z 07011KT CAVOK 23/10 Q1022=,SBBR
1656687600000,METAR SBBR 011500Z 07010KT 040V100 CAVOK 25/10 Q1022=,SBBR
1656691200000,METAR SBBR 011600Z 06011KT 020V100 CAVOK 25/09 Q1021=,SBBR
1656694800000,METAR SBBR 011700Z 11007KT 360V170 CAVOK 27/08 Q1020=,SBBR
1656698400000,METAR SBBR 011800Z 08007KT 020V130 CAVOK 26/08 Q1019=,SBBR
1656702000000,METAR SBBR 011900Z 08008KT 040V120 CAVOK 27/08 Q1019=,SBBR
1656705600000,METAR SBBR 012000Z 04005KT 020V080 CAVOK 26/08 Q1019=,SBBR
1656709200000,METAR SBBR 012100Z 07004KT CAVOK 25/08 Q1020=,SBBR
1656712800000,METAR SBBR 012200Z 07005KT CAVOK 24/08 Q1020=,SBBR
1656716400000,METAR SBBR 012300Z VRB02KT CAVOK 22/09 Q1021=,SBBR
1656633600000,METAR SBCF 010000Z 09009KT CAVOK 21/12 Q1021=,SBCF
1656637200000,METAR SBCF 010100Z 08008KT CAVOK 20/12 Q1021=,SBCF
1656640800000,METAR SBCF 010200Z 09004KT CAVOK 18/11 Q1021=,SBCF
1656644400000,METAR SBCF 010300Z 00000KT CAVOK 16/11 Q1021=,SBCF
1656648000000,METAR SBCF 010400Z 17002KT CAVOK 16/11 Q1021=,SBCF
1656651600000,METAR SBCF 010500Z 00000KT CAVOK 16/11 Q1021=,SBCF
1656655200000,METAR SBCF 010600Z 13002KT CAVOK 15/11 Q1020=,SBCF
1656658800000,METAR SBCF 010700Z 09003KT CAVOK 15/11 Q1020=,SBCF
1656662400000,METAR SBCF 010800Z 00000KT CAVOK 14/11 Q1020=,SBCF
1656666000000,METAR SBCF 010900Z 13003KT CAVOK 14/11 Q1020=,SBCF
1656669600000,METAR SBCF 011000Z 12003KT CAVOK 14/11 Q1021=,SBCF
1656673200000,METAR SBCF 011100Z 15002KT CAVOK 14/11 Q1022=,SBCF
1656676800000,METAR SBCF 011200Z 15003KT 100V180 CAVOK 16/12 Q1023=,SBCF
1656680400000,METAR SBCF 011300Z 10005KT 060V150 CAVOK 19/12 Q1023=,SBCF
1656684000000,METAR SBCF 011400Z VRB04KT 9999 FEW030 22/13 Q1023=,SBCF
1656687600000,METAR SBCF 011500Z 09006KT 030V180 9999 FEW033 22/13 Q1023=,SBCF
1656691200000,METAR SBCF 011600Z 10010KT 9999 FEW035 23/12 Q1022=,SBCF
1656694800000,METAR SBCF 011700Z 12008KT 9999 FEW035 23/12 Q1021=,SBCF
1656698400000,METAR SBCF 011800Z 08010KT 9999 FEW040 23/12 Q1021=,SBCF
1656702000000,METAR SBCF 011900Z 09009KT 9999 FEW040 22/12 Q1021=,SBCF
1656705600000,METAR SBCF 012000Z 03006KT CAVOK 21/11 Q1022=,SBCF
1656709200000,METAR SBCF 012100Z 06007KT CAVOK 19/11 Q1022=,SBCF
1656712800000,METAR SBCF 012200Z 05006KT CAVOK 17/11 Q1023=,SBCF
1656716400000,METAR SBCF 012300Z 08006KT CAVOK 18/11 Q1023=,SBCF
1656633600000,METAR SBCT 010000Z 34004KT CAVOK 13/07 Q1020=,SBCT
1656637200000,METAR SBCT 010100Z 07004KT CAVOK 09/06 Q1020=,SBCT
1656640800000,METAR SBCT 010200Z 00000KT CAVOK 09/07 Q1020=,SBCT
1656644400000,METAR SBCT 010300Z 12003KT CAVOK 07/07 Q1020=,SBCT
1656648000000,METAR SBCT 010400Z 09002KT CAVOK 07/06 Q1021=,SBCT
1656651600000,METAR SBCT 010500Z 14002KT CAVOK 07/06 Q1020=,SBCT
1656655200000,METAR SBCT 010600Z 09003KT CAVOK 05/05 Q1020=,SBCT
1656658800000,METAR SBCT 010700Z 09002KT CAVOK 05/05 Q1020=,SBCT
1656662400000,METAR SBCT 010800Z 08002KT CAVOK 04/04 Q1020=,SBCT
1656666000000,METAR SBCT 010900Z 04002KT CAVOK 04/04 Q1020=,SBCT
1656669600000,METAR SBCT 011000Z 04003KT 8000 MIFG NSC 04/04 Q1021=,SBCT
1656673200000,METAR SBCT 011100Z 04001KT 8000 NSC 06/05 Q1022=,SBCT
1656676800000,METAR SBCT 011200Z 10004KT 8000 NSC 09/07 Q1022=,SBCT
1656680400000,METAR SBCT 011300Z 07006KT 030V100 9000 NSC 13/08 Q1022=,SBCT
1656684000000,METAR SBCT 011400Z 03005KT 360V060 CAVOK 16/08 Q1022=,SBCT
1656687600000,METAR SBCT 011500Z 35006KT CAVOK 18/08 Q1021=,SBCT
1656691200000,METAR SBCT 011600Z VRB04KT CAVOK 20/08 Q1020=,SBCT
1656694800000,METAR SBCT 011700Z 32006KT CAVOK 21/07 Q1019=,SBCT
1656698400000,METAR SBCT 011800Z 30007KT CAVOK 21/06 Q1019=,SBCT
1656702000000,METAR SBCT 011900Z 31006KT CAVOK 20/07 Q1019=,SBCT
1656705600000,METAR SBCT 012000Z 33004KT CAVOK 19/06 Q1019=,SBCT
1656709200000,METAR SBCT 012100Z 12007KT CAVOK 14/10 Q1019=,SBCT
1656712800000,METAR SBCT 012200Z 12006KT 9999 FEW005 11/10 Q1019=,SBCT
1656716400000,METAR SBCT 012300Z 10004KT 9999 FEW002 10/10 Q1020=,SBCT
1656633600000,METAR SBFL 010000Z 00000KT CAVOK 12/11 Q1019=,SBFL
1656637200000,METAR SBFL 010100Z 07003KT CAVOK 12/11 Q1019=,SBFL
1656640800000,METAR SBFL 010200Z 26004KT CAVOK 11/10 Q1019=,SBFL
1656644400000,METAR SBFL 010300Z 24003KT CAVOK 12/11 Q1019=,SBFL
1656648000000,METAR SBFL 010400Z 13002KT CAVOK 10/09 Q1020=,SBFL
1656651600000,METAR SBFL 010500Z 03002KT CAVOK 10/09 Q1019=,SBFL
1656655200000,METAR SBFL 010600Z 00000KT CAVOK 10/09 Q1019=,SBFL
1656658800000,METAR SBFL 010700Z 25002KT CAVOK 09/08 Q1019=,SBFL
1656662400000,METAR SBFL 010800Z 27003KT CAVOK 09/08 Q1020=,SBFL
1656666000000,METAR SBFL 010900Z 25002KT CAVOK 09/08 Q1020=,SBFL
1656669600000,METAR SBFL 011000Z 22002KT CAVOK 09/09 Q1020=,SBFL
1656673200000,METAR SBFL 011100Z 23002KT 9999 FEW018 10/10 Q1021=,SBFL
1656676800000,METAR SBFL 011200Z 27006KT 9999 FEW025 13/12 Q1021=,SBFL
1656680400000,METAR SBFL 011300Z 31006KT 9999 FEW030 SCT080 15/11 Q1021=,SBFL
1656684000000,METAR SBFL 011400Z 35005KT 9999 SCT030 SCT080 17/12 Q1021=,SBFL
1656687600000,METAR SBFL 011500Z 35007KT 9999 BKN035 BKN100 17/12 Q1020=,SBFL
1656691200000,METAR SBFL 011600Z 35008KT 9999 BKN035 BKN100 18/12 Q1019=,SBFL
1656694800000,METAR SBFL 011700Z 35009KT 9999 BKN040 BKN100 18/12 Q1018=,SBFL
1656698400000,METAR SBFL 011800Z 35010KT 9999 SCT040 19/13 Q1018=,SBFL
1656702000000,METAR SBFL 011900Z 36012KT 9999 SCT040 19/13 Q1017=,SBFL
1656705600000,METAR SBFL 012000Z 36012KT 9999 SCT040 17/13 Q1017=,SBFL
1656709200000,METAR SBFL 012100Z 36008KT 9999 BKN035 17/13 Q1018=,SBFL
1656712800000,METAR SBFL 012200Z 03004KT 360V060 9999 BKN030 16/14 Q1018=,SBFL
1656716400000,METAR SBFL 012300Z 01006KT 9999 BKN035 17/14 Q1018=,SBFL
1656633600000,METAR SBGL 010000Z 14004KT 9999 SCT025 19/15 Q1019=,SBGL
1656637200000,METAR SBGL 010100Z 10004KT 9999 SCT025 18/15 Q1020=,SBGL
1656640800000,METAR SBGL 010200Z 07004KT 9999 FEW025 17/14 Q1019=,SBGL
1656644400000,METAR SBGL 010300Z 08003KT CAVOK 17/15 Q1019=,SBGL
1656648000000,METAR SBGL 010400Z 06002KT 9999 SCT020 17/14 Q1019=,SBGL
1656651600000,METAR SBGL 010500Z 13002KT 9999 BKN020 17/15 Q1019=,SBGL
1656655200000,METAR SBGL 010600Z 05002KT 9999 BKN020 17/16 Q1019=,SBGL
1656658800000,METAR SBGL 010700Z 00000KT 8000 BKN020 17/15 Q1018=,SBGL
1656662400000,METAR SBGL 010800Z 00000KT 8000 BKN018 17/16 Q1018=,SBGL
1656666000000,METAR SBGL 010900Z 04002KT 7000 FEW009 BKN018 18/16 Q1019=,SBGL
1656669600000,METAR SBGL 011000Z 33003KT 6000 FEW009 BKN017 18/17 Q1020=,SBGL
1656673200000,METAR SBGL 011100Z 31003KT 270V330 8000 OVC017 19/17 Q1020=,SBGL
1656676800000,METAR SBGL 011200Z 05004KT 330V040 9999 OVC016 20/16 Q1021=,SBGL
1656680400000,METAR SBGL 011300Z 31003KT 230V360 9999 FEW016 BKN020 20/16 Q1022=,SBGL
1656684000000,METAR SBGL 011400Z 28003KT 210V330 9999 BKN020 22/16 Q1021=,SBGL
1656687600000,METAR SBGL 011500Z 01006KT 340V040 9999 SCT025 24/17 Q1020=,SBGL
1656691200000,METAR SBGL 011600Z 13008KT 100V160 9999 FEW025 23/16 Q1020=,SBGL
1656694800000,METAR SBGL 011700Z 06007KT 030V110 9999 FEW025 24/16 Q1019=,SBGL
1656698400000,METAR SBGL 011800Z 03006KT 9999 FEW025 23/16 Q1018=,SBGL
1656702000000,METAR SBGL 011900Z 12009KT 9999 FEW025 23/17 Q1018=,SBGL
1656705600000,METAR SBGL 012000Z 15010KT 9999 FEW020 22/18 Q1019=,SBGL
1656709200000,METAR SBGL 012100Z 15008KT 9999 SCT030 21/18 Q1019=,SBGL
1656712800000,METAR SBGL 012200Z 14008KT 9999 FEW030 21/18 Q1020=,SBGL
1656716400000,METAR SBGL 012300Z 13008KT 9999 FEW030 21/18 Q1020=,SBGL
1656633600000,METAR SBGR 010000Z 00000KT 5000 BR NSC 14/13 Q1020=,SBGR
1656637200000,METAR SBGR 010100Z 00000KT 4500 BR NSC 12/12 Q1021=,SBGR
1656640800000,METAR SBGR 010200Z 10003KT 4500 BR NSC 12/12 Q1021=,SBGR
1656644400000,METAR SBGR 010300Z 06002KT 4500 BR NSC 12/12 Q1021=,SBGR
1656648000000,METAR SBGR 010400Z 00000KT 5000 BR NSC 11/11 Q1021=,SBGR
1656651600000,METAR SBGR 010500Z 00000KT 5000 BR NSC 10/10 Q1020=,SBGR
1656655200000,METAR SBGR 010600Z 16002KT 3000 BR NSC 10/10 Q1020=,SBGR
1656657720000,SPECI SBGR 010642Z 16002KT 0900 R09R/0350N R27L/0400N R09L/P2000 R27R/P2000 FG BKN001 BKN004 10/10 Q1020=,SBGR
1656658800000,METAR SBGR 010700Z 17001KT 0900 R09R/0350N R09L/0350N R27L/0350N R27R/P2000 FG BKN001 BKN004 10/10 Q1020=,SBGR
1656662400000,METAR SBGR 010800Z 02002KT 0900 R09R/P2000 R09L/P2000 R27R/P2000 R27L/P2000 FG BKN002 11/11 Q1021=,SBGR
1656666000000,METAR SBGR 010900Z 05003KT 0600 R09L/0800N R09R/1100N R27R/1100N R27L/1100N FG BKN002 12/12 Q1021=,SBGR
1656669600000,METAR SBGR 011000Z 07006KT 0700 R09R/1800U R09L/P2000 R27R/P2000 R27L/P2000 FG OVC002 12/12 Q1022=,SBGR
1656673200000,METAR SBGR 011100Z 06005KT 0800 R27R/1400D R09L/1500D R09R/1600D R27L/1600D FG OVC002 11/11 Q1022=,SBGR
1656676800000,METAR SBGR 011200Z 05005KT 0800 R27L/1300D R09L/1600U R27R/1700U R09R/1900U FG OVC002 12/12 Q1023=,SBGR
1656680400000,METAR COR SBGR 011300Z 05007KT 1500 R09R/P2000 R09L/P2000 R27R/P2000 R27L/P2000 BR OVC003 12/12 Q1023=,SBGR
1656684000000,METAR SBGR 011400Z 05008KT 5000 BR BKN006 13/13 Q1023=,SBGR
1656686100000,SPECI SBGR 011435Z 04009KT 9999 SCT008 15/13 Q1023=,SBGR
1656687600000,METAR SBGR 011500Z 04008KT 9999 SCT008 16/13 Q1023=,SBGR
1656691200000,METAR SBGR 011600Z 07007KT CAVOK 19/13 Q1021=,SBGR
1656694800000,METAR SBGR 011700Z 04005KT CAVOK 20/14 Q1020=,SBGR
1656698400000,METAR SBGR 011800Z 10004KT CAVOK 21/13 Q1019=,SBGR
1656702000000,METAR SBGR 011900Z 06009KT CAVOK 21/14 Q1019=,SBGR
1656705600000,METAR SBGR 012000Z 06009KT CAVOK 19/14 Q1019=,SBGR
1656709200000,METAR SBGR 012100Z 07007KT CAVOK 17/14 Q1020=,SBGR
1656712800000,METAR SBGR 012200Z 10004KT CAVOK 17/14 Q1020=,SBGR
1656716400000,METAR SBGR 012300Z 08003KT CAVOK 16/14 Q1021=,SBGR
1656633600000,METAR SBKP 010000Z 12006KT CAVOK 17/11 Q1019=,SBKP
1656637200000,METAR SBKP 010100Z 11007KT CAVOK 16/11 Q1019=,SBKP
1656640800000,METAR SBKP 010200Z 15002KT CAVOK 15/11 Q1020=,SBKP
1656644400000,METAR SBKP 010300Z 15004KT CAVOK 15/11 Q1020=,SBKP
1656648000000,METAR SBKP 010400Z 12004KT CAVOK 13/10 Q1020=,SBKP
1656651600000,METAR SBKP 010500Z 11008KT CAVOK 13/10 Q1020=,SBKP
1656655200000,METAR SBKP 010600Z 10008KT CAVOK 13/10 Q1019=,SBKP
1656658800000,METAR SBKP 010700Z 12008KT CAVOK 12/10 Q1019=,SBKP
1656662400000,METAR SBKP 010800Z 12008KT CAVOK 12/09 Q1019=,SBKP
1656666000000,METAR SBKP 010900Z 11008KT CAVOK 11/09 Q1020=,SBKP
1656669600000,METAR SBKP 011000Z 11007KT 8000 NSC 11/09 Q1020=,SBKP
1656673200000,METAR SBKP 011100Z 12006KT 9000 4000E NSC 13/09 Q1021=,SBKP
1656676800000,METAR SBKP 011200Z 12005KT 9000 4000E NSC 16/10 Q1022=,SBKP
1656680400000,METAR SBKP 011300Z 08003KT 020V110 8000 NSC 19/10 Q1022=,SBKP
1656684000000,METAR SBKP 011400Z 15003KT 100V260 8000 NSC 21/10 Q1022=,SBKP
1656687600000,METAR SBKP 011500Z 34004KT 280V060 CAVOK 23/09 Q1021=,SBKP
1656691200000,METAR SBKP 011600Z VRB03KT CAVOK 25/10 Q1020=,SBKP
1656694800000,METAR SBKP 011700Z VRB05KT CAVOK 25/07 Q1019=,SBKP
1656698400000,METAR SBKP 011800Z 34006KT CAVOK 25/08 Q1018=,SBKP
1656702000000,METAR SBKP 011900Z VRB02KT CAVOK 25/09 Q1018=,SBKP
1656705600000,METAR SBKP 012000Z 00000KT CAVOK 25/09 Q1018=,SBKP
1656709200000,METAR SBKP 012100Z 18005KT CAVOK 23/09 Q1018=,SBKP
1656712800000,METAR SBKP 012200Z 16005KT CAVOK 22/09 Q1019=,SBKP
1656716400000,METAR SBKP 012300Z 11007KT CAVOK 19/10 Q1019=,SBKP
1656633600000,METAR SBPA 010000Z VRB01KT CAVOK 10/09 Q1019=,SBPA
1656637200000,METAR SBPA 010100Z VRB01KT CAVOK 10/09 Q1019=,SBPA
1656640800000,METAR SBPA 010200Z 07005KT 6000 NSC 10/09 Q1019=,SBPA
1656644400000,METAR SBPA 010300Z 11003KT 6000 NSC 09/08 Q1019=,SBPA
1656648000000,METAR SBPA 010400Z 07002KT 6000 NSC 08/08 Q1019=,SBPA
1656651600000,METAR SBPA 010500Z 09003KT 070V140 6000 NSC 08/08 Q1020=,SBPA
1656655200000,METAR SBPA 010600Z 07005KT 5000 BR NSC 08/08 Q1019=,SBPA
1656658800000,METAR SBPA 010700Z 07004KT 5000 BR NSC 08/07 Q1019=,SBPA
1656662400000,METAR SBPA 010800Z 08004KT 6000 NSC 07/07 Q1018=,SBPA
1656666000000,METAR SBPA 010900Z 10002KT 7000 NSC 07/07 Q1018=,SBPA
1656669600000,METAR SBPA 011000Z 06003KT 040V100 9000 NSC 07/07 Q1018=,SBPA
1656673200000,METAR SBPA 011100Z VRB01KT 6000 NSC 07/07 Q1019=,SBPA
1656675540000,SPECI SBPA 011139Z VRB02KT 2000 BR NSC 09/09 Q1019=,SBPA
1656676800000,METAR SBPA 011200Z VRB02KT 2000 BR NSC 09/09 Q1019=,SBPA
1656678120000,SPECI SBPA 011222Z VRB01KT 3000 BR NSC 11/10 Q1019=,SBPA
1656680400000,METAR SBPA 011300Z 06004KT 030V090 4000 BR NSC 11/10 Q1019=,SBPA
1656681120000,SPECI SBPA 011312Z 05005KT 010V080 5000 BR NSC 12/10 Q1018=,SBPA
1656684000000,METAR SBPA 011400Z 07009KT CAVOK 14/11 Q1018=,SBPA
1656687600000,METAR SBPA 011500Z 08011KT CAVOK 17/11 Q1017=,SBPA
1656691200000,METAR SBPA 011600Z 07011KT CAVOK 18/10 Q1015=,SBPA
1656694800000,METAR SBPA 011700Z 08010KT CAVOK 20/10 Q1014=,SBPA
1656698400000,METAR SBPA 011800Z 10010KT CAVOK 20/10 Q1013=,SBPA
1656702000000,METAR SBPA 011900Z 10012KT CAVOK 20/12 Q1012=,SBPA
1656705600000,METAR SBPA 012000Z 10013KT CAVOK 18/12 Q1011=,SBPA
1656709200000,METAR SBPA 012100Z 10011KT CAVOK 17/12 Q1011=,SBPA
1656712800000,METAR SBPA 012200Z 10008KT CAVOK 15/12 Q1011=,SBPA
1656716400000,METAR SBPA 012300Z 10008KT CAVOK 14/12 Q1012=,SBPA
1656633600000,METAR SBRF 010000Z 21010KT 5000 -RA BR SCT004 BKN018 BKN040 23/23 Q1015=,SBRF
1656637200000,METAR SBRF 010100Z 21004KT 180V250 9999 VCSH SCT009 SCT020 BKN040 23/23 Q1015=,SBRF
1656640800000,METAR SBRF 010200Z 23003KT 150V310 9999 FEW009 SCT018 BKN040 24/23 Q1015=,SBRF
1656644400000,METAR SBRF 010300Z 25003KT 220V290 9999 SCT018 SCT040 23/23 Q1014=,SBRF
1656648000000,METAR SBRF 010400Z 23003KT 160V270 6000 -RA BKN018 BKN060 23/23 Q1014=,SBRF
1656651600000,METAR SBRF 010500Z VRB03KT 5000 -RA BR SCT006 BKN015 BKN060 23/23 Q1013=,SBRF
1656655200000,METAR SBRF 010600Z 26004KT 8000 SCT006 BKN015 BKN060 23/23 Q1013=,SBRF
1656658800000,METAR SBRF 010700Z 25005KT 5000 -RA BR SCT006 BKN015 BKN060 23/23 Q1013=,SBRF
1656662400000,METAR SBRF 010800Z 25005KT 200V280 5000 -RA BR SCT006 BKN015 BKN060 23/23 Q1013=,SBRF
1656666000000,METAR SBRF 010900Z 25004KT 8000 SCT006 SCT015 BKN060 23/23 Q1013=,SBRF
1656669600000,METAR SBRF 011000Z VRB03KT 9999 BKN015 BKN060 24/23 Q1014=,SBRF
1656673200000,METAR SBRF 011100Z 26004KT 220V320 9999 VCSH BKN017 25/24 Q1014=,SBRF
1656676800000,METAR SBRF 011200Z VRB02KT 9999 VCSH SCT023 SCT050 27/24 Q1014=,SBRF
1656680400000,METAR SBRF 011300Z VRB02KT 9999 VCSH BKN020 27/24 Q1015=,SBRF
1656684000000,METAR SBRF 011400Z 30002KT 9999 SCT020 28/24 Q1014=,SBRF
1656687600000,METAR SBRF 011500Z 14004KT 090V180 9999 FEW020 29/24 Q1013=,SBRF
1656691200000,METAR SBRF 011600Z 14007KT 9999 FEW023 28/24 Q1013=,SBRF
1656694800000,METAR SBRF 011700Z 14006KT 9999 FEW023 FEW025TCU 28/24 Q1013=,SBRF
1656698400000,METAR SBRF 011800Z 13006KT 9999 FEW023 FEW025TCU 28/24 Q1013=,SBRF
1656702000000,METAR SBRF 011900Z 14007KT 9999 FEW023 FEW025TCU 28/24 Q1013=,SBRF
1656705600000,METAR SBRF 012000Z 15006KT 9999 FEW025 27/24 Q1013=,SBRF
1656709200000,METAR SBRF 012100Z 15006KT 9999 FEW025 27/23 Q1014=,SBRF
1656712800000,METAR SBRF 012200Z 17006KT 9999 FEW025 26/24 Q1014=,SBRF
1656716400000,METAR SBRF 012300Z 20008KT 9999 SCT019 25/25 Q1015=,SBRF
1656633600000,METAR SBRJ 010000Z 17007KT 9999 FEW025 19/16 Q1019=,SBRJ
1656637200000,METAR SBRJ 010100Z 13005KT 9999 SCT025 20/17 Q1019=,SBRJ
1656638400000,SPECI SBRJ 010120Z 04005KT 9999 SCT025 20/17 Q1019=,SBRJ
1656640800000,METAR SBRJ 010200Z 06003KT 9999 FEW025 20/17 Q1019=,SBRJ
1656665400000,SPECI SBRJ 010850Z 05003KT 020V080 9000 BKN017 19/16 Q1018=,SBRJ
1656666000000,METAR SBRJ 010900Z 06003KT 030V100 9000 BKN017 19/17 Q1018=,SBRJ
1656669600000,METAR SBRJ 011000Z 36003KT 310V040 9000 FEW012 BKN017 19/17 Q1019=,SBRJ
1656673200000,METAR SBRJ 011100Z VRB02KT 9999 FEW010 BKN017 19/17 Q1020=,SBRJ
1656676800000,METAR SBRJ 011200Z VRB02KT 9999 FEW012 BKN020 20/17 Q1021=,SBRJ
1656680400000,METAR SBRJ 011300Z 02004KT 350V050 9999 FEW015 BKN020 21/17 Q1021=,SBRJ
1656684000000,METAR SBRJ 011400Z 36006KT 9999 FEW015 BKN023 21/18 Q1021=,SBRJ
1656687600000,METAR SBRJ 011500Z 03004KT 9000 BKN025 22/17 Q1020=,SBRJ
1656691200000,METAR SBRJ 011600Z 01005KT 9000 SCT025 22/17 Q1019=,SBRJ
1656694800000,METAR SBRJ 011700Z VRB02KT 9000 FEW025 22/17 Q1019=,SBRJ
1656698400000,METAR SBRJ 011800Z 16008KT 9999 FEW025 22/18 Q1018=,SBRJ
1656702000000,METAR SBRJ 011900Z 15009KT 9999 FEW018 22/19 Q1018=,SBRJ
1656705600000,METAR SBRJ 012000Z 14009KT 9999 FEW012 SCT020 22/19 Q1018=,SBRJ
1656709200000,METAR SBRJ 012100Z 13009KT 9999 FEW012 SCT018 21/19 Q1019=,SBRJ
1656712800000,METAR SBRJ 012200Z 12009KT 9999 FEW012 SCT023 22/19 Q1020=,SBRJ
1656716400000,METAR SBRJ 012300Z 12007KT 9999 FEW012 SCT023 21/19 Q1020=,SBRJ
1656633600000,METAR SBSP 010000Z 15002KT 7000 NSC 14/12 Q1021=,SBSP
1656637200000,METAR SBSP 010100Z 14002KT 7000 NSC 14/12 Q1021=,SBSP
1656640800000,METAR SBSP 010200Z 12001KT CAVOK 14/11 Q1021=,SBSP
1656640800000,SPECI SBSP 010200Z 14002KT 5000 BR NSC 14/11 Q1021=,SBSP
1656644400000,METAR SBSP 010300Z AUTO 06002KT 6000 NCD 14/11 Q1021=,SBSP
1656648000000,METAR SBSP 010400Z AUTO 10001KT 6000 NCD 14/11 Q1021=,SBSP
1656651600000,METAR SBSP 010500Z AUTO 20002KT 5000 BR NCD 13/10 Q1021=,SBSP
1656655200000,METAR SBSP 010600Z AUTO 19001KT 5000 BR NCD 13/10 Q1021=,SBSP
1656658800000,METAR SBSP 010700Z AUTO 20002KT 6000 FEW008 12/10 Q1021=,SBSP
1656660180000,SPECI SBSP 010723Z AUTO 20003KT 4600 BR NCD 12/10 Q1021=,SBSP
1656660720000,SPECI SBSP 010732Z AUTO 21003KT 2300 BR NCD 12/10 Q1021=,SBSP
1656661980000,SPECI SBSP 010753Z AUTO 18004KT 0350 R17/0500D FG FEW000 11/09 Q1021=,SBSP
1656662400000,METAR SBSP 010800Z AUTO 18004KT 0350 R17/0500D FG FEW000 11/09 Q1021=,SBSP
1656666000000,METAR SBSP 010900Z 12003KT 5000 2000N BR NSC 12/11 Q1021=,SBSP
1656668160000,SPECI COR SBSP 010936Z 07004KT 040V100 0900 R17/1000N R35/2000D FG BKN001 12/11 Q1022=,SBSP
1656669600000,METAR COR SBSP 011000Z 06005KT 020V090 0900 R17/1500U R35/2000 FG BKN004 13/11 Q1022=,SBSP
1656670800000,SPECI SBSP 011020Z 08005KT 050V110 0900 R17/1000N R35/1400N FG OVC004 13/11 Q1022=,SBSP
1656673200000,METAR COR SBSP 011100Z 36004KT 360V100 1500 R17/1200N R35/2000D BR BCFG OVC004 13/11 Q1023=,SBSP
1656675840000,SPECI SBSP 011144Z 27003KT 5000 BR BKN005 13/12 Q1024=,SBSP
1656676800000,METAR SBSP 011200Z VRB03KT 6000 SCT005 14/12 Q1024=,SBSP
1656680400000,METAR SBSP 011300Z 08005KT 050V110 9000 NSC 16/12 Q1024=,SBSP
1656684000000,METAR SBSP 011400Z 07004KT CAVOK 18/11 Q1024=,SBSP
1656687600000,METAR SBSP 011500Z 20003KT 8000 NSC 20/11 Q1023=,SBSP
1656691200000,METAR SBSP 011600Z 06003KT CAVOK 21/10 Q1022=,SBSP
1656694800000,METAR SBSP 011700Z 32005KT 260V030 CAVOK 23/08 Q1021=,SBSP
1656698400000,METAR SBSP 011800Z 06004KT 350V130 9000 NSC 23/09 Q1020=,SBSP
1656702000000,METAR SBSP 011900Z 15008KT 8000 NSC 21/12 Q1020=,SBSP
1656705600000,METAR SBSP 012000Z 16008KT 7000 NSC 20/13 Q1020=,SBSP
1656709200000,METAR SBSP 012100Z 16006KT 7000 NSC 17/13 Q1021=,SBSP
1656712800000,METAR SBSP 012200Z 16004KT 8000 NSC 16/12 Q1021=,SBSP
1656716400000,METAR SBSP 012300Z 16005KT 8000 NSC 16/12 Q1021=,SBSP
1656633600000,METAR SBSV 010000Z 13004KT 9999 SCT023 FEW025TCU 25/22 Q1017=,SBSV
1656637200000,METAR SBSV 010100Z 10006KT 9999 SCT023 BKN050 26/22 Q1017=,SBSV
1656640800000,METAR SBSV 010200Z 09003KT 9999 SCT030 26/22 Q1017=,SBSV
1656644400000,METAR SBSV 010300Z 14008KT 9999 SCT030 26/22 Q1017=,SBSV
1656648000000,METAR SBSV 010400Z 12008KT 9999 VCSH SCT025 SCT050 26/21 Q1017=,SBSV
1656651600000,METAR SBSV 010500Z 12008KT 9999 SCT025 26/21 Q1017=,SBSV
1656655200000,METAR SBSV 010600Z 13009KT 9999 SCT025 26/21 Q1016=,SBSV
1656658800000,METAR SBSV 010700Z 14006KT 9999 FEW025 26/21 Q1016=,SBSV
1656662400000,METAR SBSV 010800Z 14007KT 9999 FEW025 26/21 Q1016=,SBSV
1656666000000,METAR SBSV 010900Z 16011KT 9999 SCT025 26/20 Q1016=,SBSV
1656669600000,METAR SBSV 011000Z 15011KT 9999 SCT025 26/20 Q1017=,SBSV
1656673200000,METAR SBSV 011100Z 15013KT 9999 SCT025 27/20 Q1017=,SBSV
1656676800000,METAR SBSV 011200Z 16014KT 9999 SCT025 27/20 Q1018=,SBSV
1656680400000,METAR SBSV 011300Z 15012KT 9999 SCT025 28/19 Q1018=,SBSV
1656684000000,METAR SBSV 011400Z 14012KT 9999 SCT025 29/19 Q1018=,SBSV
1656687600000,METAR SBSV 011500Z 15011KT 9999 SCT025 29/19 Q1018=,SBSV
1656691200000,METAR SBSV 011600Z 15011KT 9999 SCT025 28/19 Q1017=,SBSV
1656694800000,METAR SBSV 011700Z 15012KT 9999 SCT025 28/19 Q1017=,SBSV
1656698400000,METAR SBSV 011800Z 16011KT 130V200 9999 SCT025 28/20 Q1016=,SBSV
1656702000000,METAR SBSV 011900Z 15008KT 9999 BKN023 FEW025TCU 26/21 Q1016=,SBSV
1656705600000,METAR SBSV 012000Z 14008KT 100V170 9999 BKN023 FEW025TCU 26/21 Q1017=,SBSV
1656709200000,METAR SBSV 012100Z 17006KT 130V210 9999 VCSH BKN023 FEW025TCU 25/22 Q1017=,SBSV
1656712800000,METAR SBSV 012200Z 14011KT 9999 SCT023 FEW025TCU 27/20 Q1017=,SBSV
1656716400000,METAR SBSV 012300Z 15013KT 120V180 9999 FEW025 SCT055 27/19 Q1018=,SBSV
