hora,metar,aero
1669680000000,METAR SBBR 290000Z 14005KT 090V190 CAVOK 20/17 Q1011=,SBBR
1669683600000,METAR SBBR 290100Z 11003KT 080V200 CAVOK 19/16 Q1012=,SBBR
1669687200000,METAR SBBR 290200Z 18006KT CAVOK 19/17 Q1012=,SBBR
1669689000000,SPECI SBBR 290230Z 27007KT 5000 -TSRA BKN010 BKN040 FEW045CB OVC070 19/17 Q1012=,SBBR
1669690800000,METAR SBBR 290300Z 35007KT 310V020 7000 -TSRA BKN010 BKN040 FEW045CB OVC090 19/17 Q1012=,SBBR
1669692600000,SPECI SBBR 290330Z VRB08KT 9999 TS FEW040 FEW045CB OVC100 18/17 Q1011=,SBBR
1669694400000,METAR SBBR 290400Z VRB04KT 9999 VCTS FEW040 FEW045CB OVC100 18/17 Q1010 RETS=,SBBR
1669698000000,METAR SBBR 290500Z VRB02KT 9999 FEW040 OVC100 18/16 Q1010=,SBBR
1669701600000,METAR SBBR 290600Z 09003KT 050V120 9999 FEW040 BKN100 17/16 Q1010=,SBBR
1669705200000,METAR SBBR 290700Z 36002KT 9999 FEW040 SCT100 17/16 Q1010=,SBBR
1669708800000,METAR SBBR 290800Z 00000KT CAVOK 17/15 Q1010=,SBBR
1669712400000,METAR SBBR 290900Z VRB01KT CAVOK 17/15 Q1010=,SBBR
1669716000000,METAR SBBR 291000Z 29003KT CAVOK 19/16 Q1011=,SBBR
1669719600000,METAR SBBR 291100Z 34005KT 300V010 9999 FEW020 22/18 Q1011=,SBBR
1669723200000,METAR SBBR 291200Z 30006KT 260V340 9999 FEW020 24/18 Q1011=,SBBR
1669726800000,METAR SBBR 291300Z 31008KT 260V360 9999 SCT030 25/18 Q1012=,SBBR
1669730400000,METAR SBBR 291400Z 29012KT 250V330 9999 BKN035 FEW040TCU 26/17 Q1011=,SBBR
1669734000000,METAR SBBR 291500Z 32012KT 9999 BKN035 FEW040TCU 26/18 Q1010=,SBBR
1669737600000,METAR SBBR 291600Z 30013KT 260V330 9999 VCTS BKN035 FEW040CB 27/17 Q1009=,SBBR
1669740180000,SPECI SBBR 291643Z 24011KT 200V280 9999 TS VCSH BKN035 FEW040CB 25/17 Q1008=,SBBR
1669741200000,METAR SBBR 291700Z 25011KT 220V280 9999 TS VCSH BKN035 FEW040CB 26/19 Q1008=,SBBR
1669744800000,METAR SBBR 291800Z 26013KT 9000 -TSRA BKN035 FEW040CB BKN100 24/18 Q1008=,SBBR
1669748400000,METAR SBBR 291900Z 33009KT 9000 TS VCSH SCT035 FEW040CB BKN100 25/18 Q1008=,SBBR
1669752000000,METAR SBBR 292000Z 31005KT 250V350 9000 TS VCSH FEW035 FEW040CB BKN100 25/17 Q1007=,SBBR
1669755600000,METAR SBBR 292100Z 35011KT 320V020 9999 TS FEW030 FEW035CB BKN080 23/18 Q1008=,SBBR
1669759200000,METAR SBBR 292200Z 32003KT 250V340 9999 FEW030 FEW035TCU SCT100 21/17 Q1009 RETS=,SBBR
1669762800000,METAR SBBR 292300Z VRB02KT 9999 FEW030 FEW035TCU SCT100 21/17 Q1010=,SBBR
1669680000000,METAR SBCF 290000Z 12003KT 9999 VCTS FEW048 FEW050CB SCT070 20/17 Q1009=,SBCF
1669683600000,METAR SBCF 290100Z 15005KT 120V180 9999 VCTS FEW048 FEW050CB SCT080 19/17 Q1010=,SBCF
1669684680000,SPECI SBCF 290118Z 20010KT 9999 TS FEW026 FEW035CB BKN050 19/17 Q1011=,SBCF
1669685460000,SPECI SBCF 290131Z 21013KT 9999 TSRA FEW023 FEW035CB BKN050 19/17 Q1011=,SBCF
1669687200000,METAR SBCF 290200Z 19010KT 4000 +TSRA BKN025 FEW035CB OVC050 18/16 Q1012 RERA=,SBCF
1669688220000,SPECI SBCF 290217Z 16010KT 4000 TSRA SCT030 FEW035CB OVC050 17/16 Q1011 RERA=,SBCF
1669690800000,METAR SBCF 290300Z 12009KT 4000 TSRA SCT045 FEW050CB OVC070 18/16 Q1011=,SBCF
1669694400000,METAR SBCF 290400Z 09007KT 4000 TSRA SCT045 FEW050CB 17/16 Q1011=,SBCF
1669698000000,METAR SBCF 290500Z 05011KT 4000 -TSRA SCT045 FEW050CB 17/15 Q1010 RERA=,SBCF
1669701600000,METAR COR SBCF 290600Z 34002KT 6000 FEW005 BKN100 17/16 Q1009 RETSRA=,SBCF
1669705200000,METAR SBCF 290700Z 12003KT 9999 FEW015 SCT100 17/16 Q1008=,SBCF
1669706220000,SPECI SBCF 290717Z 27006KT 2000 BCFG FEW015 BKN100 17/16 Q1008=,SBCF
1669707300000,SPECI SBCF 290735Z 34003KT 5000 BCFG FEW018 BKN100 17/16 Q1008=,SBCF
1669708800000,METAR SBCF 290800Z 23002KT 5000 BCFG FEW020 BKN100 17/16 Q1008=,SBCF
1669710000000,SPECI SBCF 290820Z 24002KT 2500 BCFG FEW020 BKN100 17/16 Q1008=,SBCF
1669712400000,METAR SBCF 290900Z VRB01KT 8000 BCFG NSC 17/16 Q1009=,SBCF
1669716000000,METAR SBCF 291000Z 15002KT 8000 BCFG FEW001 SCT100 19/17 Q1010=,SBCF
1669719600000,METAR SBCF 291100Z 12003KT 9999 FEW020 22/17 Q1010=,SBCF
1669723200000,METAR SBCF 291200Z 36004KT CAVOK 23/16 Q1010=,SBCF
1669726800000,METAR SBCF 291300Z 34002KT CAVOK 24/16 Q1010=,SBCF
1669730400000,METAR SBCF 291400Z 34006KT 9999 SCT035 26/17 Q1009=,SBCF
1669734000000,METAR SBCF 291500Z 31008KT 9999 SCT035 27/17 Q1008=,SBCF
1669737600000,METAR SBCF 291600Z 29005KT 9999 VCSH BKN040 FEW045TCU 27/18 Q1007=,SBCF
1669741200000,METAR SBCF 291700Z 25004KT 9999 BKN040 FEW045TCU 28/17 Q1006=,SBCF
1669744800000,METAR SBCF 291800Z 34007KT 9999 BKN040 FEW045TCU 28/17 Q1005=,SBCF
1669748400000,METAR COR SBCF 291900Z 06002KT 9999 VCSH SCT040 FEW045TCU 30/17 Q1004=,SBCF
1669749540000,SPECI SBCF 291919Z 01006KT 9999 TS VCSH BKN040 FEW045CB 28/17 Q1004=,SBCF
1669750200000,SPECI SBCF 291930Z 32020G30KT 4000 TSRA BKN040 FEW045CB 21/17 Q1005=,SBCF
1669750620000,SPECI SBCF 291937Z 31024G35KT 2500 +TSRA BKN040 FEW045CB 19/17 Q1005 RERA=,SBCF
1669750980000,SPECI COR SBCF 291943Z 13013G33KT 0350 R16R/0300 R34L/0375 +TSGRRA BKN040 FEW045CB 16/14 Q1008=,SBCF
1669752000000,METAR SBCF 292000Z 12021G33KT 2000 -TSRA FEW007 SCT030 FEW040CB 17/16 Q1005 RERA=,SBCF
1669752960000,SPECI SBCF 292016Z 07015KT 4000 -TSRA SCT030 FEW040CB BKN080 20/16 Q1005=,SBCF
1669753920000,SPECI SBCF 292032Z 09009KT 8000 VCTS SCT030 FEW040CB SCT080 22/16 Q1006 RETS=,SBCF
1669755600000,METAR SBCF 292100Z 11003KT 9999 VCTS SCT030 FEW040CB SCT080 21/15 Q1005 RETS=,SBCF
1669759200000,METAR SBCF 292200Z 12003KT 9999 VCTS SCT030 FEW040CB SCT100 20/14 Q1006=,SBCF
1669762800000,METAR SBCF 292300Z 04002KT 9999 VCTS FEW030 FEW040CB BKN100 20/17 Q1008=,SBCF
1669680000000,METAR SBCT 290000Z 13004KT 4000 -RA BR BKN006 OVC010 17/17 Q1012=,SBCT
1669683600000,METAR SBCT 290100Z 12008KT 4000 RA BKN007 BKN010 OVC100 17/17 Q1012=,SBCT
1669687200000,METAR SBCT 290200Z 13005KT 6000 -RA BKN007 OVC010 17/17 Q1012 RERA=,SBCT
1669690800000,METAR SBCT 290300Z 10005KT 4000 RA BKN005 OVC100 17/17 Q1012 RERA=,SBCT
1669694400000,METAR SBCT 290400Z 10003KT 4000 RA BKN004 OVC100 16/16 Q1011=,SBCT
1669698000000,METAR SBCT 290500Z 10005KT 8000 BKN005 BKN013 OVC100 16/16 Q1010 RERA=,SBCT
1669701600000,METAR SBCT 290600Z 15004KT 9999 BKN005 BKN009 16/16 Q1010=,SBCT
1669705200000,METAR SBCT 290700Z 12008KT 6000 -RA BKN006 OVC100 16/16 Q1010=,SBCT
1669708800000,METAR SBCT 290800Z 13007KT 8000 OVC005 16/16 Q1010=,SBCT
1669712400000,METAR SBCT 290900Z 11008KT 9999 BKN007 16/16 Q1010=,SBCT
1669716000000,METAR SBCT 291000Z 11009KT 4000 -DZ BR BKN005 BKN009 17/17 Q1011=,SBCT
1669719600000,METAR SBCT 291100Z 14007KT 3000 -RA BR BKN005 OVC010 17/17 Q1011=,SBCT
1669723200000,METAR SBCT 291200Z 09006KT 060V120 6000 -RA FEW003 BKN009 OVC015 18/18 Q1012=,SBCT
1669726800000,METAR SBCT 291300Z 08007KT 050V110 7000 SCT007 BKN012 OVC035 19/18 Q1011=,SBCT
1669730400000,METAR SBCT 291400Z 09007KT 8000 BKN012 OVC035 19/18 Q1011=,SBCT
1669734000000,METAR SBCT 291500Z 14010KT 7000 -RA BKN012 OVC030 21/18 Q1010=,SBCT
1669734900000,SPECI SBCT 291515Z 13011KT 080V160 3000 RA BR BKN012 BKN020 19/18 Q1011=,SBCT
1669737600000,METAR SBCT 291600Z 08008KT 5000 -RA BR BKN006 OVC015 19/19 Q1010 RERA=,SBCT
1669741200000,METAR SBCT 291700Z 11008KT 080V140 9999 FEW007 BKN012 BKN020 19/18 Q1009=,SBCT
1669743600000,SPECI SBCT 291740Z 12009KT 070V150 4000 -RA BR SCT007 BKN012 BKN020 19/18 Q1009=,SBCT
1669744800000,METAR SBCT 291800Z 12008KT 6000 -RA SCT007 BKN012 BKN025 18/18 Q1009=,SBCT
1669748400000,METAR SBCT 291900Z 12012KT 7000 -RA FEW008 BKN013 BKN020 20/17 Q1009=,SBCT
1669752000000,METAR SBCT 292000Z 12011KT 9000 BKN013 BKN020 20/18 Q1008=,SBCT
1669755600000,METAR SBCT 292100Z 12007KT 100V160 8000 3000SE -RA BKN010 BKN015 18/18 Q1009=,SBCT
1669759200000,METAR SBCT 292200Z 13010KT 4000 -RA BR BKN010 BKN015 17/17 Q1009=,SBCT
1669762800000,METAR SBCT 292300Z 14008KT 6000 BKN008 BKN015 17/17 Q1010=,SBCT
1669680000000,METAR SBFL 290000Z 12014KT 3000 RA BKN009 BKN019 22/22 Q1011=,SBFL
1669683600000,METAR SBFL 290100Z 12015KT 5000 -RA BKN007 OVC016 21/21 Q1012 RERA=,SBFL
1669687200000,METAR SBFL 290200Z 12016KT 5000 -RA BKN007 OVC016 21/21 Q1012=,SBFL
1669690800000,METAR SBFL 290300Z 12012KT 7000 VCSH BKN008 OVC020 21/21 Q1011=,SBFL
1669694400000,METAR SBFL 290400Z 11011KT 8000 VCSH BKN010 OVC022 22/21 Q1010=,SBFL
1669698000000,METAR SBFL 290500Z 13006KT 8000 VCSH BKN011 OVC020 22/21 Q1010=,SBFL
1669701600000,METAR SBFL 290600Z 12007KT 9999 BKN013 BKN020 21/20 Q1009=,SBFL
1669705200000,METAR SBFL 290700Z 15003KT 9999 BKN013 BKN022 21/21 Q1009=,SBFL
1669708800000,METAR SBFL 290800Z 13007KT 7000 VCSH BKN013 OVC022 22/21 Q1009=,SBFL
1669712400000,METAR SBFL 290900Z 13007KT 7000 VCSH BKN011 BKN020 22/21 Q1010=,SBFL
1669716000000,METAR SBFL 291000Z 14007KT 7000 VCSH BKN012 BKN027 22/21 Q1010=,SBFL
1669719600000,METAR SBFL 291100Z 14010KT 9999 BKN012 BKN027 23/21 Q1010=,SBFL
1669723200000,METAR SBFL 291200Z 13010KT 9999 -RA BKN014 BKN027 24/22 Q1010=,SBFL
1669726800000,METAR SBFL 291300Z 14012KT 9999 BKN014 BKN027 24/21 Q1010=,SBFL
1669730400000,METAR COR SBFL 291400Z 14013KT 4000 BR BKN014 BKN027 24/21 Q1010=,SBFL
1669734000000,METAR SBFL 291500Z 13011KT 4500 -RA BKN014 BKN027 23/21 Q1010=,SBFL
1669737600000,METAR SBFL 291600Z 13011KT 9999 BKN014 BKN027 24/22 Q1009=,SBFL
1669741200000,METAR SBFL 291700Z 12016KT 4500 -RA BKN014 BKN027 23/22 Q1008=,SBFL
1669744800000,METAR SBFL 291800Z 12017KT 4000 -RA BR BKN011 OVC040 24/21 Q1008=,SBFL
1669748400000,METAR SBFL 291900Z 14009KT 5000 -RA BKN014 BKN025 BKN080 23/22 Q1008=,SBFL
1669749960000,SPECI SBFL 291926Z 15012KT 2000 RA BKN014 BKN020 BKN080 22/21 Q1007=,SBFL
1669752000000,METAR SBFL 292000Z 13009KT 3000 -RA BKN010 BKN018 BKN070 22/22 Q1007 RERA=,SBFL
1669755600000,METAR SBFL 292100Z 11015KT 4000 -RA BKN010 BKN020 BKN070 22/21 Q1008=,SBFL
1669759200000,METAR SBFL 292200Z 11015KT 3000 -RA BKN010 BKN020 OVC070 22/21 Q1008=,SBFL
1669762800000,METAR SBFL 292300Z 12016KT 4500 -RA BKN012 OVC020 22/21 Q1009=,SBFL
1669680000000,METAR SBGL 290000Z 21003KT 9999 SCT017 FEW025TCU BKN060 24/22 Q1006=,SBGL
1669683600000,METAR SBGL 290100Z 11005KT 9000 -RA SCT012 OVC030 24/22 Q1006=,SBGL
1669687200000,METAR SBGL 290200Z 08005KT 9000 BKN012 OVC030 24/22 Q1006=,SBGL
1669690800000,METAR SBGL 290300Z 33003KT 9000 BKN012 BKN040 24/22 Q1005=,SBGL
1669694400000,METAR SBGL 290400Z 21005KT 9000 BKN012 BKN030 24/22 Q1005=,SBGL
1669698000000,METAR SBGL 290500Z 26005KT 9999 SCT012 BKN035 24/21 Q1004=,SBGL
1669701600000,METAR SBGL 290600Z 30003KT 9999 SCT015 BKN050 24/22 Q1004=,SBGL
1669705200000,METAR SBGL 290700Z 32005KT 9999 SCT014 BKN050 23/21 Q1004=,SBGL
1669708800000,METAR SBGL 290800Z 34005KT 9000 BKN013 OVC050 23/21 Q1005=,SBGL
1669712400000,METAR SBGL 290900Z 30003KT 9999 BKN013 OVC050 24/21 Q1005=,SBGL
1669716000000,METAR SBGL 291000Z 30003KT 9999 SCT013 BKN050 24/20 Q1005=,SBGL
1669719600000,METAR SBGL 291100Z 23005KT 9999 FEW017 SCT050 26/21 Q1006=,SBGL
1669723200000,METAR SBGL 291200Z 07009KT 9999 FEW023 28/21 Q1005=,SBGL
1669726800000,METAR SBGL 291300Z 13008KT 8000 SCT023 BKN100 27/22 Q1005=,SBGL
1669730400000,METAR SBGL 291400Z 15008KT 9999 SCT023 BKN100 27/22 Q1005=,SBGL
1669734000000,METAR SBGL 291500Z 12011KT 9999 SCT023 BKN100 28/22 Q1004=,SBGL
1669737600000,METAR SBGL 291600Z 16010KT 9999 SCT023 BKN100 30/22 Q1004=,SBGL
1669741200000,METAR SBGL 291700Z 13013KT 9999 SCT027 BKN100 29/22 Q1003=,SBGL
1669744800000,METAR SBGL 291800Z 10012KT 9999 SCT029 BKN100 30/21 Q1002=,SBGL
1669748400000,METAR SBGL 291900Z 08014KT 9999 VCSH SCT029 FEW030TCU BKN100 29/21 Q1002=,SBGL
1669752000000,METAR SBGL 292000Z 08012KT 9999 VCSH SCT029 FEW030TCU BKN100 26/21 Q1002=,SBGL
1669755600000,METAR SBGL 292100Z 10008KT 9999 SCT029 FEW030TCU BKN100 26/21 Q1003=,SBGL
1669759200000,METAR SBGL 292200Z 09010KT 9999 SCT029 FEW030TCU 25/21 Q1004=,SBGL
1669762800000,METAR SBGL 292300Z 10008KT 060V140 9999 FEW019 24/21 Q1005=,SBGL
1669680000000,METAR SBGR 290000Z 09004KT 9999 SCT017 BKN070 18/18 Q1010=,SBGR
1669683600000,METAR SBGR 290100Z 08004KT 9999 BKN007 18/18 Q1010=,SBGR
1669687200000,METAR SBGR 290200Z 15004KT 9999 BKN009 18/18 Q1010=,SBGR
1669690800000,METAR SBGR 290300Z 15005KT 9999 BKN014 18/17 Q1009=,SBGR
1669694400000,METAR SBGR 290400Z 07005KT 9999 BKN009 18/18 Q1009=,SBGR
1669698000000,METAR SBGR 290500Z 11003KT 9999 OVC006 18/18 Q1008=,SBGR
1669701600000,METAR SBGR 290600Z 09006KT 9999 OVC005 19/18 Q1008=,SBGR
1669705200000,METAR SBGR 290700Z 05006KT 9999 OVC008 18/17 Q1008=,SBGR
1669708800000,METAR SBGR 290800Z 08006KT 9999 OVC008 18/17 Q1008=,SBGR
1669712400000,METAR SBGR 290900Z 05005KT 9999 BKN007 18/17 Q1009=,SBGR
1669716000000,METAR SBGR 291000Z 08005KT 9999 BKN007 18/17 Q1009=,SBGR
1669719600000,METAR SBGR 291100Z 05003KT 9999 SCT008 BKN100 19/17 Q1010=,SBGR
1669723200000,METAR SBGR 291200Z 10003KT 9999 SCT011 BKN100 21/17 Q1010=,SBGR
1669726800000,METAR SBGR 291300Z 12003KT 9999 SCT020 23/18 Q1009=,SBGR
1669730400000,METAR SBGR 291400Z 04004KT 9999 SCT033 25/17 Q1009=,SBGR
1669734000000,METAR SBGR 291500Z 10004KT 9999 SCT040 25/18 Q1008=,SBGR
1669737600000,METAR SBGR 291600Z 03010KT 4500 -TSRA HZ BKN030 FEW040CB 23/19 Q1007=,SBGR
1669741200000,METAR SBGR 291700Z 08003KT 6000 -TSRA FEW040CB BKN070 21/19 Q1006=,SBGR
1669744800000,METAR SBGR 291800Z 17006KT 6000 VCSH SCT013 FEW040TCU OVC100 21/19 Q1006 RETS=,SBGR
1669748400000,METAR SBGR 291900Z 17009KT 9999 BKN013 BKN100 21/19 Q1006=,SBGR
1669752000000,METAR SBGR 292000Z 16006KT 9999 SCT011 OVC020 21/18 Q1007=,SBGR
1669755600000,METAR SBGR 292100Z 11006KT 9999 -RA BKN013 OVC100 20/18 Q1007=,SBGR
1669759200000,METAR SBGR 292200Z 08008KT 9999 BKN013 20/18 Q1008=,SBGR
1669762800000,METAR SBGR 292300Z 14003KT 9999 BKN009 BKN020 20/18 Q1009=,SBGR
1669680000000,METAR SBKP 290000Z 14011KT CAVOK 18/17 Q1008=,SBKP
1669683600000,METAR SBKP 290100Z 12010KT CAVOK 18/17 Q1008=,SBKP
1669687200000,METAR SBKP 290200Z 12007KT CAVOK 18/17 Q1008=,SBKP
1669690800000,METAR SBKP 290300Z 13008KT CAVOK 18/17 Q1008=,SBKP
1669694400000,METAR SBKP 290400Z 12009KT CAVOK 18/17 Q1007=,SBKP
1669698000000,METAR SBKP 290500Z 12008KT CAVOK 18/17 Q1007=,SBKP
1669701600000,METAR SBKP 290600Z 12009KT CAVOK 18/16 Q1006=,SBKP
1669705200000,METAR SBKP 290700Z 12008KT CAVOK 18/16 Q1006=,SBKP
1669708800000,METAR SBKP 290800Z 11007KT CAVOK 18/16 Q1007=,SBKP
1669712400000,METAR SBKP 290900Z 12006KT CAVOK 18/16 Q1007=,SBKP
1669716000000,METAR SBKP 291000Z 12006KT CAVOK 20/17 Q1008=,SBKP
1669719600000,METAR SBKP 291100Z 13007KT CAVOK 21/17 Q1008=,SBKP
1669723200000,METAR SBKP 291200Z 07006KT 030V120 9999 FEW030 23/16 Q1008=,SBKP
1669726800000,METAR SBKP 291300Z VRB04KT 9999 FEW030 24/16 Q1008=,SBKP
1669730400000,METAR SBKP 291400Z VRB03KT 9999 FEW035 25/16 Q1008=,SBKP
1669734000000,METAR SBKP 291500Z VRB04KT 9999 FEW040 26/16 Q1007=,SBKP
1669737600000,METAR SBKP 291600Z 30006KT 260V340 9999 SCT040 27/18 Q1005=,SBKP
1669741200000,METAR SBKP 291700Z VRB06KT 9999 SCT040 28/17 Q1004=,SBKP
1669744800000,METAR SBKP 291800Z 29005KT 240V360 9999 FEW045 FEW050TCU 28/16 Q1003=,SBKP
1669748400000,METAR SBKP 291900Z 22007KT 9999 TS SCT045 FEW050CB SCT080 29/15 Q1003=,SBKP
1669749060000,SPECI COR SBKP 291911Z 13021KT 9999 TS VCSH SCT045 FEW050CB SCT080 24/17 Q1004 WS R33=,SBKP
1669752000000,METAR SBKP 292000Z 14017KT 9999 TS VCSH BKN033 FEW050CB SCT080 23/17 Q1004 WS R15=,SBKP
1669755600000,METAR SBKP 292100Z 10011KT 9999 TS VCSH SCT033 BKN050 FEW050CB 22/18 Q1005=,SBKP
1669759200000,METAR COR SBKP 292200Z 09008KT 8000 -TSRA BKN033 FEW050CB OVC100 20/19 Q1007=,SBKP
1669761480000,SPECI SBKP 292238Z 07010KT 9999 -TSRA BKN008 BKN030 FEW035CB 20/19 Q1007=,SBKP
1669762800000,METAR SBKP 292300Z 06007KT 9999 -RA SCT007 SCT030 OVC080 20/19 Q1007 RETS=,SBKP
1669680000000,METAR SBPA 290000Z 10014KT 9999 FEW019 BKN035 22/19 Q1013=,SBPA
1669683600000,METAR SBPA 290100Z 11012KT 9999 BKN017 22/19 Q1014=,SBPA
1669687200000,METAR SBPA 290200Z 11012KT 9999 SCT017 22/19 Q1013=,SBPA
1669690800000,METAR SBPA 290300Z 11009KT 9999 SCT015 22/19 Q1012=,SBPA
1669694400000,METAR SBPA 290400Z 11013KT 9999 SCT015 21/19 Q1012=,SBPA
1669698000000,METAR SBPA 290500Z 11013KT 9999 FEW015 21/19 Q1011=,SBPA
1669701600000,METAR SBPA 290600Z 11012KT 9999 FEW015 21/19 Q1010=,SBPA
1669705200000,METAR SBPA 290700Z 12010KT 9999 FEW015 20/19 Q1010=,SBPA
1669708800000,METAR SBPA 290800Z 12009KT 9999 FEW012 20/18 Q1010=,SBPA
1669712400000,METAR SBPA 290900Z 11009KT 9999 FEW012 21/19 Q1010=,SBPA
1669716000000,METAR SBPA 291000Z 11012KT 9999 FEW015 22/19 Q1011=,SBPA
1669719600000,METAR SBPA 291100Z 10013KT 9999 BKN017 24/19 Q1011=,SBPA
1669723200000,METAR SBPA 291200Z 11014KT 9999 BKN021 BKN040 25/19 Q1011=,SBPA
1669726800000,METAR SBPA 291300Z 11013KT 080V140 9999 BKN023 BKN043 26/20 Q1011=,SBPA
1669730400000,METAR SBPA 291400Z 11014KT 090V150 9999 BKN024 BKN045 26/20 Q1011=,SBPA
1669734000000,METAR SBPA 291500Z 11016KT 080V140 9999 BKN024 BKN045 27/20 Q1010=,SBPA
1669737600000,METAR SBPA 291600Z 10014KT 070V130 9999 BKN029 BKN050 28/20 Q1009=,SBPA
1669741200000,METAR SBPA 291700Z 10017KT 9999 SCT026 BKN050 27/21 Q1009=,SBPA
1669744800000,METAR SBPA 291800Z 11017KT 9999 SCT026 27/21 Q1008=,SBPA
1669748400000,METAR SBPA 291900Z 09022KT 9999 SCT030 27/20 Q1007=,SBPA
1669752000000,METAR SBPA 292000Z 10021G31KT 9999 FEW040 27/19 Q1007=,SBPA
1669755600000,METAR SBPA 292100Z 10022KT 9999 FEW040 26/19 Q1007=,SBPA
1669759200000,METAR SBPA 292200Z 10020KT CAVOK 24/19 Q1007=,SBPA
1669762800000,METAR SBPA 292300Z 10018KT CAVOK 23/19 Q1008=,SBPA
1669680000000,METAR SBRF 290000Z 04006KT 9999 BKN023 27/22 Q1008=,SBRF
1669683600000,METAR SBRF 290100Z 05006KT 020V090 9999 SCT023 BKN050 27/22 Q1008=,SBRF
1669687200000,METAR SBRF 290200Z 04006KT 010V070 9999 SCT023 SCT100 27/21 Q1008=,SBRF
1669690800000,METAR SBRF 290300Z 03006KT 9999 SCT023 SCT100 27/21 Q1008=,SBRF
1669694400000,METAR SBRF 290400Z 03005KT 340V060 9999 SCT023 BKN050 27/21 Q1007=,SBRF
1669698000000,METAR SBRF 290500Z 21008KT 9000 VCSH BKN020 BKN050 25/21 Q1007=,SBRF
1669701600000,METAR SBRF 290600Z 02004KT 340V060 9999 BKN020 BKN050 25/22 Q1007=,SBRF
1669705200000,METAR SBRF 290700Z 36004KT 320V050 9000 VCSH SCT015 BKN020 OVC050 25/22 Q1007=,SBRF
1669708800000,METAR SBRF 290800Z 31005KT 9999 VCSH BKN023 OVC050 24/22 Q1007=,SBRF
1669712400000,METAR SBRF 290900Z 01004KT 320V070 8000 -RA BKN020 BKN050 24/22 Q1008=,SBRF
1669716000000,METAR SBRF 291000Z VRB02KT 8000 VCSH BKN020 BKN050 25/22 Q1008=,SBRF
1669719600000,METAR SBRF 291100Z 35007KT 330V030 9000 VCSH BKN020 BKN050 25/22 Q1008=,SBRF
1669723200000,METAR SBRF 291200Z 31005KT 280V340 8000 VCSH BKN020 OVC050 25/23 Q1008=,SBRF
1669726800000,METAR SBRF 291300Z 06004KT 020V080 8000 VCSH BKN020 OVC050 26/23 Q1008=,SBRF
1669730400000,METAR SBRF 291400Z 02006KT 340V070 9000 VCSH BKN020 OVC050 26/22 Q1008=,SBRF
1669734000000,METAR SBRF 291500Z 05006KT 360V100 9000 VCSH BKN020 OVC050 27/22 Q1007=,SBRF
1669737600000,METAR SBRF 291600Z 04007KT 010V080 9999 VCSH SCT025 OVC050 28/22 Q1006=,SBRF
1669741200000,METAR SBRF 291700Z 04008KT 010V080 9999 SCT025 OVC050 28/22 Q1005=,SBRF
1669744800000,METAR SBRF 291800Z 05009KT 360V090 9999 SCT025 BKN050 28/22 Q1005=,SBRF
1669748400000,METAR SBRF 291900Z 04009KT 010V070 9999 SCT023 BKN050 27/21 Q1005=,SBRF
1669752000000,METAR SBRF 292000Z 05009KT 020V080 9999 SCT023 BKN050 27/21 Q1005=,SBRF
1669755600000,METAR SBRF 292100Z 05006KT 360V080 9999 SCT023 27/21 Q1006=,SBRF
1669759200000,METAR SBRF 292200Z 05006KT 010V090 9999 SCT023 27/21 Q1007=,SBRF
1669762800000,METAR SBRF 292300Z 05006KT 360V080 9999 BKN023 27/21 Q1007=,SBRF
1669680000000,METAR SBRJ 290000Z 18008KT 9999 SCT015 BKN100 24/22 Q1006=,SBRJ
1669683600000,METAR SBRJ 290100Z 15004KT 9000 -RA SCT015 BKN100 24/22 Q1006=,SBRJ
1669687200000,METAR SBRJ 290200Z VRB02KT 9999 SCT015 BKN100 24/22 Q1005=,SBRJ
1669690800000,METAR SBRJ 290300Z VRB01KT 9999 SCT013 BKN090 24/22 Q1005=,SBRJ
1669694400000,METAR SBRJ 290400Z VRB02KT 9999 SCT018 SCT050 BKN090 24/22 Q1004=,SBRJ
1669698000000,METAR SBRJ 290500Z 13002KT 9999 SCT018 BKN100 24/22 Q1004=,SBRJ
1669701600000,METAR SBRJ 290600Z 12004KT 9999 SCT013 BKN100 24/23 Q1004=,SBRJ
1669705200000,METAR SBRJ 290700Z 14004KT 9999 SCT013 SCT050 BKN100 24/22 Q1004=,SBRJ
1669708800000,METAR SBRJ 290800Z 06006KT 9999 SCT013 BKN050 24/22 Q1004=,SBRJ
1669712400000,METAR SBRJ 290900Z 04005KT 9999 SCT013 SCT050 24/21 Q1005=,SBRJ
1669716000000,METAR SBRJ 291000Z 01004KT 9999 SCT010 BKN050 24/22 Q1005=,SBRJ
1669716900000,SPECI SBRJ 291015Z 01003KT 9999 BKN010 BKN050 24/22 Q1005=,SBRJ
1669719600000,METAR SBRJ 291100Z 05003KT 9999 SCT012 SCT050 25/23 Q1005=,SBRJ
1669723200000,METAR SBRJ 291200Z 36003KT 320V050 9999 FEW018 SCT025 26/22 Q1005=,SBRJ
1669726800000,METAR SBRJ 291300Z 15008KT 9999 FEW018 SCT025 BKN100 25/22 Q1005=,SBRJ
1669730400000,METAR SBRJ 291400Z 16009KT 9999 FEW018 SCT025 BKN100 26/22 Q1005=,SBRJ
1669734000000,METAR SBRJ 291500Z 18009KT 9999 FEW018 SCT025 BKN100 26/23 Q1004=,SBRJ
1669737600000,METAR SBRJ 291600Z 19010KT 9999 FEW020 SCT030 BKN100 27/23 Q1004=,SBRJ
1669741200000,METAR SBRJ 291700Z 09012KT 9999 SCT020 FEW035TCU BKN100 27/23 Q1003=,SBRJ
1669744800000,METAR SBRJ 291800Z 11009KT 080V180 9999 SCT020 BKN100 28/23 Q1002=,SBRJ
1669748400000,METAR SBRJ 291900Z 09011KT 9999 SCT020 FEW035TCU BKN100 28/22 Q1002=,SBRJ
1669752000000,METAR SBRJ 292000Z 07011KT 9999 VCSH SCT025 FEW040TCU BKN100 27/22 Q1002=,SBRJ
1669755600000,METAR SBRJ 292100Z 08011KT 9999 SCT030 FEW040TCU BKN100 26/22 Q1003=,SBRJ
1669759200000,METAR SBRJ 292200Z 08008KT 9999 BKN035 BKN100 25/21 Q1004=,SBRJ
1669762800000,METAR SBRJ 292300Z 06007KT 9999 FEW020 SCT040 BKN100 25/21 Q1004=,SBRJ
1669680000000,METAR SBSP 290000Z 13007KT 9999 FEW009 BKN019 18/16 Q1011=,SBSP
1669683600000,METAR SBSP 290100Z 15005KT 9999 FEW011 BKN030 18/16 Q1011=,SBSP
1669687200000,METAR SBSP 290200Z 16007KT 9999 FEW023 BKN030 18/17 Q1011=,SBSP
1669687260000,SPECI SBSP 290201Z 15005KT 9999 FEW022 BKN027 18/17 Q1011=,SBSP
1669690800000,METAR SBSP 290300Z AUTO 17005KT 9999 FEW015 SCT021 18/17 Q1010=,SBSP
1669691940000,SPECI SBSP 290319Z AUTO 16006KT 9999 FEW006 BKN014 BKN018 18/17 Q1010=,SBSP
1669692840000,SPECI SBSP 290334Z AUTO 16005KT 9999 FEW006 SCT014 BKN016 18/17 Q1009=,SBSP
1669692900000,SPECI SBSP 290335Z AUTO 16005KT 9999 FEW006 BKN014 BKN023 18/17 Q1010=,SBSP
1669693620000,SPECI SBSP 290347Z AUTO 16006KT 9999 BKN006 BKN014 OVC023 18/17 Q1009=,SBSP
1669694400000,METAR SBSP 290400Z AUTO 16006KT 9999 BKN006 BKN014 OVC023 18/17 Q1009=,SBSP
1669695300000,SPECI SBSP 290415Z AUTO 15004KT 9999 BKN005 OVC019 18/17 Q1009=,SBSP
1669698000000,METAR SBSP 290500Z AUTO 14004KT 9999 FEW004 BKN006 OVC017 18/17 Q1009=,SBSP
1669698060000,SPECI SBSP 290501Z AUTO 13004KT 9999 BKN005 BKN014 OVC017 18/17 Q1009=,SBSP
1669698960000,SPECI SBSP 290516Z AUTO 14005KT 9999 FEW005 BKN014 OVC019 18/17 Q1008=,SBSP
1669699620000,SPECI SBSP 290527Z AUTO 15004KT 9999 FEW005 BKN015 OVC017 18/17 Q1008=,SBSP
1669701600000,METAR SBSP 290600Z AUTO 15004KT 9999 FEW006 OVC016 18/17 Q1008=,SBSP
1669704000000,SPECI SBSP 290640Z AUTO 15004KT 110V180 9999 FEW008 OVC014 18/17 Q1008=,SBSP
1669705200000,METAR SBSP 290700Z AUTO 17005KT 9999 SCT010 OVC013 18/17 Q1008=,SBSP
1669706940000,SPECI SBSP 290729Z AUTO 14004KT 9999 FEW009 SCT011 OVC026 18/17 Q1008=,SBSP
1669707240000,SPECI SBSP 290734Z AUTO 14003KT 100V160 9999 FEW009 BKN011 OVC026 18/17 Q1008=,SBSP
1669708680000,SPECI SBSP 290758Z AUTO 14003KT 9999 FEW010 SCT012 BKN022 18/17 Q1009=,SBSP
1669708800000,METAR SBSP 290800Z AUTO 14003KT 9999 FEW010 SCT012 BKN022 18/17 Q1009=,SBSP
1669712400000,METAR SBSP 290900Z 13004KT 090V150 9999 SCT009 BKN019 18/17 Q1009=,SBSP
1669716000000,METAR SBSP 291000Z 09003KT 060V120 9999 SCT009 BKN100 19/17 Q1010=,SBSP
1669717200000,SPECI SBSP 291020Z 12002KT 9999 SCT009 BKN011 BKN100 20/17 Q1010=,SBSP
1669719600000,METAR SBSP 291100Z 09004KT 040V130 9999 SCT009 BKN100 20/17 Q1010=,SBSP
1669723200000,METAR SBSP 291200Z 09002KT 9999 BKN017 OVC066 21/17 Q1011=,SBSP
1669726800000,METAR SBSP 291300Z VRB03KT 9999 SCT023 23/17 Q1010=,SBSP
1669730400000,METAR SBSP 291400Z VRB04KT 9999 FEW036 BKN040 25/16 Q1009=,SBSP
1669734000000,METAR SBSP 291500Z VRB02KT 9999 BKN036 FEW040TCU BKN050 25/15 Q1008=,SBSP
1669737600000,METAR SBSP 291600Z 17009KT 140V200 9999 BKN030 FEW040TCU 25/18 Q1007=,SBSP
1669738620000,SPECI SBSP 291617Z 16015KT 9999 TS VCSH BKN030 FEW040CB 23/18 Q1007=,SBSP
1669739880000,SPECI COR SBSP 291638Z 15018KT 5000 TSRA BR FEW007 BKN013 FEW040CB 20/19 Q1007=,SBSP
1669741200000,METAR SBSP 291700Z 16014KT 1500 R35/0150N R17/0800D +TSRA BR FEW006 BKN011 FEW040CB 20/19 Q1007 RERA=,SBSP
1669741800000,SPECI SBSP 291710Z 16016KT 5000 -TSRA BR FEW006 BKN011 FEW046CB 20/19 Q1007 RERA=,SBSP
1669744800000,METAR SBSP 291800Z 14011KT 8000 -TSRA FEW005 BKN009 FEW040CB BKN100 20/19 Q1008 RERA=,SBSP
1669748400000,METAR SBSP 291900Z 16010KT 9000 -RA SCT006 BKN009 FEW040TCU BKN090 19/18 Q1007 RETS=,SBSP
1669752000000,METAR SBSP 292000Z 15011KT 9999 -RA SCT006 OVC009 19/18 Q1008=,SBSP
1669755600000,METAR SBSP 292100Z 15010KT 9999 -DZ SCT003 OVC005 18/18 Q1008=,SBSP
1669759200000,METAR SBSP 292200Z 14008KT 9999 -DZ FEW005 BKN007 OVC015 18/17 Q1009=,SBSP
1669759860000,SPECI SBSP 292211Z 13006KT 100V160 9999 SCT009 OVC015 18/17 Q1009=,SBSP
1669762800000,METAR SBSP 292300Z 13004KT 100V160 9999 OVC009 19/17 Q1009=,SBSP
1669680000000,METAR SBSV 290000Z 33007KT 9999 -SHRA SCT015 FEW023TCU BKN080 24/23 Q1008=,SBSV
1669683600000,METAR SBSV 290100Z 36009KT 8000 -RA FEW008 SCT015 FEW023TCU BKN080 24/23 Q1008=,SBSV
1669687200000,METAR SBSV 290200Z 34006KT 9999 FEW008 SCT020 FEW023TCU BKN100 24/23 Q1007=,SBSV
1669690800000,METAR SBSV 290300Z 35004KT 9999 SCT020 FEW023TCU BKN100 24/23 Q1006=,SBSV
1669694400000,METAR SBSV 290400Z 02003KT 9999 FEW020 SCT100 24/23 Q1006=,SBSV
1669698000000,METAR SBSV 290500Z 36003KT 9999 FEW020 SCT100 24/23 Q1005=,SBSV
1669701600000,METAR SBSV 290600Z 03003KT 9999 FEW020 SCT100 23/23 Q1005=,SBSV
1669705200000,METAR SBSV 290700Z 01005KT CAVOK 23/23 Q1005=,SBSV
1669708800000,METAR SBSV 290800Z 36003KT CAVOK 24/22 Q1006=,SBSV
1669712400000,METAR SBSV 290900Z 01003KT 9999 FEW020 BKN100 24/23 Q1006=,SBSV
1669716000000,METAR SBSV 291000Z 01005KT 9999 SCT020 BKN100 25/23 Q1006=,SBSV
1669719600000,METAR SBSV 291100Z 35005KT 9999 SCT020 BKN100 26/23 Q1006=,SBSV
1669723200000,METAR SBSV 291200Z 35005KT 9999 SCT020 BKN100 28/24 Q1006=,SBSV
1669726800000,METAR SBSV 291300Z 31004KT 9999 SCT020 BKN100 29/23 Q1006=,SBSV
1669730400000,METAR SBSV 291400Z 09008KT 9999 SCT020 SCT100 28/24 Q1005=,SBSV
1669734000000,METAR SBSV 291500Z 09010KT 9999 SCT020 SCT100 29/24 Q1005=,SBSV
1669737600000,METAR SBSV 291600Z 07014KT 9999 SCT020 SCT100 28/25 Q1004=,SBSV
1669741200000,METAR SBSV 291700Z 06015KT 9999 SCT020 BKN100 27/25 Q1003=,SBSV
1669744800000,METAR SBSV 291800Z 06015KT 8000 VCSH SCT020 FEW023TCU BKN100 27/24 Q1002=,SBSV
1669748400000,METAR SBSV 291900Z 06011KT 9000 VCSH SCT020 FEW023TCU BKN100 27/23 Q1002=,SBSV
1669752000000,METAR SBSV 292000Z 05010KT 9999 SCT020 FEW023TCU BKN100 26/23 Q1003=,SBSV
1669755600000,METAR SBSV 292100Z 03008KT 360V080 8000 VCSH SCT020 FEW023TCU BKN100 26/23 Q1003=,SBSV
1669756800000,SPECI SBSV 292120Z 04009KT 9999 TS SCT020 FEW023CB BKN080 26/24 Q1004=,SBSV
1669759200000,METAR SBSV 292200Z 04008KT 360V070 9999 TS SCT020 FEW023CB BKN080 26/23 Q1005=,SBSV
1669762800000,METAR SBSV 292300Z 02010KT 9999 VCTS SCT020 FEW023CB BKN080 26/24 Q1005 RETS=,SBSV
