hora,metar,aero
1663545600000,METAR SBBR 190000Z 31008KT 9999 FEW040 FEW045TCU SCT100 21/17 Q1019=,SBBR
1663549200000,METAR SBBR 190100Z 30007KT 9999 SCT045 BKN090 20/17 Q1019=,SBBR
1663552800000,METAR SBBR 190200Z 30002KT 9999 FEW045 BKN090 19/16 Q1019=,SBBR
1663556400000,METAR SBBR 190300Z VRB02KT 9999 FEW045 OVC100 20/15 Q1018=,SBBR
1663560000000,METAR SBBR 190400Z VRB02KT 9999 FEW045 BKN100 20/16 Q1017=,SBBR
1663563600000,METAR SBBR 190500Z VRB02KT 9999 FEW045 BKN100 20/16 Q1017=,SBBR
1663567200000,METAR SBBR 190600Z 11003KT 090V160 9999 FEW045 OVC100 20/17 Q1017=,SBBR
1663570800000,METAR SBBR 190700Z 27004KT 9999 FEW045 BKN100 20/17 Q1017=,SBBR
1663574400000,METAR SBBR 190800Z VRB02KT 9999 FEW045 BKN100 20/16 Q1017=,SBBR
1663578000000,METAR SBBR 190900Z VRB01KT 9999 FEW045 BKN100 20/17 Q1018=,SBBR
1663581600000,METAR SBBR 191000Z 30005KT 260V330 9999 FEW045 BKN100 20/17 Q1019=,SBBR
1663585200000,METAR SBBR 191100Z 00000KT CAVOK 21/17 Q1020=,SBBR
1663588800000,METAR SBBR 191200Z 33001KT 9000 NSC 22/18 Q1020=,SBBR
1663592400000,METAR SBBR 191300Z 10004KT 070V140 9000 NSC 22/16 Q1020=,SBBR
1663596000000,METAR SBBR 191400Z VRB02KT CAVOK 23/17 Q1020=,SBBR
1663599600000,METAR SBBR 191500Z 05004KT 010V100 CAVOK 25/16 Q1019=,SBBR
1663603200000,METAR SBBR 191600Z 14001KT CAVOK 25/16 Q1018=,SBBR
1663606800000,METAR SBBR 191700Z 08001KT CAVOK 26/16 Q1017=,SBBR
1663610400000,METAR SBBR 191800Z VRB02KT CAVOK 27/16 Q1016=,SBBR
1663614000000,METAR SBBR 191900Z 27003KT 210V320 CAVOK 27/15 Q1015=,SBBR
1663617600000,METAR SBBR 192000Z VRB02KT 9999 FEW030 BKN100 27/16 Q1016=,SBBR
1663621200000,METAR SBBR 192100Z 27004KT CAVOK 26/17 Q1016=,SBBR
1663624800000,METAR SBBR 192200Z 33006KT CAVOK 25/16 Q1017=,SBBR
1663628400000,METAR SBBR 192300Z 33004KT 280V360 CAVOK 24/16 Q1017=,SBBR
1663545600000,METAR SBCF 190000Z 08008KT CAVOK 19/12 Q1019=,SBCF
1663549200000,METAR SBCF 190100Z 10008KT CAVOK 18/12 Q1019=,SBCF
1663552800000,METAR SBCF 190200Z 12005KT CAVOK 16/12 Q1019=,SBCF
1663556400000,METAR SBCF 190300Z 12006KT CAVOK 16/12 Q1019=,SBCF
1663560000000,METAR SBCF 190400Z 11005KT CAVOK 16/12 Q1019=,SBCF
1663563600000,METAR SBCF 190500Z 12008KT CAVOK 15/12 Q1019=,SBCF
1663567200000,METAR SBCF 190600Z 11007KT CAVOK 15/12 Q1018=,SBCF
1663570800000,METAR SBCF 190700Z 11007KT CAVOK 15/12 Q1018=,SBCF
1663574400000,METAR SBCF 190800Z 11006KT CAVOK 15/12 Q1019=,SBCF
1663578000000,METAR SBCF 190900Z 11007KT CAVOK 15/12 Q1019=,SBCF
1663581600000,METAR SBCF 191000Z 15003KT CAVOK 15/12 Q1019=,SBCF
1663585200000,METAR SBCF 191100Z 14007KT CAVOK 18/12 Q1020=,SBCF
1663588800000,METAR SBCF 191200Z 10007KT CAVOK 20/12 Q1020=,SBCF
1663592400000,METAR SBCF 191300Z 10008KT CAVOK 22/13 Q1020=,SBCF
1663596000000,METAR SBCF 191400Z 08008KT CAVOK 23/13 Q1019=,SBCF
1663599600000,METAR SBCF 191500Z 09009KT CAVOK 24/13 Q1018=,SBCF
1663603200000,METAR SBCF 191600Z 08008KT CAVOK 26/13 Q1017=,SBCF
1663606800000,METAR SBCF 191700Z 07007KT 310V120 9999 FEW035 26/13 Q1016=,SBCF
1663610400000,METAR SBCF 191800Z 08009KT 340V120 9999 FEW040 26/13 Q1015=,SBCF
1663614000000,METAR SBCF 191900Z 08009KT 050V110 9999 FEW040 26/13 Q1015=,SBCF
1663617600000,METAR SBCF 192000Z 08009KT 9999 FEW045 26/13 Q1015=,SBCF
1663621200000,METAR SBCF 192100Z 09011KT 9999 FEW045 23/14 Q1015=,SBCF
1663624800000,METAR SBCF 192200Z 09013KT CAVOK 20/13 Q1016=,SBCF
1663628400000,METAR SBCF 192300Z 10012KT CAVOK 19/13 Q1016=,SBCF
1663545600000,METAR SBCT 190000Z 09008KT 9999 BKN007 BKN010 12/11 Q1020=,SBCT
1663549200000,METAR SBCT 190100Z 09008KT 9999 OVC007 12/11 Q1020=,SBCT
1663552800000,METAR SBCT 190200Z 09006KT 9999 BKN008 BKN015 11/11 Q1020=,SBCT
1663556400000,METAR SBCT 190300Z 08006KT 9999 BKN012 11/10 Q1020=,SBCT
1663560000000,METAR SBCT 190400Z 07007KT 9999 SCT010 10/09 Q1020=,SBCT
1663563600000,METAR SBCT 190500Z 07009KT 9999 SCT010 10/09 Q1019=,SBCT
1663567200000,METAR SBCT 190600Z 06005KT 9999 BKN010 10/09 Q1019=,SBCT
1663570800000,METAR SBCT 190700Z 07006KT 9999 BKN010 10/10 Q1018=,SBCT
1663574400000,METAR SBCT 190800Z 04004KT 010V070 9999 BKN010 11/10 Q1018=,SBCT
1663578000000,METAR SBCT 190900Z 03003KT 360V060 9999 BKN012 11/10 Q1019=,SBCT
1663581600000,METAR SBCT 191000Z 05004KT 020V090 9999 FEW007 BKN013 11/09 Q1020=,SBCT
1663582800000,SPECI SBCT 191020Z 08004KT 9999 FEW006 11/10 Q1019=,SBCT
1663585200000,METAR SBCT 191100Z 08005KT 9999 FEW009 12/10 Q1019=,SBCT
1663588800000,METAR SBCT 191200Z 08010KT 9999 FEW011 14/08 Q1019=,SBCT
1663592400000,METAR SBCT 191300Z 08011KT 9999 FEW020 16/10 Q1019=,SBCT
1663596000000,METAR SBCT 191400Z 07011KT 9999 FEW023 16/09 Q1019=,SBCT
1663599600000,METAR SBCT 191500Z 09007KT 9999 FEW023 16/10 Q1018=,SBCT
1663603200000,METAR SBCT 191600Z 11005KT 9999 FEW025 16/10 Q1017=,SBCT
1663606800000,METAR SBCT 191700Z 19005KT 150V290 9999 BKN030 17/10 Q1017=,SBCT
1663610400000,METAR SBCT 191800Z 17006KT 130V220 9999 SCT040 17/11 Q1017=,SBCT
1663614000000,METAR SBCT 191900Z 22003KT 120V250 9999 SCT040 17/10 Q1017=,SBCT
1663617600000,METAR SBCT 192000Z 16005KT 140V200 9999 SCT030 17/11 Q1016=,SBCT
1663621200000,METAR SBCT 192100Z 10005KT 9000 -RA SCT030 OVC100 15/13 Q1016=,SBCT
1663624800000,METAR SBCT 192200Z 07006KT 6000 -RA SCT030 OVC100 14/13 Q1015=,SBCT
1663627020000,SPECI SBCT 192237Z 11006KT 080V140 6000 -RADZ BKN003 OVC100 13/13 Q1015=,SBCT
1663628400000,METAR SBCT 192300Z 11004KT 080V140 6000 -RA BKN007 OVC100 13/13 Q1015=,SBCT
1663545600000,METAR SBFL 190000Z 01003KT 9999 FEW030 17/12 Q1019=,SBFL
1663549200000,METAR SBFL 190100Z 03004KT 9999 SCT040 17/13 Q1019=,SBFL
1663552800000,METAR SBFL 190200Z 35004KT 9999 FEW030 17/14 Q1019=,SBFL
1663556400000,METAR SBFL 190300Z 32004KT 9999 FEW030 17/14 Q1019=,SBFL
1663560000000,METAR SBFL 190400Z 03002KT 9999 FEW030 17/14 Q1018=,SBFL
1663563600000,METAR SBFL 190500Z 33006KT 9999 FEW030 17/14 Q1018=,SBFL
1663567200000,METAR SBFL 190600Z 32003KT 9999 FEW030 16/13 Q1018=,SBFL
1663570800000,METAR SBFL 190700Z 28004KT 9999 FEW030 15/14 Q1018=,SBFL
1663574400000,METAR SBFL 190800Z 27005KT CAVOK 15/13 Q1018=,SBFL
1663578000000,METAR SBFL 190900Z 32004KT 9999 FEW030 15/14 Q1018=,SBFL
1663581600000,METAR SBFL 191000Z 28006KT 9999 FEW030 16/14 Q1019=,SBFL
1663585200000,METAR SBFL 191100Z 32004KT 9999 FEW030 17/15 Q1019=,SBFL
1663588800000,METAR SBFL 191200Z 31006KT 9999 FEW030 18/15 Q1018=,SBFL
1663592400000,METAR SBFL 191300Z 33008KT 9999 FEW030 19/15 Q1018=,SBFL
1663596000000,METAR SBFL 191400Z 36011KT 9999 FEW030 21/14 Q1017=,SBFL
1663599600000,METAR SBFL 191500Z 34013KT 9999 SCT030 21/14 Q1016=,SBFL
1663603200000,METAR SBFL 191600Z 35013KT 9999 SCT043 21/14 Q1015=,SBFL
1663606800000,METAR SBFL 191700Z 32012KT 9999 SCT043 21/13 Q1015=,SBFL
1663610400000,METAR SBFL 191800Z 32015KT 9999 SCT043 21/13 Q1015=,SBFL
1663614000000,METAR SBFL 191900Z 34012KT 9999 SCT043 20/13 Q1014=,SBFL
1663617600000,METAR SBFL 192000Z 35011KT 9000 -RA SCT030 19/14 Q1013=,SBFL
1663621200000,METAR COR SBFL 192100Z 03004KT 4500 -RA BKN025 18/15 Q1013=,SBFL
1663624800000,METAR SBFL 192200Z 31008KT 9999 -RA BKN013 SCT030 17/16 Q1013=,SBFL
1663628400000,METAR SBFL 192300Z 28005KT 9999 -RA BKN013 SCT030 17/16 Q1013=,SBFL
1663545600000,METAR SBGL 190000Z 10004KT CAVOK 19/14 Q1019=,SBGL
1663549200000,METAR SBGL 190100Z 09002KT 9999 FEW025 BKN050 18/14 Q1020=,SBGL
1663552800000,METAR SBGL 190200Z 09003KT CAVOK 17/14 Q1019=,SBGL
1663556400000,METAR SBGL 190300Z 07003KT CAVOK 17/14 Q1019=,SBGL
1663560000000,METAR SBGL 190400Z 35004KT CAVOK 17/14 Q1019=,SBGL
1663563600000,METAR SBGL 190500Z 01003KT CAVOK 16/14 Q1018=,SBGL
1663567200000,METAR SBGL 190600Z 33005KT CAVOK 16/13 Q1018=,SBGL
1663570800000,METAR SBGL 190700Z 35002KT CAVOK 15/13 Q1018=,SBGL
1663574400000,METAR SBGL 190800Z 02004KT CAVOK 15/13 Q1018=,SBGL
1663578000000,METAR SBGL 190900Z 33004KT CAVOK 15/13 Q1019=,SBGL
1663581600000,METAR SBGL 191000Z 34003KT CAVOK 17/14 Q1019=,SBGL
1663585200000,METAR SBGL 191100Z 36003KT 300V050 9999 FEW015 19/14 Q1020=,SBGL
1663588800000,METAR SBGL 191200Z 35006KT 320V040 9999 FEW015 20/14 Q1019=,SBGL
1663592400000,METAR SBGL 191300Z 08006KT 030V120 9999 FEW020 22/13 Q1018=,SBGL
1663596000000,METAR SBGL 191400Z 01008KT 350V050 9999 FEW020 23/14 Q1018=,SBGL
1663599600000,METAR SBGL 191500Z 04008KT 010V070 9999 FEW020 24/14 Q1016=,SBGL
1663603200000,METAR SBGL 191600Z 13008KT 110V170 CAVOK 24/15 Q1015=,SBGL
1663606800000,METAR SBGL 191700Z 14011KT CAVOK 25/15 Q1014=,SBGL
1663610400000,METAR SBGL 191800Z 15012KT 120V180 CAVOK 24/16 Q1013=,SBGL
1663614000000,METAR SBGL 191900Z 15012KT CAVOK 24/15 Q1013=,SBGL
1663617600000,METAR SBGL 192000Z 16010KT CAVOK 23/16 Q1013=,SBGL
1663621200000,METAR SBGL 192100Z 15010KT CAVOK 22/16 Q1013=,SBGL
1663624800000,METAR SBGL 192200Z 12008KT CAVOK 21/16 Q1013=,SBGL
1663628400000,METAR SBGL 192300Z 11013KT CAVOK 21/13 Q1014=,SBGL
1663545600000,METAR SBGR 190000Z 12007KT 9999 BKN015 14/11 Q1020=,SBGR
1663549200000,METAR SBGR 190100Z 11006KT 9999 BKN017 14/10 Q1020=,SBGR
1663552800000,METAR SBGR 190200Z 08004KT 9999 BKN015 12/10 Q1020=,SBGR
1663556400000,METAR SBGR 190300Z 08004KT 9999 BKN013 13/10 Q1020=,SBGR
1663560000000,METAR SBGR 190400Z 09007KT 9999 BKN013 13/11 Q1019=,SBGR
1663563600000,METAR SBGR 190500Z 08006KT 9999 BKN017 13/11 Q1019=,SBGR
1663567200000,METAR SBGR 190600Z 07008KT 9999 BKN017 12/11 Q1019=,SBGR
1663570800000,METAR SBGR 190700Z 07012KT 9999 BKN013 13/11 Q1018=,SBGR
1663574400000,METAR SBGR 190800Z 07011KT 9999 BKN011 12/11 Q1018=,SBGR
1663578000000,METAR SBGR 190900Z 07015KT 9999 OVC009 12/11 Q1019=,SBGR
1663581600000,METAR SBGR 191000Z 06013KT 9999 OVC009 12/11 Q1019=,SBGR
1663585200000,METAR SBGR 191100Z 05013KT 9999 OVC009 12/11 Q1020=,SBGR
1663588800000,METAR SBGR 191200Z 06011KT 9999 BKN010 14/11 Q1019=,SBGR
1663592400000,METAR SBGR 191300Z 06011KT CAVOK 15/11 Q1019=,SBGR
1663596000000,METAR SBGR 191400Z 07010KT CAVOK 18/12 Q1018=,SBGR
1663599600000,METAR SBGR 191500Z 08007KT CAVOK 22/13 Q1017=,SBGR
1663603200000,METAR SBGR 191600Z 10005KT CAVOK 24/13 Q1015=,SBGR
1663606800000,METAR SBGR 191700Z 05006KT CAVOK 25/13 Q1014=,SBGR
1663610400000,METAR SBGR 191800Z 11006KT CAVOK 27/13 Q1013=,SBGR
1663614000000,METAR SBGR 191900Z 09005KT CAVOK 27/13 Q1013=,SBGR
1663617600000,METAR SBGR 192000Z 16008KT CAVOK 24/15 Q1014=,SBGR
1663621200000,METAR SBGR 192100Z 22006KT CAVOK 21/14 Q1015=,SBGR
1663624800000,METAR SBGR 192200Z 19007KT CAVOK 17/14 Q1016=,SBGR
1663628400000,METAR SBGR 192300Z 18005KT 9999 BKN011 16/14 Q1016=,SBGR
1663545600000,METAR SBKP 190000Z 12020KT CAVOK 16/11 Q1017=,SBKP
1663549200000,METAR SBKP 190100Z 11020G30KT CAVOK 15/11 Q1017 WS R15=,SBKP
1663552800000,METAR SBKP 190200Z 12017KT CAVOK 14/10 Q1017=,SBKP
1663556400000,METAR SBKP 190300Z 12015KT CAVOK 14/10 Q1017=,SBKP
1663560000000,METAR SBKP 190400Z 12015KT CAVOK 13/10 Q1017=,SBKP
1663563600000,METAR SBKP 190500Z 12014KT CAVOK 13/10 Q1017=,SBKP
1663567200000,METAR SBKP 190600Z 12012KT CAVOK 13/10 Q1017=,SBKP
1663570800000,METAR SBKP 190700Z 12012KT CAVOK 13/10 Q1016=,SBKP
1663574400000,METAR SBKP 190800Z 12011KT CAVOK 13/10 Q1016=,SBKP
1663578000000,METAR SBKP 190900Z 12011KT CAVOK 13/10 Q1017=,SBKP
1663581600000,METAR SBKP 191000Z 12011KT CAVOK 13/10 Q1017=,SBKP
1663585200000,METAR SBKP 191100Z 12010KT CAVOK 15/11 Q1018=,SBKP
1663588800000,METAR SBKP 191200Z 11006KT CAVOK 19/11 Q1018=,SBKP
1663592400000,METAR SBKP 191300Z 10006KT CAVOK 22/12 Q1017=,SBKP
1663596000000,METAR SBKP 191400Z 02006KT CAVOK 24/12 Q1016=,SBKP
1663599600000,METAR SBKP 191500Z 35009KT CAVOK 27/13 Q1015=,SBKP
1663603200000,METAR SBKP 191600Z 30007KT 220V340 9999 FEW025 28/13 Q1014=,SBKP
1663606800000,METAR SBKP 191700Z 31007KT 240V030 9999 FEW040 29/13 Q1013=,SBKP
1663610400000,METAR SBKP 191800Z 30005KT 240V010 CAVOK 30/13 Q1012=,SBKP
1663614000000,METAR SBKP 191900Z VRB03KT CAVOK 30/13 Q1012=,SBKP
1663617600000,METAR SBKP 192000Z 21007KT CAVOK 29/12 Q1012=,SBKP
1663621200000,METAR SBKP 192100Z 18007KT CAVOK 28/12 Q1012=,SBKP
1663624800000,METAR SBKP 192200Z 17007KT CAVOK 27/13 Q1012=,SBKP
1663628400000,METAR SBKP 192300Z 13011KT CAVOK 22/15 Q1013=,SBKP
1663545600000,METAR SBPA 190000Z 10010KT CAVOK 18/14 Q1013=,SBPA
1663549200000,METAR SBPA 190100Z 12008KT CAVOK 18/14 Q1014=,SBPA
1663552800000,METAR SBPA 190200Z 11006KT CAVOK 18/14 Q1015=,SBPA
1663556400000,METAR SBPA 190300Z 09007KT CAVOK 17/14 Q1015=,SBPA
1663560000000,METAR SBPA 190400Z 09005KT 050V110 9999 FEW040 17/14 Q1015=,SBPA
1663563600000,METAR SBPA 190500Z 09005KT 9999 FEW040 17/14 Q1016=,SBPA
1663567200000,METAR SBPA 190600Z VRB02KT CAVOK 17/14 Q1016=,SBPA
1663570800000,METAR SBPA 190700Z 08011KT CAVOK 17/14 Q1012=,SBPA
1663574400000,METAR SBPA 190800Z 08010KT CAVOK 16/14 Q1011=,SBPA
1663578000000,METAR SBPA 190900Z 11004KT CAVOK 17/13 Q1011=,SBPA
1663581600000,METAR SBPA 191000Z VRB02KT CAVOK 16/13 Q1011=,SBPA
1663585200000,METAR SBPA 191100Z VRB02KT CAVOK 17/14 Q1012=,SBPA
1663588800000,METAR SBPA 191200Z 26007KT CAVOK 19/14 Q1014=,SBPA
1663592400000,METAR SBPA 191300Z 26008KT CAVOK 19/14 Q1014=,SBPA
1663596000000,METAR SBPA 191400Z 25010KT 220V280 9999 FEW025 BKN100 19/15 Q1014=,SBPA
1663599600000,METAR SBPA 191500Z 29008KT 9999 FEW025 BKN100 19/15 Q1014=,SBPA
1663603200000,METAR SBPA 191600Z 30007KT 280V340 9999 FEW025 BKN080 19/15 Q1014=,SBPA
1663606800000,METAR SBPA 191700Z 30006KT 4000 -RA BR BKN010 OVC070 18/16 Q1014=,SBPA
1663610400000,METAR SBPA 191800Z 25003KT 220V280 4000 -RA BR BKN010 OVC070 17/16 Q1013=,SBPA
1663611720000,SPECI SBPA 191822Z 26005KT 4000 RA BR BKN007 OVC070 17/16 Q1013=,SBPA
1663614000000,METAR SBPA 191900Z VRB02KT 4000 -RA BR BKN008 OVC070 17/16 Q1013 RERA=,SBPA
1663617600000,METAR SBPA 192000Z 10003KT 6000 -RA BKN006 BKN080 17/16 Q1012=,SBPA
1663621200000,METAR SBPA 192100Z 10005KT 4000 -RA BR BKN006 BKN060 BKN100 17/16 Q1012=,SBPA
1663624800000,METAR SBPA 192200Z VRB02KT 4000 -RA BR BKN006 OVC100 16/16 Q1012=,SBPA
1663628400000,METAR SBPA 192300Z VRB01KT 4000 -RADZ BR BKN004 OVC013 16/16 Q1013=,SBPA
1663545600000,METAR SBRF 190000Z 13009KT 100V160 9999 SCT025 BKN050 26/20 Q1015=,SBRF
1663549200000,METAR SBRF 190100Z 14009KT 9999 SCT025 SCT060 26/19 Q1015=,SBRF
1663552800000,METAR SBRF 190200Z 13007KT 060V210 9999 FEW025 26/19 Q1015=,SBRF
1663556400000,METAR SBRF 190300Z 13008KT 9999 BKN025 25/19 Q1014=,SBRF
1663560000000,METAR SBRF 190400Z 13008KT 9999 SCT025 25/19 Q1014=,SBRF
1663563600000,METAR SBRF 190500Z 14007KT 9999 SCT025 25/19 Q1013=,SBRF
1663567200000,METAR SBRF 190600Z 14008KT 9999 SCT023 25/19 Q1013=,SBRF
1663570800000,METAR SBRF 190700Z 15007KT 9999 SCT023 24/18 Q1013=,SBRF
1663574400000,METAR SBRF 190800Z 23003KT 9999 SCT023 23/19 Q1014=,SBRF
1663578000000,METAR SBRF 190900Z 21005KT 9999 FEW025 23/19 Q1014=,SBRF
1663581600000,METAR SBRF 191000Z 21005KT 9999 FEW025 24/19 Q1015=,SBRF
1663585200000,METAR SBRF 191100Z 15010KT 9999 SCT025 27/20 Q1015=,SBRF
1663588800000,METAR SBRF 191200Z 16010KT 120V180 9999 SCT025 27/20 Q1016=,SBRF
1663592400000,METAR SBRF 191300Z 15009KT 120V190 9999 FEW025 27/20 Q1016=,SBRF
1663596000000,METAR SBRF 191400Z 14010KT 9999 FEW025 28/20 Q1015=,SBRF
1663599600000,METAR SBRF 191500Z 14012KT 110V180 9999 FEW025 28/21 Q1014=,SBRF
1663603200000,METAR SBRF 191600Z 15013KT 9999 FEW025 28/20 Q1013=,SBRF
1663606800000,METAR SBRF 191700Z 16013KT CAVOK 28/19 Q1013=,SBRF
1663610400000,METAR SBRF 191800Z 15014KT 120V180 CAVOK 27/19 Q1013=,SBRF
1663614000000,METAR SBRF 191900Z 16014KT CAVOK 27/19 Q1013=,SBRF
1663617600000,METAR SBRF 192000Z 15012KT CAVOK 26/19 Q1013=,SBRF
1663621200000,METAR SBRF 192100Z 15013KT 9999 FEW023 26/19 Q1014=,SBRF
1663624800000,METAR SBRF 192200Z 16011KT 9999 SCT023 25/20 Q1014=,SBRF
1663628400000,METAR SBRF 192300Z 15011KT 9999 SCT023 26/20 Q1015=,SBRF
1663545600000,METAR SBRJ 190000Z 13008KT 9999 FEW025 BKN050 20/16 Q1019=,SBRJ
1663549200000,METAR SBRJ 190100Z 10005KT 070V130 CAVOK 20/15 Q1019=,SBRJ
1663552800000,METAR SBRJ 190200Z 08003KT 9999 FEW026 SCT050 20/15 Q1019=,SBRJ
1663556400000,METAR SBRJ 190300Z 07004KT 9999 FEW026 SCT050 19/15 Q1019=,SBRJ
1663560000000,METAR SBRJ 190400Z 06003KT 9999 FEW026 19/15 Q1018=,SBRJ
1663563600000,METAR SBRJ 190500Z 03003KT 360V060 CAVOK 19/15 Q1018=,SBRJ
1663567200000,METAR SBRJ 190600Z 05003KT CAVOK 18/15 Q1018=,SBRJ
1663570800000,METAR SBRJ 190700Z 08003KT CAVOK 18/15 Q1017=,SBRJ
1663574400000,METAR SBRJ 190800Z 03003KT CAVOK 18/15 Q1017=,SBRJ
1663578000000,METAR SBRJ 190900Z 32004KT 9999 FEW020 18/16 Q1018=,SBRJ
1663581600000,METAR SBRJ 191000Z 32005KT 9999 FEW015 18/16 Q1019=,SBRJ
1663585200000,METAR SBRJ 191100Z 33004KT 290V360 9999 FEW015 19/16 Q1019=,SBRJ
1663588800000,METAR SBRJ 191200Z 33003KT 280V010 9999 FEW015 20/16 Q1019=,SBRJ
1663592400000,METAR SBRJ 191300Z 31005KT 280V340 9999 FEW015 20/16 Q1018=,SBRJ
1663595100000,SPECI SBRJ 191345Z 13005KT 9999 FEW015 22/16 Q1017=,SBRJ
1663596000000,METAR SBRJ 191400Z 15008KT 9999 FEW020 22/16 Q1017=,SBRJ
1663599600000,METAR SBRJ 191500Z 16012KT 9999 FEW020 22/16 Q1016=,SBRJ
1663603200000,METAR SBRJ 191600Z 16013KT CAVOK 23/16 Q1015=,SBRJ
1663606800000,METAR SBRJ 191700Z 17017KT CAVOK 23/17 Q1014=,SBRJ
1663610400000,METAR SBRJ 191800Z 15012KT CAVOK 23/17 Q1013=,SBRJ
1663614000000,METAR SBRJ 191900Z 16012KT CAVOK 23/17 Q1013=,SBRJ
1663617600000,METAR SBRJ 192000Z 16012KT CAVOK 22/17 Q1013=,SBRJ
1663621200000,METAR SBRJ 192100Z 16008KT CAVOK 22/17 Q1013=,SBRJ
1663624800000,METAR SBRJ 192200Z 16006KT CAVOK 21/17 Q1013=,SBRJ
1663628400000,METAR SBRJ 192300Z 11005KT CAVOK 21/15 Q1013=,SBRJ
1663545600000,METAR SBSP 190000Z 14009KT 9999 FEW013 BKN015 14/10 Q1021=,SBSP
1663549200000,METAR SBSP 190100Z 14008KT 9999 FEW013 BKN015 14/11 Q1021=,SBSP
1663552800000,METAR SBSP 190200Z 14007KT 9999 SCT017 13/10 Q1020=,SBSP
1663552800000,SPECI SBSP 190200Z 13006KT 100V160 9999 FEW017 13/10 Q1020=,SBSP
1663556400000,METAR SBSP 190300Z AUTO 13005KT CAVOK 13/10 Q1020=,SBSP
1663558320000,SPECI SBSP 190332Z AUTO 13006KT 9999 BKN012 12/10 Q1020=,SBSP
1663559940000,SPECI SBSP 190359Z AUTO 11007KT 090V150 9999 BKN011 OVC014 13/10 Q1019=,SBSP
1663560000000,METAR SBSP 190400Z AUTO 11007KT 090V150 9999 BKN011 OVC014 13/10 Q1019=,SBSP
1663561200000,SPECI SBSP 190420Z AUTO 13005KT 9999 FEW010 OVC014 13/11 Q1019=,SBSP
1663562760000,SPECI SBSP 190446Z AUTO 13006KT 080V160 9999 SCT013 OVC015 13/11 Q1019=,SBSP
1663562880000,SPECI SBSP 190448Z AUTO 13006KT 080V160 9999 BKN014 13/10 Q1019=,SBSP
1663563600000,METAR SBSP 190500Z AUTO 14005KT 080V170 9999 BKN013 13/10 Q1019=,SBSP
1663564140000,SPECI SBSP 190509Z AUTO 14006KT 9999 FEW013 SCT015 13/11 Q1019=,SBSP
1663566180000,SPECI SBSP 190543Z AUTO 13006KT 9999 BKN014 13/11 Q1019=,SBSP
1663567200000,METAR SBSP 190600Z AUTO 13005KT 9999 BKN014 13/11 Q1019=,SBSP
1663570800000,METAR SBSP 190700Z AUTO 08006KT 040V120 9999 OVC011 13/10 Q1019=,SBSP
1663574400000,METAR SBSP 190800Z AUTO 07006KT 020V120 9999 SCT011 BKN013 13/10 Q1019=,SBSP
1663576140000,SPECI SBSP 190829Z AUTO 08008KT 040V110 9999 FEW012 SCT014 13/10 Q1019=,SBSP
1663578000000,METAR COR SBSP 190900Z 08008KT 9999 BKN011 13/10 Q1019=,SBSP
1663581600000,METAR SBSP 191000Z 08011KT 9999 FEW009 BKN011 12/10 Q1020=,SBSP
1663584180000,SPECI SBSP 191043Z 08006KT 9999 SCT011 13/10 Q1020=,SBSP
1663585200000,METAR SBSP 191100Z 07008KT 9999 FEW011 13/10 Q1020=,SBSP
1663588800000,METAR SBSP 191200Z 08008KT CAVOK 15/10 Q1020=,SBSP
1663592400000,METAR SBSP 191300Z 08007KT 030V130 CAVOK 17/10 Q1019=,SBSP
1663596000000,METAR SBSP 191400Z 08005KT 020V130 CAVOK 19/11 Q1019=,SBSP
1663599600000,METAR SBSP 191500Z 08005KT CAVOK 21/11 Q1018=,SBSP
1663603200000,METAR SBSP 191600Z 16004KT CAVOK 24/11 Q1016=,SBSP
1663606800000,METAR SBSP 191700Z VRB02KT CAVOK 25/11 Q1015=,SBSP
1663610400000,METAR SBSP 191800Z 16007KT 130V220 CAVOK 25/13 Q1014=,SBSP
1663614000000,METAR SBSP 191900Z 15009KT CAVOK 23/14 Q1014=,SBSP
1663617600000,METAR SBSP 192000Z 19011KT CAVOK 19/14 Q1016=,SBSP
1663621200000,METAR SBSP 192100Z 19012KT 9999 FEW007 BKN011 17/14 Q1017=,SBSP
1663624800000,METAR SBSP 192200Z 20011KT 9999 SCT006 OVC008 16/14 Q1017=,SBSP
1663628400000,METAR SBSP 192300Z 20011KT 170V230 9999 SCT005 OVC008 15/13 Q1017=,SBSP
1663545600000,METAR SBSV 190000Z 16012KT 9000 VCSH BKN015 FEW023TCU BKN060 23/22 Q1017=,SBSV
1663549200000,METAR SBSV 190100Z 16017KT 9999 SCT008 OVC015 23/22 Q1017=,SBSV
1663552800000,METAR SBSV 190200Z 16012KT 4000 -RA BR BKN006 OVC015 23/21 Q1017=,SBSV
1663555020000,SPECI SBSV 190237Z 15011KT 8000 VCSH FEW006 OVC015 23/21 Q1016=,SBSV
1663556400000,METAR SBSV 190300Z 15011KT 9999 VCSH FEW010 OVC015 23/21 Q1016=,SBSV
1663560000000,METAR SBSV 190400Z 16009KT 8000 VCSH SCT009 BKN015 23/21 Q1016=,SBSV
1663563600000,METAR SBSV 190500Z 14010KT 9999 BKN017 24/21 Q1015=,SBSV
1663567200000,METAR SBSV 190600Z 14010KT 9999 BKN017 24/21 Q1015=,SBSV
1663570800000,METAR SBSV 190700Z 14010KT 9999 BKN017 24/22 Q1015=,SBSV
1663574400000,METAR SBSV 190800Z 17011KT 9999 SCT010 OVC015 23/22 Q1015=,SBSV
1663575420000,SPECI SBSV 190817Z 15013KT 2000 -RA BR BKN010 OVC015 23/22 Q1015=,SBSV
1663576440000,SPECI SBSV 190834Z 16011KT 130V210 5000 BR SCT010 OVC015 23/22 Q1016=,SBSV
1663578000000,METAR SBSV 190900Z 16011KT 8000 VCSH SCT010 OVC015 23/21 Q1016=,SBSV
1663581600000,METAR SBSV 191000Z 16013KT 9999 SCT010 OVC015 24/21 Q1017=,SBSV
1663585200000,METAR SBSV 191100Z 18010KT 8000 VCSH SCT010 BKN016 BKN060 24/21 Q1017=,SBSV
1663588800000,METAR SBSV 191200Z 16012KT 5000 -RA BR SCT010 BKN016 BKN060 24/21 Q1018=,SBSV
1663592400000,METAR SBSV 191300Z 15005KT 8000 VCSH SCT010 BKN016 BKN060 25/21 Q1018=,SBSV
1663596000000,METAR SBSV 191400Z 14013KT 9999 BKN020 FEW023TCU BKN060 25/21 Q1017=,SBSV
1663599600000,METAR SBSV 191500Z 13012KT 9999 SCT020 FEW023TCU BKN060 26/21 Q1017=,SBSV
1663603200000,METAR SBSV 191600Z 13012KT 100V160 9999 SCT020 FEW023TCU BKN060 26/21 Q1016=,SBSV
1663606800000,METAR SBSV 191700Z 14011KT 3000 -RA BR BKN008 BKN016 FEW023TCU BKN060 23/21 Q1015=,SBSV
1663610400000,METAR SBSV 191800Z 14013KT 3000 -RA BKN008 BKN016 FEW023TCU BKN060 24/22 Q1015=,SBSV
1663611900000,SPECI SBSV 191825Z 17008KT 5000 -RA FEW008 BKN016 FEW023TCU BKN060 24/22 Q1015=,SBSV
1663614000000,METAR COR SBSV 191900Z 18007KT 8000 VCSH BKN016 FEW023TCU BKN060 24/22 Q1015=,SBSV
1663617600000,METAR SBSV 192000Z 12008KT 9999 BKN016 FEW023TCU BKN060 25/22 Q1015=,SBSV
1663621200000,METAR SBSV 192100Z 13010KT 9999 BKN016 FEW023TCU BKN060 25/20 Q1015=,SBSV
1663624800000,METAR SBSV 192200Z 11012KT 9999 BKN016 FEW023TCU BKN060 24/22 Q1016=,SBSV
1663628400000,METAR COR SBSV 192300Z 09009KT 5000 -RA FEW006 BKN010 FEW023TCU BKN060 23/22 Q1016=,SBSV
1663630380000,SPECI SBSV 192333Z 15010KT 9999 SCT015 FEW023TCU BKN060 23/22 Q1016=,SBSV
