hora,metar,aero
1666310400000,METAR SBBR 210000Z 18005KT CAVOK 26/11 Q1016=,SBBR
1666314000000,METAR SBBR 210100Z VRB02KT CAVOK 26/11 Q1016=,SBBR
1666317600000,METAR SBBR 210200Z VRB01KT CAVOK 25/11 Q1016=,SBBR
1666321200000,METAR SBBR 210300Z VRB01KT CAVOK 25/11 Q1016=,SBBR
1666324800000,METAR SBBR 210400Z 28003KT CAVOK 24/12 Q1015=,SBBR
1666328400000,METAR SBBR 210500Z 31003KT CAVOK 23/12 Q1015=,SBBR
1666332000000,METAR SBBR 210600Z 14004KT CAVOK 24/12 Q1014=,SBBR
1666335600000,METAR SBBR 210700Z 29003KT 250V310 CAVOK 21/13 Q1014=,SBBR
1666339200000,METAR SBBR 210800Z 24002KT CAVOK 22/12 Q1015=,SBBR
1666342800000,METAR SBBR 210900Z 24002KT CAVOK 22/12 Q1015=,SBBR
1666346400000,METAR SBBR 211000Z 28003KT 260V330 CAVOK 24/12 Q1016=,SBBR
1666350000000,METAR SBBR 211100Z VRB01KT 9999 FEW030 BKN080 26/12 Q1017=,SBBR
1666353600000,METAR SBBR 211200Z 02010KT 320V070 9999 FEW035 BKN100 29/10 Q1017=,SBBR
1666357200000,METAR SBBR 211300Z 34009KT 9999 FEW035 BKN100 29/10 Q1017=,SBBR
1666360800000,METAR SBBR 211400Z 35007KT 9999 FEW035 BKN100 31/11 Q1016=,SBBR
1666364400000,METAR SBBR 211500Z VRB06KT 9999 SCT035 FEW040TCU BKN100 31/11 Q1019=,SBBR
1666368000000,METAR SBBR 211600Z 21012KT 9999 SCT035 FEW040TCU BKN100 27/15 Q1016=,SBBR
1666371600000,METAR SBBR 211700Z 23013KT 9999 SCT035 FEW040TCU BKN100 25/17 Q1015=,SBBR
1666375200000,METAR SBBR 211800Z 24011KT 9999 SCT030 FEW040TCU BKN100 26/16 Q1015=,SBBR
1666378800000,METAR SBBR 211900Z 22010KT 9999 FEW040 FEW045TCU BKN100 24/16 Q1015=,SBBR
1666382400000,METAR SBBR 212000Z 27011KT 9999 FEW030 FEW040TCU BKN100 23/17 Q1016=,SBBR
1666386000000,METAR SBBR 212100Z 26010KT 9999 SCT017 FEW025TCU BKN100 21/17 Q1017=,SBBR
1666389600000,METAR COR SBBR 212200Z 24006KT 210V270 9999 -RA FEW030 BKN100 19/17 Q1017=,SBBR
1666393200000,METAR SBBR 212300Z 07002KT 9999 FEW040 SCT100 19/17 Q1016=,SBBR
1666310400000,METAR SBCF 210000Z 09008KT CAVOK 24/15 Q1017=,SBCF
1666314000000,METAR SBCF 210100Z 06006KT CAVOK 23/16 Q1017=,SBCF
1666317600000,METAR SBCF 210200Z 10005KT CAVOK 22/15 Q1017=,SBCF
1666321200000,METAR SBCF 210300Z 09005KT 060V120 CAVOK 22/15 Q1016=,SBCF
1666324800000,METAR SBCF 210400Z 06003KT 010V090 CAVOK 21/15 Q1015=,SBCF
1666328400000,METAR SBCF 210500Z 14003KT 110V180 CAVOK 20/15 Q1014=,SBCF
1666332000000,METAR SBCF 210600Z VRB02KT CAVOK 19/15 Q1014=,SBCF
1666335600000,METAR SBCF 210700Z 12007KT CAVOK 19/15 Q1014=,SBCF
1666339200000,METAR SBCF 210800Z 09008KT CAVOK 20/15 Q1015=,SBCF
1666342800000,METAR SBCF 210900Z 08006KT CAVOK 19/15 Q1016=,SBCF
1666346400000,METAR SBCF 211000Z 09007KT CAVOK 20/15 Q1016=,SBCF
1666350000000,METAR SBCF 211100Z 08004KT 9999 FEW025 BKN100 21/15 Q1017=,SBCF
1666353600000,METAR SBCF 211200Z 07007KT CAVOK 24/16 Q1017=,SBCF
1666357200000,METAR SBCF 211300Z 05007KT CAVOK 25/16 Q1017=,SBCF
1666360800000,METAR SBCF 211400Z 06007KT CAVOK 27/16 Q1016=,SBCF
1666364400000,METAR SBCF 211500Z 02005KT 9999 SCT040 SCT071 28/16 Q1016=,SBCF
1666368000000,METAR COR SBCF 211600Z 01004KT 9999 VCSH BKN040 FEW043TCU BKN100 28/15 Q1015=,SBCF
1666371600000,METAR SBCF 211700Z 20002KT 9999 BKN040 FEW043TCU BKN100 29/15 Q1013=,SBCF
1666375200000,METAR SBCF 211800Z 33004KT 9999 SCT045 FEW049TCU BKN100 29/15 Q1012=,SBCF
1666378800000,METAR SBCF 211900Z 32004KT 9999 SCT045 FEW049TCU BKN100 29/16 Q1012=,SBCF
1666379640000,SPECI SBCF 211914Z 31019KT 2000 +RA SCT045 FEW049TCU BKN100 22/18 Q1012=,SBCF
1666380900000,SPECI SBCF 211935Z 27006KT 4000 -RA BR SCT045 FEW049TCU BKN100 21/18 Q1014 RERA=,SBCF
1666382400000,METAR SBCF 212000Z 17009KT 9999 VCTS SCT045 FEW049CB BKN100 20/18 Q1014 RERA=,SBCF
1666386000000,METAR SBCF 212100Z 08006KT 9999 SCT045 BKN100 21/18 Q1015=,SBCF
1666389600000,METAR SBCF 212200Z 04011KT 9999 VCTS FEW045 FEW048CB BKN100 21/18 Q1015=,SBCF
1666393200000,METAR SBCF 212300Z 05008KT 9999 FEW045 SCT100 21/18 Q1016=,SBCF
1666310400000,METAR SBCT 210000Z VRB02KT 9999 FEW040 BKN080 17/16 Q1013=,SBCT
1666314000000,METAR SBCT 210100Z 23003KT 9999 SCT040 BKN080 17/16 Q1013=,SBCT
1666315800000,SPECI SBCT 210130Z 27005KT 5000 RA BR FEW007 BKN035 OVC070 17/17 Q1014=,SBCT
1666317600000,METAR SBCT 210200Z 24007KT 8000 -RA FEW004 BKN035 OVC070 16/16 Q1014 RERA=,SBCT
1666317900000,SPECI SBCT 210205Z 25009KT 2500 RA BR FEW004 BKN040 OVC070 16/16 Q1014=,SBCT
1666321200000,METAR SBCT 210300Z 30006KT 3500 RA BR FEW004 BKN037 OVC070 16/16 Q1014=,SBCT
1666324800000,METAR SBCT 210400Z 01005KT 4500 BR FEW005 SCT035 OVC100 16/16 Q1012 RERA=,SBCT
1666328400000,METAR SBCT 210500Z 05010KT 9999 FEW007 SCT035 15/15 Q1008=,SBCT
1666332000000,METAR SBCT 210600Z 04004KT 9999 FEW035 15/15 Q1009=,SBCT
1666335600000,METAR SBCT 210700Z 33005KT 9999 FEW030 15/15 Q1009=,SBCT
1666339200000,METAR SBCT 210800Z 31004KT 9999 SCT014 15/15 Q1010=,SBCT
1666342800000,METAR SBCT 210900Z 30004KT 9999 BKN012 16/16 Q1010=,SBCT
1666346400000,METAR SBCT 211000Z 33010KT 9999 FEW007 BKN012 18/17 Q1011=,SBCT
1666350000000,METAR SBCT 211100Z 32012KT 9999 BKN014 BKN050 19/17 Q1011=,SBCT
1666353600000,METAR SBCT 211200Z 32016KT 9999 BKN014 20/17 Q1011=,SBCT
1666354200000,SPECI SBCT 211210Z 32014KT 9999 BKN018 BKN060 21/17 Q1012=,SBCT
1666357200000,METAR SBCT 211300Z 33016KT 9999 BKN019 BKN060 22/18 Q1011=,SBCT
1666360800000,METAR SBCT 211400Z 33014KT 9999 BKN020 BKN060 22/18 Q1011=,SBCT
1666364400000,METAR SBCT 211500Z 33014KT 9999 BKN025 BKN060 23/17 Q1010=,SBCT
1666368000000,METAR SBCT 211600Z 30012KT 9999 BKN030 24/17 Q1010=,SBCT
1666369260000,SPECI SBCT 211621Z 24011KT 3500 -RA BKN013 20/19 Q1010=,SBCT
1666371600000,METAR SBCT 211700Z 01004KT 9999 FEW013 BKN020 19/19 Q1010=,SBCT
1666375200000,METAR SBCT 211800Z 27010KT 240V300 9999 3000NE TS VCSH BKN020 FEW030CB 22/17 Q1008=,SBCT
1666378800000,METAR SBCT 211900Z 29014KT 250V310 9999 FEW020 BKN040 FEW050TCU 22/18 Q1008 RETS=,SBCT
1666382400000,METAR SBCT 212000Z 28013G23KT 240V300 9999 SCT025 23/17 Q1009=,SBCT
1666386000000,METAR SBCT 212100Z 29014KT 9999 FEW020 22/16 Q1009=,SBCT
1666389600000,METAR SBCT 212200Z 29010KT 9999 FEW020 21/16 Q1010=,SBCT
1666393200000,METAR SBCT 212300Z 26010KT 230V290 9999 FEW030 20/14 Q1011=,SBCT
1666310400000,METAR SBFL 210000Z 28005KT 230V340 9999 SCT010 BKN020 21/20 Q1007=,SBFL
1666314000000,METAR SBFL 210100Z 01010KT 9999 BKN014 BKN020 21/20 Q1007=,SBFL
1666317600000,METAR SBFL 210200Z 01008KT 9999 BKN014 BKN020 21/20 Q1007=,SBFL
1666321200000,METAR SBFL 210300Z 36005KT 9999 BKN014 BKN020 21/20 Q1007=,SBFL
1666324800000,METAR SBFL 210400Z 36012KT 9999 SCT014 BKN020 22/19 Q1006=,SBFL
1666328400000,METAR SBFL 210500Z 36007KT 9999 SCT014 BKN020 21/20 Q1005=,SBFL
1666332000000,METAR SBFL 210600Z 35007KT 9999 SCT014 BKN020 22/20 Q1004=,SBFL
1666335600000,METAR SBFL 210700Z 33006KT 9999 SCT014 BKN020 22/20 Q1005=,SBFL
1666339200000,METAR SBFL 210800Z 35005KT 9999 SCT014 BKN020 22/20 Q1005=,SBFL
1666342800000,METAR SBFL 210900Z 29003KT 9999 BKN020 22/20 Q1006=,SBFL
1666346400000,METAR SBFL 211000Z 34005KT 9999 SCT030 22/20 Q1006=,SBFL
1666350000000,METAR SBFL 211100Z 35007KT 9999 SCT040 23/20 Q1006=,SBFL
1666353600000,METAR SBFL 211200Z 35011KT CAVOK 23/19 Q1006=,SBFL
1666357200000,METAR SBFL 211300Z 35011KT CAVOK 25/19 Q1006=,SBFL
1666360800000,METAR SBFL 211400Z 35013KT CAVOK 27/19 Q1005=,SBFL
1666364400000,METAR SBFL 211500Z 36011KT CAVOK 28/19 Q1004=,SBFL
1666368000000,METAR SBFL 211600Z 35008KT CAVOK 28/19 Q1004=,SBFL
1666371600000,METAR SBFL 211700Z 07004KT CAVOK 30/19 Q1003=,SBFL
1666375200000,METAR SBFL 211800Z 11012KT 9999 SCT035 FEW040TCU 28/17 Q1003=,SBFL
1666378800000,METAR SBFL 211900Z 12011KT 9999 SCT040 FEW045TCU 26/20 Q1004=,SBFL
1666382400000,METAR SBFL 212000Z 13011KT 9999 TS VCSH SCT020 BKN040 FEW045CB 23/19 Q1004=,SBFL
1666383780000,SPECI SBFL 212023Z 19012G23KT 150V220 5000 TSRA SCT012 BKN040 FEW045CB 23/18 Q1006=,SBFL
1666386000000,METAR SBFL 212100Z 15014KT 8000 VCSH SCT012 BKN030 FEW040TCU 21/19 Q1006 RETSRA=,SBFL
1666389600000,METAR COR SBFL 212200Z 28005KT CAVOK 20/18 Q1009=,SBFL
1666393200000,METAR SBFL 212300Z 17009KT 120V210 9999 BKN030 BKN100 21/18 Q1007=,SBFL
1666310400000,METAR SBGL 210000Z 26005KT CAVOK 25/21 Q1011=,SBGL
1666314000000,METAR SBGL 210100Z 28007KT CAVOK 24/21 Q1011=,SBGL
1666317600000,METAR SBGL 210200Z 29003KT CAVOK 24/20 Q1010=,SBGL
1666321200000,METAR SBGL 210300Z VRB02KT CAVOK 23/20 Q1009=,SBGL
1666324800000,METAR SBGL 210400Z 09006KT CAVOK 23/20 Q1009=,SBGL
1666328400000,METAR SBGL 210500Z 11007KT CAVOK 23/20 Q1008=,SBGL
1666332000000,METAR SBGL 210600Z 10004KT 070V130 CAVOK 22/20 Q1008=,SBGL
1666335600000,METAR SBGL 210700Z 10005KT CAVOK 22/20 Q1007=,SBGL
1666339200000,METAR SBGL 210800Z VRB02KT CAVOK 22/20 Q1007=,SBGL
1666342800000,METAR SBGL 210900Z VRB02KT 9999 FEW045 23/20 Q1008=,SBGL
1666346400000,METAR SBGL 211000Z 16005KT 9999 FEW045 26/21 Q1008=,SBGL
1666350000000,METAR SBGL 211100Z 05007KT 9999 FEW045 28/20 Q1008=,SBGL
1666353600000,METAR SBGL 211200Z 35002KT 9999 FEW045 SCT100 28/16 Q1009=,SBGL
1666357200000,METAR SBGL 211300Z 20003KT CAVOK 29/21 Q1009=,SBGL
1666360800000,METAR SBGL 211400Z 28009KT CAVOK 30/19 Q1009=,SBGL
1666364400000,METAR SBGL 211500Z 24013KT 9999 -RA FEW045 SCT080 27/20 Q1009=,SBGL
1666368000000,METAR COR SBGL 211600Z 25009KT 9999 FEW007 SCT080 28/20 Q1008=,SBGL
1666371600000,METAR SBGL 211700Z 22004KT 9999 FEW015 BKN080 28/20 Q1007=,SBGL
1666375200000,METAR SBGL 211800Z 13010KT 9999 FEW015 BKN080 27/21 Q1007=,SBGL
1666378800000,METAR SBGL 211900Z 12010KT 9999 FEW015 BKN080 26/21 Q1007=,SBGL
1666382400000,METAR SBGL 212000Z 14010KT 6000 -RA FEW015 SCT040 BKN080 25/21 Q1008=,SBGL
1666386000000,METAR SBGL 212100Z 11010KT 6000 -RA FEW015 SCT040 BKN080 24/21 Q1008=,SBGL
1666389600000,METAR SBGL 212200Z 09004KT 9999 SCT040 BKN080 24/21 Q1009=,SBGL
1666393200000,METAR SBGL 212300Z 12004KT 9999 FEW040 BKN080 24/21 Q1009=,SBGL
1666310400000,METAR SBGR 210000Z 06008KT 9999 SCT045 23/19 Q1014 RETS=,SBGR
1666314000000,METAR SBGR 210100Z 03006KT 9999 SCT045 23/17 Q1014=,SBGR
1666317600000,METAR SBGR 210200Z 03007KT CAVOK 22/16 Q1013=,SBGR
1666321200000,METAR SBGR 210300Z 09004KT CAVOK 22/15 Q1012=,SBGR
1666324800000,METAR SBGR 210400Z 05005KT CAVOK 22/14 Q1011=,SBGR
1666328400000,METAR SBGR 210500Z 07009KT CAVOK 21/15 Q1011=,SBGR
1666332000000,METAR SBGR 210600Z 04006KT CAVOK 21/15 Q1010=,SBGR
1666335600000,METAR SBGR 210700Z 14002KT CAVOK 20/15 Q1011=,SBGR
1666339200000,METAR SBGR 210800Z 25005KT CAVOK 21/15 Q1012=,SBGR
1666342800000,METAR SBGR 210900Z 27005KT 8000 -RA BKN020 BKN080 19/17 Q1014=,SBGR
1666346400000,METAR SBGR 211000Z 34006KT CAVOK 19/18 Q1014=,SBGR
1666350000000,METAR SBGR 211100Z 33007KT 9999 SCT020 BKN083 20/17 Q1014=,SBGR
1666353600000,METAR SBGR 211200Z 07009KT 9999 BKN021 21/17 Q1013=,SBGR
1666357200000,METAR SBGR 211300Z 28010KT 9999 SCT030 BKN100 21/17 Q1014=,SBGR
1666360800000,METAR SBGR 211400Z 30007KT 9999 SCT023 BKN100 22/18 Q1014=,SBGR
1666364400000,METAR SBGR 211500Z 31015KT 9999 SCT026 BKN100 24/17 Q1013=,SBGR
1666368000000,METAR SBGR 211600Z 32015KT 9999 SCT030 BKN070 24/17 Q1012=,SBGR
1666371600000,METAR SBGR 211700Z 31016KT 9999 BKN030 OVC080 24/17 Q1012=,SBGR
1666375200000,METAR SBGR 211800Z 32013KT 9999 BKN030 OVC070 24/18 Q1011=,SBGR
1666378800000,METAR SBGR 211900Z 34008KT 9999 BKN025 OVC070 24/18 Q1011=,SBGR
1666382400000,METAR SBGR 212000Z 33009KT 9999 BKN030 24/18 Q1010=,SBGR
1666386000000,METAR SBGR 212100Z 35009KT 9999 SCT030 24/18 Q1010=,SBGR
1666389600000,METAR SBGR 212200Z 35007KT 9999 FEW030 23/17 Q1011=,SBGR
1666393200000,METAR SBGR 212300Z 34008KT 9999 FEW020 22/18 Q1012=,SBGR
1666382400000,METAR SBKP 212000Z 35012KT 9999 SCT030 SCT090 25/18 Q1010=,SBKP
1666310400000,METAR SBKP 210000Z 04011KT CAVOK 23/17 Q1014=,SBKP
1666311600000,SPECI SBKP 210020Z 01013G29KT 2000 +TSRA BR SCT040 FEW050CB BKN100 20/18 Q1015=,SBKP
1666312800000,SPECI SBKP 210040Z 08011KT 9999 -TSRA SCT025 FEW040CB BKN070 20/17 Q1014 RERA=,SBKP
1666314000000,METAR SBKP 210100Z 06011KT 9999 -TSRA FEW025 FEW040CB BKN070 21/17 Q1013 RERA=,SBKP
1666317600000,METAR SBKP 210200Z 06009KT CAVOK 21/17 Q1012 RETS=,SBKP
1666321200000,METAR SBKP 210300Z 06007KT CAVOK 22/16 Q1011=,SBKP
1666324800000,METAR SBKP 210400Z 05006KT CAVOK 22/16 Q1011=,SBKP
1666328400000,METAR SBKP 210500Z 02005KT CAVOK 21/16 Q1010=,SBKP
1666332000000,METAR SBKP 210600Z 34006KT CAVOK 20/16 Q1010=,SBKP
1666335600000,METAR SBKP 210700Z 29003KT 250V350 9000 -TSRA SCT020 FEW050CB BKN070 20/17 Q1011=,SBKP
1666337100000,SPECI SBKP 210725Z 29004KT 250V350 3000 +TSRA BR BKN020 FEW050CB OVC070 19/17 Q1013=,SBKP
1666338000000,SPECI SBKP 210740Z VRB01KT 5000 TSRA BR BKN020 FEW050CB OVC070 19/18 Q1013 RERA=,SBKP
1666339200000,METAR SBKP 210800Z 25003KT 150V320 9000 -TSRA SCT015 BKN020 FEW050CB OVC070 19/18 Q1013 RERA=,SBKP
1666340220000,SPECI SBKP 210817Z 28004KT 240V310 4000 RA BR BKN008 BKN011 OVC070 19/18 Q1014 RETS=,SBKP
1666342800000,METAR SBKP 210900Z VRB02KT 7000 -RA SCT008 BKN040 19/18 Q1013 RERA=,SBKP
1666343400000,SPECI SBKP 210910Z 01004KT 3000 -RA BR BKN007 OVC015 19/18 Q1014=,SBKP
1666346400000,METAR SBKP 211000Z 35010KT 320V020 6000 -RA SCT007 BKN020 OVC070 20/18 Q1014=,SBKP
1666350000000,METAR SBKP 211100Z 01016KT 8000 -RA SCT020 OVC070 20/18 Q1013=,SBKP
1666353600000,METAR SBKP 211200Z 02015KT 7000 -RA SCT007 SCT030 OVC070 20/18 Q1014=,SBKP
1666356480000,SPECI COR SBKP 211248Z 35008KT 9999 BKN009 OVC020 21/19 Q1015=,SBKP
1666357200000,METAR SBKP 211300Z 32008KT 9999 BKN009 OVC020 20/19 Q1015=,SBKP
1666360800000,METAR SBKP 211400Z 36011KT 9999 BKN013 BKN070 22/19 Q1014=,SBKP
1666364400000,METAR SBKP 211500Z 35012KT 9999 BKN018 BKN070 23/19 Q1013=,SBKP
1666368000000,METAR SBKP 211600Z 35012KT 9999 BKN020 BKN070 24/19 Q1012=,SBKP
1666371600000,METAR SBKP 211700Z 01011KT 9999 FEW022 SCT040 BKN070 24/19 Q1011=,SBKP
1666375200000,METAR SBKP 211800Z 36008KT 9999 BKN025 BKN070 24/20 Q1011=,SBKP
1666378800000,METAR SBKP 211900Z 36015KT 9999 SCT030 SCT080 25/18 Q1010=,SBKP
1666386000000,METAR SBKP 212100Z 36008KT 9999 FEW040 24/18 Q1010=,SBKP
1666389600000,METAR SBKP 212200Z 02009KT 9999 FEW045 23/19 Q1011=,SBKP
1666393200000,METAR SBKP 212300Z 02008KT 9999 SCT040 SCT070 23/19 Q1012=,SBKP
1666310400000,METAR SBPA 210000Z VRB02KT 9000 BKN013 BKN100 21/20 Q1006=,SBPA
1666314000000,METAR SBPA 210100Z VRB02KT 8000 BKN013 OVC070 21/20 Q1006=,SBPA
1666317600000,METAR SBPA 210200Z 08004KT 8000 BKN015 OVC100 21/19 Q1005=,SBPA
1666320060000,SPECI SBPA 210241Z 09004KT 8000 BKN011 OVC100 20/19 Q1005=,SBPA
1666321200000,METAR SBPA 210300Z 09005KT 9000 BKN011 OVC100 20/19 Q1005=,SBPA
1666324800000,METAR SBPA 210400Z VRB02KT 7000 OVC010 21/20 Q1005=,SBPA
1666328400000,METAR SBPA 210500Z VRB02KT 7000 OVC006 20/19 Q1004=,SBPA
1666332000000,METAR SBPA 210600Z 06003KT 7000 OVC006 20/20 Q1003=,SBPA
1666335600000,METAR SBPA 210700Z 29006KT 6000 OVC006 20/20 Q1004=,SBPA
1666339200000,METAR SBPA 210800Z 26006KT 6000 OVC006 20/19 Q1004=,SBPA
1666340340000,SPECI SBPA 210819Z 29006KT 5000 BR OVC004 20/20 Q1005=,SBPA
1666342800000,METAR SBPA 210900Z 28004KT 5000 BR BKN004 BKN070 20/19 Q1005=,SBPA
1666346400000,METAR SBPA 211000Z 30004KT 5000 BR BKN004 BKN100 20/20 Q1006=,SBPA
1666347120000,SPECI SBPA 211012Z 30005KT 270V340 6000 FEW004 BKN009 21/20 Q1006=,SBPA
1666350000000,METAR SBPA 211100Z 31008KT 280V350 9999 FEW020 BKN060 22/18 Q1006=,SBPA
1666353600000,METAR SBPA 211200Z 30011KT 9999 SCT030 BKN100 23/18 Q1006=,SBPA
1666357200000,METAR SBPA 211300Z 28013KT 260V320 9999 BKN025 BKN100 25/18 Q1006=,SBPA
1666360800000,METAR SBPA 211400Z 28014KT 250V310 9999 BKN029 BKN070 25/18 Q1006=,SBPA
1666364400000,METAR SBPA 211500Z 28014KT 260V320 9999 SCT030 BKN070 25/18 Q1006=,SBPA
1666368000000,METAR SBPA 211600Z 29013KT 9999 SCT030 BKN070 26/18 Q1005=,SBPA
1666371600000,METAR SBPA 211700Z 29011KT 9999 BKN040 SCT073 27/17 Q1005=,SBPA
1666375200000,METAR SBPA 211800Z 28011KT 9999 BKN043 FEW045TCU SCT073 28/16 Q1004=,SBPA
1666378800000,METAR SBPA 211900Z 26007KT 200V320 9999 VCSH BKN040 FEW045TCU BKN055 27/16 Q1004=,SBPA
1666379880000,SPECI SBPA 211918Z 18014KT 160V220 9999 VCSH FEW019 BKN035 FEW040TCU BKN090 23/19 Q1005=,SBPA
1666382400000,METAR SBPA 212000Z 18010KT 150V210 9999 VCSH FEW019 BKN030 FEW040TCU BKN100 21/19 Q1005=,SBPA
1666384080000,SPECI SBPA 212028Z 16010KT 130V190 9999 BKN014 FEW035TCU BKN070 21/19 Q1006=,SBPA
1666386000000,METAR SBPA 212100Z 17012KT 140V210 9999 VCSH BKN011 FEW020TCU BKN025 20/18 Q1008=,SBPA
1666386540000,SPECI SBPA 212109Z 17012KT 130V210 2500 -RA BKN011 FEW020TCU OVC024 19/18 Q1008=,SBPA
1666389600000,METAR SBPA 212200Z 15011KT 120V180 9999 SCT009 FEW020TCU BKN045 BKN090 18/17 Q1009=,SBPA
1666393200000,METAR SBPA 212300Z 16010KT 9999 VCSH SCT012 BKN030 18/16 Q1010=,SBPA
1666310400000,METAR SBRF 210000Z 13009KT 100V160 9999 SCT025 26/19 Q1014=,SBRF
1666314000000,METAR SBRF 210100Z 12009KT 080V140 9999 SCT025 26/19 Q1014=,SBRF
1666317600000,METAR SBRF 210200Z 12007KT 050V180 9999 SCT025 26/19 Q1014=,SBRF
1666321200000,METAR SBRF 210300Z 12008KT 070V150 9999 BKN025 26/19 Q1013=,SBRF
1666324800000,METAR SBRF 210400Z 13007KT 9999 BKN025 26/19 Q1012=,SBRF
1666328400000,METAR SBRF 210500Z 13007KT 9999 SCT025 25/19 Q1011=,SBRF
1666332000000,METAR SBRF 210600Z 12008KT 080V160 9999 SCT025 25/19 Q1011=,SBRF
1666335600000,METAR SBRF 210700Z 13007KT 090V150 9999 SCT025 25/19 Q1011=,SBRF
1666339200000,METAR SBRF 210800Z 12007KT 090V150 9999 SCT025 25/19 Q1012=,SBRF
1666342800000,METAR SBRF 210900Z 10006KT 080V140 9999 SCT025 26/19 Q1012=,SBRF
1666346400000,METAR SBRF 211000Z 11007KT 090V150 9999 BKN025 27/20 Q1013=,SBRF
1666350000000,METAR SBRF 211100Z 10008KT 060V140 9999 BKN025 28/20 Q1013=,SBRF
1666353600000,METAR SBRF 211200Z 11008KT 060V130 9999 SCT025 28/20 Q1014=,SBRF
1666357200000,METAR SBRF 211300Z 13009KT 9999 SCT025 BKN070 29/21 Q1014=,SBRF
1666360800000,METAR SBRF 211400Z 12008KT 080V150 9999 SCT025 BKN070 29/21 Q1013=,SBRF
1666364400000,METAR SBRF 211500Z 11007KT 030V150 9999 SCT025 BKN080 28/21 Q1013=,SBRF
1666368000000,METAR SBRF 211600Z 10008KT 040V130 9999 SCT025 BKN080 28/21 Q1012=,SBRF
1666371600000,METAR SBRF 211700Z 11007KT 040V160 9999 FEW025 SCT080 28/21 Q1011=,SBRF
1666375200000,METAR SBRF 211800Z 12008KT 090V160 9999 SCT023 27/21 Q1011=,SBRF
1666378800000,METAR SBRF 211900Z 11007KT 070V150 9999 SCT023 28/21 Q1011=,SBRF
1666382400000,METAR SBRF 212000Z 11006KT 080V140 9999 BKN023 27/21 Q1011=,SBRF
1666386000000,METAR SBRF 212100Z 10006KT 020V150 9999 SCT022 27/21 Q1012=,SBRF
1666389600000,METAR SBRF 212200Z 11007KT 060V140 9999 SCT021 27/21 Q1012=,SBRF
1666393200000,METAR SBRF 212300Z 09005KT 040V130 9999 BKN019 27/21 Q1012=,SBRF
1666310400000,METAR SBRJ 210000Z 15004KT CAVOK 25/22 Q1010=,SBRJ
1666314000000,METAR SBRJ 210100Z 09002KT CAVOK 25/22 Q1011=,SBRJ
1666317600000,METAR SBRJ 210200Z 11003KT CAVOK 24/23 Q1010=,SBRJ
1666321200000,METAR SBRJ 210300Z 03004KT CAVOK 24/22 Q1009=,SBRJ
1666324800000,METAR SBRJ 210400Z 04004KT CAVOK 24/21 Q1008=,SBRJ
1666328400000,METAR SBRJ 210500Z 35006KT CAVOK 23/21 Q1008=,SBRJ
1666332000000,METAR SBRJ 210600Z 31004KT 290V350 CAVOK 24/21 Q1007=,SBRJ
1666335600000,METAR SBRJ 210700Z 34004KT CAVOK 23/21 Q1007=,SBRJ
1666339200000,METAR SBRJ 210800Z 36002KT CAVOK 24/21 Q1007=,SBRJ
1666342800000,METAR SBRJ 210900Z 32005KT CAVOK 24/21 Q1008=,SBRJ
1666346400000,METAR SBRJ 211000Z 35004KT 9999 FEW030 25/21 Q1008=,SBRJ
1666350000000,METAR SBRJ 211100Z 36005KT 9999 FEW030 26/22 Q1008=,SBRJ
1666353600000,METAR SBRJ 211200Z 31005KT 9999 FEW030 BKN100 27/20 Q1008=,SBRJ
1666357200000,METAR SBRJ 211300Z 29004KT 260V330 9999 FEW040 BKN100 30/20 Q1008=,SBRJ
1666359600000,SPECI SBRJ 211340Z 14003KT 9999 FEW040 BKN100 28/22 Q1009=,SBRJ
1666360800000,METAR SBRJ 211400Z VRB05KT 9999 FEW040 BKN100 31/21 Q1009=,SBRJ
1666364400000,METAR SBRJ 211500Z 25007KT 220V290 9999 -RA FEW040 SCT050 BKN100 30/20 Q1009=,SBRJ
1666368000000,METAR SBRJ 211600Z 20004KT 100V270 9999 FEW040 SCT060 BKN100 29/22 Q1008=,SBRJ
1666371600000,METAR SBRJ 211700Z 14005KT 9999 FEW040 SCT060 BKN100 26/22 Q1007=,SBRJ
1666375200000,METAR SBRJ 211800Z 14012KT 9999 FEW040 SCT060 BKN100 25/22 Q1007=,SBRJ
1666378800000,METAR SBRJ 211900Z 17012KT 9999 FEW040 SCT060 BKN100 25/22 Q1007=,SBRJ
1666382400000,METAR COR SBRJ 212000Z 18012KT 9999 -RA SCT040 BKN060 OVC100 25/21 Q1008=,SBRJ
1666386000000,METAR SBRJ 212100Z 14007KT 8000 -RA SCT040 BKN050 OVC080 25/22 Q1008=,SBRJ
1666389600000,METAR SBRJ 212200Z 17003KT 9999 FEW040 BKN050 OVC080 25/22 Q1009=,SBRJ
1666393200000,METAR SBRJ 212300Z 03002KT 9999 FEW040 BKN050 OVC080 25/21 Q1009=,SBRJ
1666310400000,METAR COR SBSP 210000Z 05006KT 010V080 9999 -RA FEW036 SCT100 23/18 Q1015=,SBSP
1666314000000,METAR SBSP 210100Z 01009KT 9999 FEW036 BKN100 23/18 Q1015=,SBSP
1666317600000,METAR SBSP 210200Z 02007KT CAVOK 22/17 Q1014=,SBSP
1666317660000,SPECI SBSP 210201Z 01007KT CAVOK 22/16 Q1013=,SBSP
1666321200000,METAR SBSP 210300Z AUTO 01005KT 340V040 CAVOK 22/16 Q1012=,SBSP
1666324800000,METAR SBSP 210400Z AUTO 33003KT 300V360 CAVOK 21/16 Q1012=,SBSP
1666328400000,METAR SBSP 210500Z AUTO 36004KT 330V050 CAVOK 21/14 Q1011=,SBSP
1666332000000,METAR SBSP 210600Z AUTO VRB02KT CAVOK 21/15 Q1011=,SBSP
1666335600000,METAR SBSP 210700Z AUTO 30006KT 270V330 9999 -RA FEW001 20/15 Q1012=,SBSP
1666338720000,SPECI SBSP 210752Z AUTO 32006KT 4700 -TSRA FEW001 //////CB 18/16 Q1013=,SBSP
1666339200000,METAR SBSP 210800Z AUTO 31005KT 6000 -RA VCTS FEW001 //////CB 18/16 Q1013 RETSRA=,SBSP
1666339920000,SPECI SBSP 210812Z AUTO 33005KT 280V350 4800 -RA NCD 18/17 Q1013=,SBSP
1666341240000,SPECI SBSP 210834Z AUTO 33007KT 2900 -RA FEW019 18/17 Q1014=,SBSP
1666341900000,SPECI SBSP 210845Z AUTO 32007KT 290V350 2400 RA FEW010 SCT027 18/17 Q1014=,SBSP
1666342800000,METAR SBSP 210900Z 33008KT 5000 RA BR FEW006 SCT036 OVC083 18/17 Q1014=,SBSP
1666343820000,SPECI SBSP 210917Z 33008KT 280V360 7000 -RA FEW006 SCT043 OVC083 18/17 Q1014 RERA=,SBSP
1666346400000,METAR SBSP 211000Z 01007KT 9999 FEW013 SCT043 OVC100 19/17 Q1014 RERA=,SBSP
1666350000000,METAR SBSP 211100Z 34008KT 310V020 9999 FEW026 SCT050 OVC100 20/17 Q1014=,SBSP
1666353600000,METAR SBSP 211200Z 35013KT 330V030 9999 FEW015 BKN046 21/17 Q1014=,SBSP
1666357200000,METAR SBSP 211300Z 32012KT 9000 SCT015 SCT023 OVC036 21/16 Q1015=,SBSP
1666360800000,METAR SBSP 211400Z 35015KT 9999 FEW023 SCT033 21/17 Q1014=,SBSP
1666364400000,METAR SBSP 211500Z 34018KT 9999 FEW023 SCT033 23/17 Q1013=,SBSP
1666368000000,METAR SBSP 211600Z 33014KT 9999 SCT026 BKN036 24/17 Q1013=,SBSP
1666371600000,METAR SBSP 211700Z 35015KT 9999 BKN030 BKN083 23/17 Q1012=,SBSP
1666375200000,METAR SBSP 211800Z 35014KT 9999 BKN026 BKN073 23/17 Q1011=,SBSP
1666378800000,METAR SBSP 211900Z 32012KT 9999 BKN030 24/17 Q1011=,SBSP
1666382400000,METAR SBSP 212000Z 34012KT 9999 SCT026 BKN066 24/18 Q1011=,SBSP
1666386000000,METAR SBSP 212100Z 33013KT 9999 BKN030 24/17 Q1011=,SBSP
1666389600000,METAR SBSP 212200Z 33010KT 300V360 9999 SCT026 23/17 Q1012=,SBSP
1666393200000,METAR SBSP 212300Z 36012KT 9999 BKN026 22/17 Q1012=,SBSP
1666310400000,METAR SBSV 210000Z 09010KT 9999 FEW023 26/20 Q1015=,SBSV
1666314000000,METAR SBSV 210100Z 08010KT 9999 FEW023 26/20 Q1015=,SBSV
1666317600000,METAR SBSV 210200Z 09011KT 9999 FEW023 26/20 Q1015=,SBSV
1666321200000,METAR SBSV 210300Z 08010KT 9999 FEW023 26/20 Q1014=,SBSV
1666324800000,METAR SBSV 210400Z 09008KT 9999 FEW023 26/20 Q1013=,SBSV
1666328400000,METAR SBSV 210500Z 08009KT 9999 SCT023 25/21 Q1012=,SBSV
1666332000000,METAR SBSV 210600Z 09009KT 9999 SCT023 25/21 Q1012=,SBSV
1666335600000,METAR SBSV 210700Z 08009KT 9999 SCT023 25/20 Q1012=,SBSV
1666339200000,METAR SBSV 210800Z 08010KT 9999 SCT023 25/21 Q1012=,SBSV
1666342800000,METAR SBSV 210900Z 08011KT 9999 SCT023 26/21 Q1013=,SBSV
1666346400000,METAR SBSV 211000Z 09013KT 9999 SCT023 27/21 Q1014=,SBSV
1666350000000,METAR SBSV 211100Z 09013KT 9999 SCT023 28/21 Q1015=,SBSV
1666353600000,METAR SBSV 211200Z 10011KT 070V130 9999 SCT023 28/21 Q1015=,SBSV
1666357200000,METAR SBSV 211300Z 10011KT 060V130 9999 SCT023 28/21 Q1015=,SBSV
1666360800000,METAR SBSV 211400Z 09012KT 9999 FEW023 28/21 Q1015=,SBSV
1666364400000,METAR SBSV 211500Z 09012KT 070V130 9999 FEW023 29/22 Q1014=,SBSV
1666368000000,METAR SBSV 211600Z 09012KT 9999 FEW023 28/22 Q1013=,SBSV
1666371600000,METAR SBSV 211700Z 09012KT 060V140 9999 FEW023 28/22 Q1012=,SBSV
1666375200000,METAR SBSV 211800Z 10013KT 9999 FEW023 28/21 Q1011=,SBSV
1666378800000,METAR SBSV 211900Z 08012KT 9999 SCT023 27/22 Q1011=,SBSV
1666382400000,METAR SBSV 212000Z 09014KT 9999 SCT023 27/21 Q1011=,SBSV
1666386000000,METAR SBSV 212100Z 09011KT 9999 SCT023 26/21 Q1012=,SBSV
1666389600000,METAR SBSV 212200Z 08010KT 9999 SCT023 26/21 Q1013=,SBSV
1666393200000,METAR SBSV 212300Z 09009KT 9999 SCT023 26/22 Q1014=,SBSV
