hora,metar,aero
1676592000000,METAR SBBR 170000Z 17009KT CAVOK 25/16 Q1014=,SBBR
1676595600000,METAR SBBR 170100Z 21005KT CAVOK 24/17 Q1015=,SBBR
1676599200000,METAR SBBR 170200Z VRB02KT 9999 FEW040 SCT080 24/17 Q1015=,SBBR
1676602800000,METAR SBBR 170300Z VRB02KT 9999 FEW040 SCT080 24/17 Q1015=,SBBR
1676606400000,METAR SBBR 170400Z 25004KT 9999 SCT040 SCT080 24/17 Q1015=,SBBR
1676610000000,METAR SBBR 170500Z 23003KT 190V260 9999 SCT040 SCT080 23/18 Q1014=,SBBR
1676613600000,METAR SBBR 170600Z 19003KT 9999 SCT040 SCT100 23/18 Q1014=,SBBR
1676617200000,METAR SBBR 170700Z 14004KT 9999 BKN040 BKN100 23/17 Q1014=,SBBR
1676620800000,METAR SBBR 170800Z 07010KT 9999 VCTS SCT020 BKN030 FEW040CB BKN100 21/17 Q1015=,SBBR
1676624400000,METAR SBBR 170900Z 21003KT 150V250 9999 VCTS SCT020 BKN030 FEW040CB BKN100 20/16 Q1015=,SBBR
1676628000000,METAR SBBR 171000Z 21006KT 9999 VCTS FEW020 BKN030 FEW040CB 21/16 Q1016=,SBBR
1676631600000,METAR SBBR 171100Z VRB01KT 9999 BKN030 FEW040TCU SCT080 21/16 Q1016=,SBBR
1676635200000,METAR SBBR 171200Z VRB02KT 9999 BKN040 BKN070 23/17 Q1017=,SBBR
1676638800000,METAR SBBR 171300Z 25004KT 190V360 9999 VCSH BKN030 FEW035TCU BKN070 26/16 Q1017=,SBBR
1676642400000,METAR SBBR 171400Z VRB03KT 9999 TS VCSH SCT030 FEW035CB BKN080 26/17 Q1017=,SBBR
1676646000000,METAR SBBR 171500Z 12008KT 080V140 9999 TS SCT030 FEW035CB BKN080 25/18 Q1016=,SBBR
1676649600000,METAR SBBR 171600Z 31007KT 270V340 9999 4000SW SHRA TS SCT025 FEW030CB BKN090 23/18 Q1016=,SBBR
1676653200000,METAR SBBR 171700Z 23007KT 9999 TS VCSH SCT025 FEW030CB BKN080 24/17 Q1015 RESHRA=,SBBR
1676656800000,METAR SBBR 171800Z 26003KT 170V240 9999 SCT025 FEW030TCU BKN080 27/16 Q1013 RETS=,SBBR
1676660400000,METAR SBBR 171900Z 33002KT 9999 SCT025 BKN080 27/15 Q1013=,SBBR
1676664000000,METAR SBBR 172000Z 21003KT 160V260 9999 SCT025 BKN080 28/16 Q1012=,SBBR
1676667600000,METAR SBBR 172100Z 26006KT 220V290 9999 FEW035 BKN080 28/17 Q1013=,SBBR
1676671200000,METAR SBBR 172200Z 26006KT 220V280 9999 FEW035 BKN080 26/17 Q1014=,SBBR
1676674800000,METAR SBBR 172300Z 28005KT 9999 FEW035 BKN080 25/17 Q1015=,SBBR
1676592000000,METAR SBCF 170000Z 15005KT 9999 FEW040 SCT100 21/19 Q1013=,SBCF
1676595600000,METAR SBCF 170100Z 12005KT CAVOK 22/17 Q1014=,SBCF
1676599200000,METAR SBCF 170200Z 15002KT CAVOK 22/17 Q1014=,SBCF
1676602800000,METAR SBCF 170300Z 16002KT CAVOK 22/18 Q1014=,SBCF
1676606400000,METAR SBCF 170400Z 15003KT 9999 FEW030 SCT100 21/18 Q1013=,SBCF
1676610000000,METAR SBCF 170500Z 13003KT CAVOK 21/18 Q1013=,SBCF
1676613600000,METAR SBCF 170600Z 12004KT CAVOK 21/18 Q1012=,SBCF
1676617200000,METAR SBCF 170700Z 16002KT CAVOK 21/18 Q1012=,SBCF
1676620800000,METAR SBCF 170800Z 11002KT CAVOK 20/18 Q1013=,SBCF
1676624400000,METAR SBCF 170900Z 14002KT CAVOK 20/18 Q1014=,SBCF
1676628000000,METAR SBCF 171000Z VRB01KT 9999 FEW020 SCT100 21/18 Q1014=,SBCF
1676631600000,METAR SBCF 171100Z VRB03KT 9999 FEW020 BKN100 25/20 Q1015=,SBCF
1676635200000,METAR SBCF 171200Z 03008KT 9999 FEW020 BKN100 26/19 Q1015=,SBCF
1676638800000,METAR SBCF 171300Z 36004KT 280V070 9999 FEW025 BKN070 27/19 Q1015=,SBCF
1676642400000,METAR SBCF 171400Z 32010KT 9999 FEW030 SCT070 27/19 Q1016=,SBCF
1676646000000,METAR SBCF 171500Z 30009KT 270V340 9999 SCT030 FEW035TCU SCT100 29/18 Q1014=,SBCF
1676649600000,METAR SBCF 171600Z 33009KT 9999 VCSH SCT035 FEW040TCU SCT100 30/19 Q1014=,SBCF
1676653200000,METAR SBCF 171700Z 33008KT 9999 SCT035 FEW040TCU SCT100 30/20 Q1012=,SBCF
1676656800000,METAR SBCF 171800Z 35005KT 9999 VCSH BKN035 FEW040TCU SCT100 29/19 Q1012=,SBCF
1676660400000,METAR SBCF 171900Z 03014KT 9999 TS VCSH BKN040 FEW045CB BKN100 27/20 Q1012=,SBCF
1676662860000,SPECI SBCF 171941Z 21014KT 8000 -TSRA BKN010 BKN030 FEW045CB 22/19 Q1014=,SBCF
1676664000000,METAR SBCF 172000Z 25014KT 4000 +TSRA FEW006 BKN010 BKN030 FEW045CB 21/20 Q1014 RERA=,SBCF
1676664540000,SPECI SBCF 172009Z 23014KT 2500 +TSRA SCT006 BKN010 BKN030 FEW045CB 20/18 Q1014=,SBCF
1676665560000,SPECI SBCF 172026Z 16008KT 4000 TSRA SCT006 BKN020 BKN040 FEW045CB 19/18 Q1014 RERA=,SBCF
1676667600000,METAR SBCF 172100Z 16004KT 4000 -TSRA FEW006 BKN020 FEW045CB BKN050 20/19 Q1013 RERA=,SBCF
1676671200000,METAR SBCF 172200Z 13007KT 4000 TSRA FEW006 SCT020 BKN040 FEW045CB 20/19 Q1015=,SBCF
1676674800000,METAR SBCF 172300Z 10007KT 4000 RA FEW006 BKN050 21/20 Q1016 RETS=,SBCF
1676592000000,METAR SBCT 170000Z 35007KT 9999 FEW009 SCT060 BKN100 20/18 Q1008=,SBCT
1676595600000,METAR SBCT 170100Z 36007KT CAVOK 20/17 Q1008=,SBCT
1676599200000,METAR SBCT 170200Z 36009KT 9999 FEW025 20/17 Q1008=,SBCT
1676602800000,METAR SBCT 170300Z 35009KT 9999 BKN015 20/17 Q1008=,SBCT
1676606400000,METAR SBCT 170400Z 34010KT 9999 BKN015 20/18 Q1008=,SBCT
1676610000000,METAR SBCT 170500Z 32011KT 9999 BKN015 20/18 Q1007=,SBCT
1676613600000,METAR SBCT 170600Z 34009KT 9999 BKN015 20/17 Q1006=,SBCT
1676617200000,METAR SBCT 170700Z 34011KT 9999 BKN017 21/18 Q1007=,SBCT
1676620800000,METAR SBCT 170800Z 33014KT 9999 -RA BKN017 BKN100 20/18 Q1007=,SBCT
1676624400000,METAR SBCT 170900Z 35010KT 9999 -RA SCT015 BKN083 20/18 Q1008=,SBCT
1676628000000,METAR SBCT 171000Z 01007KT 6000 -RA SCT010 BKN025 19/18 Q1008=,SBCT
1676630940000,SPECI SBCT 171049Z 31008KT 260V350 4000 -RA BR BKN006 SCT010 BKN025 20/18 Q1008=,SBCT
1676631600000,METAR SBCT 171100Z 29007KT 240V330 2500 -RA BR BKN006 SCT010 BKN022 20/18 Q1008=,SBCT
1676633700000,SPECI SBCT 171135Z 30008KT 260V320 8000 SCT007 BKN023 19/17 Q1010=,SBCT
1676635200000,METAR SBCT 171200Z 29009KT 9999 FEW005 SCT023 BKN035 19/17 Q1010=,SBCT
1676638800000,METAR SBCT 171300Z 33008KT 300V360 9999 FEW040 21/17 Q1009=,SBCT
1676642400000,METAR SBCT 171400Z 32012KT 9999 FEW015 23/18 Q1010=,SBCT
1676646000000,METAR SBCT 171500Z 32011KT 9999 FEW023 BKN090 23/18 Q1010=,SBCT
1676649600000,METAR SBCT 171600Z 32012KT 9999 SCT040 25/18 Q1010=,SBCT
1676653200000,METAR SBCT 171700Z 27009KT 240V310 9999 SCT035 25/17 Q1010=,SBCT
1676656800000,METAR SBCT 171800Z 28008KT 230V340 9999 SCT030 25/17 Q1010=,SBCT
1676660400000,METAR SBCT 171900Z 26008KT 9999 SCT030 FEW040TCU BKN090 25/17 Q1009=,SBCT
1676664000000,METAR SBCT 172000Z 25004KT 9999 VCSH SCT030 FEW040TCU OVC060 21/18 Q1010=,SBCT
1676667600000,METAR SBCT 172100Z 26003KT 210V320 9999 SCT020 FEW040TCU BKN100 22/19 Q1010=,SBCT
1676671200000,METAR SBCT 172200Z 17004KT 9999 FEW020 SCT040 BKN100 22/19 Q1011=,SBCT
1676674800000,METAR SBCT 172300Z 11004KT 9999 -RA SCT020 OVC100 21/19 Q1012=,SBCT
1676592000000,METAR SBFL 170000Z 14003KT 9999 SCT035 24/23 Q1002=,SBFL
1676595600000,METAR SBFL 170100Z 02006KT 9999 BKN033 25/23 Q1002=,SBFL
1676599200000,METAR SBFL 170200Z 36006KT 300V020 9999 FEW022 25/23 Q1002=,SBFL
1676602800000,METAR SBFL 170300Z 35005KT 9999 BKN015 BKN022 25/24 Q1001=,SBFL
1676606400000,METAR SBFL 170400Z 32006KT 9999 FEW016 SCT035 25/24 Q1000=,SBFL
1676610000000,METAR SBFL 170500Z 33007KT 9999 FEW015 25/25 Q1000=,SBFL
1676613600000,METAR SBFL 170600Z 01009KT 9999 FEW020 26/25 Q0999=,SBFL
1676617200000,METAR SBFL 170700Z 35007KT 9999 FEW020 25/25 Q0999=,SBFL
1676620800000,METAR SBFL 170800Z 33012KT 9999 FEW020 26/24 Q1000=,SBFL
1676624400000,METAR SBFL 170900Z 34010KT 280V360 CAVOK 25/24 Q1000=,SBFL
1676628000000,METAR SBFL 171000Z 34010KT CAVOK 26/23 Q1000=,SBFL
1676631600000,METAR SBFL 171100Z 33012KT 9999 FEW030 26/23 Q1001=,SBFL
1676635200000,METAR SBFL 171200Z 33011KT 9999 FEW030 27/23 Q1002=,SBFL
1676638800000,METAR SBFL 171300Z 32008KT CAVOK 27/24 Q1002=,SBFL
1676642400000,METAR SBFL 171400Z 35014KT CAVOK 28/23 Q1002=,SBFL
1676646000000,METAR SBFL 171500Z 35009KT CAVOK 28/24 Q1003=,SBFL
1676649600000,METAR SBFL 171600Z 03006KT 9999 FEW030 29/23 Q1003=,SBFL
1676653200000,METAR SBFL 171700Z 15014KT 9999 BKN030 28/23 Q1004=,SBFL
1676656800000,METAR SBFL 171800Z 27010KT 9999 BKN030 FEW035TCU BKN080 28/23 Q1004=,SBFL
1676660400000,METAR SBFL 171900Z 17011KT 140V200 9999 4500S SHRA SCT018 BKN030 FEW035TCU BKN080 27/24 Q1005=,SBFL
1676661060000,SPECI SBFL 171911Z 18010KT 150V210 4500 SHRA SCT015 BKN023 FEW030TCU BKN080 26/24 Q1005=,SBFL
1676664000000,METAR SBFL 172000Z 18012KT 8000 SCT012 BKN030 FEW035TCU BKN100 24/24 Q1005 RESHRA=,SBFL
1676667600000,METAR SBFL 172100Z 19009KT 9999 SCT012 SCT030 FEW035TCU BKN100 24/22 Q1006=,SBFL
1676671200000,METAR SBFL 172200Z 17008KT 9999 4500SW SHRA SCT012 BKN030 FEW035TCU BKN100 23/21 Q1007=,SBFL
1676674800000,METAR SBFL 172300Z 15011KT 120V180 9999 FEW012 SCT030 FEW035TCU BKN100 23/20 Q1008 RESHRA=,SBFL
1676592000000,METAR SBGL 170000Z 13002KT 9999 VCTS FEW025 FEW035CB BKN100 29/24 Q1005=,SBGL
1676595600000,METAR SBGL 170100Z 11002KT 9999 VCTS FEW025 FEW035CB BKN100 30/23 Q1006=,SBGL
1676599200000,METAR SBGL 170200Z 31005KT 9999 FEW025 BKN100 30/24 Q1006 RETS=,SBGL
1676602800000,METAR SBGL 170300Z 28006KT 9999 FEW030 29/21 Q1005=,SBGL
1676606400000,METAR SBGL 170400Z 30004KT CAVOK 29/21 Q1005=,SBGL
1676610000000,METAR SBGL 170500Z 29004KT CAVOK 29/22 Q1005=,SBGL
1676613600000,METAR SBGL 170600Z 26007KT CAVOK 29/22 Q1005=,SBGL
1676617200000,METAR SBGL 170700Z 27006KT CAVOK 29/21 Q1005=,SBGL
1676620800000,METAR SBGL 170800Z 28005KT CAVOK 28/21 Q1005=,SBGL
1676624400000,METAR SBGL 170900Z 32004KT CAVOK 27/22 Q1006=,SBGL
1676628000000,METAR SBGL 171000Z 31003KT CAVOK 27/23 Q1007=,SBGL
1676631600000,METAR SBGL 171100Z 36003KT 9999 FEW020 SCT100 28/23 Q1007=,SBGL
1676635200000,METAR SBGL 171200Z 05006KT 9999 FEW020 SCT100 29/24 Q1008=,SBGL
1676638800000,METAR SBGL 171300Z 08006KT 9999 FEW020 SCT100 30/24 Q1008=,SBGL
1676642400000,METAR SBGL 171400Z 02006KT 9999 FEW020 SCT100 32/24 Q1007=,SBGL
1676646000000,METAR SBGL 171500Z 03005KT 9999 FEW020 BKN100 32/24 Q1007=,SBGL
1676649600000,METAR SBGL 171600Z 04007KT 9999 FEW020 SCT100 34/24 Q1006=,SBGL
1676653200000,METAR SBGL 171700Z 07006KT 9999 FEW020 SCT100 36/23 Q1005=,SBGL
1676656800000,METAR SBGL 171800Z 08011KT 9999 FEW020 36/22 Q1005=,SBGL
1676660400000,METAR SBGL 171900Z 12013KT 9999 FEW020 34/23 Q1005=,SBGL
1676664000000,METAR SBGL 172000Z 30025KT 7000 TS VCSH FEW040CB SCT046 31/21 Q1006=,SBGL
1676665800000,SPECI SBGL 172030Z 32025KT 4000 TSRA FEW040CB BKN046 26/23 Q1006=,SBGL
1676667600000,METAR SBGL 172100Z 01023KT 4000 -TSRA FEW006 FEW040CB BKN050 25/22 Q1008 RERA=,SBGL
1676671200000,METAR SBGL 172200Z 03008KT 4500 -TSRA FEW006 FEW040CB BKN050 BKN100 24/22 Q1009=,SBGL
1676674800000,METAR SBGL 172300Z 03003KT 350V060 8000 -RA VCTS FEW040CB SCT050 BKN100 25/22 Q1009 RETS=,SBGL
1676592000000,METAR SBGR 170000Z 33002KT 9999 -TSRA FEW015 FEW040CB BKN080 22/20 Q1011=,SBGR
1676593320000,SPECI SBGR 170022Z 23010KT 5000 TSRA BR FEW015 FEW030CB OVC080 21/20 Q1012=,SBGR
1676594640000,SPECI SBGR 170044Z 26015G31KT 6000 +TSRA BKN009 BKN035 FEW040CB OVC080 20/20 Q1013 RERA=,SBGR
1676595600000,METAR SBGR 170100Z 26020G33KT 7000 TSRA BKN009 BKN035 FEW040CB OVC080 19/19 Q1013 RERA=,SBGR
1676597040000,SPECI SBGR 170124Z 26009KT 9000 -TSRA FEW040CB BKN100 20/19 Q1012 RERA=,SBGR
1676599200000,METAR COR SBGR 170200Z 31006KT 9999 -RA NSC 20/19 Q1012 RETSRA=,SBGR
1676602800000,METAR SBGR 170300Z 34005KT CAVOK 21/19 Q1012=,SBGR
1676606400000,METAR SBGR 170400Z 03008KT CAVOK 21/19 Q1010=,SBGR
1676610000000,METAR SBGR 170500Z 35007KT CAVOK 21/19 Q1010=,SBGR
1676613600000,METAR SBGR 170600Z 09003KT CAVOK 20/19 Q1009=,SBGR
1676617200000,METAR SBGR 170700Z 04005KT CAVOK 21/18 Q1009=,SBGR
1676620800000,METAR SBGR 170800Z 02007KT CAVOK 21/18 Q1010=,SBGR
1676624400000,METAR SBGR 170900Z 36004KT CAVOK 22/18 Q1010=,SBGR
1676628000000,METAR SBGR 171000Z 32004KT CAVOK 23/18 Q1011=,SBGR
1676631600000,METAR SBGR 171100Z 33004KT CAVOK 23/19 Q1012=,SBGR
1676635200000,METAR SBGR 171200Z 32007KT CAVOK 24/18 Q1012=,SBGR
1676638800000,METAR SBGR 171300Z 32007KT CAVOK 26/19 Q1012=,SBGR
1676642400000,METAR SBGR 171400Z 32013KT 9999 SCT040 BKN100 27/19 Q1012=,SBGR
1676646000000,METAR SBGR 171500Z 31014G24KT 9999 SCT040 28/18 Q1012=,SBGR
1676649600000,METAR SBGR 171600Z 31011KT 9999 SCT040 30/19 Q1011 WS R28L=,SBGR
1676649780000,SPECI SBGR 171603Z 30016G27KT 9999 SCT040 29/18 Q1011 WS R28L=,SBGR
1676653200000,METAR SBGR 171700Z 32015KT 9999 SCT045 30/18 Q1011 WS R28L=,SBGR
1676656800000,METAR SBGR 171800Z 31013G25KT 9999 SCT045 30/19 Q1011=,SBGR
1676660400000,METAR SBGR 171900Z 32010KT 9999 SCT045 29/18 Q1010=,SBGR
1676664000000,METAR SBGR 172000Z 30006KT 9999 FEW045 SCT050 28/19 Q1010=,SBGR
1676667600000,METAR SBGR 172100Z 33009KT 9999 VCSH SCT040 FEW050TCU BKN100 27/19 Q1011=,SBGR
1676671200000,METAR SBGR 172200Z 01006KT 9999 VCSH VCTS FEW030 FEW040CB SCT050 26/20 Q1012=,SBGR
1676674800000,METAR SBGR 172300Z 34003KT 9999 VCTS FEW040CB 25/20 Q1012=,SBGR
1676592000000,METAR SBKP 170000Z 26017KT 5000 -TSRA BR BKN005 BKN030 FEW040CB 20/20 Q1012 RERA WS R15=,SBKP
1676593500000,SPECI SBKP 170025Z 26009KT 9000 -TSRA FEW005 SCT030 FEW040CB BKN070 20/20 Q1012=,SBKP
1676595600000,METAR SBKP 170100Z 25005KT 7000 TSRA SCT040 FEW050CB BKN070 20/20 Q1012=,SBKP
1676597400000,SPECI SBKP 170130Z VRB03KT 9999 -RA SCT035 FEW035TCU OVC070 20/20 Q1012 RETSRA=,SBKP
1676599200000,METAR SBKP 170200Z 09003KT 080V200 9999 -RA FEW004 SCT035 BKN070 21/20 Q1012 RETSRA=,SBKP
1676602800000,METAR SBKP 170300Z 08006KT 010V100 9999 -RA SCT009 SCT035 OVC100 20/20 Q1011=,SBKP
1676606400000,METAR SBKP 170400Z 06006KT 9999 FEW009 SCT035 OVC100 21/20 Q1010=,SBKP
1676610000000,METAR SBKP 170500Z 03004KT CAVOK 21/20 Q1009=,SBKP
1676613600000,METAR SBKP 170600Z 02010KT CAVOK 21/20 Q1010=,SBKP
1676617200000,METAR SBKP 170700Z 03007KT CAVOK 21/19 Q1009=,SBKP
1676620800000,METAR SBKP 170800Z 01010KT 9999 FEW009 SCT100 21/19 Q1010=,SBKP
1676624400000,METAR SBKP 170900Z 04007KT 9999 FEW040 SCT100 21/19 Q1010=,SBKP
1676628000000,METAR SBKP 171000Z 03009KT 9999 FEW045 22/19 Q1011=,SBKP
1676631600000,METAR SBKP 171100Z 01008KT CAVOK 22/19 Q1011=,SBKP
1676635200000,METAR SBKP 171200Z 01012KT CAVOK 23/19 Q1012=,SBKP
1676638800000,METAR SBKP 171300Z 36009KT CAVOK 24/20 Q1013=,SBKP
1676642400000,METAR SBKP 171400Z 01013KT 9999 FEW030 BKN100 25/20 Q1012=,SBKP
1676646000000,METAR SBKP 171500Z 35012KT 9999 FEW030 BKN083 26/20 Q1012=,SBKP
1676649600000,METAR SBKP 171600Z 36012KT 9999 FEW033 SCT083 28/20 Q1011=,SBKP
1676653200000,METAR SBKP 171700Z 36011KT 9999 SCT036 FEW040TCU SCT083 28/20 Q1011=,SBKP
1676656800000,METAR SBKP 171800Z 35008KT 9999 FEW036 FEW050TCU SCT083 29/20 Q1010=,SBKP
1676660400000,METAR SBKP 171900Z 33013KT 9999 FEW036 FEW050TCU SCT100 29/19 Q1010=,SBKP
1676664000000,METAR SBKP 172000Z 32007KT 9999 SCT036 FEW050TCU SCT100 29/20 Q1009=,SBKP
1676667600000,METAR SBKP 172100Z 26005KT 9999 VCSH FEW040 FEW045TCU 26/21 Q1010 WS R33=,SBKP
1676671200000,METAR SBKP 172200Z 13004KT 9999 FEW035 SCT100 25/22 Q1010=,SBKP
1676674800000,METAR SBKP 172300Z 24006KT 9999 SCT025 SCT070 24/21 Q1012=,SBKP
1676592000000,METAR SBPA 170000Z 10013KT CAVOK 25/22 Q0998=,SBPA
1676595600000,METAR SBPA 170100Z 10010KT 9999 VCTS FEW040CB 25/22 Q0998=,SBPA
1676599200000,METAR SBPA 170200Z 10009KT 9999 VCTS FEW035 FEW040CB 24/22 Q0998=,SBPA
1676602800000,METAR SBPA 170300Z 11004KT 9999 VCTS FEW035 FEW040CB 25/22 Q0998=,SBPA
1676606400000,METAR SBPA 170400Z 25015KT 9999 VCTS SCT020 FEW040CB 24/20 Q0999=,SBPA
1676610000000,METAR SBPA 170500Z 21012KT 180V250 9999 SCT012 23/20 Q0998=,SBPA
1676613600000,METAR SBPA 170600Z 22004KT 9999 FEW012 23/20 Q0999=,SBPA
1676617200000,METAR SBPA 170700Z 27009KT 9999 BKN016 BKN060 23/21 Q1000=,SBPA
1676617440000,SPECI SBPA 170704Z 28009KT 9999 BKN014 BKN060 23/20 Q1000=,SBPA
1676620800000,METAR SBPA 170800Z 28008KT 9999 BKN014 BKN050 22/20 Q1000=,SBPA
1676623200000,SPECI SBPA 170840Z 27010KT 4000 -RA BR BKN007 BKN020 21/21 Q1002=,SBPA
1676624400000,METAR SBPA 170900Z 30010KT 4000 -RA BR BKN006 BKN013 22/21 Q1002=,SBPA
1676628000000,METAR SBPA 171000Z 29008KT 4000 -RA BR BKN006 BKN080 21/21 Q1003=,SBPA
1676631600000,METAR SBPA 171100Z 26011KT 4500 -RA BR BKN005 BKN035 21/21 Q1003=,SBPA
1676635200000,METAR SBPA 171200Z 28011KT 9000 BKN008 BKN035 OVC100 22/21 Q1004=,SBPA
1676638800000,METAR SBPA 171300Z 26009KT 9999 BKN009 BKN045 22/20 Q1005=,SBPA
1676642400000,METAR SBPA 171400Z 28014KT 9999 BKN015 BKN045 23/20 Q1006=,SBPA
1676646000000,METAR SBPA 171500Z 28016KT 9999 BKN025 BKN045 24/19 Q1006=,SBPA
1676649600000,METAR SBPA 171600Z 28013KT 9999 BKN023 25/20 Q1006=,SBPA
1676653200000,METAR SBPA 171700Z 27019KT 9999 BKN030 25/19 Q1006=,SBPA
1676656800000,METAR SBPA 171800Z 28018KT 9999 BKN023 23/18 Q1007=,SBPA
1676660400000,METAR SBPA 171900Z 28017KT 9999 BKN030 23/17 Q1007=,SBPA
1676664000000,METAR SBPA 172000Z 27019KT 9999 SCT030 23/16 Q1008=,SBPA
1676667600000,METAR SBPA 172100Z 28016KT 9999 FEW040 23/14 Q1009=,SBPA
1676671200000,METAR SBPA 172200Z 29013KT CAVOK 22/15 Q1010=,SBPA
1676674800000,METAR SBPA 172300Z 29011KT CAVOK 21/12 Q1011=,SBPA
1676592000000,METAR SBRF 170000Z 11008KT 9999 BKN020 28/23 Q1010=,SBRF
1676595600000,METAR SBRF 170100Z 09005KT 030V120 9999 BKN018 28/23 Q1010=,SBRF
1676599200000,METAR SBRF 170200Z 10007KT 9999 BKN018 28/23 Q1010=,SBRF
1676602800000,METAR SBRF 170300Z 09006KT 9999 SCT018 28/23 Q1010=,SBRF
1676606400000,METAR SBRF 170400Z 07006KT 040V110 9999 SCT018 28/23 Q1009=,SBRF
1676610000000,METAR SBRF 170500Z 07005KT 010V100 9999 SCT018 28/22 Q1009=,SBRF
1676613600000,METAR SBRF 170600Z 08004KT 020V120 9999 SCT020 27/22 Q1008=,SBRF
1676617200000,METAR SBRF 170700Z 07004KT 020V100 9999 VCSH SCT020 28/22 Q1009=,SBRF
1676620800000,METAR SBRF 170800Z 13007KT 080V150 9000 VCSH SCT020 SCT050 27/23 Q1009=,SBRF
1676624400000,METAR SBRF 170900Z 11005KT 060V140 9000 VCSH SCT020 BKN050 27/23 Q1010=,SBRF
1676628000000,METAR SBRF 171000Z 12008KT 9999 SCT020 BKN050 28/23 Q1010=,SBRF
1676631600000,METAR SBRF 171100Z 12008KT 9999 SCT022 SCT060 29/22 Q1010=,SBRF
1676635200000,METAR SBRF 171200Z 13009KT 9999 SCT021 29/23 Q1011=,SBRF
1676638800000,METAR SBRF 171300Z 10007KT 9999 SCT022 30/23 Q1011=,SBRF
1676642400000,METAR SBRF 171400Z 11009KT 9999 SCT023 30/23 Q1010=,SBRF
1676646000000,METAR SBRF 171500Z 10009KT 9999 BKN024 29/22 Q1010=,SBRF
1676649600000,METAR SBRF 171600Z 10010KT 060V140 9999 BKN024 30/22 Q1009=,SBRF
1676653200000,METAR SBRF 171700Z 12010KT 060V140 9999 SCT024 30/22 Q1008=,SBRF
1676656800000,METAR SBRF 171800Z 10009KT 050V130 9999 SCT024 30/22 Q1008=,SBRF
1676660400000,METAR SBRF 171900Z 12008KT 090V170 9999 SCT023 29/21 Q1008=,SBRF
1676664000000,METAR SBRF 172000Z 11008KT 070V160 9999 FEW023 29/21 Q1008=,SBRF
1676667600000,METAR SBRF 172100Z 10007KT 050V170 9999 FEW023 28/22 Q1008=,SBRF
1676671200000,METAR SBRF 172200Z 11007KT 070V140 CAVOK 28/22 Q1009=,SBRF
1676674800000,METAR SBRF 172300Z 12007KT 9999 SCT025 28/22 Q1009=,SBRF
1676592000000,METAR SBRJ 170000Z VRB02KT CAVOK 28/24 Q1005=,SBRJ
1676595600000,METAR SBRJ 170100Z 35005KT 290V100 CAVOK 30/24 Q1005=,SBRJ
1676599200000,METAR SBRJ 170200Z 32005KT 290V360 CAVOK 30/26 Q1005=,SBRJ
1676602800000,METAR SBRJ 170300Z 30009KT CAVOK 30/22 Q1005=,SBRJ
1676606400000,METAR SBRJ 170400Z 31005KT CAVOK 30/21 Q1005=,SBRJ
1676610000000,METAR SBRJ 170500Z 32006KT CAVOK 29/24 Q1004=,SBRJ
1676613600000,METAR SBRJ 170600Z 26009KT CAVOK 31/21 Q1004=,SBRJ
1676617200000,METAR SBRJ 170700Z 22008KT CAVOK 29/22 Q1005=,SBRJ
1676620800000,METAR SBRJ 170800Z 16005KT CAVOK 27/22 Q1005=,SBRJ
1676624400000,METAR SBRJ 170900Z 12005KT CAVOK 26/23 Q1006=,SBRJ
1676628000000,METAR SBRJ 171000Z VRB02KT CAVOK 27/23 Q1006=,SBRJ
1676631600000,METAR SBRJ 171100Z VRB01KT CAVOK 28/23 Q1007=,SBRJ
1676635200000,METAR SBRJ 171200Z 01006KT CAVOK 28/24 Q1007=,SBRJ
1676638800000,METAR SBRJ 171300Z 32006KT CAVOK 28/24 Q1007=,SBRJ
1676642400000,METAR SBRJ 171400Z 35005KT CAVOK 30/25 Q1007=,SBRJ
1676646000000,METAR SBRJ 171500Z 32004KT 290V360 CAVOK 33/24 Q1006=,SBRJ
1676646900000,SPECI SBRJ 171515Z 13007KT CAVOK 29/25 Q1006=,SBRJ
1676649600000,METAR SBRJ 171600Z 16006KT 9999 FEW030 SCT100 31/24 Q1006=,SBRJ
1676653200000,METAR SBRJ 171700Z 16010KT 9999 FEW030 SCT100 31/24 Q1005=,SBRJ
1676656800000,METAR SBRJ 171800Z 17011KT 9999 FEW030 30/23 Q1005=,SBRJ
1676660400000,METAR SBRJ 171900Z 19013KT 9999 FEW030 FEW035TCU 32/24 Q1004=,SBRJ
1676664000000,METAR SBRJ 172000Z 19011KT 9999 FEW030 FEW035TCU SCT100 30/24 Q1005=,SBRJ
1676665020000,SPECI SBRJ 172017Z 30015KT 230V340 9000 TS VCSH FEW030 FEW035CB BKN040 31/22 Q1005=,SBRJ
1676666100000,SPECI SBRJ 172035Z 31020G31KT 8000 TS VCSH FEW030 FEW035CB BKN040 29/23 Q1006=,SBRJ
1676667600000,METAR SBRJ 172100Z 31021KT 7000 TS VCSH SCT030 SCT035CB BKN040 27/23 Q1006=,SBRJ
1676668200000,SPECI SBRJ 172110Z 34023KT 310V020 6000 TS VCSH BKN010 FEW035CB BKN040 25/23 Q1008=,SBRJ
1676671200000,METAR SBRJ 172200Z 36014KT 8000 TS VCSH SCT010 FEW035CB BKN040 25/23 Q1008 WS R02=,SBRJ
1676672400000,SPECI SBRJ 172220Z 34010KT 9000 -RA VCTS FEW010 FEW035CB BKN050 25/23 Q1008 RETS=,SBRJ
1676673900000,SPECI SBRJ 172245Z 31007KT 9000 TS FEW010 FEW035CB BKN060 25/23 Q1009=,SBRJ
1676674800000,METAR SBRJ 172300Z 32007KT 260V350 9000 -TSRA FEW010 FEW035CB BKN060 26/23 Q1009=,SBRJ
1676676900000,SPECI SBRJ 172335Z 36009KT 320V020 9000 -RA FEW010 BKN070 25/23 Q1009 RETS=,SBRJ
1676592000000,METAR COR SBSP 170000Z 26009KT 210V310 4000 +RA BR VCTS SCT009 BKN023 FEW040CB OVC050 20/19 Q1012 RERA=,SBSP
1676592660000,SPECI SBSP 170011Z 31006KT 260V360 5000 RA BR VCTS FEW006 BKN036 FEW040CB OVC050 20/19 Q1013 RERA=,SBSP
1676593200000,SPECI SBSP 170020Z 01008KT 340V040 6000 TSRA FEW006 FEW040CB SCT043 OVC050 20/19 Q1013 RERA=,SBSP
1676593800000,SPECI SBSP 170030Z 02011KT 9000 -RA VCTS BKN036 FEW040CB OVC050 20/19 Q1013 RETSRA=,SBSP
1676594400000,SPECI SBSP 170040Z 35012KT 3000 RA BR BKN036 FEW040TCU OVC050 21/19 Q1014 RETS=,SBSP
1676595600000,METAR SBSP 170100Z 01011G22KT 340V050 6000 -TSRA BKN023 FEW040CB OVC066 20/18 Q1014 RERA=,SBSP
1676597400000,SPECI SBSP 170130Z 34008KT 8000 -RA FEW007 FEW040TCU OVC066 20/19 Q1013 RETS=,SBSP
1676599200000,METAR SBSP 170200Z 34006KT 300V010 9000 -RA FEW007 OVC083 20/19 Q1012 RETS=,SBSP
1676600220000,SPECI SBSP 170217Z 33008KT 290V350 9999 -RA FEW014 20/19 Q1012=,SBSP
1676602800000,METAR SBSP 170300Z AUTO 35007KT 320V020 9999 -RA FEW008 20/19 Q1012=,SBSP
1676606400000,METAR SBSP 170400Z AUTO 01007KT 330V030 CAVOK 21/19 Q1011=,SBSP
1676610000000,METAR SBSP 170500Z AUTO 36007KT 330V030 CAVOK 21/19 Q1010=,SBSP
1676613600000,METAR SBSP 170600Z AUTO 34004KT 310V020 CAVOK 20/19 Q1010=,SBSP
1676617200000,METAR SBSP 170700Z AUTO 34006KT 300V020 CAVOK 21/19 Q1010=,SBSP
1676620800000,METAR SBSP 170800Z AUTO 34010KT CAVOK 21/18 Q1010=,SBSP
1676624400000,METAR SBSP 170900Z 34009KT CAVOK 20/18 Q1011=,SBSP
1676628000000,METAR SBSP 171000Z 34012KT 300V360 CAVOK 21/18 Q1012=,SBSP
1676631600000,METAR SBSP 171100Z 35013KT 320V020 CAVOK 22/18 Q1012=,SBSP
1676635200000,METAR SBSP 171200Z 34016KT CAVOK 23/18 Q1012=,SBSP
1676637240000,SPECI SBSP 171234Z 35017G27KT CAVOK 24/18 Q1012=,SBSP
1676638800000,METAR SBSP 171300Z 34018G30KT 310V010 CAVOK 24/18 Q1012=,SBSP
1676642400000,METAR SBSP 171400Z 34018G33KT 310V010 9999 SCT033 27/19 Q1013=,SBSP
1676646000000,METAR SBSP 171500Z 34020KT 310V010 9999 FEW035 27/18 Q1012=,SBSP
1676649600000,METAR SBSP 171600Z 32020G30KT 9999 FEW040 28/17 Q1012=,SBSP
1676653200000,METAR SBSP 171700Z 32018G29KT 290V350 9999 FEW040 28/17 Q1011=,SBSP
1676656800000,METAR SBSP 171800Z 33015G28KT 300V010 9999 FEW040 28/18 Q1011=,SBSP
1676660400000,METAR SBSP 171900Z 32014G25KT 290V350 9999 FEW043 28/18 Q1011=,SBSP
1676664000000,METAR SBSP 172000Z 34010KT 310V010 CAVOK 28/18 Q1011=,SBSP
1676667600000,METAR SBSP 172100Z 33010KT 300V360 9999 FEW050TCU 28/18 Q1012=,SBSP
1676671200000,METAR SBSP 172200Z 36007KT 320V030 9999 FEW036TCU 27/19 Q1012=,SBSP
1676674800000,METAR SBSP 172300Z 01006KT 340V050 CAVOK 26/19 Q1013=,SBSP
1676592000000,METAR SBSV 170000Z 06012KT 9999 FEW023 28/24 Q1009=,SBSV
1676595600000,METAR SBSV 170100Z 06012KT 9999 FEW019 28/24 Q1010=,SBSV
1676599200000,METAR SBSV 170200Z 05012KT 9999 FEW019 28/24 Q1010=,SBSV
1676602800000,METAR SBSV 170300Z 06010KT 9999 FEW019 28/24 Q1010=,SBSV
1676606400000,METAR SBSV 170400Z 06010KT 9999 FEW019 28/23 Q1009=,SBSV
1676610000000,METAR SBSV 170500Z 06010KT 9999 FEW019 28/23 Q1009=,SBSV
1676613600000,METAR SBSV 170600Z 06009KT 9999 FEW019 28/23 Q1009=,SBSV
1676617200000,METAR SBSV 170700Z 06009KT 9999 FEW019 28/23 Q1009=,SBSV
1676620800000,METAR SBSV 170800Z 05006KT 9999 FEW019 27/23 Q1010=,SBSV
1676624400000,METAR SBSV 170900Z 35003KT 320V040 9999 FEW019 26/23 Q1010=,SBSV
1676628000000,METAR SBSV 171000Z 32002KT 9999 SCT023 26/23 Q1011=,SBSV
1676631600000,METAR SBSV 171100Z 03008KT 330V100 9999 SCT023 29/23 Q1011=,SBSV
1676635200000,METAR SBSV 171200Z 08013KT 9999 SCT023 31/23 Q1011=,SBSV
1676638800000,METAR SBSV 171300Z 08014KT 9999 SCT023 31/23 Q1011=,SBSV
1676642400000,METAR SBSV 171400Z 08014KT 9999 SCT023 31/23 Q1011=,SBSV
1676646000000,METAR SBSV 171500Z 08014KT 9999 SCT023 32/24 Q1010=,SBSV
1676649600000,METAR SBSV 171600Z 07013KT 9999 SCT023 31/23 Q1010=,SBSV
1676653200000,METAR SBSV 171700Z 08012KT 9999 SCT024 30/23 Q1009=,SBSV
1676656800000,METAR SBSV 171800Z 10010KT 070V130 9999 FEW024 31/23 Q1008=,SBSV
1676660400000,METAR SBSV 171900Z 09011KT 020V190 9999 FEW024 31/24 Q1008=,SBSV
1676664000000,METAR SBSV 172000Z 09012KT 9999 FEW023 30/23 Q1008=,SBSV
1676667600000,METAR SBSV 172100Z 09009KT 9999 FEW023 29/24 Q1008=,SBSV
1676671200000,METAR SBSV 172200Z 09009KT 070V130 9999 FEW023 29/24 Q1009=,SBSV
1676674800000,METAR SBSV 172300Z 09010KT 9999 FEW023 29/24 Q1010=,SBSV
