hora,metar,aero
1678060800000,METAR SBBR 060000Z 04002KT CAVOK 25/14 Q1016=,SBBR
1678064400000,METAR SBBR 060100Z VRB01KT CAVOK 25/13 Q1017=,SBBR
1678068000000,METAR SBBR 060200Z 21003KT 9999 SCT040 23/14 Q1017=,SBBR
1678071600000,METAR SBBR 060300Z VRB02KT 9999 FEW040 22/15 Q1017=,SBBR
1678075200000,METAR SBBR 060400Z VRB02KT 9999 SCT040 BKN090 22/16 Q1016=,SBBR
1678078800000,METAR SBBR 060500Z VRB02KT 9999 SCT040 BKN090 22/16 Q1016=,SBBR
1678082400000,METAR SBBR 060600Z VRB01KT 9999 FEW040 BKN090 22/15 Q1016=,SBBR
1678086000000,METAR SBBR 060700Z VRB02KT 9999 FEW040 SCT090 22/15 Q1016=,SBBR
1678089600000,METAR SBBR 060800Z 08002KT 9999 FEW030 BKN080 21/16 Q1016=,SBBR
1678093200000,METAR SBBR 060900Z VRB01KT 9999 FEW030 SCT080 19/16 Q1016=,SBBR
1678096800000,METAR SBBR 061000Z VRB02KT CAVOK 21/16 Q1017=,SBBR
1678100400000,METAR SBBR 061100Z VRB01KT CAVOK 23/17 Q1017=,SBBR
1678104000000,METAR SBBR 061200Z 32003KT 260V010 9999 FEW035 SCT100 26/17 Q1018=,SBBR
1678107600000,METAR SBBR 061300Z 02010KT 340V050 9999 SCT040 SCT100 27/14 Q1018=,SBBR
1678111200000,METAR SBBR 061400Z 04008KT 9999 SCT040 SCT100 28/13 Q1018=,SBBR
1678114800000,METAR SBBR 061500Z 03006KT 320V100 9999 SCT040 SCT100 29/14 Q1017=,SBBR
1678118400000,METAR SBBR 061600Z 10010KT 330V060 9999 SCT040 FEW045TCU SCT100 30/13 Q1016=,SBBR
1678122000000,METAR SBBR 061700Z 34008KT 290V050 9999 SCT040 FEW045TCU SCT100 30/14 Q1015=,SBBR
1678125600000,METAR SBBR 061800Z 03008KT 9999 SCT040 FEW045TCU SCT100 31/12 Q1013=,SBBR
1678129200000,METAR SBBR 061900Z 09009KT 9999 SCT040 FEW045TCU SCT100 29/15 Q1013=,SBBR
1678132800000,METAR SBBR 062000Z 07006KT 9999 SCT040 FEW045TCU SCT100 29/15 Q1013=,SBBR
1678133400000,SPECI SBBR 062010Z 35018G30KT 9000 -TSRA SCT040 FEW045CB SCT100 23/15 Q1014=,SBBR
1678134000000,SPECI SBBR 062020Z 10011KT 4000 1300W -TSRA SCT040 FEW045CB SCT100 22/12 Q1014=,SBBR
1678136400000,METAR SBBR 062100Z 21016KT 9999 3000W -TSRA SCT040 FEW045CB SCT070 20/16 Q1015=,SBBR
1678140000000,METAR SBBR 062200Z 26007KT 9000 -TSRA SCT040 FEW045CB SCT070 20/17 Q1015=,SBBR
1678143600000,METAR SBBR 062300Z 21003KT 9999 SCT045 FEW049TCU SCT070 20/17 Q1016 RETS=,SBBR
1678060800000,METAR SBCF 060000Z 04007KT CAVOK 25/17 Q1015=,SBCF
1678064400000,METAR SBCF 060100Z 15003KT CAVOK 24/17 Q1015=,SBCF
1678068000000,METAR SBCF 060200Z 13004KT CAVOK 23/18 Q1016=,SBCF
1678071600000,METAR SBCF 060300Z 14002KT CAVOK 22/18 Q1016=,SBCF
1678075200000,METAR SBCF 060400Z 23002KT CAVOK 22/18 Q1015=,SBCF
1678078800000,METAR SBCF 060500Z 12002KT CAVOK 22/18 Q1015=,SBCF
1678082400000,METAR SBCF 060600Z 03003KT CAVOK 22/17 Q1014=,SBCF
1678086000000,METAR SBCF 060700Z 03005KT CAVOK 22/16 Q1014=,SBCF
1678089600000,METAR SBCF 060800Z 10002KT CAVOK 21/17 Q1014=,SBCF
1678093200000,METAR SBCF 060900Z 06004KT 9999 FEW018 SCT100 22/16 Q1015=,SBCF
1678096800000,METAR SBCF 061000Z 14002KT CAVOK 21/18 Q1016=,SBCF
1678100400000,METAR SBCF 061100Z 05008KT CAVOK 24/17 Q1017=,SBCF
1678104000000,METAR SBCF 061200Z 03007KT CAVOK 25/17 Q1017=,SBCF
1678107600000,METAR SBCF 061300Z 03007KT 9999 FEW030 SCT100 27/17 Q1017=,SBCF
1678111200000,METAR SBCF 061400Z 04006KT 9999 FEW030 SCT100 28/18 Q1017=,SBCF
1678114800000,METAR SBCF 061500Z 03004KT 9999 FEW040 SCT100 28/17 Q1017=,SBCF
1678118400000,METAR SBCF 061600Z 05003KT 9999 SCT035 SCT100 29/17 Q1016=,SBCF
1678122000000,METAR SBCF 061700Z 12004KT 9999 FEW040 SCT065 31/17 Q1015=,SBCF
1678125600000,METAR SBCF 061800Z 27005KT 9999 FEW040 SCT100 32/14 Q1014=,SBCF
1678129200000,METAR SBCF 061900Z 02007KT 9999 FEW040 SCT100 31/15 Q1013=,SBCF
1678132800000,METAR SBCF 062000Z 09011KT 9999 FEW040 SCT070 30/17 Q1013=,SBCF
1678136400000,METAR SBCF 062100Z 08009KT 9999 FEW040 29/17 Q1013=,SBCF
1678140000000,METAR SBCF 062200Z 08008KT CAVOK 28/17 Q1014=,SBCF
1678143600000,METAR SBCF 062300Z 04014KT 9999 VCTS FEW050CB 25/18 Q1015=,SBCF
1678144800000,SPECI SBCF 062320Z 06011KT 9999 -TSRA SCT040 FEW045CB BKN070 25/19 Q1016=,SBCF
1678060800000,METAR SBCT 060000Z 13004KT 9999 FEW012 SCT070 18/17 Q1014=,SBCT
1678062900000,SPECI SBCT 060035Z 10005KT 9999 BKN005 17/17 Q1014=,SBCT
1678064400000,METAR SBCT 060100Z 08003KT 9999 BKN004 17/17 Q1014=,SBCT
1678067280000,SPECI SBCT 060148Z 11002KT 9999 SCT005 SCT100 17/16 Q1014=,SBCT
1678068000000,METAR SBCT 060200Z 14002KT 9999 SCT005 SCT100 17/16 Q1014=,SBCT
1678071600000,METAR SBCT 060300Z 15003KT 9999 FEW005 SCT015 17/16 Q1014=,SBCT
1678075200000,METAR SBCT 060400Z 11002KT 9999 SCT005 SCT012 17/16 Q1014=,SBCT
1678075920000,SPECI SBCT 060412Z 19002KT 9999 FEW005 BKN009 17/16 Q1014=,SBCT
1678078800000,METAR SBCT 060500Z 10002KT 9999 FEW005 BKN009 17/16 Q1013=,SBCT
1678082400000,METAR SBCT 060600Z 00000KT 9999 BKN009 17/16 Q1013=,SBCT
1678086000000,METAR SBCT 060700Z 12003KT 9999 BKN006 17/16 Q1012=,SBCT
1678089600000,METAR SBCT 060800Z 13003KT 8000 BKN005 17/16 Q1013=,SBCT
1678093200000,METAR SBCT 060900Z 00000KT 9999 BKN005 SCT100 17/17 Q1013=,SBCT
1678096800000,METAR SBCT 061000Z 06002KT 8000 BKN004 SCT020 17/17 Q1013=,SBCT
1678100400000,METAR SBCT 061100Z 32004KT 9999 BKN006 19/18 Q1013=,SBCT
1678104000000,METAR SBCT 061200Z 13002KT 9999 BKN013 21/17 Q1014=,SBCT
1678106160000,SPECI SBCT 061236Z 28003KT 9999 SCT015 BKN030 22/17 Q1014=,SBCT
1678107600000,METAR SBCT 061300Z 32004KT 9999 SCT020 BKN030 21/17 Q1014=,SBCT
1678111200000,METAR SBCT 061400Z 26005KT 9999 SCT020 BKN030 22/18 Q1014=,SBCT
1678114800000,METAR SBCT 061500Z 30007KT 9999 BKN025 24/18 Q1014=,SBCT
1678118400000,METAR SBCT 061600Z 36005KT 9999 BKN030 BKN050 25/17 Q1013=,SBCT
1678122000000,METAR SBCT 061700Z 35008KT 9999 BKN030 26/18 Q1011=,SBCT
1678125600000,METAR SBCT 061800Z 32010KT 9999 BKN045 FEW050TCU 26/18 Q1011=,SBCT
1678129200000,METAR SBCT 061900Z 34006KT 9999 BKN035 FEW050TCU 26/17 Q1011=,SBCT
1678132800000,METAR SBCT 062000Z 11007KT 9999 BKN035 FEW050TCU 24/19 Q1010=,SBCT
1678136400000,METAR SBCT 062100Z 12008KT 9999 BKN045 FEW050TCU 21/19 Q1011=,SBCT
1678140000000,METAR SBCT 062200Z 14005KT 9999 TS BKN014 BKN025 FEW030CB 21/19 Q1012=,SBCT
1678141200000,SPECI SBCT 062220Z 24022G34KT 4000 TSRA BKN011 FEW030CB 18/16 Q1013=,SBCT
1678143600000,METAR SBCT 062300Z 13005KT 9999 -TSRA BKN014 FEW030CB BKN100 17/16 Q1012 RERA=,SBCT
1678060800000,METAR SBFL 060000Z 18002KT 9999 FEW010 BKN020 24/24 Q1009=,SBFL
1678064400000,METAR SBFL 060100Z 19004KT 9999 FEW010 SCT040 BKN100 24/23 Q1009=,SBFL
1678068000000,METAR SBFL 060200Z 28005KT 9000 -RA FEW010 BKN040 BKN100 24/24 Q1008=,SBFL
1678071600000,METAR SBFL 060300Z 21003KT 180V250 9999 -RA FEW012 BKN040 BKN100 23/23 Q1009=,SBFL
1678072500000,SPECI SBFL 060315Z 21002KT 3000 RA FEW012 BKN030 FEW035TCU BKN100 23/23 Q1009=,SBFL
1678075200000,METAR SBFL 060400Z 23005KT 9999 -RA FEW009 BKN030 FEW035TCU BKN100 23/23 Q1008 RERA=,SBFL
1678078800000,METAR SBFL 060500Z 26005KT 9999 -RA SCT007 BKN030 FEW035TCU BKN100 23/23 Q1007=,SBFL
1678082400000,METAR SBFL 060600Z 31005KT 9999 SCT007 BKN030 FEW035TCU BKN100 23/23 Q1007=,SBFL
1678086000000,METAR SBFL 060700Z 27003KT 9999 BKN030 FEW035TCU BKN100 23/23 Q1007=,SBFL
1678089600000,METAR SBFL 060800Z 32002KT 9999 SCT030 BKN050 BKN100 23/23 Q1007=,SBFL
1678093200000,METAR SBFL 060900Z 31005KT 9999 FEW009 SCT030 BKN070 23/23 Q1007=,SBFL
1678096800000,METAR SBFL 061000Z 35002KT 9999 FEW009 SCT040 BKN100 23/23 Q1007=,SBFL
1678100400000,METAR SBFL 061100Z VRB02KT 9999 FEW009 SCT020 BKN070 24/24 Q1008=,SBFL
1678104000000,METAR SBFL 061200Z 33003KT 9999 FEW008 SCT020 BKN080 26/24 Q1008=,SBFL
1678107600000,METAR SBFL 061300Z 35006KT 9999 FEW006 SCT020 FEW025TCU BKN070 26/23 Q1008=,SBFL
1678111200000,METAR SBFL 061400Z 34007KT 290V020 9999 FEW015 SCT020 FEW025TCU 28/22 Q1008=,SBFL
1678114800000,METAR SBFL 061500Z 02006KT 9999 SCT020 FEW025TCU SCT070 29/22 Q1008=,SBFL
1678118400000,METAR SBFL 061600Z 06010KT 020V080 9999 VCSH BKN025 FEW030TCU 28/23 Q1007=,SBFL
1678122000000,METAR SBFL 061700Z 34010KT 9999 VCSH BKN025 FEW030TCU 28/22 Q1007=,SBFL
1678125600000,METAR SBFL 061800Z 34010KT 9999 VCSH FEW030 FEW030TCU BKN046 28/22 Q1006=,SBFL
1678129200000,METAR SBFL 061900Z 35012KT 9999 SCT030 SCT046 28/23 Q1006=,SBFL
1678132800000,METAR SBFL 062000Z 34011KT 9999 SCT027 FEW046TCU 27/23 Q1006=,SBFL
1678136400000,METAR SBFL 062100Z 03008KT 340V050 9999 FEW007 SCT021 FEW030TCU 27/22 Q1006=,SBFL
1678140000000,METAR SBFL 062200Z 02008KT 9999 FEW007 SCT017 FEW030TCU 26/23 Q1007=,SBFL
1678141440000,SPECI SBFL 062224Z 04009KT 4000 SHRA BKN019 FEW030TCU 25/24 Q1007=,SBFL
1678143600000,METAR SBFL 062300Z 02009G21KT 3500 SHRA SCT009 BKN019 OVC080 24/24 Q1008=,SBFL
1678144860000,SPECI SBFL 062321Z 03004KT 9999 SCT011 BKN050 24/24 Q1008 RESHRA=,SBFL
1678060800000,METAR SBGL 060000Z 16004KT 9999 SCT040 BKN100 24/22 Q1010=,SBGL
1678064400000,METAR SBGL 060100Z 12002KT 9999 FEW040 BKN100 24/22 Q1010=,SBGL
1678068000000,METAR SBGL 060200Z 31006KT 9999 FEW040 BKN100 25/22 Q1010=,SBGL
1678071600000,METAR SBGL 060300Z 27005KT 9999 FEW040 BKN100 24/22 Q1009=,SBGL
1678075200000,METAR SBGL 060400Z 36004KT 9999 FEW040 BKN100 25/22 Q1009=,SBGL
1678078800000,METAR SBGL 060500Z 35005KT 9999 FEW040 BKN100 25/22 Q1008=,SBGL
1678082400000,METAR SBGL 060600Z 34004KT 9999 FEW040 BKN100 24/22 Q1008=,SBGL
1678086000000,METAR SBGL 060700Z 33004KT 8000 FEW040 BKN100 24/22 Q1008=,SBGL
1678089600000,METAR SBGL 060800Z 06004KT 9999 FEW040 BKN100 24/22 Q1008=,SBGL
1678093200000,METAR SBGL 060900Z 04004KT 9999 FEW040 BKN100 24/23 Q1009=,SBGL
1678096800000,METAR SBGL 061000Z 36004KT 9999 FEW040 BKN100 25/22 Q1010=,SBGL
1678100400000,METAR SBGL 061100Z 34005KT 9999 FEW040 BKN100 27/23 Q1011=,SBGL
1678104000000,METAR SBGL 061200Z 28017G30KT 9999 VCSH FEW015 SCT040 BKN100 28/21 Q1012=,SBGL
1678107600000,METAR SBGL 061300Z 27017G27KT 9999 VCSH FEW015 SCT040 BKN080 26/20 Q1013=,SBGL
1678111200000,METAR SBGL 061400Z 27013KT 9999 SCT040 BKN100 26/20 Q1012=,SBGL
1678114800000,METAR SBGL 061500Z 26010KT 9999 SCT040 BKN100 28/19 Q1011=,SBGL
1678118400000,METAR SBGL 061600Z 26004KT 9999 SCT040 BKN100 29/19 Q1010=,SBGL
1678122000000,METAR SBGL 061700Z 32002KT 9999 SCT040 BKN100 30/21 Q1009=,SBGL
1678125600000,METAR SBGL 061800Z 02006KT 9999 FEW040 BKN100 29/21 Q1009=,SBGL
1678129200000,METAR SBGL 061900Z 01004KT 9999 FEW040 BKN100 28/21 Q1009=,SBGL
1678132800000,METAR SBGL 062000Z 08004KT CAVOK 29/22 Q1008=,SBGL
1678136400000,METAR SBGL 062100Z 12004KT CAVOK 28/23 Q1008=,SBGL
1678140000000,METAR SBGL 062200Z 14003KT CAVOK 27/23 Q1009=,SBGL
1678143600000,METAR SBGL 062300Z 13004KT CAVOK 27/24 Q1009=,SBGL
1678060800000,METAR SBGR 060000Z 05009KT 9999 SCT040 SCT090 21/20 Q1014 RETSRA=,SBGR
1678064400000,METAR SBGR 060100Z 18004KT 9999 -TSRA BKN015 FEW030CB 21/19 Q1015=,SBGR
1678068000000,METAR SBGR 060200Z 35006KT 9999 SCT013 BKN070 21/18 Q1015 RETS=,SBGR
1678071600000,METAR SBGR 060300Z 02004KT 9999 FEW020 BKN070 21/19 Q1015=,SBGR
1678072800000,SPECI SBGR 060320Z 24007KT 6000 TSRA SCT015 FEW030CB OVC070 19/19 Q1015=,SBGR
1678075200000,METAR SBGR 060400Z 29007KT 9999 -RA SCT015 OVC070 20/19 Q1015 RETSRA=,SBGR
1678078800000,METAR SBGR 060500Z 10004KT 9999 -RA FEW015 OVC080 19/18 Q1014=,SBGR
1678082400000,METAR SBGR 060600Z 30002KT CAVOK 18/18 Q1013=,SBGR
1678086000000,METAR SBGR 060700Z 01003KT CAVOK 19/17 Q1012=,SBGR
1678089600000,METAR SBGR 060800Z 05004KT CAVOK 18/17 Q1013=,SBGR
1678093200000,METAR SBGR 060900Z 10001KT CAVOK 17/17 Q1013=,SBGR
1678096800000,METAR SBGR 061000Z 04007KT CAVOK 20/17 Q1014=,SBGR
1678100400000,METAR SBGR 061100Z 03006KT CAVOK 22/17 Q1014=,SBGR
1678104000000,METAR SBGR 061200Z 04008KT CAVOK 24/18 Q1015=,SBGR
1678107600000,METAR SBGR 061300Z 03007KT CAVOK 25/18 Q1015=,SBGR
1678111200000,METAR COR SBGR 061400Z 04006KT 9999 SCT030 26/18 Q1015=,SBGR
1678114800000,METAR SBGR 061500Z 01006KT 9999 SCT040 27/18 Q1014=,SBGR
1678118400000,METAR SBGR 061600Z 36008KT 9999 BKN045 28/18 Q1013=,SBGR
1678122000000,METAR SBGR 061700Z 33009KT 9999 SCT045 SCT050 29/18 Q1012=,SBGR
1678125600000,METAR SBGR 061800Z 32011KT 9999 FEW045 SCT050 29/18 Q1011=,SBGR
1678129200000,METAR SBGR 061900Z 31010KT 9999 SCT045 SCT050 29/17 Q1011=,SBGR
1678132800000,METAR SBGR 062000Z 34008KT 9999 SCT045 SCT050 28/18 Q1011=,SBGR
1678134000000,SPECI SBGR 062020Z 33007KT 9000 TS VCSH BKN040 FEW050CB SCT080 28/18 Q1011=,SBGR
1678134900000,SPECI SBGR 062035Z 34017G28KT 9000 4000E -TSRA BKN040 FEW050CB SCT080 25/17 Q1012=,SBGR
1678136400000,METAR SBGR 062100Z 03013KT 9000 4000E -TSRA BKN040 FEW050CB SCT080 23/17 Q1012=,SBGR
1678140000000,METAR SBGR 062200Z 09005KT 9999 TS SCT040 FEW050CB 22/18 Q1012=,SBGR
1678143600000,METAR SBGR 062300Z 07004KT 9999 VCTS FEW040 FEW050CB 22/18 Q1013 RETS=,SBGR
1678060800000,METAR SBKP 060000Z 10008KT 9999 TS VCSH FEW010 SCT030 FEW030CB 20/19 Q1013 RERA=,SBKP
1678064400000,METAR SBKP 060100Z 05009KT 9999 TS VCSH BKN030 FEW030CB BKN080 21/19 Q1014=,SBKP
1678068000000,METAR SBKP 060200Z 08006KT 9999 VCSH VCTS SCT030 FEW040CB BKN080 21/19 Q1014 RETS=,SBKP
1678071600000,METAR SBKP 060300Z 02007KT 9999 VCSH VCTS SCT030 FEW040CB BKN080 21/18 Q1014=,SBKP
1678075200000,METAR SBKP 060400Z 08006KT 9999 BKN018 BKN080 21/18 Q1014=,SBKP
1678078800000,METAR SBKP 060500Z 08006KT 9999 SCT025 SCT080 20/18 Q1013=,SBKP
1678082400000,METAR SBKP 060600Z 06006KT 9999 FEW025 SCT080 20/18 Q1012=,SBKP
1678086000000,METAR SBKP 060700Z 12003KT 9999 FEW025 BKN070 20/18 Q1012=,SBKP
1678089600000,METAR SBKP 060800Z 12003KT 9999 FEW025 SCT080 19/18 Q1012=,SBKP
1678093200000,METAR SBKP 060900Z 00000KT 9999 FEW025 SCT100 19/18 Q1013=,SBKP
1678096800000,METAR SBKP 061000Z 13004KT CAVOK 20/18 Q1013=,SBKP
1678100400000,METAR SBKP 061100Z 04005KT CAVOK 22/18 Q1014=,SBKP
1678104000000,METAR SBKP 061200Z 02007KT CAVOK 24/17 Q1014=,SBKP
1678107600000,METAR SBKP 061300Z 03010KT 9999 FEW030 BKN090 26/18 Q1014=,SBKP
1678111200000,METAR SBKP 061400Z 02009KT 9999 FEW030 SCT100 26/18 Q1014=,SBKP
1678114800000,METAR SBKP 061500Z 36007KT 9999 SCT040 28/19 Q1013=,SBKP
1678118400000,METAR SBKP 061600Z 34008KT 9999 SCT040 29/18 Q1012=,SBKP
1678122000000,METAR SBKP 061700Z 34011KT 9999 BKN046 29/18 Q1011=,SBKP
1678125600000,METAR SBKP 061800Z 35010KT 9999 SCT046 FEW050TCU 30/19 Q1011=,SBKP
1678126980000,SPECI SBKP 061823Z 33008KT 5000 TSRA HZ BKN040 FEW050CB 28/20 Q1010=,SBKP
1678129200000,METAR SBKP 061900Z 33008KT 7000 -TSRA SCT030 FEW050CB BKN100 24/19 Q1011 RERA=,SBKP
1678132800000,METAR SBKP 062000Z 01011KT 9999 FEW040 FEW050TCU 26/19 Q1010 RETS=,SBKP
1678136400000,METAR SBKP 062100Z 01010KT 9999 FEW040 FEW050TCU 26/19 Q1011=,SBKP
1678140000000,METAR SBKP 062200Z 03008KT 9999 VCSH VCTS FEW040 FEW050CB 25/19 Q1011=,SBKP
1678143600000,METAR SBKP 062300Z 02011KT 9999 VCTS FEW050CB 24/17 Q1012=,SBKP
1678060800000,METAR SBPA 060000Z 16008KT 130V190 9999 VCSH FEW015 BKN048 24/20 Q1012=,SBPA
1678064400000,METAR SBPA 060100Z 15006KT 9999 SCT048 24/20 Q1012=,SBPA
1678068000000,METAR SBPA 060200Z 16005KT 9999 VCSH FEW030 BKN046 24/20 Q1012=,SBPA
1678071600000,METAR SBPA 060300Z 16006KT 9999 VCSH BKN045 23/20 Q1012=,SBPA
1678075200000,METAR SBPA 060400Z 17005KT 130V210 9999 VCSH BKN035 24/20 Q1012=,SBPA
1678078800000,METAR SBPA 060500Z 16008KT 9999 BKN040 24/19 Q1011=,SBPA
1678082400000,METAR SBPA 060600Z 15009KT 9999 FEW030 BKN041 24/20 Q1010=,SBPA
1678086000000,METAR SBPA 060700Z 16006KT 120V190 9999 SCT030 BKN040 23/19 Q1010=,SBPA
1678089600000,METAR SBPA 060800Z 16008KT 9999 SCT020 BKN046 23/21 Q1010=,SBPA
1678093200000,METAR SBPA 060900Z 16007KT 130V190 8000 VCSH FEW010 SCT020 BKN034 FEW040TCU 23/21 Q1010=,SBPA
1678096800000,METAR SBPA 061000Z 16007KT 130V190 8000 VCSH FEW010 BKN023 BKN034 FEW040TCU 23/22 Q1010=,SBPA
1678100400000,METAR SBPA 061100Z 15008KT 130V190 9999 BKN013 BKN034 FEW040TCU 24/22 Q1011=,SBPA
1678104000000,METAR SBPA 061200Z 16006KT 130V190 9999 BKN013 BKN030 FEW040TCU 25/23 Q1011=,SBPA
1678105800000,SPECI SBPA 061230Z 15008KT 120V180 9999 BKN016 BKN030 26/23 Q1011=,SBPA
1678107600000,METAR SBPA 061300Z 16009KT 110V190 9999 BKN017 BKN030 27/23 Q1011=,SBPA
1678111200000,METAR SBPA 061400Z 14008KT 9999 BKN017 BKN030 28/23 Q1010=,SBPA
1678111800000,SPECI SBPA 061410Z 16012KT 130V190 3000 RA BKN017 BKN030 27/23 Q1010=,SBPA
1678113000000,SPECI SBPA 061430Z 16008KT 130V200 9999 VCSH SCT017 BKN025 27/24 Q1010 RERA=,SBPA
1678114800000,METAR SBPA 061500Z 17011KT 130V200 9999 VCSH BKN019 BKN100 27/23 Q1010 RERA=,SBPA
1678116720000,SPECI SBPA 061532Z 16009KT 130V190 3000 RA BKN019 BKN046 26/23 Q1010=,SBPA
1678118400000,METAR SBPA 061600Z 15008KT 4500 -RA SCT015 BKN023 26/24 Q1009 RERA=,SBPA
1678122000000,METAR SBPA 061700Z 13006KT 4500 -RA BR SCT011 BKN030 FEW035TCU 25/23 Q1009=,SBPA
1678125600000,METAR SBPA 061800Z 15006KT 9999 SCT011 BKN040 BKN070 25/23 Q1009=,SBPA
1678129200000,METAR SBPA 061900Z 15007KT 110V180 4000 -RA BR BKN015 BKN027 BKN070 25/23 Q1008=,SBPA
1678132800000,METAR SBPA 062000Z 13008KT 5000 -RA BR BKN011 BKN050 24/23 Q1007=,SBPA
1678136400000,METAR SBPA 062100Z 18004KT 6000 -RA BKN011 BKN060 24/22 Q1007=,SBPA
1678140000000,METAR SBPA 062200Z 15005KT 120V180 4000 -RA BR BKN013 BKN060 24/22 Q1007=,SBPA
1678143600000,METAR SBPA 062300Z 16007KT 6000 BKN011 23/23 Q1007=,SBPA
1678060800000,METAR SBRF 060000Z 10006KT 9999 SCT023 28/22 Q1013=,SBRF
1678064400000,METAR SBRF 060100Z 08007KT 040V120 9999 SCT023 28/22 Q1013=,SBRF
1678068000000,METAR SBRF 060200Z 10005KT 050V140 9999 SCT023 28/22 Q1013=,SBRF
1678071600000,METAR SBRF 060300Z 09007KT 060V130 9999 SCT023 28/22 Q1012=,SBRF
1678075200000,METAR SBRF 060400Z 09005KT 060V130 9999 SCT023 28/22 Q1012=,SBRF
1678078800000,METAR SBRF 060500Z 10005KT 9999 SCT021 28/23 Q1011=,SBRF
1678082400000,METAR SBRF 060600Z 09006KT 060V130 9999 SCT021 28/22 Q1011=,SBRF
1678086000000,METAR SBRF 060700Z 11005KT 070V140 9999 SCT021 28/22 Q1011=,SBRF
1678089600000,METAR SBRF 060800Z 09007KT 050V120 9999 SCT021 28/22 Q1011=,SBRF
1678093200000,METAR SBRF 060900Z 10006KT 070V140 9999 SCT021 28/22 Q1012=,SBRF
1678096800000,METAR SBRF 061000Z 10007KT 060V140 9999 SCT021 29/22 Q1013=,SBRF
1678100400000,METAR SBRF 061100Z 10007KT 9999 BKN023 29/22 Q1013=,SBRF
1678104000000,METAR SBRF 061200Z 09009KT 9999 SCT025 30/22 Q1014=,SBRF
1678107600000,METAR SBRF 061300Z 11010KT 060V150 9999 SCT025 30/22 Q1014=,SBRF
1678111200000,METAR SBRF 061400Z 10010KT 9999 SCT025 30/22 Q1013=,SBRF
1678114800000,METAR SBRF 061500Z 10008KT 9999 SCT025 31/23 Q1012=,SBRF
1678118400000,METAR SBRF 061600Z 11009KT 9999 SCT025 30/22 Q1012=,SBRF
1678122000000,METAR SBRF 061700Z 11010KT 9999 SCT025 29/22 Q1011=,SBRF
1678125600000,METAR SBRF 061800Z 10008KT 050V150 9999 SCT025 30/22 Q1011=,SBRF
1678129200000,METAR SBRF 061900Z 09007KT 030V180 9999 FEW025 30/22 Q1011=,SBRF
1678132800000,METAR SBRF 062000Z 09007KT 040V130 9999 SCT023 29/22 Q1011=,SBRF
1678136400000,METAR SBRF 062100Z 09006KT 040V130 9999 SCT023 29/22 Q1012=,SBRF
1678140000000,METAR SBRF 062200Z 08004KT 040V130 9999 SCT023 29/22 Q1012=,SBRF
1678143600000,METAR SBRF 062300Z 08006KT 040V120 9999 SCT023 28/22 Q1012=,SBRF
1678060800000,METAR SBRJ 060000Z 32005KT 280V340 CAVOK 26/21 Q1009=,SBRJ
1678064400000,METAR SBRJ 060100Z 32005KT 290V010 CAVOK 25/21 Q1010=,SBRJ
1678068000000,METAR SBRJ 060200Z 01007KT CAVOK 25/22 Q1009=,SBRJ
1678071600000,METAR SBRJ 060300Z 33006KT CAVOK 26/22 Q1009=,SBRJ
1678075200000,METAR SBRJ 060400Z 36008KT CAVOK 26/23 Q1008=,SBRJ
1678078800000,METAR SBRJ 060500Z 03007KT CAVOK 25/23 Q1008=,SBRJ
1678082400000,METAR SBRJ 060600Z 02009KT 9999 FEW012 BKN100 24/22 Q1007=,SBRJ
1678086000000,METAR SBRJ 060700Z 02003KT 9999 -RA FEW012 BKN100 24/23 Q1007=,SBRJ
1678089600000,METAR SBRJ 060800Z 35003KT CAVOK 25/23 Q1008=,SBRJ
1678093200000,METAR SBRJ 060900Z 36007KT 9999 FEW012 BKN100 25/22 Q1008=,SBRJ
1678096800000,METAR SBRJ 061000Z 34005KT CAVOK 25/23 Q1009=,SBRJ
1678100400000,METAR SBRJ 061100Z 34004KT CAVOK 26/23 Q1010=,SBRJ
1678104000000,METAR SBRJ 061200Z 36008KT 9999 FEW020 BKN100 27/24 Q1011=,SBRJ
1678105800000,SPECI SBRJ 061230Z 30013G23KT 270V360 9999 SCT020 BKN100 29/21 Q1012=,SBRJ
1678106700000,SPECI SBRJ 061245Z 31015G25KT 9999 SCT020 BKN100 29/20 Q1012 WS R02=,SBRJ
1678107600000,METAR SBRJ 061300Z 31015G27KT 9999 SCT020 BKN100 29/19 Q1012 WS R02=,SBRJ
1678111200000,METAR SBRJ 061400Z 28008KT 230V310 9999 SCT025 BKN100 27/21 Q1011=,SBRJ
1678114800000,METAR SBRJ 061500Z 29008KT 240V330 9999 SCT030 BKN100 29/19 Q1011=,SBRJ
1678118400000,METAR SBRJ 061600Z VRB04KT 9999 SCT035 BKN100 30/20 Q1010=,SBRJ
1678122000000,METAR SBRJ 061700Z VRB02KT 9999 SCT035 BKN100 29/22 Q1009=,SBRJ
1678125600000,METAR SBRJ 061800Z 13005KT 9999 SCT035 BKN100 28/23 Q1009=,SBRJ
1678129200000,METAR SBRJ 061900Z 17008KT 9999 FEW035 BKN100 29/22 Q1008=,SBRJ
1678132800000,METAR SBRJ 062000Z 15010KT 9999 FEW035 BKN100 28/22 Q1008=,SBRJ
1678136400000,METAR SBRJ 062100Z 16008KT CAVOK 27/24 Q1008=,SBRJ
1678140000000,METAR SBRJ 062200Z 17008KT CAVOK 27/24 Q1008=,SBRJ
1678143600000,METAR SBRJ 062300Z 10003KT 030V200 CAVOK 28/23 Q1009=,SBRJ
1678060800000,METAR SBSP 060000Z 22009KT 170V250 7000 TSRA BKN015 FEW040CB 20/18 Q1015=,SBSP
1678061760000,SPECI SBSP 060016Z VRB02KT 9999 BKN033 20/18 Q1015 RETSRA=,SBSP
1678064400000,METAR SBSP 060100Z 03006KT 9000 BKN023 21/19 Q1015 RETSRA=,SBSP
1678068000000,METAR SBSP 060200Z 03008KT 9999 BKN048 21/18 Q1015=,SBSP
1678068000000,SPECI SBSP 060200Z 04008KT CAVOK 21/18 Q1015=,SBSP
1678068720000,SPECI SBSP 060212Z AUTO 03006KT 360V060 9999 -TSRA FEW045 //////CB 21/18 Q1015=,SBSP
1678069140000,SPECI SBSP 060219Z AUTO 05004KT 360V100 8000 TSRA FEW037 SCT045 //////CB 21/18 Q1015=,SBSP
1678070160000,SPECI SBSP 060236Z AUTO 36003KT 320V040 9000 RA FEW033 21/18 Q1015 RETSRA=,SBSP
1678070880000,SPECI SBSP 060248Z AUTO 32005KT 9999 -RA SCT015 21/18 Q1016 RETSRA=,SBSP
1678071360000,SPECI SBSP 060256Z AUTO 33008KT 9999 -RA BKN014 21/18 Q1016 RETSRA=,SBSP
1678071600000,METAR SBSP 060300Z AUTO 33008KT 9999 -RA BKN014 21/18 Q1016 RETSRA=,SBSP
1678072020000,SPECI SBSP 060307Z AUTO 36007KT 330V040 9999 -RA SCT013 SCT020 20/18 Q1016=,SBSP
1678073640000,SPECI SBSP 060334Z AUTO 34006KT 310V010 9000 RA VCTS FEW012 //////CB 20/17 Q1015=,SBSP
1678074840000,SPECI SBSP 060354Z AUTO 32005KT 280V350 9999 -RA NCD 19/17 Q1015 RERA=,SBSP
1678075200000,METAR SBSP 060400Z AUTO 32005KT 280V350 9999 -RA NCD 19/17 Q1015 RERA=,SBSP
1678077660000,SPECI SBSP 060441Z AUTO 33004KT 290V360 9000 +RA SCT046 19/17 Q1014=,SBSP
1678078320000,SPECI SBSP 060452Z AUTO 04006KT 350V110 4100 +RA SCT033 BKN047 18/17 Q1014=,SBSP
1678078800000,METAR SBSP 060500Z AUTO 06006KT 360V110 5000 +RA SCT033 BKN047 18/17 Q1014=,SBSP
1678078920000,SPECI SBSP 060502Z AUTO 26010KT 9999 -RA FEW032 SCT048 18/17 Q1015 RERA=,SBSP
1678080720000,SPECI SBSP 060532Z AUTO 32003KT 240V020 9999 -RA FEW029 18/17 Q1014 RERA=,SBSP
1678082400000,METAR SBSP 060600Z AUTO 02005KT CAVOK 19/18 Q1013 RERA=,SBSP
1678086000000,METAR SBSP 060700Z AUTO 36008KT 320V020 9999 -RA NCD 20/18 Q1013=,SBSP
1678089600000,METAR SBSP 060800Z AUTO 32006KT 300V010 CAVOK 20/17 Q1013=,SBSP
1678093200000,METAR SBSP 060900Z 32005KT CAVOK 19/17 Q1014=,SBSP
1678096800000,METAR SBSP 061000Z 02003KT CAVOK 20/17 Q1014=,SBSP
1678100400000,METAR SBSP 061100Z 35007KT CAVOK 22/16 Q1015=,SBSP
1678104000000,METAR SBSP 061200Z 01010KT CAVOK 24/17 Q1015=,SBSP
1678107600000,METAR SBSP 061300Z 35006KT 310V030 CAVOK 24/17 Q1015=,SBSP
1678111200000,METAR SBSP 061400Z 01010KT CAVOK 25/18 Q1015=,SBSP
1678114800000,METAR SBSP 061500Z 01010KT 330V040 9999 SCT046 BKN100 26/18 Q1015=,SBSP
1678118400000,METAR SBSP 061600Z 35010KT 330V050 9999 SCT043 BKN100 28/17 Q1014=,SBSP
1678122000000,METAR SBSP 061700Z 32010KT 290V360 9999 BKN040 29/16 Q1013=,SBSP
1678125600000,METAR SBSP 061800Z 33010KT 280V020 9999 BKN040 29/17 Q1012=,SBSP
1678129200000,METAR SBSP 061900Z 32011KT 260V360 9999 BKN040 29/16 Q1011=,SBSP
1678132800000,METAR SBSP 062000Z 32009KT 270V350 9999 BKN040 28/17 Q1012=,SBSP
1678133640000,SPECI SBSP 062014Z 29010KT 250V310 9999 TSRA FEW030CB BKN040 25/19 Q1012=,SBSP
1678135260000,SPECI SBSP 062041Z 31005KT 180V270 9999 BKN045 24/18 Q1012 RETSRA=,SBSP
1678136400000,METAR SBSP 062100Z 35010KT 310V030 9999 BKN045 26/14 Q1012 RETSRA=,SBSP
1678140000000,METAR SBSP 062200Z 14010KT 9999 BKN045 23/18 Q1013=,SBSP
1678143600000,METAR SBSP 062300Z 10006KT 070V130 9999 -RA BKN040 21/18 Q1014=,SBSP
1678060800000,METAR SBSV 060000Z 08014KT 9999 FEW021 SCT070 28/24 Q1013=,SBSV
1678064400000,METAR SBSV 060100Z 07013KT 9999 FEW020 SCT100 28/24 Q1013=,SBSV
1678068000000,METAR SBSV 060200Z 06010KT 9999 FEW018 28/24 Q1013=,SBSV
1678071600000,METAR SBSV 060300Z 05009KT 9999 FEW023 28/24 Q1012=,SBSV
1678075200000,METAR SBSV 060400Z 04008KT 9999 SCT023 28/23 Q1012=,SBSV
1678078800000,METAR SBSV 060500Z 01004KT 9999 SCT023 27/24 Q1011=,SBSV
1678082400000,METAR SBSV 060600Z 34003KT 9999 SCT023 26/24 Q1011=,SBSV
1678086000000,METAR SBSV 060700Z 01003KT 9999 SCT023 26/24 Q1011=,SBSV
1678089600000,METAR SBSV 060800Z 32002KT 9999 SCT023 26/23 Q1011=,SBSV
1678093200000,METAR SBSV 060900Z 00000KT 9999 SCT023 25/23 Q1012=,SBSV
1678096800000,METAR SBSV 061000Z VRB02KT 8000 VCSH SCT023 FEW026TCU 26/24 Q1013=,SBSV
1678100400000,METAR SBSV 061100Z 02005KT 340V060 9999 VCSH SCT023 FEW026TCU 29/24 Q1013=,SBSV
1678104000000,METAR SBSV 061200Z 06011KT 020V100 9999 VCSH SCT023 FEW026TCU 31/25 Q1014=,SBSV
1678107600000,METAR SBSV 061300Z 08015KT 9999 VCSH SCT023 FEW026TCU 31/25 Q1013=,SBSV
1678111200000,METAR SBSV 061400Z 08016KT 9999 VCSH SCT023 FEW026TCU 31/24 Q1013=,SBSV
1678114800000,METAR SBSV 061500Z 07016KT 9999 VCSH SCT023 FEW026TCU 31/25 Q1012=,SBSV
1678118400000,METAR SBSV 061600Z 07018KT 9999 SCT023 32/25 Q1012=,SBSV
1678122000000,METAR SBSV 061700Z 07017KT 9999 SCT023 31/25 Q1011=,SBSV
1678125600000,METAR SBSV 061800Z 07018KT 9999 SCT023 31/24 Q1011=,SBSV
1678129200000,METAR SBSV 061900Z 07016KT 9999 FEW023 31/24 Q1011=,SBSV
1678132800000,METAR SBSV 062000Z 07016KT 9999 FEW023 30/24 Q1011=,SBSV
1678136400000,METAR SBSV 062100Z 07015KT 9999 FEW020 29/25 Q1011=,SBSV
1678140000000,METAR SBSV 062200Z 07017KT 9999 FEW020 29/24 Q1011=,SBSV
1678143600000,METAR SBSV 062300Z 07017KT 9999 FEW021 29/24 Q1012=,SBSV
