hora,metar,aero
1663286400000,METAR SBBR 160000Z 21003KT 160V270 CAVOK 25/13 Q1019=,SBBR
1663290000000,METAR SBBR 160100Z 28005KT 220V300 CAVOK 25/13 Q1019=,SBBR
1663293600000,METAR SBBR 160200Z 25006KT CAVOK 25/13 Q1019=,SBBR
1663297200000,METAR SBBR 160300Z 19005KT 160V240 CAVOK 24/14 Q1019=,SBBR
1663300800000,METAR SBBR 160400Z 21005KT CAVOK 22/14 Q1019=,SBBR
1663304400000,METAR SBBR 160500Z 22004KT CAVOK 21/14 Q1018=,SBBR
1663308000000,METAR SBBR 160600Z 32003KT 200V280 CAVOK 21/14 Q1018=,SBBR
1663311600000,METAR SBBR 160700Z 19007KT CAVOK 20/14 Q1018=,SBBR
1663315200000,METAR SBBR 160800Z 20004KT 170V240 CAVOK 19/15 Q1019=,SBBR
1663318800000,METAR SBBR 160900Z 23003KT 190V280 CAVOK 19/15 Q1019=,SBBR
1663322400000,METAR SBBR 161000Z 18003KT 110V230 CAVOK 19/15 Q1020=,SBBR
1663326000000,METAR SBBR 161100Z 18006KT 130V210 CAVOK 21/15 Q1021=,SBBR
1663329600000,METAR SBBR 161200Z 15006KT 110V190 CAVOK 24/15 Q1021=,SBBR
1663333200000,METAR SBBR 161300Z 14010KT CAVOK 27/14 Q1021=,SBBR
1663336800000,METAR SBBR 161400Z 13007KT 080V170 CAVOK 28/14 Q1020=,SBBR
1663340400000,METAR SBBR 161500Z 10006KT 050V140 CAVOK 30/15 Q1019=,SBBR
1663344000000,METAR SBBR 161600Z 02006KT 320V070 CAVOK 31/13 Q1018=,SBBR
1663347600000,METAR SBBR 161700Z VRB03KT CAVOK 32/13 Q1017=,SBBR
1663351200000,METAR SBBR 161800Z VRB03KT 9000 NSC 32/12 Q1016=,SBBR
1663354800000,METAR SBBR 161900Z VRB03KT 9000 NSC 32/11 Q1016=,SBBR
1663358400000,METAR SBBR 162000Z 18007KT 9999 FEW045 BKN100 31/12 Q1016=,SBBR
1663362000000,METAR SBBR 162100Z 23004KT 200V260 9999 FEW045 BKN100 30/12 Q1016=,SBBR
1663365600000,METAR SBBR 162200Z 28004KT 9999 FEW045 BKN100 28/13 Q1017=,SBBR
1663369200000,METAR SBBR 162300Z 18005KT 9999 FEW045 BKN100 29/13 Q1017=,SBBR
1663286400000,METAR SBCF 160000Z 12010KT CAVOK 23/14 Q1019=,SBCF
1663290000000,METAR SBCF 160100Z 11013KT CAVOK 23/14 Q1019=,SBCF
1663293600000,METAR SBCF 160200Z 09010KT CAVOK 23/14 Q1019=,SBCF
1663297200000,METAR SBCF 160300Z 10006KT CAVOK 23/14 Q1018=,SBCF
1663300800000,METAR SBCF 160400Z 09007KT CAVOK 22/13 Q1018=,SBCF
1663304400000,METAR SBCF 160500Z 09008KT CAVOK 21/14 Q1017=,SBCF
1663308000000,METAR SBCF 160600Z 12007KT CAVOK 20/14 Q1017=,SBCF
1663311600000,METAR SBCF 160700Z 13007KT CAVOK 19/14 Q1017=,SBCF
1663315200000,METAR SBCF 160800Z 10010KT CAVOK 19/14 Q1018=,SBCF
1663318800000,METAR SBCF 160900Z 11008KT CAVOK 19/14 Q1018=,SBCF
1663322400000,METAR SBCF 161000Z 09008KT CAVOK 19/14 Q1019=,SBCF
1663326000000,METAR SBCF 161100Z 13007KT 090V170 CAVOK 21/15 Q1020=,SBCF
1663329600000,METAR SBCF 161200Z 12006KT 080V190 CAVOK 22/15 Q1021=,SBCF
1663333200000,METAR SBCF 161300Z VRB05KT 9999 FEW030 SCT100 24/15 Q1020=,SBCF
1663336800000,METAR SBCF 161400Z VRB04KT 9999 SCT040 SCT100 25/15 Q1020=,SBCF
1663340400000,METAR SBCF 161500Z VRB05KT 9999 SCT045 SCT100 27/15 Q1019=,SBCF
1663344000000,METAR SBCF 161600Z 13006KT 080V210 9999 SCT048 SCT100 28/15 Q1018=,SBCF
1663347600000,METAR SBCF 161700Z 14006KT 9999 FEW040 SCT100 28/15 Q1017=,SBCF
1663351200000,METAR SBCF 161800Z 06011KT 9999 SCT040 BKN070 28/15 Q1016=,SBCF
1663354800000,METAR SBCF 161900Z 12009KT 9999 SCT045 FEW050TCU BKN100 27/15 Q1016=,SBCF
1663355940000,SPECI SBCF 161919Z 14010KT 3000 RA SCT040 FEW045TCU BKN100 23/17 Q1017=,SBCF
1663357200000,SPECI SBCF 161940Z 11013KT 5000 -RA SCT040 FEW045TCU SCT100 22/18 Q1016 RERA=,SBCF
1663358400000,METAR SBCF 162000Z 10016KT 7000 SCT030 FEW040TCU BKN100 22/18 Q1017 RERA=,SBCF
1663362000000,METAR SBCF 162100Z 12011KT 9999 VCTS SCT040 FEW045CB BKN100 21/17 Q1017=,SBCF
1663365600000,METAR SBCF 162200Z 12010KT 9999 VCTS SCT040 FEW045CB BKN100 21/18 Q1018=,SBCF
1663369200000,METAR SBCF 162300Z 11012KT 9999 VCTS SCT040 FEW045CB BKN100 21/17 Q1019=,SBCF
1663286400000,METAR SBCT 160000Z 12006KT 9999 -RA OVC009 12/12 Q1024=,SBCT
1663290000000,METAR SBCT 160100Z 12006KT 9999 FEW006 BKN011 12/12 Q1024=,SBCT
1663293600000,METAR SBCT 160200Z 11005KT 9999 BKN008 11/11 Q1024=,SBCT
1663297200000,METAR SBCT 160300Z 13010KT 9999 BKN008 11/11 Q1024=,SBCT
1663300800000,METAR SBCT 160400Z 13008KT 9999 BKN008 11/10 Q1024=,SBCT
1663304400000,METAR SBCT 160500Z 12005KT 9999 SCT010 10/10 Q1023=,SBCT
1663308000000,METAR SBCT 160600Z 13004KT 9999 BKN010 10/10 Q1023=,SBCT
1663311600000,METAR SBCT 160700Z 11003KT 9000 BKN005 10/10 Q1023=,SBCT
1663315200000,METAR SBCT 160800Z 12005KT 5000 BR SCT005 OVC010 11/11 Q1023=,SBCT
1663318800000,METAR SBCT 160900Z 12005KT 5000 -RA BKN005 OVC010 11/11 Q1024=,SBCT
1663322400000,METAR SBCT 161000Z 12005KT 080V140 9999 BKN008 BKN013 11/11 Q1024=,SBCT
1663326000000,METAR SBCT 161100Z 12008KT 9999 BKN009 12/11 Q1025=,SBCT
1663329600000,METAR SBCT 161200Z 13008KT 9999 BKN014 13/12 Q1025=,SBCT
1663333200000,METAR SBCT 161300Z 12012KT 9999 BKN007 OVC020 13/12 Q1026=,SBCT
1663336800000,METAR SBCT 161400Z 13011KT 9999 BKN007 OVC020 14/12 Q1026=,SBCT
1663340400000,METAR SBCT 161500Z 13013KT 9999 OVC012 15/12 Q1026=,SBCT
1663344000000,METAR SBCT 161600Z 14012KT 9999 BKN014 BKN025 14/12 Q1025=,SBCT
1663347600000,METAR SBCT 161700Z 14011KT 9999 -DZ BKN007 BKN020 13/12 Q1025=,SBCT
1663351200000,METAR SBCT 161800Z 14013KT 9999 BKN009 13/12 Q1024=,SBCT
1663354800000,METAR SBCT 161900Z 12010KT 9999 BKN009 OVC030 13/12 Q1025=,SBCT
1663358400000,METAR SBCT 162000Z 13012KT 8000 BKN009 BKN020 13/12 Q1025=,SBCT
1663362000000,METAR SBCT 162100Z 12009KT 9999 -RA OVC009 11/11 Q1025=,SBCT
1663365600000,METAR SBCT 162200Z 12008KT 9999 OVC007 11/11 Q1025=,SBCT
1663369200000,METAR SBCT 162300Z 12009KT 9999 OVC007 11/11 Q1025=,SBCT
1663286400000,METAR SBFL 160000Z 18007KT 9999 FEW030 17/14 Q1024=,SBFL
1663290000000,METAR SBFL 160100Z 16007KT 9999 FEW030 18/14 Q1023=,SBFL
1663293600000,METAR SBFL 160200Z 19005KT 9999 FEW030 17/13 Q1023=,SBFL
1663297200000,METAR SBFL 160300Z 09006KT 9999 FEW030 16/14 Q1023=,SBFL
1663300800000,METAR SBFL 160400Z 16005KT 9999 FEW030 16/14 Q1023=,SBFL
1663304400000,METAR SBFL 160500Z 01004KT 9999 FEW030 17/14 Q1023=,SBFL
1663308000000,METAR SBFL 160600Z 11003KT 9999 FEW030 16/14 Q1023=,SBFL
1663311600000,METAR SBFL 160700Z 20005KT 9999 SCT030 16/14 Q1022=,SBFL
1663315200000,METAR SBFL 160800Z 19002KT 9999 SCT030 15/13 Q1023=,SBFL
1663318800000,METAR SBFL 160900Z 19006KT 9999 SCT030 16/14 Q1023=,SBFL
1663322400000,METAR SBFL 161000Z 19005KT 9999 BKN020 SCT070 16/14 Q1024=,SBFL
1663323420000,SPECI SBFL 161017Z 20008KT 9999 3000S -DZ BKN010 BKN020 16/14 Q1025=,SBFL
1663324080000,SPECI SBFL 161028Z 19008KT 4000 -RA BKN010 BKN020 16/14 Q1025=,SBFL
1663326000000,METAR SBFL 161100Z 20008KT 9999 3000E BKN012 BKN020 16/15 Q1025=,SBFL
1663329600000,METAR SBFL 161200Z 16006KT 130V200 9999 VCSH SCT010 BKN025 18/16 Q1026=,SBFL
1663333200000,METAR SBFL 161300Z 14011KT 9999 FEW015 SCT020 19/15 Q1026=,SBFL
1663336800000,METAR SBFL 161400Z 13012KT 8000 VCSH FEW015 BKN020 18/15 Q1026=,SBFL
1663340400000,METAR SBFL 161500Z 14006KT 100V170 9999 FEW015 BKN030 19/15 Q1026=,SBFL
1663342320000,SPECI SBFL 161532Z 13015G25KT 9999 FEW015 BKN030 21/14 Q1026=,SBFL
1663344000000,METAR SBFL 161600Z 13011KT 100V170 9999 VCSH BKN025 19/13 Q1025=,SBFL
1663347600000,METAR SBFL 161700Z 13008KT 090V170 9999 VCSH BKN025 BKN080 20/14 Q1025=,SBFL
1663351200000,METAR SBFL 161800Z 12010KT 9999 FEW025 BKN058 19/14 Q1025=,SBFL
1663354800000,METAR SBFL 161900Z 13013KT 4000 -DZ FEW010 BKN025 BKN030 17/13 Q1025=,SBFL
1663358400000,METAR SBFL 162000Z 14004KT CAVOK 17/14 Q1025 REDZ=,SBFL
1663362000000,METAR SBFL 162100Z 08003KT 040V120 9999 BKN038 BKN070 17/14 Q1025=,SBFL
1663365600000,METAR SBFL 162200Z 16004KT CAVOK 17/14 Q1025=,SBFL
1663369200000,METAR SBFL 162300Z 18004KT CAVOK 17/13 Q1025=,SBFL
1663286400000,METAR SBGL 160000Z 32004KT 4000 -RA BR FEW004 BKN009 OVC035 19/18 Q1020=,SBGL
1663290000000,METAR SBGL 160100Z 31003KT 8000 SCT008 BKN050 OVC055 19/18 Q1020=,SBGL
1663292220000,SPECI SBGL 160137Z 17005KT 120V200 5000 -RA BR BKN005 BKN025 OVC040 19/18 Q1020=,SBGL
1663293600000,METAR SBGL 160200Z 15006KT 120V190 3500 -RA BR SCT004 OVC017 19/18 Q1020=,SBGL
1663294680000,SPECI SBGL 160218Z 15005KT 6000 FEW004 BKN010 OVC025 19/17 Q1020=,SBGL
1663297200000,METAR SBGL 160300Z 12003KT 070V150 5000 -RA BR SCT005 BKN014 OVC030 19/17 Q1019=,SBGL
1663300800000,METAR SBGL 160400Z 04003KT 010V070 8000 SCT010 BKN035 OVC100 19/18 Q1018=,SBGL
1663304400000,METAR SBGL 160500Z 26004KT 8000 SCT008 OVC017 19/18 Q1018=,SBGL
1663308000000,METAR SBGL 160600Z 27003KT 8000 SCT004 BKN020 OVC045 19/18 Q1018=,SBGL
1663309500000,SPECI SBGL 160625Z 29002KT 3000 -RA BR SCT004 BKN010 OVC020 19/18 Q1017=,SBGL
1663311600000,METAR SBGL 160700Z 18005KT 2500 -RA BR SCT003 BKN010 OVC020 19/18 Q1018=,SBGL
1663315200000,METAR SBGL 160800Z 15009KT 6000 -RA SCT005 BKN014 OVC030 18/17 Q1018=,SBGL
1663318800000,METAR SBGL 160900Z 15008KT 3500 -RA BR SCT005 BKN014 OVC040 18/17 Q1019=,SBGL
1663320420000,SPECI SBGL 160927Z 13009KT 7000 -RA FEW004 BKN008 OVC040 18/17 Q1019=,SBGL
1663322400000,METAR SBGL 161000Z 13009KT 7000 -RA FEW008 BKN011 OVC030 18/17 Q1020=,SBGL
1663326000000,METAR SBGL 161100Z 12005KT 7000 -RA FEW010 SCT035 BKN040 18/17 Q1020=,SBGL
1663329600000,METAR SBGL 161200Z 11003KT 8000 FEW013 SCT022 BKN035 18/17 Q1021 RERA=,SBGL
1663330860000,SPECI SBGL 161221Z 11003KT 3000 -RA BR FEW005 BKN012 BKN032 18/17 Q1021=,SBGL
1663333200000,METAR SBGL 161300Z 17006KT 2500 RA BR FEW005 BKN013 BKN022 18/17 Q1021=,SBGL
1663336800000,METAR SBGL 161400Z 15007KT 3000 -RA BR FEW005 BKN007 BKN032 18/16 Q1021 RERA=,SBGL
1663340400000,METAR SBGL 161500Z 15006KT 130V190 5000 -RA BR FEW006 BKN055 17/16 Q1021=,SBGL
1663344000000,METAR COR SBGL 161600Z 16003KT 5000 -RA BR FEW007 BKN015 BKN020 18/16 Q1021=,SBGL
1663347600000,METAR SBGL 161700Z 14004KT 9999 FEW008 BKN020 BKN080 18/16 Q1020=,SBGL
1663350180000,SPECI SBGL 161743Z 16005KT 3000 -RA BR FEW005 SCT008 BKN015 18/16 Q1020=,SBGL
1663351200000,METAR SBGL 161800Z 16004KT 3000 -RA BR FEW005 SCT013 BKN023 18/17 Q1020=,SBGL
1663354800000,METAR SBGL 161900Z 14009KT 2000 -RA BR SCT006 BKN010 BKN033 17/16 Q1020=,SBGL
1663358400000,METAR SBGL 162000Z 14007KT 3000 -RA BR FEW004 BKN026 17/16 Q1021=,SBGL
1663362000000,METAR SBGL 162100Z 09004KT 9999 FEW005 BKN040 BKN050 17/16 Q1021=,SBGL
1663365600000,METAR SBGL 162200Z 06002KT 9999 FEW013 BKN050 BKN070 17/16 Q1021=,SBGL
1663369200000,METAR SBGL 162300Z 14004KT 8000 -RA SCT011 BKN019 BKN030 17/16 Q1022=,SBGL
1663286400000,METAR SBGR 160000Z 15005KT 9999 OVC010 14/13 Q1022=,SBGR
1663290000000,METAR SBGR 160100Z 14003KT 9999 OVC008 14/14 Q1023=,SBGR
1663293600000,METAR SBGR 160200Z 13003KT 8000 SCT004 OVC009 14/14 Q1023=,SBGR
1663297200000,METAR SBGR 160300Z 16003KT 9999 OVC009 14/13 Q1022=,SBGR
1663300800000,METAR SBGR 160400Z 14003KT 9999 OVC009 14/13 Q1021=,SBGR
1663304400000,METAR SBGR 160500Z 14003KT 9999 OVC009 14/13 Q1021=,SBGR
1663308000000,METAR SBGR 160600Z 16004KT 8000 OVC007 14/13 Q1021=,SBGR
1663311600000,METAR SBGR 160700Z 00000KT 7000 -DZ OVC007 14/14 Q1020=,SBGR
1663315200000,METAR SBGR 160800Z 13005KT 9999 OVC010 14/13 Q1021=,SBGR
1663318800000,METAR SBGR 160900Z 13005KT 9000 OVC008 14/13 Q1022=,SBGR
1663319700000,SPECI SBGR 160915Z 13004KT 4000 -DZ BR BKN007 OVC011 14/13 Q1022=,SBGR
1663322400000,METAR SBGR 161000Z 14004KT 5000 -DZ BR SCT008 OVC010 14/13 Q1022=,SBGR
1663326000000,METAR SBGR 161100Z 16005KT 7000 -DZ FEW008 OVC011 14/13 Q1023=,SBGR
1663329600000,METAR SBGR 161200Z 16006KT 5000 -DZ BR SCT008 OVC013 14/13 Q1023=,SBGR
1663333200000,METAR SBGR 161300Z 13005KT 9999 BKN011 OVC015 15/12 Q1024=,SBGR
1663336800000,METAR SBGR 161400Z 14007KT 4500 -DZ BR BKN010 OVC015 15/13 Q1024=,SBGR
1663340400000,METAR SBGR 161500Z 16007KT 9999 -RA BKN010 OVC025 14/13 Q1024=,SBGR
1663344000000,METAR SBGR 161600Z 12006KT 4000 -DZ HZ SCT013 OVC023 16/12 Q1023=,SBGR
1663347600000,METAR SBGR 161700Z 16009KT 090V190 9000 4000SW -DZ SCT011 BKN023 15/13 Q1023=,SBGR
1663351200000,METAR SBGR 161800Z 18007KT 120V220 9999 SCT011 BKN023 15/13 Q1022=,SBGR
1663354800000,METAR SBGR 161900Z 16006KT 130V230 9999 4500SW -RA SCT013 BKN021 BKN045 15/13 Q1022=,SBGR
1663357200000,SPECI SBGR 161940Z 16007KT 3000 -RADZ BR BKN006 OVC023 14/13 Q1023=,SBGR
1663358400000,METAR SBGR 162000Z 17005KT 8000 -RADZ SCT006 BKN013 OVC030 14/13 Q1023=,SBGR
1663362000000,METAR SBGR 162100Z 14004KT 100V180 9999 FEW012 BKN016 OVC019 14/12 Q1023=,SBGR
1663365600000,METAR SBGR 162200Z 15008KT 100V190 9999 SCT013 BKN017 13/12 Q1024=,SBGR
1663369200000,METAR SBGR 162300Z 13006KT 100V170 9999 SCT009 BKN019 OVC027 13/12 Q1024=,SBGR
1663286400000,METAR SBKP 160000Z 16011KT 9999 FEW015 BKN030 BKN100 17/13 Q1021=,SBKP
1663290000000,METAR SBKP 160100Z 15008KT 9999 FEW015 BKN030 BKN100 16/13 Q1021=,SBKP
1663293600000,METAR SBKP 160200Z 15010KT 9999 BKN046 16/13 Q1022=,SBKP
1663297200000,METAR COR SBKP 160300Z 14013KT 9999 BKN046 16/13 Q1021=,SBKP
1663300800000,METAR SBKP 160400Z 14012KT 9999 -RA BKN046 16/13 Q1020=,SBKP
1663304400000,METAR SBKP 160500Z 14011KT 9999 BKN046 15/13 Q1020=,SBKP
1663308000000,METAR SBKP 160600Z 15011KT 9999 SCT046 15/13 Q1019=,SBKP
1663311600000,METAR SBKP 160700Z 15010KT 9999 FEW020 SCT046 16/13 Q1019=,SBKP
1663315200000,METAR SBKP 160800Z 14013KT 9999 SCT043 16/13 Q1019=,SBKP
1663318800000,METAR SBKP 160900Z 14013KT 9999 BKN040 16/13 Q1020=,SBKP
1663322400000,METAR SBKP 161000Z 14016KT 9999 FEW015 BKN040 16/13 Q1020=,SBKP
1663326000000,METAR SBKP 161100Z 14016KT 9999 FEW015 BKN040 16/12 Q1021=,SBKP
1663329600000,METAR SBKP 161200Z 13020KT 9999 SCT019 BKN050 17/12 Q1022=,SBKP
1663333200000,METAR SBKP 161300Z 14021KT 9999 SCT021 BKN050 18/12 Q1022=,SBKP
1663336800000,METAR SBKP 161400Z 15021KT 9999 SCT021 BKN050 18/12 Q1022=,SBKP
1663340400000,METAR SBKP 161500Z 14022KT 9999 BKN026 SCT050 19/12 Q1022=,SBKP
1663344000000,METAR SBKP 161600Z 14020KT 9999 SCT026 SCT070 20/12 Q1021=,SBKP
1663347600000,METAR SBKP 161700Z 14017KT 9999 BKN030 SCT070 20/11 Q1021=,SBKP
1663351200000,METAR SBKP 161800Z 13018KT 9999 SCT030 SCT070 19/11 Q1020=,SBKP
1663354800000,METAR SBKP 161900Z 14017KT 9999 BKN030 19/11 Q1021=,SBKP
1663358400000,METAR SBKP 162000Z 14017KT 9999 BKN025 18/11 Q1021=,SBKP
1663362000000,METAR SBKP 162100Z 14017KT 9999 BKN025 17/11 Q1021=,SBKP
1663365600000,METAR SBKP 162200Z 14019KT 9999 SCT020 16/11 Q1022=,SBKP
1663369200000,METAR SBKP 162300Z 15013KT 9999 BKN020 16/11 Q1022=,SBKP
1663286400000,METAR SBPA 160000Z 12008KT 9999 FEW040 SCT090 17/14 Q1024=,SBPA
1663290000000,METAR SBPA 160100Z 13010KT 9999 FEW040 BKN100 16/14 Q1024=,SBPA
1663293600000,METAR SBPA 160200Z 12010KT 9999 FEW010 16/14 Q1024=,SBPA
1663297200000,METAR SBPA 160300Z 12008KT CAVOK 15/14 Q1024=,SBPA
1663300800000,METAR SBPA 160400Z 12009KT CAVOK 15/14 Q1024=,SBPA
1663304400000,METAR SBPA 160500Z 12009KT CAVOK 15/14 Q1023=,SBPA
1663308000000,METAR SBPA 160600Z 11008KT 9999 FEW030 15/13 Q1023=,SBPA
1663311600000,METAR SBPA 160700Z 12007KT 9999 BKN040 15/13 Q1023=,SBPA
1663315200000,METAR SBPA 160800Z 12009KT 9999 BKN040 BKN100 15/13 Q1024=,SBPA
1663318800000,METAR SBPA 160900Z 12010KT 9999 BKN040 15/13 Q1024=,SBPA
1663322400000,METAR SBPA 161000Z 11007KT 9999 SCT040 15/13 Q1025=,SBPA
1663326000000,METAR SBPA 161100Z 11010KT 9999 FEW040 16/14 Q1025=,SBPA
1663329600000,METAR SBPA 161200Z 10011KT 9999 SCT036 18/15 Q1026=,SBPA
1663333200000,METAR SBPA 161300Z 10014KT 9999 BKN023 19/15 Q1026=,SBPA
1663336800000,METAR SBPA 161400Z 09014G26KT 9999 BKN035 21/13 Q1026=,SBPA
1663340400000,METAR SBPA 161500Z 10013KT 9999 BKN033 22/15 Q1026=,SBPA
1663344000000,METAR SBPA 161600Z 10015KT 9999 BKN036 21/14 Q1025=,SBPA
1663347600000,METAR SBPA 161700Z 10016KT 070V140 9999 BKN040 22/13 Q1024=,SBPA
1663351200000,METAR SBPA 161800Z 11015KT 070V140 9999 BKN040 22/13 Q1024=,SBPA
1663354800000,METAR SBPA 161900Z 11018KT 9999 SCT040 21/13 Q1023=,SBPA
1663358400000,METAR SBPA 162000Z 11020KT 9999 FEW040 20/12 Q1023=,SBPA
1663362000000,METAR SBPA 162100Z 10017KT CAVOK 19/12 Q1023=,SBPA
1663365600000,METAR SBPA 162200Z 11016KT CAVOK 17/12 Q1023=,SBPA
1663369200000,METAR SBPA 162300Z 11013KT CAVOK 17/12 Q1024=,SBPA
1663286400000,METAR SBRF 160000Z 12006KT 9999 SCT025 SCT050 26/20 Q1015=,SBRF
1663290000000,METAR SBRF 160100Z 12007KT 060V150 9999 BKN025 SCT050 25/19 Q1016=,SBRF
1663293600000,METAR SBRF 160200Z VRB05KT 9999 SCT023 26/20 Q1016=,SBRF
1663297200000,METAR SBRF 160300Z 12006KT 050V140 9999 SCT023 25/20 Q1015=,SBRF
1663300800000,METAR SBRF 160400Z 12008KT 9999 SCT023 25/19 Q1014=,SBRF
1663304400000,METAR SBRF 160500Z 13008KT 090V160 9999 SCT023 25/19 Q1014=,SBRF
1663308000000,METAR SBRF 160600Z 12008KT 090V160 9999 SCT023 25/18 Q1014=,SBRF
1663311600000,METAR SBRF 160700Z 12006KT 090V150 9999 SCT023 25/18 Q1014=,SBRF
1663315200000,METAR SBRF 160800Z 13005KT 080V160 9999 SCT023 24/18 Q1015=,SBRF
1663318800000,METAR SBRF 160900Z 14008KT 9999 FEW023 25/17 Q1016=,SBRF
1663322400000,METAR SBRF 161000Z 13007KT 100V160 9999 FEW023 26/18 Q1016=,SBRF
1663326000000,METAR SBRF 161100Z 14009KT 9999 SCT020 26/18 Q1017=,SBRF
1663329600000,METAR SBRF 161200Z 13008KT 9999 SCT022 27/18 Q1017=,SBRF
1663333200000,METAR SBRF 161300Z 13006KT 9999 FEW023 27/19 Q1017=,SBRF
1663336800000,METAR SBRF 161400Z 10007KT 9999 SCT025 27/19 Q1016=,SBRF
1663340400000,METAR SBRF 161500Z VRB06KT 9999 SCT025 27/20 Q1016=,SBRF
1663344000000,METAR SBRF 161600Z 14009KT 9999 SCT026 27/19 Q1014=,SBRF
1663347600000,METAR SBRF 161700Z 14009KT 100V200 9999 SCT026 27/19 Q1014=,SBRF
1663351200000,METAR SBRF 161800Z 13007KT 9999 SCT026 27/20 Q1014=,SBRF
1663354800000,METAR SBRF 161900Z 15008KT 9999 FEW025 27/20 Q1014=,SBRF
1663358400000,METAR SBRF 162000Z 14008KT 9999 FEW025 26/19 Q1014=,SBRF
1663362000000,METAR SBRF 162100Z 14008KT 9999 FEW025 26/20 Q1014=,SBRF
1663365600000,METAR SBRF 162200Z 14007KT 9999 FEW025 25/19 Q1015=,SBRF
1663369200000,METAR SBRF 162300Z 14008KT 9999 FEW025 25/19 Q1015=,SBRF
1663286400000,METAR SBRJ 160000Z 16004KT 6000 -RA BKN008 BKN012 OVC030 20/18 Q1019=,SBRJ
1663290000000,METAR SBRJ 160100Z 16011KT 5000 -RA BR BKN008 OVC012 19/18 Q1019=,SBRJ
1663293600000,METAR SBRJ 160200Z 19005KT 6000 -RA BKN010 OVC020 19/18 Q1019=,SBRJ
1663297200000,METAR SBRJ 160300Z 20006KT 8000 BKN010 OVC020 19/18 Q1019=,SBRJ
1663300800000,METAR SBRJ 160400Z 20005KT 9999 SCT010 BKN020 OVC040 19/18 Q1018=,SBRJ
1663304400000,METAR SBRJ 160500Z 21005KT 9999 -RA BKN013 OVC040 19/18 Q1018=,SBRJ
1663308000000,METAR SBRJ 160600Z 12005KT 4000 -RA BR BKN009 OVC018 19/19 Q1017=,SBRJ
1663311600000,METAR SBRJ 160700Z 14006KT 4000 -RA BR BKN007 OVC018 19/18 Q1017=,SBRJ
1663315200000,METAR SBRJ 160800Z 16009KT 3000 -RA BR BKN007 OVC018 19/18 Q1018=,SBRJ
1663318800000,METAR SBRJ 160900Z 15009KT 5000 -RA BR BKN007 OVC020 18/18 Q1018=,SBRJ
1663322400000,METAR SBRJ 161000Z 13008KT 7000 -RA FEW008 BKN010 OVC030 19/17 Q1019=,SBRJ
1663326000000,METAR SBRJ 161100Z 13010KT 7000 -RA SCT008 BKN010 OVC040 19/17 Q1019=,SBRJ
1663329600000,METAR SBRJ 161200Z 16008KT 5000 -RA BR SCT007 BKN008 OVC011 18/17 Q1020=,SBRJ
1663331580000,SPECI SBRJ 161233Z 15008KT 4000 RA BR BKN007 OVC011 18/18 Q1021=,SBRJ
1663333200000,METAR SBRJ 161300Z 14011KT 4000 -RA BR BKN007 OVC012 18/17 Q1021 RERA=,SBRJ
1663335420000,SPECI SBRJ 161337Z 17014KT 3000 RA BR BKN007 OVC012 17/16 Q1021=,SBRJ
1663336800000,METAR SBRJ 161400Z 19010KT 5000 -RA BR BKN007 OVC015 17/17 Q1021 RERA=,SBRJ
1663340400000,METAR SBRJ 161500Z 16007KT 5000 -RA BR BKN007 OVC040 18/17 Q1021=,SBRJ
1663344000000,METAR SBRJ 161600Z 16011KT 5000 -RA BR BKN008 OVC040 18/17 Q1021=,SBRJ
1663347600000,METAR SBRJ 161700Z 17006KT 5000 -RA BR BKN007 OVC040 18/17 Q1020=,SBRJ
1663351200000,METAR SBRJ 161800Z 15013KT 120V180 4000 -RA BR BKN005 OVC040 18/17 Q1019=,SBRJ
1663354800000,METAR SBRJ 161900Z 16011KT 4000 -RA BR SCT005 BKN007 OVC025 17/17 Q1020=,SBRJ
1663355160000,SPECI SBRJ 161906Z 16011KT 2000 -RA BR BKN005 BKN008 OVC025 17/17 Q1020=,SBRJ
1663356600000,SPECI SBRJ 161930Z 14008KT 4000 -RA BR BKN005 BKN008 OVC025 17/17 Q1020=,SBRJ
1663357200000,SPECI SBRJ 161940Z 13009KT 4500 -RA BR SCT005 BKN007 OVC025 18/17 Q1020=,SBRJ
1663358400000,METAR SBRJ 162000Z 13009KT 5000 -RA BR SCT005 BKN007 OVC030 17/17 Q1020=,SBRJ
1663359300000,SPECI SBRJ 162015Z 13004KT 8000 FEW005 BKN007 OVC030 18/17 Q1020=,SBRJ
1663362000000,METAR SBRJ 162100Z 16006KT 9000 FEW007 BKN010 OVC050 18/16 Q1021=,SBRJ
1663365600000,METAR SBRJ 162200Z 18004KT 8000 -RA BKN010 OVC030 18/17 Q1021=,SBRJ
1663369200000,METAR SBRJ 162300Z 21008KT 8000 -RA BKN010 OVC030 17/16 Q1021=,SBRJ
1663286400000,METAR SBSP 160000Z 16006KT 9999 SCT004 OVC006 14/13 Q1023=,SBSP
1663290000000,METAR SBSP 160100Z 17009KT 9999 SCT005 OVC006 14/13 Q1024=,SBSP
1663293600000,METAR SBSP 160200Z 16008KT 9999 SCT003 OVC005 13/13 Q1024=,SBSP
1663293660000,SPECI SBSP 160201Z 17007KT 9000 SCT002 OVC005 13/13 Q1023=,SBSP
1663293780000,SPECI SBSP 160203Z AUTO 16007KT 8000 SCT002 OVC004 13/13 Q1023=,SBSP
1663296900000,SPECI SBSP 160255Z AUTO 19006KT 4500 BR OVC002 13/13 Q1023=,SBSP
1663297200000,METAR SBSP 160300Z AUTO 19006KT 4500 BR OVC002 13/13 Q1023=,SBSP
1663298700000,SPECI SBSP 160325Z AUTO 17004KT 130V200 5000 BR OVC002 13/13 Q1023=,SBSP
1663299120000,SPECI SBSP 160332Z AUTO 18004KT 140V200 4200 BR OVC002 13/13 Q1022=,SBSP
1663300800000,METAR SBSP 160400Z AUTO 17004KT 5000 -RA BR OVC002 13/13 Q1022=,SBSP
1663304160000,SPECI SBSP 160456Z AUTO 18006KT 3700 OVC002 13/13 Q1021=,SBSP
1663304400000,METAR SBSP 160500Z AUTO 18006KT 3700 OVC002 13/13 Q1021=,SBSP
1663305060000,SPECI SBSP 160511Z AUTO 18005KT 5000 BR SCT002 OVC004 13/13 Q1021=,SBSP
1663308000000,METAR SBSP 160600Z AUTO 16009KT 9999 OVC003 13/13 Q1021=,SBSP
1663308840000,SPECI SBSP 160614Z AUTO 17008KT 8000 SCT003 OVC005 14/13 Q1021=,SBSP
1663309740000,SPECI SBSP 160629Z AUTO 16009KT 9999 BKN004 OVC007 14/13 Q1021=,SBSP
1663310700000,SPECI SBSP 160645Z AUTO 15011KT 4100 SCT004 OVC006 13/13 Q1021=,SBSP
1663311360000,SPECI SBSP 160656Z AUTO 15009KT 9999 SCT004 BKN006 OVC016 13/13 Q1021=,SBSP
1663311600000,METAR SBSP 160700Z AUTO 15009KT 9999 SCT004 BKN006 OVC016 13/13 Q1021=,SBSP
1663315200000,METAR SBSP 160800Z AUTO 15007KT 9999 SCT004 BKN006 OVC023 13/12 Q1022=,SBSP
1663315440000,SPECI SBSP 160804Z AUTO 16010KT 9999 BKN005 BKN008 OVC035 13/12 Q1022=,SBSP
1663316400000,SPECI SBSP 160820Z AUTO 16008KT 9000 SCT003 OVC006 13/12 Q1022=,SBSP
1663316580000,SPECI SBSP 160823Z AUTO 16008KT 4200 SCT003 OVC006 13/12 Q1022=,SBSP
1663317060000,SPECI SBSP 160831Z AUTO 16007KT 4200 -DZ BR SCT002 OVC004 13/12 Q1022=,SBSP
1663318800000,METAR SBSP 160900Z 16005KT 4000 -DZ BR OVC003 13/12 Q1022=,SBSP
1663322400000,METAR SBSP 161000Z 17010KT 3000 -DZ BR OVC003 13/13 Q1023=,SBSP
1663324320000,SPECI SBSP 161032Z 16012KT 4000 BR OVC006 13/12 Q1023=,SBSP
1663326000000,METAR SBSP 161100Z 16013KT 8000 OVC007 13/12 Q1024=,SBSP
1663329600000,METAR SBSP 161200Z 15009KT 7000 BKN005 OVC011 13/13 Q1024=,SBSP
1663333200000,METAR SBSP 161300Z 15013KT 9999 BKN009 OVC015 15/12 Q1025=,SBSP
1663336800000,METAR SBSP 161400Z 15011KT 9999 -RA BKN008 OVC015 14/12 Q1025=,SBSP
1663340400000,METAR SBSP 161500Z 15013KT 9999 BKN014 OVC046 15/12 Q1024=,SBSP
1663341300000,SPECI SBSP 161515Z 16013KT 2000 -DZ BR BKN005 OVC015 14/12 Q1024=,SBSP
1663344000000,METAR SBSP 161600Z 15014KT 9999 BKN009 OVC021 15/13 Q1024=,SBSP
1663347600000,METAR SBSP 161700Z 17011KT 9999 FEW007 BKN009 OVC021 14/12 Q1024=,SBSP
1663351200000,METAR SBSP 161800Z 16010KT 9999 BKN011 OVC021 15/12 Q1023=,SBSP
1663354800000,METAR SBSP 161900Z 17013KT 9999 SCT011 BKN015 BKN025 15/12 Q1023=,SBSP
1663358400000,METAR SBSP 162000Z 15009KT 9999 FEW009 BKN013 OVC015 14/12 Q1024=,SBSP
1663362000000,METAR SBSP 162100Z 16011KT 9999 SCT009 BKN013 OVC019 13/12 Q1024=,SBSP
1663365600000,METAR SBSP 162200Z 15010KT 9999 FEW008 SCT009 BKN017 13/12 Q1024=,SBSP
1663368180000,SPECI SBSP 162243Z 15010KT 9999 SCT006 BKN008 OVC013 13/12 Q1025=,SBSP
1663369200000,METAR SBSP 162300Z 16011KT 9999 SCT008 BKN009 OVC015 13/12 Q1025=,SBSP
1663286400000,METAR SBSV 160000Z 07011KT 9999 SCT020 25/21 Q1016=,SBSV
1663290000000,METAR SBSV 160100Z 07010KT 9999 FEW020 25/21 Q1016=,SBSV
1663293600000,METAR SBSV 160200Z 07009KT 9999 FEW020 24/21 Q1016=,SBSV
1663297200000,METAR SBSV 160300Z 07009KT 9999 FEW020 25/21 Q1016=,SBSV
1663300800000,METAR SBSV 160400Z 06008KT 9999 FEW020 24/21 Q1015=,SBSV
1663304400000,METAR SBSV 160500Z 07007KT 9999 SCT020 24/20 Q1015=,SBSV
1663308000000,METAR SBSV 160600Z 09007KT 9999 SCT020 25/21 Q1015=,SBSV
1663311600000,METAR SBSV 160700Z 08007KT 9999 SCT020 24/21 Q1015=,SBSV
1663315200000,METAR SBSV 160800Z 08006KT 9999 SCT020 24/20 Q1016=,SBSV
1663318800000,METAR SBSV 160900Z 09004KT 9999 SCT020 24/20 Q1017=,SBSV
1663322400000,METAR SBSV 161000Z 08008KT 9999 FEW023 26/20 Q1017=,SBSV
1663326000000,METAR SBSV 161100Z 07010KT 9999 SCT023 27/20 Q1018=,SBSV
1663329600000,METAR SBSV 161200Z 08009KT 9999 SCT023 27/20 Q1018=,SBSV
1663333200000,METAR SBSV 161300Z 08009KT 9999 SCT025 27/20 Q1018=,SBSV
1663336800000,METAR SBSV 161400Z 07009KT 9999 SCT025 28/21 Q1018=,SBSV
1663340400000,METAR SBSV 161500Z 09010KT 9999 SCT025 28/20 Q1017=,SBSV
1663344000000,METAR SBSV 161600Z 10009KT 9999 FEW025 28/20 Q1016=,SBSV
1663347600000,METAR SBSV 161700Z 11009KT 9999 FEW025 28/21 Q1015=,SBSV
1663351200000,METAR SBSV 161800Z 10011KT 080V150 CAVOK 27/20 Q1015=,SBSV
1663354800000,METAR SBSV 161900Z 10010KT 080V140 CAVOK 27/20 Q1014=,SBSV
1663358400000,METAR SBSV 162000Z 09008KT CAVOK 26/20 Q1015=,SBSV
1663362000000,METAR SBSV 162100Z 09008KT CAVOK 26/21 Q1015=,SBSV
1663365600000,METAR SBSV 162200Z 10007KT 070V130 CAVOK 26/21 Q1016=,SBSV
1663369200000,METAR SBSV 162300Z 10007KT CAVOK 25/21 Q1016=,SBSV
