hora,metar,aero
1668247200000,METAR SBBR 121000Z VRB02KT CAVOK 19/18 Q1018=,SBBR
1668211200000,METAR SBBR 120000Z 29002KT 9999 FEW040 FEW045TCU BKN100 20/18 Q1018=,SBBR
1668214800000,METAR SBBR 120100Z 06003KT 9999 FEW045 BKN100 20/18 Q1018=,SBBR
1668218400000,METAR SBBR 120200Z 19004KT 9999 FEW045 BKN100 19/17 Q1018=,SBBR
1668222000000,METAR SBBR 120300Z 21004KT CAVOK 18/16 Q1018=,SBBR
1668225600000,METAR SBBR 120400Z 26003KT CAVOK 18/17 Q1018=,SBBR
1668229200000,METAR SBBR 120500Z VRB02KT CAVOK 18/17 Q1017=,SBBR
1668232800000,METAR SBBR 120600Z 08002KT CAVOK 18/17 Q1016=,SBBR
1668236400000,METAR SBBR 120700Z 07005KT 020V090 9999 FEW007 SCT080 18/18 Q1017=,SBBR
1668240000000,METAR SBBR 120800Z 36003KT CAVOK 19/17 Q1017=,SBBR
1668243600000,METAR SBBR 120900Z 35004KT 9999 FEW008 BKN080 18/17 Q1018=,SBBR
1668250800000,METAR SBBR 121100Z VRB02KT CAVOK 20/18 Q1019=,SBBR
1668254400000,METAR SBBR 121200Z VRB03KT CAVOK 22/18 Q1019=,SBBR
1668258000000,METAR SBBR 121300Z VRB03KT CAVOK 24/18 Q1019=,SBBR
1668261600000,METAR SBBR 121400Z 05005KT 320V120 9999 FEW036 BKN080 26/18 Q1018=,SBBR
1668263100000,SPECI SBBR 121425Z 05005KT 360V090 9999 TS VCSH FEW010 BKN030 FEW033CB BKN080 25/17 Q1019=,SBBR
1668265200000,METAR SBBR 121500Z 30009KT 9999 TS VCSH FEW010 BKN030 FEW033CB BKN080 21/18 Q1019=,SBBR
1668268800000,METAR SBBR 121600Z 24003KT 210V280 9000 -RA BKN030 BKN080 21/18 Q1017 RETS=,SBBR
1668272400000,METAR SBBR 121700Z 25004KT 9999 BKN030 BKN080 21/18 Q1016=,SBBR
1668276000000,METAR SBBR 121800Z 21005KT 9999 VCSH VCTS SCT035 FEW040CB BKN100 22/19 Q1016=,SBBR
1668279600000,METAR SBBR 121900Z 20005KT 9999 -RA VCTS SCT035 FEW040CB BKN100 23/19 Q1015=,SBBR
1668283200000,METAR SBBR 122000Z 04002KT 9999 VCTS SCT040 FEW048CB BKN100 23/20 Q1015=,SBBR
1668286800000,METAR SBBR 122100Z 30003KT 9999 VCTS SCT040 FEW045CB BKN100 22/19 Q1016=,SBBR
1668290400000,METAR SBBR 122200Z 36006KT 330V030 9999 VCTS SCT040 FEW045CB BKN100 21/18 Q1017=,SBBR
1668294000000,METAR SBBR 122300Z 32003KT 300V010 9999 -RA VCTS SCT040 FEW045CB BKN070 20/18 Q1018=,SBBR
1668211200000,METAR SBCF 120000Z 09003KT 9999 VCTS FEW045 FEW050CB BKN100 19/16 Q1016 RETS=,SBCF
1668212700000,SPECI SBCF 120025Z 29005KT 2500 +RA VCTS SCT045 FEW050CB BKN100 18/16 Q1017 RETS=,SBCF
1668214800000,METAR SBCF 120100Z 36016G26KT 4000 +RA VCTS BKN012 BKN045 FEW050CB BKN100 18/16 Q1018=,SBCF
1668215640000,SPECI SBCF 120114Z 27010KT 3000 +TSRA SCT012 BKN045 FEW050CB BKN100 18/16 Q1019=,SBCF
1668218400000,METAR SBCF 120200Z 20008KT 3000 TSRA BKN045 FEW050CB BKN100 17/16 Q1019 RERA=,SBCF
1668220080000,SPECI SBCF 120228Z 22003KT 5000 -RA BKN045 BKN100 18/16 Q1019 RETSRA=,SBCF
1668222000000,METAR SBCF 120300Z 22004KT 8000 -RA SCT045 BKN100 18/16 Q1019 RETSRA=,SBCF
1668225600000,METAR SBCF 120400Z 11009KT 9999 -RA SCT045 BKN100 18/17 Q1017=,SBCF
1668229200000,METAR SBCF 120500Z 08007KT 2000 BR SCT045 BKN100 18/17 Q1016=,SBCF
1668232800000,METAR SBCF 120600Z 11002KT 9999 SCT045 BKN100 18/17 Q1015=,SBCF
1668236400000,METAR SBCF 120700Z 02005KT 0400 R16R/P2000 R34L/P2000 FG VV001 18/17 Q1015=,SBCF
1668237660000,SPECI SBCF 120721Z 00000KT 3000 BR SCT045 BKN080 18/17 Q1016=,SBCF
1668240000000,METAR SBCF 120800Z 18002KT 0400 R34L/0450D R16R/1200U FG VV001 18/17 Q1016=,SBCF
1668243600000,METAR SBCF 120900Z 11007KT 9999 FEW030 BKN100 18/17 Q1017=,SBCF
1668247200000,METAR SBCF 121000Z 12003KT 070V170 9999 FEW030 BKN100 19/17 Q1017=,SBCF
1668250800000,METAR SBCF 121100Z 13003KT 080V150 9999 FEW030 BKN100 19/17 Q1017=,SBCF
1668254400000,METAR SBCF 121200Z 15003KT 110V210 9999 FEW020 BKN100 21/18 Q1018=,SBCF
1668258000000,METAR SBCF 121300Z 02005KT 9999 FEW023 BKN100 22/17 Q1018=,SBCF
1668261600000,METAR SBCF 121400Z 02004KT 320V080 9999 FEW020 BKN100 23/18 Q1018=,SBCF
1668265200000,METAR SBCF 121500Z 32004KT 250V360 9999 SCT025 BKN100 24/17 Q1017=,SBCF
1668268800000,METAR SBCF 121600Z 33008KT 9999 SCT030 BKN100 25/18 Q1016=,SBCF
1668272400000,METAR SBCF 121700Z 28006KT 9999 BKN029 26/18 Q1015=,SBCF
1668276000000,METAR SBCF 121800Z 27005KT 9999 BKN029 SCT030 26/17 Q1014=,SBCF
1668279600000,METAR SBCF 121900Z 34002KT 9999 BKN029 27/18 Q1014=,SBCF
1668283200000,METAR SBCF 122000Z 23002KT 9999 SCT040 28/17 Q1013=,SBCF
1668286800000,METAR SBCF 122100Z 36003KT 9999 FEW040 26/18 Q1014=,SBCF
1668290400000,METAR SBCF 122200Z 35005KT CAVOK 25/17 Q1014=,SBCF
1668294000000,METAR SBCF 122300Z 36005KT CAVOK 24/18 Q1015=,SBCF
1668211200000,METAR SBCT 120000Z 07006KT 040V110 8000 -RA BKN003 OVC012 16/16 Q1017=,SBCT
1668214800000,METAR SBCT 120100Z 08003KT 9999 -RA BKN006 BKN090 16/16 Q1018=,SBCT
1668218400000,METAR SBCT 120200Z 07005KT 9999 BKN006 BKN012 16/16 Q1018=,SBCT
1668222000000,METAR SBCT 120300Z 06005KT 5000 -DZ OVC005 15/15 Q1017=,SBCT
1668225600000,METAR SBCT 120400Z 09007KT 9999 BKN006 15/15 Q1017=,SBCT
1668229200000,METAR SBCT 120500Z 10007KT 9999 BKN009 14/14 Q1017=,SBCT
1668232800000,METAR SBCT 120600Z 07003KT 9999 SCT014 BKN025 15/15 Q1016=,SBCT
1668236400000,METAR SBCT 120700Z 05003KT 9999 SCT030 15/15 Q1016=,SBCT
1668240000000,METAR SBCT 120800Z 06001KT 9999 SCT030 14/14 Q1016=,SBCT
1668243600000,METAR SBCT 120900Z 04002KT 8000 FEW004 SCT030 14/14 Q1016=,SBCT
1668247200000,METAR SBCT 121000Z VRB02KT 9000 FEW004 SCT016 15/15 Q1017=,SBCT
1668250800000,METAR SBCT 121100Z 05006KT 010V080 9999 SCT007 BKN020 17/16 Q1017=,SBCT
1668252600000,SPECI SBCT 121130Z 01005KT 340V050 9999 SCT009 BKN013 17/16 Q1018=,SBCT
1668254400000,METAR SBCT 121200Z 03004KT 320V080 9999 FEW009 BKN010 18/16 Q1018=,SBCT
1668258000000,METAR SBCT 121300Z VRB03KT 9999 BKN017 20/17 Q1018=,SBCT
1668261600000,METAR SBCT 121400Z VRB03KT 9999 FEW023 BKN030 22/15 Q1018=,SBCT
1668265200000,METAR SBCT 121500Z 14004KT 050V210 9999 BKN030 22/15 Q1017=,SBCT
1668268800000,METAR SBCT 121600Z 10007KT 060V180 9999 FEW032 BKN050 24/16 Q1016=,SBCT
1668272400000,METAR SBCT 121700Z 11008KT 070V140 9999 FEW025 BKN040 23/17 Q1016=,SBCT
1668276000000,METAR SBCT 121800Z 11007KT 9999 BKN025 BKN033 22/17 Q1015=,SBCT
1668279600000,METAR SBCT 121900Z 11010KT 9999 SCT033 22/17 Q1015=,SBCT
1668283200000,METAR SBCT 122000Z 09007KT 9999 SCT030 20/17 Q1015=,SBCT
1668286800000,METAR SBCT 122100Z 10007KT 9999 FEW010 19/17 Q1015=,SBCT
1668290400000,METAR SBCT 122200Z 10005KT 9999 BKN009 17/17 Q1016=,SBCT
1668294000000,METAR SBCT 122300Z 10006KT 9999 OVC007 17/17 Q1016=,SBCT
1668211200000,METAR COR SBFL 120000Z 33008KT 9999 FEW025 SCT100 20/19 Q1013=,SBFL
1668214800000,METAR SBFL 120100Z 01004KT 340V050 9999 BKN020 22/19 Q1014=,SBFL
1668218400000,METAR SBFL 120200Z 36005KT 9999 BKN025 OVC100 22/18 Q1014=,SBFL
1668222000000,METAR SBFL 120300Z 35010KT 9999 BKN020 OVC080 22/19 Q1014=,SBFL
1668225600000,METAR SBFL 120400Z 30005KT 9999 SCT020 SCT080 21/18 Q1014=,SBFL
1668229200000,METAR SBFL 120500Z 31005KT 9999 BKN015 BKN080 21/19 Q1013=,SBFL
1668232800000,METAR COR SBFL 120600Z 31003KT 8000 -RA BKN015 21/19 Q1014=,SBFL
1668236400000,METAR SBFL 120700Z 33008KT 9999 -RA BKN015 BKN070 20/19 Q1013=,SBFL
1668240000000,METAR SBFL 120800Z 33008KT 9999 FEW025 SCT080 20/19 Q1013=,SBFL
1668243600000,METAR SBFL 120900Z 32006KT 9999 BKN025 BKN090 21/19 Q1013=,SBFL
1668247200000,METAR SBFL 121000Z 33005KT 9999 BKN025 BKN080 22/19 Q1014=,SBFL
1668250800000,METAR SBFL 121100Z 34008KT 9999 FEW030 SCT080 23/19 Q1014=,SBFL
1668254400000,METAR SBFL 121200Z 36008KT 9999 FEW040 SCT090 24/18 Q1014=,SBFL
1668258000000,METAR SBFL 121300Z 35008KT 9999 FEW040 SCT090 26/18 Q1014=,SBFL
1668261600000,METAR SBFL 121400Z 35009KT 9999 FEW040 26/18 Q1014=,SBFL
1668265200000,METAR SBFL 121500Z 35010KT 9999 SCT045 SCT090 28/16 Q1013=,SBFL
1668268800000,METAR SBFL 121600Z 01008KT 9999 BKN045 BKN090 28/16 Q1013=,SBFL
1668272400000,METAR SBFL 121700Z 05010KT 9999 SCT045 SCT090 28/17 Q1013=,SBFL
1668276000000,METAR SBFL 121800Z 07011KT 9999 SCT035 SCT090 27/18 Q1012=,SBFL
1668279600000,METAR SBFL 121900Z 07013KT 9999 FEW035 26/18 Q1012=,SBFL
1668283200000,METAR SBFL 122000Z 07013KT 9999 FEW035 25/19 Q1012=,SBFL
1668286800000,METAR SBFL 122100Z 06009KT 9999 FEW035 24/20 Q1012=,SBFL
1668290400000,METAR SBFL 122200Z 06007KT 9999 VCSH SCT030 FEW033TCU 23/20 Q1013=,SBFL
1668294000000,METAR SBFL 122300Z 05004KT 9999 SCT030 FEW033TCU 24/20 Q1013=,SBFL
1668211200000,METAR SBGL 120000Z 07008KT 8000 -TSRA FEW010 BKN021 FEW025CB OVC030 25/22 Q1014=,SBGL
1668214800000,METAR SBGL 120100Z 28005KT 9000 -TSRA FEW007 SCT013 BKN018 FEW025CB 23/21 Q1014=,SBGL
1668218400000,METAR SBGL 120200Z 29006KT 9999 -RA SCT013 BKN016 22/21 Q1014 RETS=,SBGL
1668222000000,METAR SBGL 120300Z 24008KT 9999 FEW010 22/20 Q1013=,SBGL
1668225600000,METAR SBGL 120400Z 29006KT 9999 FEW010 22/20 Q1013=,SBGL
1668229200000,METAR SBGL 120500Z 11004KT 8000 -RA FEW010 22/21 Q0102=,SBGL
1668232800000,METAR SBGL 120600Z 13009KT 9999 FEW007 22/20 Q1011=,SBGL
1668236400000,METAR SBGL 120700Z 14003KT 9999 FEW007 22/20 Q1011=,SBGL
1668240000000,METAR SBGL 120800Z 34003KT 9999 FEW007 22/21 Q1012=,SBGL
1668243600000,METAR SBGL 120900Z 34002KT 9999 FEW012 22/20 Q1012=,SBGL
1668247200000,METAR SBGL 121000Z 31006KT 9999 FEW007 23/21 Q1012=,SBGL
1668250800000,METAR SBGL 121100Z 30004KT 9999 FEW010 BKN100 24/21 Q1012=,SBGL
1668254400000,METAR SBGL 121200Z 34005KT 9999 FEW015 BKN100 25/21 Q1012=,SBGL
1668258000000,METAR SBGL 121300Z 05003KT 9999 FEW015 BKN100 25/20 Q1012=,SBGL
1668261600000,METAR SBGL 121400Z 35005KT 9999 FEW018 BKN100 27/21 Q1011=,SBGL
1668265200000,METAR SBGL 121500Z 13006KT 9999 FEW020 BKN100 29/20 Q1010=,SBGL
1668268800000,METAR SBGL 121600Z 11007KT 9999 FEW020 SCT100 29/20 Q1010=,SBGL
1668272400000,METAR SBGL 121700Z 13012KT 9999 FEW025 29/21 Q1009=,SBGL
1668276000000,METAR SBGL 121800Z 13011KT 9999 SCT025 FEW030TCU 28/22 Q1009=,SBGL
1668279600000,METAR SBGL 121900Z 21011KT 9999 SCT025 FEW030TCU BKN040 27/20 Q1009=,SBGL
1668283200000,METAR SBGL 122000Z 22011KT 9999 SCT020 FEW030TCU BKN040 26/20 Q1010=,SBGL
1668286800000,METAR SBGL 122100Z 25009KT 9999 SCT018 FEW030TCU BKN040 26/21 Q1010=,SBGL
1668290400000,METAR SBGL 122200Z 23010KT 9999 FEW018 FEW030TCU BKN050 25/20 Q1011=,SBGL
1668294000000,METAR SBGL 122300Z 25009KT 9999 FEW020 SCT050 25/20 Q1012=,SBGL
1668211200000,METAR SBGR 120000Z 07010KT 9999 -RA SCT009 BKN040 BKN070 19/18 Q1017=,SBGR
1668214800000,METAR SBGR 120100Z 09004KT 9999 BKN010 BKN083 19/18 Q1017=,SBGR
1668218400000,METAR SBGR 120200Z 08006KT 9999 BKN010 BKN015 19/18 Q1017=,SBGR
1668222000000,METAR SBGR 120300Z 09004KT 9000 SCT013 BKN017 19/18 Q1017=,SBGR
1668225600000,METAR SBGR 120400Z 10004KT 8000 BKN009 OVC017 19/18 Q1016=,SBGR
1668229200000,METAR SBGR 120500Z 07003KT 9999 SCT010 BKN023 19/18 Q1016=,SBGR
1668232800000,METAR SBGR 120600Z 07005KT 9999 BKN021 18/17 Q1015=,SBGR
1668236400000,METAR SBGR 120700Z 05006KT 9999 FEW009 18/17 Q1014=,SBGR
1668240000000,METAR SBGR 120800Z 07006KT 9999 BKN007 17/17 Q1014=,SBGR
1668240960000,SPECI SBGR 120816Z 05007KT 9999 SCT010 17/17 Q1014=,SBGR
1668243600000,METAR SBGR 120900Z 06005KT 9999 FEW010 18/17 Q1014=,SBGR
1668247200000,METAR SBGR 121000Z 08004KT 9999 SCT010 19/17 Q1016=,SBGR
1668250800000,METAR SBGR 121100Z 28004KT 9999 BKN015 20/17 Q1016=,SBGR
1668254400000,METAR SBGR 121200Z 28007KT 9999 BKN020 22/18 Q1016=,SBGR
1668258000000,METAR SBGR 121300Z 26006KT 9999 BKN030 23/18 Q1017=,SBGR
1668261600000,METAR SBGR 121400Z 28006KT 9999 SCT030 BKN050 24/17 Q1016=,SBGR
1668265200000,METAR SBGR 121500Z 30010KT 9999 BKN040 26/16 Q1015=,SBGR
1668268800000,METAR SBGR 121600Z 29010KT 9999 BKN040 26/16 Q1015=,SBGR
1668272400000,METAR SBGR 121700Z 26007KT 9999 BKN045 26/16 Q1014=,SBGR
1668276000000,METAR COR SBGR 121800Z 19005KT 9999 VCSH BKN035 FEW050TCU 25/17 Q1014=,SBGR
1668279600000,METAR SBGR 121900Z 17008KT 9999 -RA FEW025TCU BKN045 BKN050 24/18 Q1014=,SBGR
1668283200000,METAR SBGR 122000Z 16009KT 9999 SCT020 23/17 Q1014=,SBGR
1668286800000,METAR SBGR 122100Z 17006KT 9999 SCT020 SCT035 21/17 Q1015=,SBGR
1668290400000,METAR SBGR 122200Z 15006KT 9999 BKN023 20/17 Q1016=,SBGR
1668294000000,METAR SBGR 122300Z 13006KT 9999 BKN015 BKN020 20/17 Q1016=,SBGR
1668211200000,METAR SBKP 120000Z 12013KT 9999 FEW010 SCT035 20/18 Q1015=,SBKP
1668214800000,METAR SBKP 120100Z 10011KT 9999 FEW010 20/18 Q1015=,SBKP
1668218400000,METAR SBKP 120200Z 09003KT 060V130 9999 FEW045 20/17 Q1016=,SBKP
1668222000000,METAR SBKP 120300Z 13004KT CAVOK 19/18 Q1015=,SBKP
1668225600000,METAR SBKP 120400Z 10003KT CAVOK 19/17 Q1015=,SBKP
1668229200000,METAR SBKP 120500Z 10004KT 9999 FEW045 19/17 Q1014=,SBKP
1668232800000,METAR SBKP 120600Z 11004KT 9999 SCT045 19/17 Q1014=,SBKP
1668236400000,METAR SBKP 120700Z 10003KT 9999 FEW045 18/17 Q1014=,SBKP
1668240000000,METAR SBKP 120800Z 11003KT CAVOK 18/17 Q1014=,SBKP
1668243600000,METAR SBKP 120900Z VRB02KT 8000 3700E FEW030 19/17 Q1015=,SBKP
1668247200000,METAR SBKP 121000Z 29001KT 8000 NSC 20/17 Q1015=,SBKP
1668250800000,METAR SBKP 121100Z 32003KT 8000 FEW013 21/18 Q1015=,SBKP
1668254400000,METAR SBKP 121200Z 26005KT 8000 BKN013 22/18 Q1016=,SBKP
1668258000000,METAR SBKP 121300Z 31004KT 8000 BKN020 24/18 Q1016=,SBKP
1668261600000,METAR SBKP 121400Z 25007KT 9999 SCT026 24/18 Q1015=,SBKP
1668265200000,METAR SBKP 121500Z VRB06KT 9999 SCT030 26/17 Q1015=,SBKP
1668268800000,METAR SBKP 121600Z 30004KT 230V350 9999 SCT030 26/18 Q1015=,SBKP
1668272400000,METAR SBKP 121700Z VRB07KT 9999 SCT030 28/17 Q1014=,SBKP
1668276000000,METAR SBKP 121800Z 25008KT 180V340 9999 SCT040 28/16 Q1013=,SBKP
1668279600000,METAR SBKP 121900Z 23011KT 190V260 9999 FEW045 29/15 Q1012=,SBKP
1668283200000,METAR SBKP 122000Z 21012KT 9999 FEW045 29/15 Q1012=,SBKP
1668286800000,METAR SBKP 122100Z 21011KT 9999 FEW045 27/16 Q1013=,SBKP
1668290400000,METAR SBKP 122200Z 16009KT 9999 FEW045 25/18 Q1013=,SBKP
1668294000000,METAR SBKP 122300Z 13012KT CAVOK 23/18 Q1014=,SBKP
1668211200000,METAR SBPA 120000Z 11009KT CAVOK 20/18 Q1012=,SBPA
1668214800000,METAR SBPA 120100Z 11006KT CAVOK 20/18 Q1013=,SBPA
1668218400000,METAR SBPA 120200Z 12006KT CAVOK 20/18 Q1013=,SBPA
1668222000000,METAR SBPA 120300Z 11006KT 090V150 CAVOK 20/18 Q1012=,SBPA
1668225600000,METAR SBPA 120400Z 11004KT CAVOK 20/18 Q1012=,SBPA
1668229200000,METAR SBPA 120500Z 11003KT CAVOK 20/18 Q1012=,SBPA
1668232800000,METAR SBPA 120600Z 10006KT 6000 -RA FEW010 BKN070 20/18 Q1012=,SBPA
1668236400000,METAR SBPA 120700Z 11005KT 090V150 7000 FEW010 BKN070 20/19 Q1011=,SBPA
1668240000000,METAR SBPA 120800Z 10004KT 7000 FEW010 BKN066 20/19 Q1011=,SBPA
1668243600000,METAR SBPA 120900Z 07005KT 7000 FEW007 BKN076 20/19 Q1012=,SBPA
1668247200000,METAR SBPA 121000Z 07004KT 040V100 9000 FEW007 BKN066 20/19 Q1013=,SBPA
1668250800000,METAR SBPA 121100Z 09004KT CAVOK 22/19 Q1013=,SBPA
1668254400000,METAR SBPA 121200Z 08005KT 050V120 CAVOK 23/19 Q1012=,SBPA
1668258000000,METAR SBPA 121300Z 09003KT 030V160 9999 FEW025 25/18 Q1013=,SBPA
1668261600000,METAR SBPA 121400Z 08005KT 010V150 9999 FEW030 27/18 Q1013=,SBPA
1668265200000,METAR SBPA 121500Z 08004KT 020V160 9999 FEW030 27/17 Q1011=,SBPA
1668268800000,METAR SBPA 121600Z 07004KT 020V130 9999 FEW040 29/18 Q1011=,SBPA
1668272400000,METAR SBPA 121700Z 10005KT 010V150 9999 FEW040 30/18 Q1010=,SBPA
1668276000000,METAR SBPA 121800Z 11005KT 080V180 9999 SCT045 30/18 Q1009=,SBPA
1668279600000,METAR SBPA 121900Z 09011KT 9999 FEW045 29/19 Q1008=,SBPA
1668283200000,METAR SBPA 122000Z 10008KT 070V140 9999 FEW045 29/19 Q1008=,SBPA
1668286800000,METAR SBPA 122100Z 11010KT CAVOK 27/19 Q1009=,SBPA
1668290400000,METAR SBPA 122200Z 10010KT CAVOK 26/19 Q1009=,SBPA
1668294000000,METAR SBPA 122300Z 11008KT CAVOK 24/19 Q1009=,SBPA
1668211200000,METAR SBRF 120000Z 07005KT 040V110 9999 BKN023 27/22 Q1012=,SBRF
1668214800000,METAR SBRF 120100Z 07005KT 9999 FEW020 BKN040 27/21 Q1012=,SBRF
1668218400000,METAR SBRF 120200Z 09006KT 9999 BKN021 27/22 Q1012=,SBRF
1668222000000,METAR SBRF 120300Z 10006KT 9999 VCSH BKN021 27/22 Q1011=,SBRF
1668225600000,METAR SBRF 120400Z 09007KT 9999 SCT010 BKN020 26/23 Q1010=,SBRF
1668229200000,METAR SBRF 120500Z 06005KT 9999 FEW010 BKN021 26/22 Q1010=,SBRF
1668232800000,METAR SBRF 120600Z 03005KT 9999 FEW010 BKN021 25/22 Q1010=,SBRF
1668236400000,METAR SBRF 120700Z 29002KT 9999 FEW010 BKN021 25/23 Q1010=,SBRF
1668240000000,METAR SBRF 120800Z 01002KT 9999 FEW008 BKN020 24/23 Q1010=,SBRF
1668243600000,METAR SBRF 120900Z 31004KT 9999 SCT008 BKN020 25/23 Q1011=,SBRF
1668247200000,METAR SBRF 121000Z 11006KT 5000 -RA SCT008 BKN020 25/23 Q1012=,SBRF
1668250800000,METAR SBRF 121100Z 10007KT 060V150 9999 VCSH FEW010 BKN020 BKN050 27/22 Q1012=,SBRF
1668254400000,METAR SBRF 121200Z 10010KT 9999 VCSH SCT010 SCT020 BKN050 27/23 Q1012=,SBRF
1668258000000,METAR SBRF 121300Z 08009KT 9999 FEW013 SCT022 BKN050 28/22 Q1012=,SBRF
1668261600000,METAR SBRF 121400Z 07007KT 030V130 9999 FEW013 SCT023 BKN050 29/22 Q1012=,SBRF
1668265200000,METAR SBRF 121500Z 07006KT 030V120 9999 SCT023 BKN050 28/22 Q1011=,SBRF
1668268800000,METAR SBRF 121600Z 07007KT 020V110 9999 SCT023 SCT050 29/22 Q1011=,SBRF
1668272400000,METAR SBRF 121700Z 08007KT 040V110 9999 SCT023 SCT050 28/22 Q1010=,SBRF
1668276000000,METAR SBRF 121800Z 10006KT 040V140 9999 SCT023 SCT050 28/22 Q1010=,SBRF
1668279600000,METAR SBRF 121900Z 09006KT 030V120 9999 SCT023 BKN050 28/22 Q1010=,SBRF
1668283200000,METAR SBRF 122000Z 09007KT 050V130 5000 -RA SCT007 BKN015 BKN050 26/23 Q1010=,SBRF
1668286800000,METAR SBRF 122100Z 11003KT 070V180 5000 -RA BR SCT007 BKN015 BKN050 26/23 Q1011=,SBRF
1668288600000,SPECI SBRF 122130Z 16005KT 110V190 2500 RA BR BKN009 BKN015 BKN050 24/22 Q1011=,SBRF
1668290400000,METAR SBRF 122200Z 21005KT 180V240 5000 BR SCT009 BKN015 25/23 Q1011 RERA=,SBRF
1668294000000,METAR SBRF 122300Z 12009KT 5000 BR SCT009 BKN015 26/23 Q1012=,SBRF
1668211200000,METAR SBRJ 120000Z 05003KT 340V100 9999 -TSRA BKN013 BKN020 FEW035CB OVC060 25/23 Q1013 RERA=,SBRJ
1668214800000,METAR SBRJ 120100Z 02011KT 9999 -TSRA BKN013 BKN020 FEW035CB OVC060 25/23 Q1013=,SBRJ
1668216600000,SPECI SBRJ 120130Z 35007KT 270V030 6000 TSRA SCT011 BKN013 FEW035CB OVC050 24/23 Q1013=,SBRJ
1668217680000,SPECI SBRJ 120148Z VRB01KT 8000 -TSRA SCT009 BKN012 FEW035CB OVC090 24/23 Q1013 RERA=,SBRJ
1668218400000,METAR SBRJ 120200Z VRB02KT 8000 -TSRA SCT009 BKN011 FEW035CB OVC100 24/23 Q1013 RERA=,SBRJ
1668220500000,SPECI SBRJ 120235Z 27012KT 8000 -RA SCT008 BKN011 OVC100 23/21 Q1013 RETS=,SBRJ
1668222000000,METAR SBRJ 120300Z 25011KT 9000 -RA FEW008 BKN013 OVC023 23/21 Q1013 RETS=,SBRJ
1668223500000,SPECI SBRJ 120325Z 27006KT 9999 FEW015 SCT023 BKN100 24/21 Q1012=,SBRJ
1668225600000,METAR SBRJ 120400Z 16002KT 9999 FEW015 SCT023 BKN100 24/21 Q1013=,SBRJ
1668227100000,SPECI SBRJ 120425Z 11007KT 070V170 7000 -RA BKN010 OVC100 24/21 Q1013=,SBRJ
1668229200000,METAR SBRJ 120500Z 14009KT 9000 -RA SCT009 BKN017 OVC100 23/21 Q1012=,SBRJ
1668232800000,METAR SBRJ 120600Z 13010KT 9000 FEW013 BKN015 OVC100 23/21 Q1011=,SBRJ
1668236400000,METAR SBRJ 120700Z 18006KT 9999 SCT017 OVC100 23/20 Q1011=,SBRJ
1668240000000,METAR SBRJ 120800Z 30003KT 260V320 9999 FEW020 OVC100 23/21 Q1011=,SBRJ
1668243600000,METAR SBRJ 120900Z 30005KT 9999 FEW015 BKN050 BKN100 23/21 Q1011=,SBRJ
1668247200000,METAR SBRJ 121000Z 30004KT 240V360 9999 FEW010 SCT015 BKN100 23/21 Q1012=,SBRJ
1668250800000,METAR SBRJ 121100Z 33005KT 300V360 9999 FEW015 BKN100 24/22 Q1011=,SBRJ
1668254400000,METAR SBRJ 121200Z 33006KT 300V360 9999 FEW015 BKN100 24/22 Q1012=,SBRJ
1668258000000,METAR SBRJ 121300Z 01005KT 9999 FEW015 BKN100 25/22 Q1011=,SBRJ
1668261600000,METAR SBRJ 121400Z VRB02KT 9999 FEW020 BKN100 26/21 Q1011=,SBRJ
1668265200000,METAR SBRJ 121500Z 15011KT 9999 FEW020 27/22 Q1010=,SBRJ
1668268800000,METAR SBRJ 121600Z 14010KT 9999 FEW025 27/22 Q1010=,SBRJ
1668272400000,METAR SBRJ 121700Z 14013KT 9999 FEW025 FEW030TCU SCT050 26/22 Q1009=,SBRJ
1668276000000,METAR SBRJ 121800Z 15015KT 9999 FEW020 FEW035TCU SCT040 27/23 Q1009=,SBRJ
1668279600000,METAR SBRJ 121900Z 16015KT 9999 SCT018 FEW035TCU SCT040 26/23 Q1009=,SBRJ
1668283200000,METAR SBRJ 122000Z 18014KT 9999 SCT018 FEW035TCU SCT040 26/21 Q1009=,SBRJ
1668286800000,METAR SBRJ 122100Z 18010KT 9999 SCT020 FEW035TCU BKN050 26/21 Q1010=,SBRJ
1668290400000,METAR SBRJ 122200Z 18008KT 9999 SCT020 FEW035TCU BKN050 26/21 Q1011=,SBRJ
1668294000000,METAR SBRJ 122300Z 17006KT 9999 FEW020 BKN050 25/21 Q1011=,SBRJ
1668211200000,METAR SBSP 120000Z 17008KT 9999 -RA SCT003 BKN006 18/17 Q1018=,SBSP
1668214800000,METAR SBSP 120100Z 16009KT 9999 SCT004 BKN005 18/17 Q1018=,SBSP
1668218400000,METAR SBSP 120200Z 15005KT 9999 BKN006 18/17 Q1018=,SBSP
1668219420000,SPECI SBSP 120217Z AUTO 14006KT 9999 SCT006 SCT008 OVC010 18/17 Q1017=,SBSP
1668219540000,SPECI SBSP 120219Z AUTO 14006KT 9999 SCT006 BKN008 OVC010 18/17 Q1017=,SBSP
1668220380000,SPECI SBSP 120233Z AUTO 14005KT 9999 SCT007 BKN012 OVC015 18/17 Q1017=,SBSP
1668220440000,SPECI SBSP 120234Z AUTO 14005KT 9999 SCT007 BKN012 OVC014 18/17 Q1017=,SBSP
1668221640000,SPECI SBSP 120254Z AUTO 14005KT 9999 SCT006 BKN011 OVC018 18/17 Q1017=,SBSP
1668222000000,METAR SBSP 120300Z AUTO 14005KT 9999 SCT006 BKN011 OVC018 18/17 Q1017=,SBSP
1668222240000,SPECI SBSP 120304Z AUTO 14006KT 9999 FEW005 BKN018 OVC026 18/17 Q1017=,SBSP
1668223260000,SPECI SBSP 120321Z AUTO 13005KT 9999 FEW003 BKN007 OVC018 18/17 Q1017=,SBSP
1668224520000,SPECI SBSP 120342Z AUTO 12004KT 100V160 9999 SCT003 BKN007 OVC014 18/17 Q1016=,SBSP
1668225360000,SPECI SBSP 120356Z AUTO 12005KT 9999 SCT003 BKN007 OVC021 18/17 Q1016=,SBSP
1668225600000,METAR SBSP 120400Z AUTO 12005KT 9999 SCT003 BKN007 OVC021 18/17 Q1016=,SBSP
1668225960000,SPECI SBSP 120406Z AUTO 12005KT 9999 SCT004 BKN012 OVC021 18/17 Q1016=,SBSP
1668226020000,SPECI SBSP 120407Z AUTO 12005KT 9999 FEW004 BKN008 OVC021 18/17 Q1016=,SBSP
1668226500000,SPECI SBSP 120415Z AUTO 10005KT 060V130 9999 FEW004 BKN009 OVC014 18/17 Q1016=,SBSP
1668227160000,SPECI SBSP 120426Z AUTO 11005KT 9999 FEW003 BKN008 OVC023 18/17 Q1016=,SBSP
1668227760000,SPECI SBSP 120436Z AUTO 10005KT 080V140 9999 FEW006 SCT009 OVC011 18/17 Q1016=,SBSP
1668227940000,SPECI SBSP 120439Z AUTO 10004KT 040V140 9999 FEW006 BKN009 18/17 Q1016=,SBSP
1668229200000,METAR SBSP 120500Z AUTO 09005KT 050V120 9999 SCT009 18/17 Q1016=,SBSP
1668232800000,METAR SBSP 120600Z AUTO 07004KT 030V100 CAVOK 18/17 Q1015=,SBSP
1668236400000,METAR SBSP 120700Z AUTO 04004KT CAVOK 18/16 Q1014=,SBSP
1668240000000,METAR SBSP 120800Z AUTO 04005KT 360V070 9999 FEW009 18/16 Q1014=,SBSP
1668240360000,SPECI SBSP 120806Z AUTO 03005KT 350V070 9999 BKN008 18/16 Q1015=,SBSP
1668243600000,METAR SBSP 120900Z 12003KT 080V140 9000 BKN011 18/17 Q1016=,SBSP
1668247200000,METAR SBSP 121000Z 14002KT 9000 SCT009 BKN011 19/17 Q1017=,SBSP
1668250800000,METAR SBSP 121100Z VRB03KT 9999 BKN011 19/17 Q1017=,SBSP
1668254400000,METAR SBSP 121200Z 27003KT 8000 SCT011 BKN013 BKN020 21/17 Q1017=,SBSP
1668258000000,METAR SBSP 121300Z VRB04KT 9999 BKN019 23/17 Q1017=,SBSP
1668261600000,METAR SBSP 121400Z 28005KT 230V340 9999 BKN023 23/16 Q1017=,SBSP
1668265200000,METAR SBSP 121500Z 21006KT 160V270 9999 FEW026 BKN030 24/16 Q1017=,SBSP
1668268800000,METAR SBSP 121600Z 24008KT 180V280 9999 SCT030 BKN036 25/16 Q1016=,SBSP
1668272400000,METAR SBSP 121700Z 20011KT 160V230 9999 BKN030 FEW040TCU 25/17 Q1015=,SBSP
1668276000000,METAR SBSP 121800Z 19012KT 9999 VCSH FEW023 BKN030 FEW040TCU 24/17 Q1015=,SBSP
1668279600000,METAR SBSP 121900Z 19012KT 9999 FEW019 SCT033 FEW040TCU 23/17 Q1015=,SBSP
1668283200000,METAR SBSP 122000Z 18012KT 9999 SCT015 BKN021 22/17 Q1015=,SBSP
1668286800000,METAR SBSP 122100Z 18013KT 9999 FEW011 BKN015 20/16 Q1016=,SBSP
1668290400000,METAR SBSP 122200Z 16010KT 9999 SCT009 BKN013 19/16 Q1017=,SBSP
1668294000000,METAR SBSP 122300Z 16009KT 9999 SCT009 BKN013 19/16 Q1017=,SBSP
1668211200000,METAR SBSV 120000Z 11010KT 9999 SCT018 27/23 Q1014=,SBSV
1668214800000,METAR SBSV 120100Z 09010KT 9999 SCT018 27/23 Q1013=,SBSV
1668218400000,METAR SBSV 120200Z 11008KT 9999 SCT018 27/23 Q1013=,SBSV
1668222000000,METAR SBSV 120300Z 11009KT 9999 SCT018 26/23 Q1013=,SBSV
1668225600000,METAR SBSV 120400Z 10008KT 9999 SCT018 26/22 Q1012=,SBSV
1668229200000,METAR SBSV 120500Z 11006KT 9999 SCT018 26/22 Q1011=,SBSV
1668232800000,METAR SBSV 120600Z 12007KT 9999 SCT018 26/22 Q1011=,SBSV
1668236400000,METAR SBSV 120700Z 12007KT 9999 SCT018 26/22 Q1012=,SBSV
1668240000000,METAR SBSV 120800Z 11007KT 9999 SCT018 26/22 Q1012=,SBSV
1668243600000,METAR SBSV 120900Z 10007KT 9999 SCT018 26/22 Q1012=,SBSV
1668247200000,METAR SBSV 121000Z 10008KT 060V130 9999 SCT018 SCT070 28/22 Q1013=,SBSV
1668250800000,METAR SBSV 121100Z 08009KT 9999 SCT018 SCT070 29/22 Q1014=,SBSV
1668254400000,METAR SBSV 121200Z 11008KT 080V150 9999 SCT018 SCT070 29/22 Q1014=,SBSV
1668258000000,METAR SBSV 121300Z 13008KT 070V170 9999 SCT018 SCT070 29/21 Q1014=,SBSV
1668261600000,METAR SBSV 121400Z 13009KT 9999 SCT018 29/22 Q1014=,SBSV
1668265200000,METAR SBSV 121500Z 13010KT 100V170 9999 SCT018 30/22 Q1013=,SBSV
1668268800000,METAR SBSV 121600Z 14010KT 100V180 9999 SCT018 29/21 Q1012=,SBSV
1668272400000,METAR SBSV 121700Z 14010KT 9999 SCT018 29/22 Q1012=,SBSV
1668276000000,METAR SBSV 121800Z 13010KT 9999 SCT018 28/22 Q1011=,SBSV
1668279600000,METAR SBSV 121900Z 12009KT 9999 SCT018 28/21 Q1011=,SBSV
1668283200000,METAR SBSV 122000Z 13008KT 9999 SCT018 28/21 Q1011=,SBSV
1668286800000,METAR SBSV 122100Z 11008KT 9999 SCT018 27/21 Q1012=,SBSV
1668290400000,METAR SBSV 122200Z 11009KT 9999 FEW018 27/21 Q1012=,SBSV
1668294000000,METAR SBSV 122300Z 10010KT 9999 FEW018 27/21 Q1013=,SBSV
