hora,metar,aero
1668124800000,METAR SBBR 110000Z 05004KT 9999 SCT040 FEW045TCU BKN090 20/18 Q1019=,SBBR
1668128400000,METAR SBBR 110100Z 32004KT 9999 FEW040 FEW045TCU BKN090 21/17 Q1019=,SBBR
1668132000000,METAR SBBR 110200Z 34004KT 9999 FEW040 FEW045TCU BKN090 20/18 Q1020=,SBBR
1668135600000,METAR SBBR 110300Z 01012KT 9000 -SHRA BKN012 BKN030 FEW045TCU BKN100 18/17 Q1020=,SBBR
1668136200000,SPECI SBBR 110310Z 02009KT 350V050 9999 TS VCSH BKN012 BKN030 FEW045CB BKN100 18/17 Q1020=,SBBR
1668137700000,SPECI SBBR 110335Z 29005KT 230V360 9999 TS SCT012 SCT030 FEW045CB BKN100 18/17 Q1019=,SBBR
1668139200000,METAR SBBR 110400Z 19003KT 120V270 9999 SCT030 FEW045TCU BKN100 19/17 Q1019 RETS=,SBBR
1668142800000,METAR SBBR 110500Z 19005KT 9999 FEW030 BKN100 18/17 Q1017=,SBBR
1668146400000,METAR SBBR 110600Z 15003KT 030V180 9999 FEW030 SCT100 18/17 Q1016=,SBBR
1668150000000,METAR SBBR 110700Z 17003KT CAVOK 18/16 Q1017=,SBBR
1668153600000,METAR SBBR 110800Z 32004KT CAVOK 17/16 Q1017=,SBBR
1668157200000,METAR SBBR 110900Z VRB01KT 9999 SCT045 BKN100 18/16 Q1018=,SBBR
1668160800000,METAR SBBR 111000Z 35003KT 330V040 9999 FEW030 BKN100 18/17 Q1019=,SBBR
1668164400000,METAR SBBR 111100Z 31004KT 280V340 9999 FEW030 BKN100 20/17 Q1019=,SBBR
1668168000000,METAR SBBR 111200Z VRB02KT 9999 FEW030 BKN100 22/17 Q1020=,SBBR
1668171600000,METAR SBBR 111300Z 07003KT 9999 FEW020 BKN100 23/19 Q1020=,SBBR
1668175200000,METAR SBBR 111400Z 32007KT 290V030 9999 FEW020 BKN100 27/19 Q1019=,SBBR
1668178800000,METAR SBBR 111500Z 02007KT 330V050 9999 FEW030 BKN100 28/18 Q1019=,SBBR
1668182400000,METAR SBBR 111600Z 35006KT 320V050 9999 SCT035 FEW040TCU BKN100 28/17 Q1018=,SBBR
1668186000000,METAR SBBR 111700Z 01006KT 340V060 9999 VCSH VCTS SCT040 FEW045CB BKN100 28/17 Q1016=,SBBR
1668189600000,METAR SBBR 111800Z 20007KT 9000 -RA SCT040 FEW045TCU BKN100 24/17 Q1016=,SBBR
1668193200000,METAR SBBR 111900Z 08010KT 9999 VCSH SCT040 FEW045TCU BKN100 22/18 Q1015=,SBBR
1668196800000,METAR SBBR 112000Z 29005KT 9999 TS VCSH SCT040 FEW045CB BKN100 21/18 Q1016=,SBBR
1668200400000,METAR SBBR 112100Z 32004KT 9999 -RA SCT040 FEW045TCU BKN100 20/19 Q1017 RETS=,SBBR
1668204000000,METAR SBBR 112200Z 31005KT 9999 -RA SCT040 FEW045TCU BKN100 20/19 Q1017=,SBBR
1668207600000,METAR SBBR 112300Z 29002KT 9999 SCT040 FEW045TCU BKN100 20/18 Q1018=,SBBR
1668124800000,METAR COR SBCF 110000Z 06009KT 9999 VCTS FEW050CB 25/17 Q1017=,SBCF
1668128400000,METAR SBCF 110100Z 14004KT 9999 VCTS FEW050CB 23/18 Q1018=,SBCF
1668132000000,METAR SBCF 110200Z 13005KT CAVOK 22/18 Q1018=,SBCF
1668135600000,METAR SBCF 110300Z 10006KT CAVOK 23/18 Q1018=,SBCF
1668139200000,METAR SBCF 110400Z 14003KT CAVOK 22/17 Q1017=,SBCF
1668142800000,METAR SBCF 110500Z 11005KT CAVOK 21/17 Q1017=,SBCF
1668146400000,METAR SBCF 110600Z 11005KT CAVOK 22/18 Q1016=,SBCF
1668150000000,METAR SBCF 110700Z 09005KT 9999 SCT045 22/18 Q1016=,SBCF
1668153600000,METAR SBCF 110800Z 11002KT 9999 SCT040 21/18 Q1016=,SBCF
1668157200000,METAR SBCF 110900Z 14003KT 9999 SCT040 21/18 Q1017=,SBCF
1668160800000,METAR SBCF 111000Z 16002KT 9999 FEW040 23/19 Q1017=,SBCF
1668164400000,METAR SBCF 111100Z 06003KT CAVOK 25/18 Q1018=,SBCF
1668168000000,METAR SBCF 111200Z 34005KT 9999 FEW030 26/18 Q1018=,SBCF
1668171600000,METAR SBCF 111300Z 34005KT 9999 SCT030 28/19 Q1018=,SBCF
1668175200000,METAR SBCF 111400Z 16003KT 9999 SCT035 29/18 Q1017=,SBCF
1668178800000,METAR SBCF 111500Z 28005KT 9999 BKN040 30/17 Q1017=,SBCF
1668182400000,METAR SBCF 111600Z 30006KT 9999 SHRA BKN045 FEW048TCU 30/17 Q1015=,SBCF
1668183600000,SPECI SBCF 111620Z 35006KT 9999 VCSH BKN045 FEW048TCU 30/17 Q1015 RESHRA=,SBCF
1668186000000,METAR SBCF 111700Z 29012KT 9999 VCSH SCT045 FEW048TCU 28/18 Q1014 RESHRA=,SBCF
1668187980000,SPECI SBCF 111733Z 23005KT 180V270 9999 TS VCSH SCT045 FEW048CB SCT100 30/18 Q1014=,SBCF
1668189600000,METAR SBCF 111800Z 33005KT 280V020 9999 TS VCSH SCT045 FEW048CB SCT100 30/16 Q1013=,SBCF
1668193200000,METAR SBCF 111900Z 29006KT 250V320 9999 TS VCSH SCT045 FEW048CB SCT100 30/16 Q1012=,SBCF
1668196800000,METAR SBCF 112000Z 33019G34KT 9999 TS VCSH SCT040 FEW045CB BKN066 26/15 Q1014=,SBCF
1668198600000,SPECI SBCF 112030Z 04015KT 350V070 4000 -TSRA BKN040 FEW045CB BKN066 21/16 Q1016=,SBCF
1668200400000,METAR SBCF 112100Z 09016KT 4000 -TSRA SCT040 FEW045CB BKN066 20/18 Q1016=,SBCF
1668201180000,SPECI SBCF 112113Z 10017G28KT 4000 -TSRA FEW040 FEW045CB SCT066 BKN070 20/16 Q1017=,SBCF
1668204000000,METAR SBCF 112200Z 07015KT 9000 -TSRA FEW040 FEW045CB BKN080 20/15 Q1017=,SBCF
1668207600000,METAR SBCF 112300Z 12009KT 9999 -TSRA FEW045 FEW050CB BKN100 19/16 Q1017=,SBCF
1668124800000,METAR SBCT 110000Z 11007KT 9999 SCT003 OVC006 16/16 Q1018=,SBCT
1668128400000,METAR SBCT 110100Z 11007KT 070V150 9000 BKN004 OVC008 16/16 Q1019=,SBCT
1668132000000,METAR SBCT 110200Z 09006KT 9000 BKN007 OVC012 16/15 Q1019=,SBCT
1668135600000,METAR SBCT 110300Z 11004KT 080V140 9000 BKN008 OVC012 16/15 Q1019=,SBCT
1668139200000,METAR SBCT 110400Z 08009KT 8000 BKN008 OVC012 16/16 Q1018=,SBCT
1668142800000,METAR SBCT 110500Z 06007KT 8000 BKN008 OVC015 16/15 Q1017=,SBCT
1668146400000,METAR SBCT 110600Z 07007KT 8000 BKN007 OVC012 16/16 Q1017=,SBCT
1668150000000,METAR SBCT 110700Z 07008KT 8000 BKN009 BKN015 16/14 Q1016=,SBCT
1668153600000,METAR SBCT 110800Z 00007KT 8000 SCT009 BKN013 15/14 Q1017=,SBCT
1668155880000,SPECI SBCT 110838Z 07005KT 9000 FEW008 BKN015 15/14 Q1017=,SBCT
1668157200000,METAR SBCT 110900Z 07005KT 9999 FEW010 BKN017 15/14 Q1018=,SBCT
1668160800000,METAR SBCT 111000Z 08004KT 040V100 9999 FEW015 BKN070 16/14 Q1018=,SBCT
1668164400000,METAR SBCT 111100Z 07008KT 030V110 9999 SCT012 BKN070 17/15 Q1018=,SBCT
1668168000000,METAR SBCT 111200Z 07005KT 020V110 9999 BKN015 BKN070 19/15 Q1019=,SBCT
1668169800000,SPECI SBCT 111230Z 08007KT 050V120 9999 BKN017 BKN070 19/15 Q1018=,SBCT
1668171600000,METAR SBCT 111300Z 07007KT 030V110 9999 SCT018 20/15 Q1018=,SBCT
1668175200000,METAR SBCT 111400Z 06006KT 010V100 9999 SCT020 21/15 Q1018=,SBCT
1668178800000,METAR SBCT 111500Z 07006KT 020V100 9999 SCT025 BKN090 20/15 Q1018=,SBCT
1668182400000,METAR SBCT 111600Z 08008KT 9999 SCT025 BKN090 19/16 Q1018=,SBCT
1668186000000,METAR SBCT 111700Z 14007KT 9999 FEW015 SCT030 BKN085 19/16 Q1017=,SBCT
1668189600000,METAR SBCT 111800Z 12006KT 6000 -RA FEW008 SCT025 OVC100 17/17 Q1017=,SBCT
1668191100000,SPECI SBCT 111825Z 12005KT 5000 BR BKN013 SCT024 OVC100 17/17 Q1017=,SBCT
1668193200000,METAR SBCT 111900Z 11003KT 3000 RA BR BKN007 OVC012 17/17 Q1017=,SBCT
1668196800000,METAR SBCT 112000Z VRB02KT 3500 RA BR SCT004 BKN012 OVC023 17/17 Q1017=,SBCT
1668200400000,METAR SBCT 112100Z 12007KT 3000 RA BR SCT004 BKN012 OVC023 16/16 Q1017=,SBCT
1668204000000,METAR SBCT 112200Z 11008KT 8000 -RA FEW004 SCT023 BKN090 16/16 Q1015 RERA=,SBCT
1668206100000,SPECI SBCT 112235Z 08005KT 9000 -RA BKN004 SCT023 BKN090 16/16 Q1016=,SBCT
1668207600000,METAR SBCT 112300Z 04004KT 7000 -RA BKN004 OVC012 16/16 Q1017=,SBCT
1668124800000,METAR SBFL 110000Z VRB02KT 9999 FEW030 20/17 Q1016=,SBFL
1668128400000,METAR SBFL 110100Z VRB02KT 9999 SCT030 19/17 Q1017=,SBFL
1668132000000,METAR SBFL 110200Z 00000KT 9999 BKN023 19/17 Q1017=,SBFL
1668135600000,METAR SBFL 110300Z 00000KT 9999 BKN025 20/17 Q1017=,SBFL
1668139200000,METAR SBFL 110400Z 00000KT 9999 BKN027 18/17 Q1016=,SBFL
1668142800000,METAR SBFL 110500Z 00000KT 9999 BKN028 18/17 Q1015=,SBFL
1668146400000,METAR SBFL 110600Z 36003KT 9999 FEW013 SCT025 18/17 Q1014=,SBFL
1668150000000,METAR SBFL 110700Z 00000KT 9999 FEW025 17/16 Q1014=,SBFL
1668153600000,METAR SBFL 110800Z 32004KT 9999 FEW030 19/17 Q1015=,SBFL
1668157200000,METAR SBFL 110900Z 32004KT CAVOK 19/17 Q1015=,SBFL
1668160800000,METAR SBFL 111000Z 36004KT CAVOK 20/18 Q1016=,SBFL
1668164400000,METAR SBFL 111100Z 34004KT 9999 FEW040 BKN100 21/18 Q1016=,SBFL
1668168000000,METAR SBFL 111200Z 33005KT 9999 FEW040 BKN100 21/18 Q1016=,SBFL
1668171600000,METAR SBFL 111300Z 36005KT 9999 FEW040 BKN100 23/17 Q1016=,SBFL
1668175200000,METAR SBFL 111400Z 01006KT 9999 FEW040 BKN100 25/16 Q1016=,SBFL
1668178800000,METAR SBFL 111500Z 01007KT 9999 FEW040 BKN100 25/15 Q1015=,SBFL
1668182400000,METAR SBFL 111600Z 01008KT 9999 FEW040 BKN100 26/16 Q1014=,SBFL
1668186000000,METAR SBFL 111700Z 09013KT 9999 FEW040 BKN100 24/18 Q1013=,SBFL
1668189600000,METAR SBFL 111800Z 06005KT 9999 BKN040 BKN100 23/19 Q1014=,SBFL
1668193200000,METAR SBFL 111900Z 02007KT 9999 FEW040 BKN100 22/19 Q1014=,SBFL
1668196800000,METAR SBFL 112000Z 01007KT 9999 FEW015 BKN100 22/19 Q1013=,SBFL
1668200400000,METAR SBFL 112100Z 36006KT 9999 SCT017 BKN100 22/19 Q1014=,SBFL
1668204000000,METAR SBFL 112200Z 36008KT 9999 SCT017 BKN100 22/19 Q1014=,SBFL
1668207600000,METAR SBFL 112300Z 36008KT 9999 BKN020 BKN100 22/19 Q1014=,SBFL
1668124800000,METAR SBGL 110000Z 15005KT 9999 FEW023 OVC040 24/19 Q1015=,SBGL
1668128400000,METAR SBGL 110100Z 32004KT 9999 BKN023 OVC040 24/20 Q1016=,SBGL
1668132000000,METAR SBGL 110200Z 32004KT 9999 FEW019 BKN023 OVC040 24/20 Q1016=,SBGL
1668135600000,METAR SBGL 110300Z 29003KT 9999 FEW019 BKN023 BKN040 24/20 Q1015=,SBGL
1668139200000,METAR SBGL 110400Z 29012KT 7000 -TSRA SCT013 BKN017 FEW023CB BKN033 23/20 Q1015=,SBGL
1668142800000,METAR SBGL 110500Z 32006KT 9000 VCTS FEW015 SCT019 FEW023CB BKN100 21/19 Q1014 RETS=,SBGL
1668146400000,METAR SBGL 110600Z 33005KT 8000 FEW015 SCT019 BKN100 21/19 Q1014=,SBGL
1668150000000,METAR SBGL 110700Z 35005KT 8000 FEW015 SCT019 BKN100 20/19 Q1014=,SBGL
1668153600000,METAR SBGL 110800Z 34004KT 8000 FEW019 SCT100 20/19 Q1014=,SBGL
1668157200000,METAR SBGL 110900Z 32003KT 8000 FEW017 BKN070 21/20 Q1014=,SBGL
1668160800000,METAR SBGL 111000Z 30003KT 8000 FEW017 BKN050 BKN070 23/20 Q1014=,SBGL
1668164400000,METAR SBGL 111100Z VRB02KT 8000 FEW020 BKN050 24/20 Q1015=,SBGL
1668168000000,METAR SBGL 111200Z 35005KT 9000 FEW015 BKN050 25/20 Q1015=,SBGL
1668171600000,METAR SBGL 111300Z 36006KT 340V040 9000 FEW020 SCT060 26/20 Q1015=,SBGL
1668175200000,METAR SBGL 111400Z 03007KT 350V060 9000 FEW020 SCT060 27/20 Q1014=,SBGL
1668178800000,METAR SBGL 111500Z 07009KT 040V110 9000 FEW020 SCT060 28/21 Q1013=,SBGL
1668182400000,METAR SBGL 111600Z 14008KT 100V160 9000 FEW020 SCT060 28/21 Q1012=,SBGL
1668186000000,METAR SBGL 111700Z 14010KT 9999 FEW020 28/21 Q1012=,SBGL
1668189600000,METAR SBGL 111800Z 13012KT 9999 FEW020 BKN040 27/21 Q1011=,SBGL
1668193200000,METAR SBGL 111900Z 14012KT 9999 FEW020 BKN040 26/21 Q1011=,SBGL
1668196800000,METAR SBGL 112000Z 15014KT 9999 FEW020 BKN040 25/20 Q1010=,SBGL
1668200400000,METAR SBGL 112100Z 15011KT 9999 SCT020 BKN030 BKN050 25/21 Q1011=,SBGL
1668204000000,METAR SBGL 112200Z 16010KT 9000 -RA FEW010 OVC025 25/22 Q1012=,SBGL
1668207600000,METAR SBGL 112300Z 14007KT 9000 FEW010 BKN021 OVC030 25/22 Q1013=,SBGL
1668209460000,SPECI SBGL 112331Z 10005KT 7000 -TSRA FEW010 BKN021 FEW025CB OVC030 25/22 Q1013=,SBGL
1668124800000,METAR SBGR 110000Z 12005KT 9999 BKN017 19/15 Q1018=,SBGR
1668128400000,METAR SBGR 110100Z 11006KT 9999 BKN019 19/16 Q1019=,SBGR
1668132000000,METAR SBGR 110200Z 10005KT 9999 BKN021 19/16 Q1019=,SBGR
1668135600000,METAR SBGR 110300Z 08005KT 9999 SCT015 18/16 Q1018=,SBGR
1668139200000,METAR SBGR 110400Z 07006KT CAVOK 17/16 Q1018=,SBGR
1668142800000,METAR SBGR 110500Z 07004KT 9999 SCT011 16/16 Q1017=,SBGR
1668146400000,METAR SBGR 110600Z 07004KT 9999 BKN009 16/16 Q1016=,SBGR
1668150000000,METAR SBGR 110700Z 10004KT 9999 BKN011 17/17 Q1016=,SBGR
1668153600000,METAR SBGR 110800Z 08006KT 9999 BKN009 18/17 Q1016=,SBGR
1668157200000,METAR SBGR 110900Z 07004KT 030V110 9999 BKN011 18/17 Q1017=,SBGR
1668160800000,METAR SBGR 111000Z 05006KT 9999 BKN012 19/17 Q1018=,SBGR
1668164400000,METAR SBGR 111100Z 06011KT 9999 BKN011 20/17 Q1018=,SBGR
1668168000000,METAR SBGR 111200Z 05010KT 9999 BKN015 22/17 Q1018=,SBGR
1668171600000,METAR SBGR 111300Z 06008KT 9999 SCT017 23/18 Q1018=,SBGR
1668175200000,METAR SBGR 111400Z 07007KT CAVOK 25/18 Q1017=,SBGR
1668178800000,METAR SBGR 111500Z 05005KT 9999 FEW030 26/19 Q1016=,SBGR
1668182400000,METAR SBGR 111600Z 08006KT 9999 FEW030 28/19 Q1015=,SBGR
1668186000000,METAR SBGR 111700Z 16011KT 8000 SCT035 24/19 Q1014=,SBGR
1668189600000,METAR SBGR 111800Z 18008KT 8000 -RA BKN013 21/20 Q1015=,SBGR
1668193200000,METAR SBGR 111900Z 15006KT 9999 OVC007 20/19 Q1015=,SBGR
1668193920000,SPECI SBGR 111912Z 14006KT 5000 -TSRA BR BKN006 FEW035CB OVC070 20/19 Q1014=,SBGR
1668196800000,METAR COR SBGR 112000Z 15004KT 7000 -RA BKN008 SCT035TCU OVC070 20/19 Q1015 RETS=,SBGR
1668197100000,SPECI SBGR 112005Z 15004KT 6000 -TSRA BKN008 SCT035CB OVC070 20/19 Q1015=,SBGR
1668197820000,SPECI SBGR 112017Z 06005KT 3000 +TSRA BR BKN008 SCT045CB OVC070 20/19 Q1016=,SBGR
1668200400000,METAR SBGR 112100Z 21004KT 7000 TSRA BKN005 SCT035CB OVC070 19/19 Q1017 RERA=,SBGR
1668201720000,SPECI SBGR 112122Z 17008KT 6000 -TSRA SCT005 FEW035CB OVC070 19/19 Q1015 RERA=,SBGR
1668204000000,METAR COR SBGR 112200Z 16003KT 9999 SCT007 BKN030 BKN070 19/18 Q1016 RETSRA=,SBGR
1668207600000,METAR SBGR 112300Z 11008KT 9999 BKN009 BKN023 BKN070 20/19 Q1017=,SBGR
1668124800000,METAR SBKP 110000Z 12015KT CAVOK 21/16 Q1015=,SBKP
1668128400000,METAR SBKP 110100Z 12017KT CAVOK 20/16 Q1016=,SBKP
1668132000000,METAR SBKP 110200Z 12016KT CAVOK 20/15 Q1016=,SBKP
1668135600000,METAR SBKP 110300Z 12015KT CAVOK 19/15 Q1016=,SBKP
1668139200000,METAR SBKP 110400Z 12015KT CAVOK 19/15 Q1015=,SBKP
1668142800000,METAR SBKP 110500Z 12014KT CAVOK 18/15 Q1015=,SBKP
1668146400000,METAR SBKP 110600Z 11008KT CAVOK 18/15 Q1014=,SBKP
1668150000000,METAR SBKP 110700Z 12006KT CAVOK 17/15 Q1014=,SBKP
1668153600000,METAR SBKP 110800Z 10006KT CAVOK 17/15 Q1014=,SBKP
1668157200000,METAR SBKP 110900Z 12012KT CAVOK 18/15 Q1015=,SBKP
1668160800000,METAR SBKP 111000Z 12008KT CAVOK 19/16 Q1016=,SBKP
1668164400000,METAR SBKP 111100Z 10007KT CAVOK 21/16 Q1016=,SBKP
1668168000000,METAR SBKP 111200Z 05005KT CAVOK 25/17 Q1016=,SBKP
1668171600000,METAR SBKP 111300Z 03005KT 340V090 CAVOK 27/17 Q1016=,SBKP
1668175200000,METAR SBKP 111400Z VRB04KT 9999 FEW020 28/16 Q1015=,SBKP
1668178800000,METAR SBKP 111500Z 01005KT 300V060 9999 FEW030 29/17 Q1015=,SBKP
1668182400000,METAR SBKP 111600Z 31009KT 260V360 9999 FEW035 31/16 Q1014=,SBKP
1668186000000,METAR SBKP 111700Z 26009KT 220V320 9999 FEW035 30/16 Q1013=,SBKP
1668189600000,METAR SBKP 111800Z 27008KT 9999 TS VCSH SCT040 FEW050CB SCT100 30/16 Q1012=,SBKP
1668190920000,SPECI SBKP 111822Z 32018G28KT 4000 TSRA BR SCT040 FEW050CB BKN100 22/19 Q1012=,SBKP
1668192120000,SPECI SBKP 111842Z 25018G30KT 7000 -TSRA SCT040 FEW050CB BKN100 22/17 Q1013 RERA=,SBKP
1668193200000,METAR SBKP 111900Z 27010G23KT 9999 -TSRA SCT040 FEW050CB 22/17 Q1013 RERA=,SBKP
1668196800000,METAR SBKP 112000Z 22017G27KT 7000 -TSRA FEW010 SCT030 FEW040CB 21/18 Q1014=,SBKP
1668197820000,SPECI SBKP 112017Z 21011KT 9999 FEW010 SCT030 21/18 Q1014 RETS=,SBKP
1668200400000,METAR SBKP 112100Z 17007KT 9999 SCT035 21/18 Q1015 RETS=,SBKP
1668204000000,METAR SBKP 112200Z 12009KT 9999 FEW035 BKN070 20/18 Q1014=,SBKP
1668207600000,METAR SBKP 112300Z 13015KT 9999 SCT035 BKN070 20/18 Q1015=,SBKP
1668124800000,METAR SBPA 110000Z 13010KT CAVOK 20/16 Q1016=,SBPA
1668128400000,METAR SBPA 110100Z 12009KT CAVOK 19/16 Q1015=,SBPA
1668132000000,METAR SBPA 110200Z 11009KT CAVOK 19/17 Q1015=,SBPA
1668135600000,METAR SBPA 110300Z 11009KT CAVOK 19/17 Q1015=,SBPA
1668139200000,METAR SBPA 110400Z 11008KT CAVOK 18/16 Q1014=,SBPA
1668142800000,METAR SBPA 110500Z 12010KT CAVOK 18/16 Q1014=,SBPA
1668146400000,METAR SBPA 110600Z 10008KT CAVOK 18/16 Q1013=,SBPA
1668150000000,METAR SBPA 110700Z 12009KT CAVOK 18/17 Q1013=,SBPA
1668153600000,METAR SBPA 110800Z 10009KT CAVOK 18/17 Q1013=,SBPA
1668157200000,METAR SBPA 110900Z 12010KT 9999 FEW025 19/17 Q1013=,SBPA
1668160800000,METAR SBPA 111000Z 11010KT 9999 FEW015 19/17 Q1014=,SBPA
1668164400000,METAR SBPA 111100Z 08008KT 9999 FEW014 20/17 Q1015=,SBPA
1668168000000,METAR SBPA 111200Z 07007KT 9999 FEW015 21/17 Q1015=,SBPA
1668171600000,METAR SBPA 111300Z 11004KT 050V160 9999 FEW015 22/17 Q1015=,SBPA
1668175200000,METAR SBPA 111400Z VRB02KT 9999 FEW025 23/16 Q1015=,SBPA
1668178800000,METAR SBPA 111500Z 27003KT 210V330 9999 FEW037 25/16 Q1014=,SBPA
1668182400000,METAR SBPA 111600Z 29006KT 240V320 9999 FEW035 26/17 Q1013=,SBPA
1668186000000,METAR SBPA 111700Z 26005KT 220V310 9999 FEW035 26/18 Q1013=,SBPA
1668189600000,METAR SBPA 111800Z 24006KT 210V270 9999 FEW035 25/17 Q1012=,SBPA
1668193200000,METAR SBPA 111900Z 21007KT 9999 FEW035 25/17 Q1012=,SBPA
1668196380000,SPECI SBPA 111953Z 13010KT 9999 FEW030 24/18 Q1012=,SBPA
1668196800000,METAR SBPA 112000Z 13011KT 9999 FEW030 24/18 Q1012=,SBPA
1668200400000,METAR SBPA 112100Z 11013KT 9999 FEW030 23/18 Q1012=,SBPA
1668204000000,METAR SBPA 112200Z 10011KT CAVOK 22/18 Q1012=,SBPA
1668207600000,METAR SBPA 112300Z 11008KT CAVOK 21/18 Q1012=,SBPA
1668124800000,METAR SBRF 110000Z 12005KT 080V160 9999 SCT018 SCT070 27/22 Q1013=,SBRF
1668128400000,METAR SBRF 110100Z 12006KT 090V150 9999 BKN017 27/22 Q1013=,SBRF
1668131400000,SPECI SBRF 110150Z 13009KT 4000 -RA BR BKN009 BKN017 26/23 Q1013=,SBRF
1668132000000,METAR SBRF 110200Z 12009KT 4000 -RA BR BKN009 BKN017 26/23 Q1013=,SBRF
1668135600000,METAR SBRF 110300Z 10006KT 010V140 5000 -RA FEW009 BKN040 25/22 Q1012=,SBRF
1668139200000,METAR SBRF 110400Z 10001KT 6000 BKN030 25/21 Q1012=,SBRF
1668142800000,METAR SBRF 110500Z 15001KT 9999 BKN030 25/22 Q1012=,SBRF
1668146400000,METAR SBRF 110600Z 32002KT 9999 BKN030 24/22 Q1011=,SBRF
1668150000000,METAR SBRF 110700Z 28002KT 9999 SCT015 24/22 Q1011=,SBRF
1668153600000,METAR SBRF 110800Z 24003KT 190V260 5000 BR BKN015 BKN020 24/22 Q1012=,SBRF
1668153900000,SPECI SBRF 110805Z 29002KT 5000 BR BKN006 BKN020 24/22 Q1012=,SBRF
1668156600000,SPECI COR SBRF 110850Z 06003KT 020V100 1000 R18///// R36///// -RA BR BKN006 BKN020 24/22 Q1012=,SBRF
1668157200000,METAR SBRF 110900Z 06003KT 020V100 1000 R18///// R36///// -RA BR BKN006 BKN020 24/22 Q1012=,SBRF
1668158400000,SPECI SBRF 110920Z 27002KT 5000 -RA BR BKN008 BKN020 24/23 Q1013=,SBRF
1668160800000,METAR SBRF 111000Z 23003KT 190V260 8000 -RA SCT008 BKN020 24/22 Q1013=,SBRF
1668164400000,METAR SBRF 111100Z 35004KT 320V040 9999 3000W -SHRA SCT006 SCT015 25/23 Q1013=,SBRF
1668168000000,METAR SBRF 111200Z 07006KT 010V110 9999 VCSH FEW007 BKN015 28/23 Q1013=,SBRF
1668171600000,METAR SBRF 111300Z 09005KT 030V150 9999 VCSH FEW011 SCT015 FEW020TCU 27/23 Q1013=,SBRF
1668175200000,METAR SBRF 111400Z 07007KT 040V110 9999 SCT020 29/23 Q1012=,SBRF
1668178800000,METAR SBRF 111500Z 05009KT 020V100 9999 SCT023 30/22 Q1012=,SBRF
1668182400000,METAR SBRF 111600Z 07009KT 9999 SCT025 29/21 Q1011=,SBRF
1668186000000,METAR SBRF 111700Z 06009KT 010V110 9999 SCT025 30/22 Q1011=,SBRF
1668189600000,METAR SBRF 111800Z 07009KT 030V100 9999 FEW023 29/22 Q1011=,SBRF
1668193200000,METAR SBRF 111900Z 07009KT 030V100 9999 FEW025 28/22 Q1010=,SBRF
1668196800000,METAR SBRF 112000Z 07008KT 030V100 9999 FEW023 28/22 Q1010=,SBRF
1668200400000,METAR SBRF 112100Z 06006KT 9999 SCT023 27/22 Q1011=,SBRF
1668204000000,METAR SBRF 112200Z 08006KT 010V130 6000 -SHRA SCT010 BKN015 26/23 Q1011=,SBRF
1668207600000,METAR SBRF 112300Z 07006KT 010V120 9999 SCT015 BKN023 26/22 Q1012=,SBRF
1668124800000,METAR SBRJ 110000Z 17007KT 9999 FEW012 OVC040 24/20 Q1015=,SBRJ
1668128400000,METAR SBRJ 110100Z 16005KT 9999 FEW012 BKN040 24/20 Q1015=,SBRJ
1668132000000,METAR SBRJ 110200Z 13005KT 9999 FEW015 BKN040 24/21 Q1015=,SBRJ
1668135600000,METAR SBRJ 110300Z 15006KT 9999 VCTS FEW020 FEW030CB BKN035 BKN080 24/21 Q1014=,SBRJ
1668139200000,METAR SBRJ 110400Z 19004KT 9999 VCTS SCT023 FEW030CB BKN035 BKN080 24/20 Q1015=,SBRJ
1668140280000,SPECI SBRJ 110418Z 30009KT 270V330 9999 TS SCT020 FEW030CB BKN035 OVC080 24/21 Q1014=,SBRJ
1668142800000,METAR SBRJ 110500Z 17006KT 9999 VCTS FEW020 FEW030CB BKN035 BKN090 23/20 Q1013 RETS=,SBRJ
1668146400000,METAR SBRJ 110600Z 31007KT 9999 SCT015 SCT035 BKN100 22/20 Q1013=,SBRJ
1668150000000,METAR SBRJ 110700Z 33005KT 9999 SCT015 SCT023 BKN100 22/20 Q1013=,SBRJ
1668153600000,METAR SBRJ 110800Z 35005KT 9999 FEW025 BKN050 22/20 Q1013=,SBRJ
1668157200000,METAR SBRJ 110900Z 31004KT 7000 FEW020 BKN060 22/20 Q1013=,SBRJ
1668160800000,METAR SBRJ 111000Z 34004KT 7000 FEW020 BKN060 23/20 Q1014=,SBRJ
1668164400000,METAR SBRJ 111100Z 36004KT 8000 FEW020 BKN060 24/21 Q1015=,SBRJ
1668168000000,METAR SBRJ 111200Z 05003KT 350V080 8000 FEW018 SCT060 26/21 Q1015=,SBRJ
1668171600000,METAR SBRJ 111300Z 10004KT 8000 FEW018 SCT060 26/21 Q1014=,SBRJ
1668175200000,METAR SBRJ 111400Z 13008KT 8000 SCT018 26/21 Q1014=,SBRJ
1668178800000,METAR SBRJ 111500Z 15010KT 8000 SCT020 26/22 Q1013=,SBRJ
1668182400000,METAR SBRJ 111600Z 15013KT 9999 SCT018 26/22 Q1013=,SBRJ
1668186000000,METAR SBRJ 111700Z 16015KT 9999 FEW020 26/22 Q1012=,SBRJ
1668189600000,METAR SBRJ 111800Z 15015KT 9999 BKN018 BKN040 26/22 Q1011=,SBRJ
1668193200000,METAR SBRJ 111900Z 16015KT 9999 SCT018 BKN040 BKN090 25/22 Q1011=,SBRJ
1668196800000,METAR SBRJ 112000Z 15014KT 9999 FEW012 SCT018 BKN040 25/22 Q1010=,SBRJ
1668200400000,METAR SBRJ 112100Z 14008KT 9999 FEW012 BKN015 OVC035 25/22 Q1011=,SBRJ
1668201900000,SPECI SBRJ 112125Z 12010KT 9999 BKN013 OVC030 25/23 Q1012=,SBRJ
1668204000000,METAR SBRJ 112200Z 12012KT 9999 -RA BKN013 BKN020 OVC030 25/23 Q1011=,SBRJ
1668207600000,METAR SBRJ 112300Z 10011KT 9999 TS BKN010 FEW035CB OVC040 25/23 Q1012=,SBRJ
1668209100000,SPECI SBRJ 112325Z 08011KT 8000 TSRA BKN010 FEW035CB OVC040 25/23 Q1013=,SBRJ
1668124800000,METAR SBSP 110000Z 14009KT 9999 BKN015 18/15 Q1019=,SBSP
1668128400000,METAR SBSP 110100Z 11006KT 080V140 9999 BKN015 18/15 Q1020=,SBSP
1668132000000,METAR SBSP 110200Z 09007KT 9999 BKN017 18/14 Q1019=,SBSP
1668132060000,SPECI SBSP 110201Z 10007KT 050V130 9999 FEW010 SCT016 18/14 Q1019=,SBSP
1668135600000,METAR SBSP 110300Z AUTO 10006KT 070V130 CAVOK 18/15 Q1019=,SBSP
1668139200000,METAR SBSP 110400Z AUTO 10004KT 060V140 CAVOK 18/15 Q1018=,SBSP
1668142800000,METAR SBSP 110500Z AUTO 12004KT 100V160 CAVOK 17/16 Q1017=,SBSP
1668146400000,METAR SBSP 110600Z AUTO 11003KT 050V140 CAVOK 17/16 Q1016=,SBSP
1668149880000,SPECI SBSP 110658Z AUTO 10006KT 060V140 9999 BKN008 17/16 Q1016=,SBSP
1668150000000,METAR SBSP 110700Z AUTO 10006KT 060V140 9999 BKN008 17/16 Q1016=,SBSP
1668153600000,METAR SBSP 110800Z AUTO 08007KT 030V130 9999 OVC007 18/16 Q1017=,SBSP
1668157200000,METAR SBSP 110900Z 07007KT 040V100 9000 BKN009 18/16 Q1018=,SBSP
1668159720000,SPECI SBSP 110942Z 10005KT 060V140 9999 SCT009 19/16 Q1018=,SBSP
1668160800000,METAR SBSP 111000Z 09005KT 050V150 9999 FEW011 20/16 Q1018=,SBSP
1668164400000,METAR SBSP 111100Z 07007KT 030V110 9999 FEW013 21/17 Q1018=,SBSP
1668168000000,METAR SBSP 111200Z 06006KT 010V110 CAVOK 22/16 Q1019=,SBSP
1668171600000,METAR SBSP 111300Z 07005KT 350V120 CAVOK 24/16 Q1018=,SBSP
1668175200000,METAR SBSP 111400Z 11006KT 050V150 CAVOK 26/16 Q1018=,SBSP
1668178800000,METAR SBSP 111500Z 08005KT 040V140 9999 SCT046 27/15 Q1017=,SBSP
1668182400000,METAR SBSP 111600Z 18015KT 9999 SCT046 25/18 Q1017=,SBSP
1668186000000,METAR SBSP 111700Z 17016KT 9000 SCT007 BKN013 21/18 Q1016=,SBSP
1668186720000,SPECI SBSP 111712Z 17016KT 7000 SCT003 BKN009 21/18 Q1016=,SBSP
1668187920000,SPECI SBSP 111732Z 16016KT 7000 TS SCT003 BKN006 FEW050CB 20/18 Q1016=,SBSP
1668188700000,SPECI SBSP 111745Z 20010KT 4000 TSRA BR FEW002 BKN006 FEW046CB 20/18 Q1017=,SBSP
1668189600000,METAR SBSP 111800Z 19012KT 6000 -RA FEW004 BKN006 19/18 Q1016 RETSRA=,SBSP
1668193200000,METAR SBSP 111900Z 16011KT 9999 BKN007 19/18 Q1015=,SBSP
1668196800000,METAR COR SBSP 112000Z 15012KT 6000 -TSRA SCT004 BKN007 FEW050CB 19/18 Q1016=,SBSP
1668197220000,SPECI COR SBSP 112007Z 16006KT 5000 TSRA BR SCT004 BKN006 FEW050CB 19/18 Q1017=,SBSP
1668200400000,METAR SBSP 112100Z 18007KT 9999 -RA SCT004 BKN020 19/18 Q1017 RETSRA=,SBSP
1668204000000,METAR SBSP 112200Z 15009KT 9999 SCT009 19/18 Q1017=,SBSP
1668207600000,METAR COR SBSP 112300Z 13008KT 9999 -RA SCT009 SCT011 19/17 Q1017=,SBSP
1668209640000,SPECI SBSP 112334Z 13008KT 8000 -RA SCT005 BKN007 18/17 Q1018=,SBSP
1668124800000,METAR SBSV 110000Z 11009KT 9999 FEW020 27/23 Q1014=,SBSV
1668128400000,METAR SBSV 110100Z 11008KT 9999 FEW020 SCT100 27/24 Q1014=,SBSV
1668132000000,METAR SBSV 110200Z 10007KT 9999 FEW020 SCT100 27/23 Q1014=,SBSV
1668135600000,METAR SBSV 110300Z 11007KT 9999 FEW020 SCT100 27/24 Q1013=,SBSV
1668139200000,METAR SBSV 110400Z 10009KT 8000 -RA SCT013 SCT016 26/24 Q1013=,SBSV
1668142800000,METAR SBSV 110500Z 09010KT 8000 VCSH SCT016 FEW020TCU BKN070 25/24 Q1012=,SBSV
1668146400000,METAR SBSV 110600Z 13007KT 6000 -RA SCT007 BKN016 FEW020TCU BKN060 25/24 Q1012=,SBSV
1668150000000,METAR SBSV 110700Z 10006KT 8000 VCSH BKN016 FEW020TCU BKN060 25/23 Q1012=,SBSV
1668153600000,METAR SBSV 110800Z 13004KT 9999 BKN016 FEW020TCU BKN060 26/24 Q1012=,SBSV
1668157200000,METAR SBSV 110900Z 10008KT 9999 VCSH SCT020 FEW023TCU SCT070 27/23 Q1013=,SBSV
1668160800000,METAR SBSV 111000Z 09011KT 9999 VCSH BKN016 FEW023TCU 27/23 Q1013=,SBSV
1668164400000,METAR SBSV 111100Z 09010KT 9999 SCT016 FEW023TCU 28/24 Q1014=,SBSV
1668168000000,METAR SBSV 111200Z 09010KT 9999 SCT016 29/24 Q1014=,SBSV
1668171600000,METAR SBSV 111300Z 10010KT 9999 SCT018 30/24 Q1014=,SBSV
1668175200000,METAR SBSV 111400Z 11011KT 9999 SCT018 30/23 Q1014=,SBSV
1668178800000,METAR SBSV 111500Z 12011KT 9999 SCT018 30/24 Q1013=,SBSV
1668182400000,METAR SBSV 111600Z 11010KT 9999 SCT018 30/23 Q1013=,SBSV
1668186000000,METAR SBSV 111700Z 11011KT 9999 SCT018 29/23 Q1012=,SBSV
1668189600000,METAR SBSV 111800Z 11011KT 9999 SCT018 28/23 Q1012=,SBSV
1668193200000,METAR SBSV 111900Z 12010KT 9999 SCT018 28/23 Q1012=,SBSV
1668196800000,METAR SBSV 112000Z 11008KT 9999 SCT018 BKN070 27/23 Q1012=,SBSV
1668200400000,METAR SBSV 112100Z 09010KT 9999 SCT018 BKN070 27/23 Q1012=,SBSV
1668204000000,METAR SBSV 112200Z 09009KT 9999 SCT018 27/23 Q1012=,SBSV
1668207600000,METAR SBSV 112300Z 10008KT 9999 SCT018 27/23 Q1013=,SBSV
