hora,metar,aero
1677542400000,METAR SBBR 280000Z 12009KT CAVOK 25/15 Q1021=,SBBR
1677546000000,METAR SBBR 280100Z 16006KT 120V200 CAVOK 24/15 Q1022=,SBBR
1677549600000,METAR SBBR 280200Z 11003KT 070V140 CAVOK 23/15 Q1022=,SBBR
1677553200000,METAR SBBR 280300Z VRB02KT CAVOK 23/14 Q1021=,SBBR
1677556800000,METAR SBBR 280400Z 13004KT CAVOK 23/14 Q1021=,SBBR
1677560400000,METAR SBBR 280500Z 13002KT CAVOK 22/15 Q1020=,SBBR
1677564000000,METAR SBBR 280600Z 15005KT CAVOK 21/15 Q1020=,SBBR
1677567600000,METAR SBBR 280700Z 15003KT CAVOK 20/15 Q1020=,SBBR
1677571200000,METAR SBBR 280800Z VRB01KT CAVOK 18/15 Q1020=,SBBR
1677574800000,METAR SBBR 280900Z 17004KT CAVOK 20/15 Q1020=,SBBR
1677578400000,METAR SBBR 281000Z VRB02KT CAVOK 19/15 Q1021=,SBBR
1677582000000,METAR SBBR 281100Z 09005KT CAVOK 23/15 Q1021=,SBBR
1677585600000,METAR SBBR 281200Z 09012KT CAVOK 24/15 Q1022=,SBBR
1677589200000,METAR SBBR 281300Z 08011KT CAVOK 26/16 Q1022=,SBBR
1677592800000,METAR SBBR 281400Z 08010KT 040V120 9999 SCT033 26/16 Q1022=,SBBR
1677596400000,METAR SBBR 281500Z 07009KT 9999 SCT033 27/17 Q1021=,SBBR
1677600000000,METAR SBBR 281600Z 09009KT 9999 SCT033 28/15 Q1021=,SBBR
1677603600000,METAR SBBR 281700Z 09010KT 060V130 9999 SCT040 29/16 Q1020=,SBBR
1677607200000,METAR SBBR 281800Z 07003KT 9999 SCT040 FEW045TCU 30/15 Q1019=,SBBR
1677610800000,METAR SBBR 281900Z 14003KT 9999 SCT040 FEW045TCU 30/15 Q1018=,SBBR
1677614400000,METAR SBBR 282000Z 13009KT 9999 SCT040 FEW045TCU 30/14 Q1018=,SBBR
1677618000000,METAR SBBR 282100Z 07009KT 9999 VCSH SCT040 FEW045TCU 29/16 Q1018=,SBBR
1677621600000,METAR SBBR 282200Z 08006KT 9999 VCSH SCT040 FEW045TCU 27/17 Q1018=,SBBR
1677625200000,METAR SBBR 282300Z 35005KT 290V060 9999 SCT040 FEW045TCU SCT070 25/16 Q1019=,SBBR
1677542400000,METAR SBCF 280000Z 06008KT CAVOK 25/16 Q1021=,SBCF
1677546000000,METAR SBCF 280100Z 07005KT CAVOK 24/16 Q1022=,SBCF
1677549600000,METAR SBCF 280200Z 10006KT CAVOK 24/16 Q1022=,SBCF
1677553200000,METAR SBCF 280300Z 13005KT CAVOK 22/16 Q1021=,SBCF
1677556800000,METAR SBCF 280400Z 11008KT CAVOK 23/16 Q1021=,SBCF
1677560400000,METAR SBCF 280500Z 17003KT CAVOK 21/16 Q1021=,SBCF
1677564000000,METAR SBCF 280600Z 12004KT CAVOK 21/17 Q1020=,SBCF
1677567600000,METAR SBCF 280700Z 10008KT 9999 SCT040 21/17 Q1020=,SBCF
1677571200000,METAR SBCF 280800Z 09009KT 9999 FEW040 22/16 Q1020=,SBCF
1677574800000,METAR SBCF 280900Z 09010KT 9999 SCT030 22/17 Q1021=,SBCF
1677578400000,METAR SBCF 281000Z 13005KT 9999 FEW030 21/17 Q1022=,SBCF
1677582000000,METAR SBCF 281100Z 07007KT 9999 FEW035 23/18 Q1022=,SBCF
1677585600000,METAR SBCF 281200Z 04007KT 9999 SCT023 24/17 Q1023=,SBCF
1677589200000,METAR SBCF 281300Z 02005KT 9999 BKN026 25/17 Q1023=,SBCF
1677592800000,METAR SBCF 281400Z 03007KT 9999 BKN035 27/17 Q1023=,SBCF
1677596400000,METAR SBCF 281500Z 08009KT 9999 BKN040 28/17 Q1022=,SBCF
1677600000000,METAR SBCF 281600Z 09008KT 9999 BKN040 29/16 Q1021=,SBCF
1677603600000,METAR SBCF 281700Z 05005KT 350V110 9999 SCT048 29/16 Q1020=,SBCF
1677607200000,METAR SBCF 281800Z 06008KT 360V090 9999 SCT048 29/15 Q1020=,SBCF
1677610800000,METAR SBCF 281900Z 10006KT 040V170 9999 SCT048 29/16 Q1019=,SBCF
1677614400000,METAR SBCF 282000Z 08007KT 040V120 9999 FEW045 29/16 Q1018=,SBCF
1677618000000,METAR SBCF 282100Z 08009KT 9999 FEW045 28/16 Q1018=,SBCF
1677621600000,METAR SBCF 282200Z 08007KT CAVOK 27/16 Q1019=,SBCF
1677625200000,METAR SBCF 282300Z 09010KT CAVOK 26/16 Q1020=,SBCF
1677542400000,METAR SBCT 280000Z 12009KT 9999 SCT009 BKN100 18/17 Q1025=,SBCT
1677546000000,METAR SBCT 280100Z 11005KT 9999 FEW009 SCT035 BKN100 17/16 Q1025=,SBCT
1677549600000,METAR SBCT 280200Z 10005KT 9999 FEW009 BKN100 17/16 Q1025=,SBCT
1677553200000,METAR SBCT 280300Z 12005KT 9999 FEW009 BKN100 16/15 Q1025=,SBCT
1677556800000,METAR SBCT 280400Z 13005KT 9999 FEW009 BKN100 16/15 Q1024=,SBCT
1677560400000,METAR SBCT 280500Z 00000KT 9999 FEW009 BKN100 16/16 Q1024=,SBCT
1677564000000,METAR SBCT 280600Z 11006KT 9999 FEW009 BKN100 17/16 Q1022=,SBCT
1677567600000,METAR SBCT 280700Z 33002KT 9999 SCT013 BKN100 17/16 Q1023=,SBCT
1677571200000,METAR SBCT 280800Z 13003KT 9999 SCT013 BKN100 17/16 Q1023=,SBCT
1677574800000,METAR SBCT 280900Z 11003KT 090V200 9999 SCT013 BKN100 17/16 Q1023=,SBCT
1677578400000,METAR SBCT 281000Z 11004KT 060V140 9000 SCT018 BKN100 17/16 Q1023=,SBCT
1677582000000,METAR SBCT 281100Z 12005KT 9999 BKN020 BKN100 18/17 Q1024=,SBCT
1677585600000,METAR SBCT 281200Z 12006KT 9999 SCT010 BKN017 BKN100 19/17 Q1024=,SBCT
1677589200000,METAR SBCT 281300Z 12005KT 9999 BKN012 OVC020 19/17 Q1025=,SBCT
1677592800000,METAR SBCT 281400Z 11006KT 9999 BKN012 OVC020 20/17 Q1024=,SBCT
1677596400000,METAR SBCT 281500Z 08006KT 9999 BKN014 BKN030 21/17 Q1024=,SBCT
1677600000000,METAR SBCT 281600Z 06006KT 9999 BKN014 BKN025 21/17 Q1024=,SBCT
1677600600000,SPECI SBCT 281610Z 08005KT 9999 BKN020 BKN030 22/17 Q1024=,SBCT
1677603600000,METAR SBCT 281700Z 08003KT 9999 BKN020 OVC030 22/17 Q1023=,SBCT
1677607200000,METAR SBCT 281800Z 08005KT 9999 BKN020 OVC030 22/17 Q1023=,SBCT
1677610800000,METAR SBCT 281900Z 12006KT 080V140 9999 BKN020 BKN040 23/17 Q1021=,SBCT
1677614400000,METAR SBCT 282000Z 13009KT 9999 FEW020 BKN040 21/17 Q1020=,SBCT
1677618000000,METAR SBCT 282100Z 11005KT 9999 FEW015 BKN050 20/17 Q1021=,SBCT
1677621600000,METAR SBCT 282200Z 09005KT 9999 FEW015 BKN100 19/17 Q1022=,SBCT
1677625200000,METAR SBCT 282300Z 12004KT 9999 SCT007 BKN100 19/17 Q1022=,SBCT
1677625500000,SPECI SBCT 282305Z 11004KT 080V140 9999 BKN007 BKN100 18/17 Q1022=,SBCT
1677542400000,METAR SBFL 280000Z 00000KT CAVOK 23/22 Q1021=,SBFL
1677546000000,METAR SBFL 280100Z 09004KT CAVOK 24/23 Q1021=,SBFL
1677549600000,METAR SBFL 280200Z 28003KT CAVOK 23/23 Q1021=,SBFL
1677553200000,METAR SBFL 280300Z 30003KT CAVOK 23/22 Q1021=,SBFL
1677556800000,METAR SBFL 280400Z 19002KT CAVOK 23/23 Q1020=,SBFL
1677560400000,METAR SBFL 280500Z 28005KT CAVOK 23/22 Q1020=,SBFL
1677564000000,METAR SBFL 280600Z 20007KT CAVOK 23/21 Q1019=,SBFL
1677567600000,METAR SBFL 280700Z 29002KT CAVOK 23/22 Q1018=,SBFL
1677571200000,METAR COR SBFL 280800Z 22004KT CAVOK 22/22 Q1019=,SBFL
1677574800000,METAR SBFL 280900Z 21004KT CAVOK 22/21 Q1019=,SBFL
1677578400000,METAR SBFL 281000Z 35004KT CAVOK 23/22 Q1020=,SBFL
1677582000000,METAR SBFL 281100Z 25002KT 9999 FEW040 BKN100 23/22 Q1020=,SBFL
1677585600000,METAR SBFL 281200Z 29003KT 9999 FEW035 BKN100 25/22 Q1020=,SBFL
1677589200000,METAR SBFL 281300Z 26004KT 9999 FEW035 BKN100 25/22 Q1021=,SBFL
1677592800000,METAR SBFL 281400Z 26002KT 9999 SCT030 27/23 Q1020=,SBFL
1677596400000,METAR SBFL 281500Z 09004KT 9999 SCT030 27/22 Q1020=,SBFL
1677600000000,METAR SBFL 281600Z 10005KT 9999 SCT030 28/21 Q1019=,SBFL
1677603600000,METAR SBFL 281700Z 08004KT 020V130 9999 SCT030 28/21 Q1019=,SBFL
1677607200000,METAR SBFL 281800Z 27008KT 9999 SCT025 FEW035TCU BKN080 28/23 Q1018=,SBFL
1677610800000,METAR SBFL 281900Z 09011KT 9999 SCT025 FEW030TCU BKN080 27/23 Q1018=,SBFL
1677614400000,METAR SBFL 282000Z 09011KT 9999 SCT020 FEW025TCU BKN070 27/23 Q1018=,SBFL
1677618000000,METAR SBFL 282100Z 09011KT 9999 SCT020 FEW025TCU 26/22 Q1017=,SBFL
1677621600000,METAR SBFL 282200Z 10008KT 9999 FEW020 FEW025TCU 25/23 Q1017=,SBFL
1677625200000,METAR SBFL 282300Z 09007KT 9999 FEW025 25/23 Q1018=,SBFL
1677542400000,METAR SBGL 280000Z 26006KT 9999 BKN045 28/22 Q1018=,SBGL
1677546000000,METAR SBGL 280100Z 35004KT CAVOK 27/24 Q1018=,SBGL
1677549600000,METAR SBGL 280200Z 03005KT CAVOK 26/24 Q1017=,SBGL
1677553200000,METAR SBGL 280300Z 10006KT 9999 FEW014 26/24 Q1017=,SBGL
1677556800000,METAR SBGL 280400Z 05003KT 9999 FEW015 26/23 Q1017=,SBGL
1677560400000,METAR SBGL 280500Z 26006KT 9999 SCT014 BKN021 26/23 Q1017=,SBGL
1677564000000,METAR SBGL 280600Z 27006KT 230V300 9999 FEW024 SCT035 BKN045 26/23 Q1016=,SBGL
1677567600000,METAR SBGL 280700Z 29003KT 9999 FEW016 BKN060 26/23 Q1016=,SBGL
1677571200000,METAR SBGL 280800Z 36005KT 330V030 9999 FEW009 SCT065 BKN100 26/24 Q1016=,SBGL
1677574800000,METAR SBGL 280900Z 32005KT 280V340 8000 FEW013 BKN019 26/24 Q1017=,SBGL
1677578400000,METAR SBGL 281000Z 34005KT 9999 FEW015 SCT060 27/24 Q1017=,SBGL
1677582000000,METAR SBGL 281100Z 36004KT 340V050 9999 SCT012 28/24 Q1018=,SBGL
1677585600000,METAR SBGL 281200Z 05005KT 350V080 9999 SCT016 29/24 Q1018=,SBGL
1677589200000,METAR SBGL 281300Z 01004KT 9999 FEW019 29/24 Q1018=,SBGL
1677592800000,METAR SBGL 281400Z 01003KT 9999 FEW019 31/24 Q1017=,SBGL
1677596400000,METAR SBGL 281500Z 13007KT CAVOK 32/24 Q1017=,SBGL
1677600000000,METAR SBGL 281600Z 12009KT CAVOK 32/24 Q1016=,SBGL
1677603600000,METAR COR SBGL 281700Z 13013KT 9999 FEW025 31/24 Q1015=,SBGL
1677607200000,METAR SBGL 281800Z 14013KT 9999 FEW025 31/24 Q1015=,SBGL
1677610800000,METAR SBGL 281900Z 13015KT 9999 FEW020 SCT030 28/24 Q1015=,SBGL
1677614400000,METAR SBGL 282000Z 13013KT 9999 FEW020 SCT030 28/24 Q1015=,SBGL
1677618000000,METAR SBGL 282100Z 14010KT 9999 FEW020 SCT030 28/24 Q1015=,SBGL
1677621600000,METAR SBGL 282200Z 15010KT 9999 FEW020 BKN040 27/23 Q1015=,SBGL
1677623400000,SPECI SBGL 282230Z 15010KT 8000 TS VCSH SCT020 FEW025CB BKN040 28/22 Q1016=,SBGL
1677625200000,METAR SBGL 282300Z 16008KT 8000 -TSRA SCT020 FEW025CB BKN040 27/23 Q1016=,SBGL
1677542400000,METAR SBGR 280000Z 17004KT 9999 BKN013 21/19 Q1023=,SBGR
1677546000000,METAR SBGR 280100Z 16005KT 9999 BKN013 BKN015 22/20 Q1023=,SBGR
1677549600000,METAR SBGR 280200Z 15004KT 9999 BKN011 BKN015 22/20 Q1023=,SBGR
1677553200000,METAR SBGR 280300Z 17005KT 9999 BKN011 BKN015 22/20 Q1023=,SBGR
1677556800000,METAR SBGR 280400Z 17003KT 9999 BKN011 BKN015 22/20 Q1022=,SBGR
1677560400000,METAR SBGR 280500Z 12004KT 9999 BKN011 22/20 Q1022=,SBGR
1677561720000,SPECI SBGR 280522Z 10003KT 9999 BKN015 BKN035 22/20 Q1021=,SBGR
1677564000000,METAR SBGR 280600Z 09004KT 9999 BKN013 22/20 Q1021=,SBGR
1677567600000,METAR SBGR 280700Z 13003KT 9999 BKN013 BKN035 21/20 Q1021=,SBGR
1677571200000,METAR SBGR 280800Z 14003KT 9999 BKN011 BKN015 21/20 Q1021=,SBGR
1677574800000,METAR SBGR 280900Z 12002KT 9000 BKN011 21/20 Q1022=,SBGR
1677578400000,METAR SBGR 281000Z 09003KT 9000 OVC011 22/20 Q1022=,SBGR
1677582000000,METAR SBGR 281100Z 18002KT 9000 OVC011 22/20 Q1023=,SBGR
1677585600000,METAR SBGR 281200Z 12003KT 9999 BKN011 OVC021 23/21 Q1023=,SBGR
1677589200000,METAR SBGR 281300Z 12004KT 9999 FEW013 BKN021 25/20 Q1023=,SBGR
1677592800000,METAR SBGR 281400Z 05004KT 9999 SCT023 26/21 Q1022=,SBGR
1677596400000,METAR SBGR 281500Z 16002KT 9999 SCT030 BKN045 27/20 Q1022=,SBGR
1677600000000,METAR SBGR 281600Z 21002KT 9999 SCT030 BKN045 28/20 Q1021=,SBGR
1677603600000,METAR SBGR 281700Z 18011G21KT 9999 -TSRA BKN020 FEW045CB 23/20 Q1021=,SBGR
1677605700000,SPECI SBGR 281735Z 21005KT 2500 TSRA BR FEW007 BKN020 FEW045CB 21/20 Q1021=,SBGR
1677607200000,METAR SBGR 281800Z 20004KT 2500 TSRA BR BKN006 BKN015 FEW045CB 21/21 Q1021=,SBGR
1677608400000,SPECI SBGR 281820Z 16010KT 9999 -TSRA SCT010 BKN015 FEW040CB 21/20 Q1021 RERA=,SBGR
1677610800000,METAR SBGR 281900Z 18004KT 9999 -TSRA BKN011 FEW040CB 21/20 Q1020 RERA=,SBGR
1677614400000,METAR SBGR 282000Z 19003KT 5000 -TSRA BR BKN011 FEW040CB 21/20 Q1022=,SBGR
1677618000000,METAR SBGR 282100Z 09006KT 5000 -TSRA BR SCT011 FEW040CB BKN083 20/20 Q1021=,SBGR
1677621600000,METAR SBGR 282200Z 06013KT 9999 -RA SCT010 BKN080 20/19 Q1021 RETS=,SBGR
1677625200000,METAR SBGR 282300Z 07009KT 9999 SCT010 BKN100 20/19 Q1020=,SBGR
1677542400000,METAR SBKP 280000Z 16015KT 9999 FEW005 FEW040TCU 23/20 Q1021=,SBKP
1677546000000,METAR SBKP 280100Z 15009KT CAVOK 23/19 Q1022=,SBKP
1677549600000,METAR SBKP 280200Z 13010KT 9999 FEW020 22/19 Q1021=,SBKP
1677553200000,METAR SBKP 280300Z 14010KT 9999 FEW020 22/19 Q1021=,SBKP
1677556800000,METAR SBKP 280400Z 12007KT 9999 FEW020 22/19 Q1021=,SBKP
1677560400000,METAR SBKP 280500Z 14009KT 9999 FEW020 22/19 Q1020=,SBKP
1677564000000,METAR SBKP 280600Z 14007KT CAVOK 21/19 Q1020=,SBKP
1677567600000,METAR SBKP 280700Z 14008KT CAVOK 22/19 Q1019=,SBKP
1677571200000,METAR SBKP 280800Z 12007KT CAVOK 21/19 Q1020=,SBKP
1677574800000,METAR SBKP 280900Z 15008KT 9999 FEW010 BKN050 22/19 Q1020=,SBKP
1677578400000,METAR SBKP 281000Z 14008KT 9000 NSC 22/20 Q1021=,SBKP
1677582000000,METAR SBKP 281100Z 11010KT 9000 NSC 23/20 Q1021=,SBKP
1677585600000,METAR SBKP 281200Z 12008KT 9999 BKN046 24/20 Q1022=,SBKP
1677589200000,METAR SBKP 281300Z 10008KT 9999 FEW046 26/20 Q1022=,SBKP
1677592800000,METAR SBKP 281400Z 12006KT 9999 FEW020 SCT050 26/21 Q1021=,SBKP
1677596400000,METAR SBKP 281500Z 12005KT 9999 BKN036 28/20 Q1021=,SBKP
1677600000000,METAR SBKP 281600Z 25006KT 210V310 9999 VCSH SCT036 FEW040TCU 28/20 Q1020=,SBKP
1677603600000,METAR SBKP 281700Z 24007KT 170V290 9999 VCSH VCTS SCT036 FEW045CB 30/20 Q1019=,SBKP
1677607200000,METAR SBKP 281800Z 11007KT 9999 VCSH VCTS SCT033 SCT040TCU FEW045CB 25/17 Q1019=,SBKP
1677609720000,SPECI SBKP 281842Z 22019G35KT 9000 -TSRA BKN030 SCT040CB 25/19 Q1019=,SBKP
1677610800000,METAR SBKP 281900Z 21021G32KT 9000 -TSRA BKN030 SCT040CB 23/18 Q1018=,SBKP
1677614400000,METAR SBKP 282000Z 12013KT 9999 TS SCT040 FEW050CB BKN100 20/19 Q1020=,SBKP
1677618000000,METAR SBKP 282100Z 11011KT 9999 -TSRA FEW040 FEW050CB BKN100 20/18 Q1019=,SBKP
1677621600000,METAR SBKP 282200Z 11007KT 9999 VCTS FEW040 FEW050CB BKN100 20/19 Q1019 RETS=,SBKP
1677625200000,METAR SBKP 282300Z 11012KT CAVOK 21/19 Q1018=,SBKP
1677542400000,METAR SBPA 280000Z 11010KT 080V140 CAVOK 25/22 Q1020=,SBPA
1677546000000,METAR SBPA 280100Z 10011KT CAVOK 24/21 Q1020=,SBPA
1677549600000,METAR SBPA 280200Z 10009KT CAVOK 24/21 Q1019=,SBPA
1677553200000,METAR SBPA 280300Z 10009KT CAVOK 23/21 Q1019=,SBPA
1677556800000,METAR SBPA 280400Z 09004KT CAVOK 22/20 Q1019=,SBPA
1677560400000,METAR SBPA 280500Z VRB02KT CAVOK 21/20 Q1018=,SBPA
1677564000000,METAR SBPA 280600Z VRB01KT CAVOK 21/20 Q1018=,SBPA
1677567600000,METAR SBPA 280700Z 07003KT CAVOK 20/20 Q1018=,SBPA
1677571200000,METAR SBPA 280800Z 08003KT CAVOK 20/19 Q1018=,SBPA
1677574800000,METAR SBPA 280900Z 08003KT CAVOK 19/19 Q1018=,SBPA
1677578400000,METAR SBPA 281000Z 07002KT 9000 BCFG NSC 20/19 Q1019=,SBPA
1677582000000,METAR SBPA 281100Z 08003KT 9000 NSC 23/20 Q1019=,SBPA
1677585600000,METAR SBPA 281200Z 01003KT CAVOK 23/19 Q1020=,SBPA
1677589200000,METAR SBPA 281300Z VRB02KT CAVOK 25/20 Q1020=,SBPA
1677592800000,METAR SBPA 281400Z 31003KT CAVOK 28/19 Q1019=,SBPA
1677596400000,METAR SBPA 281500Z 31004KT 250V060 CAVOK 30/15 Q1019=,SBPA
1677600000000,METAR SBPA 281600Z VRB02KT CAVOK 32/15 Q1018=,SBPA
1677603600000,METAR SBPA 281700Z 25003KT 170V300 CAVOK 32/15 Q1017=,SBPA
1677607200000,METAR SBPA 281800Z 07007KT 350V120 CAVOK 33/15 Q1016=,SBPA
1677610800000,METAR SBPA 281900Z 11007KT 080V150 CAVOK 32/13 Q1016=,SBPA
1677614400000,METAR SBPA 282000Z 10010KT CAVOK 31/15 Q1015=,SBPA
1677618000000,METAR SBPA 282100Z 11013KT CAVOK 30/22 Q1014=,SBPA
1677621600000,METAR SBPA 282200Z 10014KT CAVOK 28/21 Q1014=,SBPA
1677625200000,METAR SBPA 282300Z 10012KT 080V140 CAVOK 26/21 Q1015=,SBPA
1677542400000,METAR SBRF 280000Z 13008KT 9999 BKN020 28/23 Q1015=,SBRF
1677546000000,METAR SBRF 280100Z 13009KT 9999 BKN020 28/23 Q1016=,SBRF
1677549600000,METAR SBRF 280200Z 12006KT 9999 BKN020 28/22 Q1015=,SBRF
1677553200000,METAR SBRF 280300Z 10005KT 9999 BKN020 27/23 Q1015=,SBRF
1677556800000,METAR SBRF 280400Z 12007KT 080V150 9999 SCT020 27/22 Q1014=,SBRF
1677560400000,METAR SBRF 280500Z 11005KT 050V150 9999 SCT020 27/22 Q1014=,SBRF
1677564000000,METAR SBRF 280600Z 12006KT 9999 SCT020 27/22 Q1013=,SBRF
1677567600000,METAR SBRF 280700Z 13007KT 9999 SCT020 27/22 Q1014=,SBRF
1677571200000,METAR SBRF 280800Z 11006KT 070V140 9999 SCT023 27/22 Q1014=,SBRF
1677574800000,METAR SBRF 280900Z 12005KT 080V160 9999 SCT023 27/22 Q1015=,SBRF
1677578400000,METAR SBRF 281000Z 12007KT 9999 SCT023 28/22 Q1015=,SBRF
1677582000000,METAR SBRF 281100Z 10007KT 070V130 9999 BKN023 SCT060 29/22 Q1015=,SBRF
1677585600000,METAR SBRF 281200Z 11006KT 070V140 9999 VCSH SCT023 SCT060 28/23 Q1016=,SBRF
1677589200000,METAR SBRF 281300Z 11010KT 070V140 9999 SCT023 30/23 Q1016=,SBRF
1677592800000,METAR SBRF 281400Z 11008KT 070V140 9999 SCT023 30/24 Q1015=,SBRF
1677596400000,METAR SBRF 281500Z 13011KT 100V160 9999 SCT023 30/22 Q1015=,SBRF
1677600000000,METAR SBRF 281600Z 11010KT 060V140 9999 SCT023 30/23 Q1014=,SBRF
1677603600000,METAR SBRF 281700Z 12010KT 080V170 9999 SCT023 30/23 Q1014=,SBRF
1677607200000,METAR SBRF 281800Z 14010KT 100V170 9999 SCT023 30/23 Q1013=,SBRF
1677610800000,METAR SBRF 281900Z 15009KT 120V180 9999 SCT023 29/22 Q1014=,SBRF
1677614400000,METAR SBRF 282000Z 13008KT 100V160 9999 SCT023 29/22 Q1014=,SBRF
1677618000000,METAR SBRF 282100Z 14008KT 070V170 9999 SCT023 SCT060 28/22 Q1014=,SBRF
1677621600000,METAR SBRF 282200Z 14008KT 9999 FEW023 SCT060 28/22 Q1015=,SBRF
1677625200000,METAR SBRF 282300Z 12006KT 080V150 9999 SCT023 28/22 Q1015=,SBRF
1677542400000,METAR SBRJ 280000Z 17005KT 9999 FEW020 SCT060 27/23 Q1018=,SBRJ
1677546000000,METAR SBRJ 280100Z 12005KT 9999 FEW020 SCT060 27/24 Q1018=,SBRJ
1677549600000,METAR SBRJ 280200Z 08003KT 040V110 CAVOK 25/24 Q1017=,SBRJ
1677553200000,METAR SBRJ 280300Z 00000KT 9999 FEW045 26/24 Q1017=,SBRJ
1677556800000,METAR SBRJ 280400Z 00000KT 9999 FEW017 25/23 Q1016=,SBRJ
1677560400000,METAR SBRJ 280500Z 15004KT 9999 SCT019 26/24 Q1016=,SBRJ
1677564000000,METAR SBRJ 280600Z 14005KT 9999 SCT017 BKN040 25/24 Q1016=,SBRJ
1677567600000,METAR SBRJ 280700Z 14004KT 9999 FEW017 BKN040 26/24 Q1016=,SBRJ
1677571200000,METAR SBRJ 280800Z 09003KT 9999 FEW017 SCT050 26/24 Q1016=,SBRJ
1677574800000,METAR SBRJ 280900Z 02006KT 9999 SCT019 BKN060 26/24 Q1016=,SBRJ
1677578400000,METAR SBRJ 281000Z 03007KT 9000 FEW010 SCT017 BKN050 26/24 Q1017=,SBRJ
1677579600000,SPECI SBRJ 281020Z 01007KT 9000 BKN011 BKN025 BKN070 26/24 Q1017=,SBRJ
1677582000000,METAR SBRJ 281100Z 01007KT 9000 SCT011 SCT050 27/24 Q1017=,SBRJ
1677585600000,METAR SBRJ 281200Z 01007KT 9000 FEW015 28/25 Q1017=,SBRJ
1677589200000,METAR SBRJ 281300Z 02004KT 9000 FEW015 28/24 Q1017=,SBRJ
1677592800000,METAR SBRJ 281400Z 03003KT 9000 FEW018 29/24 Q1017=,SBRJ
1677593400000,SPECI SBRJ 281410Z 16006KT 9000 FEW018 30/25 Q1017=,SBRJ
1677596400000,METAR SBRJ 281500Z 18011KT 9000 FEW018 30/24 Q1017=,SBRJ
1677600000000,METAR SBRJ 281600Z 15011KT 9999 FEW020 29/25 Q1016=,SBRJ
1677603600000,METAR SBRJ 281700Z 16012KT 9999 FEW013 29/25 Q1015=,SBRJ
1677607200000,METAR SBRJ 281800Z 16014KT 9999 FEW013 SCT025 28/24 Q1015=,SBRJ
1677610800000,METAR SBRJ 281900Z 16014KT 9999 FEW018 FEW035TCU 28/25 Q1015=,SBRJ
1677614400000,METAR SBRJ 282000Z 16013KT 9999 SCT018 FEW035TCU 27/25 Q1014=,SBRJ
1677618000000,METAR SBRJ 282100Z 16013KT 9999 SCT018 FEW035TCU 27/25 Q1015=,SBRJ
1677621600000,METAR SBRJ 282200Z 17010KT 9999 SCT018 FEW035TCU BKN050 26/25 Q1015=,SBRJ
1677625200000,METAR SBRJ 282300Z 17012KT 9000 VCTS SCT018 FEW035CB BKN050 27/23 Q1016=,SBRJ
1677542400000,METAR SBSP 280000Z 18011KT 9999 SCT008 BKN009 21/19 Q1024=,SBSP
1677546000000,METAR SBSP 280100Z 19011KT 9999 SCT008 BKN009 22/19 Q1024=,SBSP
1677549600000,METAR SBSP 280200Z 17009KT 9999 SCT008 BKN009 21/19 Q1024=,SBSP
1677549660000,SPECI SBSP 280201Z 18010KT 9999 FEW008 BKN010 BKN033 21/19 Q1023=,SBSP
1677552300000,SPECI SBSP 280245Z AUTO 17009KT 9999 SCT008 BKN010 BKN014 21/19 Q1024=,SBSP
1677553200000,METAR SBSP 280300Z AUTO 17007KT 9999 FEW007 OVC010 21/19 Q1024=,SBSP
1677553500000,SPECI SBSP 280305Z AUTO 17008KT 9999 SCT008 BKN015 OVC018 21/19 Q1023=,SBSP
1677556800000,METAR SBSP 280400Z AUTO 18006KT 9999 SCT008 OVC029 21/19 Q1023=,SBSP
1677557100000,SPECI SBSP 280405Z AUTO 17008KT 9999 BKN008 OVC029 21/19 Q1023=,SBSP
1677557820000,SPECI SBSP 280417Z AUTO 17008KT 9999 SCT008 SCT023 OVC028 21/19 Q1023=,SBSP
1677559560000,SPECI SBSP 280446Z AUTO 16007KT 9999 SCT008 BKN010 BKN022 21/19 Q1022=,SBSP
1677559680000,SPECI SBSP 280448Z AUTO 16007KT 9999 BKN008 BKN022 21/19 Q1022=,SBSP
1677560220000,SPECI SBSP 280457Z AUTO 16006KT 9999 BKN009 BKN013 OVC022 21/19 Q1022=,SBSP
1677560400000,METAR SBSP 280500Z AUTO 16006KT 9999 BKN009 BKN013 OVC022 21/19 Q1022=,SBSP
1677560760000,SPECI SBSP 280506Z AUTO 17006KT 9999 BKN008 BKN011 OVC013 21/19 Q1022=,SBSP
1677561840000,SPECI SBSP 280524Z AUTO 16006KT 9999 SCT007 BKN010 OVC014 21/19 Q1022=,SBSP
1677562380000,SPECI SBSP 280533Z AUTO 16006KT 9999 SCT007 OVC009 21/19 Q1022=,SBSP
1677564000000,METAR SBSP 280600Z AUTO 16006KT 120V190 9999 SCT006 OVC009 21/19 Q1022=,SBSP
1677564120000,SPECI SBSP 280602Z AUTO 16007KT 6000 -DZ SCT005 BKN008 OVC013 21/19 Q1022=,SBSP
1677565260000,SPECI SBSP 280621Z AUTO 15005KT 6000 -RA BKN004 BKN006 OVC013 20/19 Q1022=,SBSP
1677567600000,METAR SBSP 280700Z AUTO 16005KT 9999 -RA OVC004 21/20 Q1022=,SBSP
1677568020000,SPECI SBSP 280707Z AUTO 17005KT 9999 OVC005 21/20 Q1021=,SBSP
1677571200000,METAR SBSP 280800Z AUTO 16005KT 130V190 9999 SCT006 BKN008 OVC013 21/19 Q1022=,SBSP
1677573120000,SPECI SBSP 280832Z AUTO 16006KT 9999 SCT006 OVC009 21/19 Q1022=,SBSP
1677574800000,METAR SBSP 280900Z 18006KT 9999 SCT007 OVC009 21/20 Q1023=,SBSP
1677578400000,METAR SBSP 281000Z 18005KT 8000 SCT004 OVC006 21/20 Q1023=,SBSP
1677582000000,METAR SBSP 281100Z 16007KT 9999 SCT008 OVC011 22/20 Q1024=,SBSP
1677585600000,METAR SBSP 281200Z 14005KT 9999 SCT008 OVC013 22/20 Q1024=,SBSP
1677589200000,METAR SBSP 281300Z 13006KT 9999 BKN017 24/19 Q1024=,SBSP
1677592800000,METAR SBSP 281400Z VRB04KT 9999 BKN021 26/19 Q1023=,SBSP
1677596400000,METAR SBSP 281500Z 20008KT 9999 SCT023 OVC030 25/20 Q1023=,SBSP
1677599160000,SPECI SBSP 281546Z 20012KT 9999 -TSRA SCT015 BKN023 FEW050CB 24/20 Q1023=,SBSP
1677600000000,METAR SBSP 281600Z 19013KT 9999 -TSRA SCT011 BKN023 FEW050CB 23/21 Q1023=,SBSP
1677600960000,SPECI SBSP 281616Z 20010KT 9999 SCT011 BKN023 23/21 Q1023 RETS=,SBSP
1677603600000,METAR SBSP 281700Z 19013KT 9999 VCTS BKN009 BKN013 FEW050CB 23/20 Q1022 RETS=,SBSP
1677607200000,METAR SBSP 281800Z 19010KT 160V220 9999 -TSRA SCT009 BKN013 FEW050CB 22/19 Q1022=,SBSP
1677610800000,METAR SBSP 281900Z 18014KT 150V210 6000 -TSRA BKN008 BKN033 FEW050CB OVC066 21/19 Q1021=,SBSP
1677612060000,SPECI SBSP 281921Z 19010KT 160V220 5000 RA BR SCT006 BKN046 FEW050TCU 21/19 Q1022 RETS=,SBSP
1677612840000,SPECI SBSP 281934Z 30013G24KT 2000 +TSRA BR BKN011 BKN043 FEW050CB 20/19 Q1024 RERA=,SBSP
1677614400000,METAR SBSP 282000Z 13011KT 100V160 6000 -TSRA SCT006 BKN013 FEW050CB OVC066 19/18 Q1022 RERA=,SBSP
1677616860000,SPECI COR SBSP 282041Z 12003KT 090V160 9999 FEW050TCU OVC100 20/18 Q1021 RETS=,SBSP
1677618000000,METAR SBSP 282100Z VRB05KT 9999 FEW050TCU OVC100 20/18 Q1022 RETS=,SBSP
1677621600000,METAR SBSP 282200Z 07006KT 030V110 9999 FEW046 OVC083 20/17 Q1022=,SBSP
1677625200000,METAR SBSP 282300Z 15006KT 080V180 9999 BKN009 20/18 Q1022=,SBSP
1677542400000,METAR SBSV 280000Z 09009KT 9999 FEW020 28/24 Q1016=,SBSV
1677546000000,METAR SBSV 280100Z 08009KT 9999 FEW020 28/24 Q1017=,SBSV
1677549600000,METAR SBSV 280200Z 10009KT 9999 FEW020 28/24 Q1016=,SBSV
1677553200000,METAR SBSV 280300Z 09009KT 9999 FEW020 28/24 Q1016=,SBSV
1677556800000,METAR SBSV 280400Z 08007KT 9999 FEW020 28/24 Q1015=,SBSV
1677560400000,METAR SBSV 280500Z 08007KT 9999 FEW020 28/24 Q1015=,SBSV
1677564000000,METAR COR SBSV 280600Z 09007KT 9999 FEW020 28/24 Q1015=,SBSV
1677567600000,METAR SBSV 280700Z 07006KT 9999 SCT020 27/24 Q1015=,SBSV
1677571200000,METAR SBSV 280800Z 31002KT 9999 SCT020 26/24 Q1015=,SBSV
1677574800000,METAR SBSV 280900Z 31002KT 9999 FEW020 FEW023TCU 26/24 Q1016=,SBSV
1677578400000,METAR SBSV 281000Z 02003KT 310V060 9999 SCT020 28/25 Q1016=,SBSV
1677582000000,METAR SBSV 281100Z 08008KT 9999 SCT021 29/24 Q1016=,SBSV
1677585600000,METAR SBSV 281200Z 10008KT 060V150 9999 BKN021 30/24 Q1016=,SBSV
1677589200000,METAR SBSV 281300Z 11008KT 040V160 9999 BKN021 30/25 Q1016=,SBSV
1677592800000,METAR SBSV 281400Z 10009KT 060V170 9999 BKN023 30/25 Q1016=,SBSV
1677596400000,METAR SBSV 281500Z 11009KT 080V170 9999 BKN023 31/24 Q1016=,SBSV
1677600000000,METAR SBSV 281600Z 10010KT 070V140 9999 BKN023 31/25 Q1015=,SBSV
1677603600000,METAR SBSV 281700Z 11011KT 070V140 9999 BKN023 31/25 Q1015=,SBSV
1677607200000,METAR SBSV 281800Z 10012KT 9999 SCT020 31/25 Q1014=,SBSV
1677610800000,METAR SBSV 281900Z 10011KT 9999 SCT020 30/24 Q1014=,SBSV
1677614400000,METAR SBSV 282000Z 09012KT 9999 SCT020 30/24 Q1014=,SBSV
1677618000000,METAR SBSV 282100Z 09012KT 9999 SCT020 29/24 Q1015=,SBSV
1677621600000,METAR SBSV 282200Z 08012KT 9999 SCT020 29/24 Q1015=,SBSV
1677625200000,METAR SBSV 282300Z 08012KT 9999 SCT020 29/24 Q1015=,SBSV
