hora,metar,aero
1663027200000,METAR SBBR 130000Z 08005KT CAVOK 26/06 Q1017=,SBBR
1663030800000,METAR SBBR 130100Z 14004KT 090V220 CAVOK 25/05 Q1017=,SBBR
1663034400000,METAR SBBR 130200Z VRB02KT CAVOK 24/06 Q1017=,SBBR
1663038000000,METAR SBBR 130300Z VRB02KT CAVOK 22/06 Q1017=,SBBR
1663041600000,METAR SBBR 130400Z 30003KT 260V340 CAVOK 19/07 Q1017=,SBBR
1663045200000,METAR SBBR 130500Z VRB02KT CAVOK 19/07 Q1016=,SBBR
1663048800000,METAR SBBR 130600Z 20005KT 180V240 CAVOK 17/08 Q1016=,SBBR
1663052400000,METAR SBBR 130700Z VRB02KT CAVOK 18/07 Q1016=,SBBR
1663056000000,METAR SBBR 130800Z VRB01KT CAVOK 18/07 Q1016=,SBBR
1663059600000,METAR SBBR 130900Z VRB01KT CAVOK 16/07 Q1017=,SBBR
1663063200000,METAR SBBR 131000Z 33001KT CAVOK 18/07 Q1018=,SBBR
1663066800000,METAR SBBR 131100Z 24001KT CAVOK 22/06 Q1019=,SBBR
1663070400000,METAR SBBR 131200Z 07005KT 050V130 CAVOK 26/03 Q1019=,SBBR
1663074000000,METAR SBBR 131300Z 06007KT 020V080 CAVOK 29/04 Q1019=,SBBR
1663077600000,METAR SBBR 131400Z 07008KT 020V120 CAVOK 30/04 Q1019=,SBBR
1663081200000,METAR SBBR 131500Z 05004KT CAVOK 32/04 Q1018=,SBBR
1663084800000,METAR SBBR 131600Z 07002KT CAVOK 33/03 Q1016=,SBBR
1663088400000,METAR SBBR 131700Z VRB07KT CAVOK 33/03 Q1015=,SBBR
1663092000000,METAR SBBR 131800Z VRB04KT CAVOK 34/03 Q1014=,SBBR
1663095600000,METAR SBBR 131900Z 07007KT CAVOK 33/03 Q1014=,SBBR
1663099200000,METAR SBBR 132000Z 12006KT CAVOK 32/04 Q1015=,SBBR
1663102800000,METAR SBBR 132100Z 08006KT CAVOK 31/03 Q1015=,SBBR
1663106400000,METAR SBBR 132200Z 10006KT CAVOK 29/04 Q1016=,SBBR
1663110000000,METAR SBBR 132300Z 08005KT CAVOK 28/05 Q1016=,SBBR
1663027200000,METAR SBCF 130000Z 10007KT CAVOK 22/14 Q1017=,SBCF
1663030800000,METAR SBCF 130100Z 10007KT CAVOK 21/14 Q1018=,SBCF
1663034400000,METAR SBCF 130200Z 11007KT CAVOK 21/14 Q1018=,SBCF
1663038000000,METAR SBCF 130300Z 13003KT 090V170 CAVOK 19/13 Q1017=,SBCF
1663041600000,METAR SBCF 130400Z 11006KT CAVOK 20/14 Q1016=,SBCF
1663045200000,METAR SBCF 130500Z 12006KT CAVOK 19/13 Q1016=,SBCF
1663048800000,METAR SBCF 130600Z 10009KT CAVOK 19/14 Q1016=,SBCF
1663052400000,METAR SBCF 130700Z 08006KT CAVOK 18/13 Q1016=,SBCF
1663056000000,METAR SBCF 130800Z 09006KT CAVOK 18/13 Q1016=,SBCF
1663059600000,METAR SBCF 130900Z 09008KT CAVOK 18/13 Q1017=,SBCF
1663063200000,METAR SBCF 131000Z 09007KT CAVOK 18/13 Q1017=,SBCF
1663066800000,METAR SBCF 131100Z 10006KT CAVOK 20/14 Q1018=,SBCF
1663070400000,METAR SBCF 131200Z 09007KT CAVOK 22/14 Q1019=,SBCF
1663074000000,METAR SBCF 131300Z 06007KT CAVOK 25/14 Q1019=,SBCF
1663077600000,METAR SBCF 131400Z 05005KT CAVOK 28/13 Q1018=,SBCF
1663081200000,METAR SBCF 131500Z 34007KT CAVOK 29/12 Q1017=,SBCF
1663084800000,METAR SBCF 131600Z 35005KT CAVOK 31/12 Q1016=,SBCF
1663088400000,METAR SBCF 131700Z 30008KT CAVOK 32/10 Q1015=,SBCF
1663092000000,METAR SBCF 131800Z 33008KT CAVOK 32/10 Q1014=,SBCF
1663095600000,METAR SBCF 131900Z 35007KT CAVOK 32/10 Q1014=,SBCF
1663099200000,METAR SBCF 132000Z 33006KT CAVOK 32/10 Q1014=,SBCF
1663102800000,METAR SBCF 132100Z 06007KT CAVOK 29/13 Q1014=,SBCF
1663106400000,METAR SBCF 132200Z 06007KT CAVOK 27/13 Q1015=,SBCF
1663110000000,METAR SBCF 132300Z 07006KT CAVOK 26/12 Q1016=,SBCF
1663027200000,METAR SBCT 130000Z 04005KT 6000 -RA BKN003 OVC100 13/13 Q1018 RERA=,SBCT
1663030800000,METAR SBCT 130100Z 03005KT 340V070 6000 -RA BKN003 OVC090 13/13 Q1018=,SBCT
1663034400000,METAR SBCT 130200Z 02004KT 340V060 6000 -RA BKN004 OVC070 13/13 Q1017=,SBCT
1663038000000,METAR SBCT 130300Z 03006KT 6000 -RA BKN005 BKN030 OVC070 13/13 Q1017=,SBCT
1663041600000,METAR SBCT 130400Z 01005KT 320V050 6000 -RA SCT002 BKN006 OVC030 14/14 Q1017=,SBCT
1663045200000,METAR SBCT 130500Z 02008KT 7000 -RA BKN004 OVC010 14/14 Q1016=,SBCT
1663048800000,METAR SBCT 130600Z 01008KT 7000 -RA BKN004 OVC010 14/14 Q1016=,SBCT
1663052400000,METAR SBCT 130700Z 01006KT 8000 -RA SCT007 BKN100 14/14 Q1015=,SBCT
1663056000000,METAR SBCT 130800Z VRB02KT 9000 BKN005 14/14 Q1014=,SBCT
1663059600000,METAR SBCT 130900Z 00000KT 7000 BKN008 13/13 Q1015=,SBCT
1663063200000,METAR SBCT 131000Z VRB02KT 4000 -RA BR BKN006 OVC030 13/13 Q1015=,SBCT
1663066800000,METAR SBCT 131100Z 31006KT 3000 BR OVC005 14/14 Q1016=,SBCT
1663070400000,METAR SBCT 131200Z 28004KT 6000 OVC005 15/15 Q1017=,SBCT
1663074000000,METAR SBCT 131300Z 29003KT 8000 BKN008 17/15 Q1016=,SBCT
1663077600000,METAR SBCT 131400Z 28004KT 9999 BKN013 19/16 Q1016=,SBCT
1663081200000,METAR SBCT 131500Z 26005KT 9999 BKN018 21/15 Q1016=,SBCT
1663084800000,METAR SBCT 131600Z 27007KT 9999 SCT025 23/16 Q1015=,SBCT
1663088400000,METAR SBCT 131700Z 28008KT 9999 FEW030 24/14 Q1014=,SBCT
1663092000000,METAR SBCT 131800Z 28009KT 9999 SCT040 SCT100 23/13 Q1014=,SBCT
1663095600000,METAR SBCT 131900Z 26005G15KT 9999 SCT045 23/14 Q1014=,SBCT
1663099200000,METAR SBCT 132000Z 23008KT 9999 SCT045 SCT100 21/12 Q1014=,SBCT
1663102800000,METAR SBCT 132100Z 24004KT 9999 SCT035 20/14 Q1015=,SBCT
1663106400000,METAR SBCT 132200Z 00000KT 9999 -RA SCT045 BKN100 18/16 Q1015=,SBCT
1663110000000,METAR SBCT 132300Z 08006KT 9999 -RA NSC 17/17 Q1015=,SBCT
1663027200000,METAR SBFL 130000Z 32005KT 6000 -RA BKN010 BKN018 OVC080 16/15 Q1014=,SBFL
1663030800000,METAR SBFL 130100Z 32007KT 8000 -RA FEW005 BKN010 OVC070 16/16 Q1014=,SBFL
1663034400000,METAR SBFL 130200Z 33006KT 8000 -RA FEW004 BKN012 OVC070 16/16 Q1014=,SBFL
1663038000000,METAR SBFL 130300Z 32007KT 6000 -RA FEW004 BKN012 OVC070 16/16 Q1013=,SBFL
1663041600000,METAR SBFL 130400Z 32008KT 8000 BKN010 OVC070 17/16 Q1013=,SBFL
1663045200000,METAR SBFL 130500Z 33008KT 5000 -DZ BKN010 OVC070 17/16 Q1013=,SBFL
1663048800000,METAR SBFL 130600Z 33002KT 6000 BKN010 OVC070 17/16 Q1012=,SBFL
1663052400000,METAR SBFL 130700Z 33008KT 9999 BKN012 BKN025 OVC070 17/16 Q1011=,SBFL
1663056000000,METAR SBFL 130800Z 36008KT 9999 SCT025 17/16 Q1011=,SBFL
1663059600000,METAR SBFL 130900Z 34007KT 9999 FEW025 17/16 Q1011=,SBFL
1663063200000,METAR SBFL 131000Z 34008KT CAVOK 17/16 Q1011=,SBFL
1663066800000,METAR SBFL 131100Z 31009KT CAVOK 18/17 Q1012=,SBFL
1663070400000,METAR SBFL 131200Z 34009KT CAVOK 20/17 Q1013=,SBFL
1663074000000,METAR SBFL 131300Z 35007KT CAVOK 21/17 Q1013=,SBFL
1663077600000,METAR SBFL 131400Z 27004KT 9999 FEW030 23/16 Q1013=,SBFL
1663081200000,METAR SBFL 131500Z 17011KT 9999 FEW030 23/16 Q1012=,SBFL
1663084800000,METAR SBFL 131600Z 14012KT 9999 FEW030 22/16 Q1012=,SBFL
1663088400000,METAR SBFL 131700Z 14013KT 9999 FEW030 22/15 Q1012=,SBFL
1663092000000,METAR SBFL 131800Z 14015KT 9999 FEW030 20/15 Q1011=,SBFL
1663095600000,METAR SBFL 131900Z 14014KT 9999 FEW030 19/15 Q1013=,SBFL
1663099200000,METAR SBFL 132000Z 14012KT 9999 SCT030 18/15 Q1013=,SBFL
1663102800000,METAR SBFL 132100Z 13008KT 9999 BKN030 18/15 Q1013=,SBFL
1663106400000,METAR SBFL 132200Z 13007KT 9999 BKN030 18/14 Q1014=,SBFL
1663110000000,METAR SBFL 132300Z 18005KT 9999 BKN030 18/15 Q1014=,SBFL
1663027200000,METAR SBGL 130000Z 10006KT 070V150 9999 OVC022 21/16 Q1018=,SBGL
1663030800000,METAR SBGL 130100Z 07010KT 9999 -TSRA SCT008 FEW030CB OVC060 19/17 Q1017=,SBGL
1663034400000,METAR SBGL 130200Z 07008KT 9999 -RA FEW009 SCT011 BKN065 19/17 Q1017 RETS=,SBGL
1663036020000,SPECI SBGL 130227Z 10008KT 8000 -RA FEW008 BKN010 OVC100 19/17 Q1016=,SBGL
1663038000000,METAR SBGL 130300Z 07006KT 030V120 9999 -RA SCT008 OVC100 19/17 Q1016=,SBGL
1663041600000,METAR SBGL 130400Z 08008KT 9999 SCT009 OVC100 19/17 Q1015=,SBGL
1663045200000,METAR SBGL 130500Z 15003KT 110V190 8000 -RA FEW010 SCT070 OVC100 19/17 Q1013=,SBGL
1663048800000,METAR SBGL 130600Z 15003KT 9999 -RA FEW009 BKN011 BKN100 18/17 Q1013=,SBGL
1663052400000,METAR SBGL 130700Z 15003KT 100V180 9999 SCT007 BKN100 18/17 Q1013=,SBGL
1663056000000,METAR SBGL 130800Z 19003KT 9999 FEW015 BKN100 18/17 Q1013=,SBGL
1663059600000,METAR SBGL 130900Z VRB01KT 9999 FEW008 SCT100 18/17 Q1013=,SBGL
1663061520000,SPECI SBGL 130932Z 20005KT 9999 BKN010 19/18 Q1014=,SBGL
1663063200000,METAR SBGL 131000Z 15003KT 120V220 9999 FEW010 20/18 Q1014=,SBGL
1663066800000,METAR SBGL 131100Z 03003KT 9999 SCT010 20/18 Q1014=,SBGL
1663070400000,METAR SBGL 131200Z VRB03KT 9999 SCT012 21/18 Q1014=,SBGL
1663074000000,METAR SBGL 131300Z 24007KT 9999 SCT014 BKN100 24/18 Q1015=,SBGL
1663077600000,METAR SBGL 131400Z 25007KT 9999 FEW016 SCT100 27/19 Q1014=,SBGL
1663081200000,METAR SBGL 131500Z 07008KT 9999 FEW016 SCT100 26/18 Q1013=,SBGL
1663084800000,METAR SBGL 131600Z 11009KT 9999 FEW016 SCT100 27/18 Q1012=,SBGL
1663088400000,METAR SBGL 131700Z 04007KT 9999 FEW018 SCT100 26/18 Q1011=,SBGL
1663092000000,METAR SBGL 131800Z 04008KT 9999 FEW020 SCT100 27/18 Q1009=,SBGL
1663095600000,METAR SBGL 131900Z 07006KT 9999 FEW020 BKN100 26/19 Q1009=,SBGL
1663099200000,METAR SBGL 132000Z 12004KT 9999 FEW020 BKN100 26/20 Q1009=,SBGL
1663102800000,METAR SBGL 132100Z 16005KT 9999 FEW018 BKN100 26/19 Q1009=,SBGL
1663106400000,METAR SBGL 132200Z 03002KT 9999 FEW018 BKN100 25/20 Q1010=,SBGL
1663110000000,METAR SBGL 132300Z 16002KT 9999 FEW018 BKN100 24/20 Q1011=,SBGL
1663027200000,METAR SBGR 130000Z 07010KT 9999 -RA FEW008 BKN100 15/15 Q1018=,SBGR
1663030800000,METAR SBGR 130100Z 08011KT 9999 BKN013 15/15 Q1017=,SBGR
1663034400000,METAR SBGR 130200Z 07008KT 9999 BKN013 BKN100 15/15 Q1017=,SBGR
1663038000000,METAR SBGR 130300Z 08011KT 9999 BKN008 15/15 Q1016=,SBGR
1663041600000,METAR SBGR 130400Z 07012KT 9999 BKN007 16/15 Q1015=,SBGR
1663045200000,METAR SBGR 130500Z 07009KT 9999 BKN009 16/15 Q1015=,SBGR
1663048800000,METAR SBGR 130600Z 06013KT 9999 BKN008 16/15 Q1014=,SBGR
1663052400000,METAR SBGR 130700Z 07011KT 9999 BKN009 16/15 Q1015=,SBGR
1663056000000,METAR SBGR 130800Z 06008KT 9999 BKN009 16/15 Q1015=,SBGR
1663059600000,METAR SBGR 130900Z 09005KT 7000 BKN009 16/15 Q1016=,SBGR
1663063200000,METAR SBGR 131000Z 12003KT 6000 -RA OVC009 16/15 Q1018=,SBGR
1663066800000,METAR SBGR 131100Z 06009KT 8000 -RA OVC009 16/15 Q1017=,SBGR
1663070400000,METAR SBGR 131200Z 04011KT 9000 SCT009 SCT100 17/15 Q1018=,SBGR
1663074000000,METAR SBGR 131300Z 06012KT 9000 SCT009 OVC066 18/15 Q1018=,SBGR
1663074120000,SPECI SBGR 131302Z 04009KT 7000 -TSRA SCT009 FEW060CB BKN066 17/16 Q1018=,SBGR
1663075980000,SPECI SBGR 131333Z 07009KT 9000 FEW010 OVC100 18/17 Q1017 RETS=,SBGR
1663077600000,METAR SBGR 131400Z 05008KT 9000 NSC 19/16 Q1017 RETS=,SBGR
1663081200000,METAR SBGR 131500Z 10007KT CAVOK 21/18 Q1015=,SBGR
1663084800000,METAR SBGR 131600Z 02010KT CAVOK 23/17 Q1015=,SBGR
1663088400000,METAR SBGR 131700Z 02007KT CAVOK 24/17 Q1014=,SBGR
1663092000000,METAR SBGR 131800Z 36003KT CAVOK 25/16 Q1013=,SBGR
1663095600000,METAR SBGR 131900Z 29004KT CAVOK 25/15 Q1014=,SBGR
1663099200000,METAR SBGR 132000Z 23002KT CAVOK 24/16 Q1014=,SBGR
1663102800000,METAR SBGR 132100Z 33003KT 8000 -RA NSC 23/17 Q1014=,SBGR
1663106400000,METAR SBGR 132200Z 07003KT CAVOK 20/17 Q1015=,SBGR
1663110000000,METAR SBGR 132300Z 08005KT CAVOK 19/17 Q1015=,SBGR
1663027200000,METAR SBKP 130000Z 12019KT CAVOK 18/14 Q1014=,SBKP
1663030800000,METAR SBKP 130100Z 11015KT CAVOK 18/14 Q1015=,SBKP
1663034400000,METAR SBKP 130200Z 12013KT CAVOK 18/14 Q1014=,SBKP
1663038000000,METAR SBKP 130300Z 11011KT CAVOK 18/14 Q1014=,SBKP
1663041600000,METAR SBKP 130400Z 12009KT CAVOK 18/14 Q1013=,SBKP
1663045200000,METAR SBKP 130500Z 12013KT CAVOK 17/14 Q1012=,SBKP
1663048800000,METAR SBKP 130600Z 11009KT CAVOK 18/14 Q1013=,SBKP
1663052400000,METAR SBKP 130700Z 13008KT CAVOK 18/14 Q1013=,SBKP
1663056000000,METAR SBKP 130800Z 15009KT CAVOK 18/14 Q1014=,SBKP
1663059600000,METAR SBKP 130900Z 19006KT CAVOK 18/15 Q1014=,SBKP
1663062120000,SPECI SBKP 130942Z 15007KT 5000 -TSRA BR SCT020 FEW050CB BKN100 18/15 Q1015=,SBKP
1663063200000,METAR SBKP 131000Z 09004KT 7000 -TSRA SCT040 FEW050CB BKN100 17/15 Q1015=,SBKP
1663066800000,METAR SBKP 131100Z 12010KT 8000 -RA SCT048 OVC100 17/16 Q1015 RETS=,SBKP
1663070400000,METAR SBKP 131200Z 12008KT 9999 SCT048 BKN100 18/16 Q1016=,SBKP
1663072440000,SPECI SBKP 131234Z 20015KT 5000 -TSRA BR SCT013 SCT048 FEW050CB BKN100 19/16 Q1018=,SBKP
1663074000000,METAR SBKP 131300Z 16007KT 3000 -TSRA BR SCT013 SCT048 FEW050CB 18/16 Q1018=,SBKP
1663076700000,SPECI SBKP 131345Z 09005KT 6000 SCT048 19/18 Q1015 RETS=,SBKP
1663077600000,METAR SBKP 131400Z 10004KT 8000 SCT048 20/18 Q1016 RETS=,SBKP
1663081200000,METAR SBKP 131500Z 04007KT 020V080 7000 FEW045 SCT100 23/18 Q1015=,SBKP
1663084800000,METAR SBKP 131600Z 02008KT 350V050 7000 FEW045 SCT100 23/18 Q1014=,SBKP
1663088400000,METAR SBKP 131700Z 04008KT 6000 FEW045 SCT080 24/17 Q1013=,SBKP
1663092000000,METAR SBKP 131800Z 02006KT 330V040 6000 FEW045 SCT100 25/16 Q1013=,SBKP
1663095600000,METAR SBKP 131900Z 03003KT 7000 SCT045 BKN100 24/16 Q1013=,SBKP
1663099200000,METAR SBKP 132000Z 22002KT 8000 SCT040 OVC100 24/15 Q1013=,SBKP
1663102800000,METAR SBKP 132100Z 14003KT 6000 NSC 23/17 Q1013=,SBKP
1663106400000,METAR SBKP 132200Z 11005KT 9000 NSC 23/17 Q1014=,SBKP
1663110000000,METAR SBKP 132300Z 13004KT CAVOK 21/17 Q1014=,SBKP
1663027200000,METAR SBPA 130000Z VRB02KT 9000 FEW010 BKN040 BKN070 18/14 Q1012=,SBPA
1663030800000,METAR SBPA 130100Z 00000KT 9000 FEW010 SCT040 BKN070 16/14 Q1012=,SBPA
1663034400000,METAR SBPA 130200Z 25002KT 9000 BKN036 BKN047 17/15 Q1013=,SBPA
1663038000000,METAR SBPA 130300Z 24004KT 9999 BKN036 BKN047 17/16 Q1013=,SBPA
1663041600000,METAR SBPA 130400Z 26003KT 230V300 9999 SCT033 BKN050 17/15 Q1013=,SBPA
1663045200000,METAR SBPA 130500Z 24004KT 9999 BKN033 17/15 Q1012=,SBPA
1663048800000,METAR SBPA 130600Z 21003KT 9999 BKN033 16/14 Q1012=,SBPA
1663052400000,METAR SBPA 130700Z 24004KT 9999 BKN030 16/13 Q1012=,SBPA
1663056000000,METAR SBPA 130800Z 24002KT 9999 BKN033 16/14 Q1012=,SBPA
1663059600000,METAR SBPA 130900Z 24003KT 9999 BKN033 BKN055 16/14 Q1013=,SBPA
1663063200000,METAR SBPA 131000Z 28004KT CAVOK 15/14 Q1013=,SBPA
1663064760000,SPECI SBPA 131026Z 26006KT 9999 BKN009 SCT030 BKN050 16/15 Q1014=,SBPA
1663066800000,METAR SBPA 131100Z 28006KT 9000 BKN010 BKN028 16/15 Q1014=,SBPA
1663070400000,METAR SBPA 131200Z 28007KT 250V310 9999 VCSH BKN005 BKN013 BKN026 16/15 Q1015=,SBPA
1663074000000,METAR SBPA 131300Z 28008KT 250V320 9999 BKN008 BKN026 17/15 Q1015=,SBPA
1663076340000,SPECI SBPA 131339Z 26008KT 230V290 9999 BKN010 SCT015 18/15 Q1015=,SBPA
1663077600000,METAR SBPA 131400Z 26006KT 220V320 9999 FEW010 BKN016 19/14 Q1015=,SBPA
1663081200000,METAR SBPA 131500Z 26006KT 180V310 9999 FEW015 BKN019 20/15 Q1015=,SBPA
1663084800000,METAR SBPA 131600Z 30010KT 260V340 9999 FEW020 SCT025 21/15 Q1014=,SBPA
1663088400000,METAR SBPA 131700Z 29011KT 270V330 9999 SCT030 22/14 Q1014=,SBPA
1663092000000,METAR SBPA 131800Z 27009KT 220V320 9999 SCT045 22/12 Q1013=,SBPA
1663095600000,METAR SBPA 131900Z 22006KT 180V290 9999 BKN045 22/13 Q1013=,SBPA
1663099200000,METAR SBPA 132000Z 16007KT 130V210 9999 SCT035 21/14 Q1014=,SBPA
1663102800000,METAR SBPA 132100Z 16006KT 130V200 9999 FEW035 18/14 Q1014=,SBPA
1663106400000,METAR SBPA 132200Z 16004KT 130V210 9999 FEW030 BKN070 17/14 Q1015=,SBPA
1663110000000,METAR SBPA 132300Z 16004KT 060V210 9999 BKN049 17/14 Q1016=,SBPA
1663027200000,METAR SBRF 130000Z 15009KT 9999 SCT023 25/19 Q1015=,SBRF
1663030800000,METAR SBRF 130100Z 14009KT 9999 SCT022 25/20 Q1015=,SBRF
1663034400000,METAR SBRF 130200Z 15010KT 9999 SCT024 25/19 Q1015=,SBRF
1663038000000,METAR SBRF 130300Z 14009KT 110V170 9999 SCT024 25/19 Q1014=,SBRF
1663041600000,METAR SBRF 130400Z 14008KT 9999 SCT025 25/19 Q1013=,SBRF
1663045200000,METAR SBRF 130500Z 15007KT 9999 SCT025 24/20 Q1013=,SBRF
1663048800000,METAR SBRF 130600Z 15009KT 9999 SCT025 24/20 Q1013=,SBRF
1663052400000,METAR SBRF 130700Z 21005KT 150V250 9999 SCT025 24/20 Q1013=,SBRF
1663056000000,METAR SBRF 130800Z 20005KT 9999 SCT025 23/20 Q1013=,SBRF
1663059600000,METAR SBRF 130900Z 20006KT 9999 SCT024 SCT050 24/20 Q1014=,SBRF
1663063200000,METAR SBRF 131000Z 20005KT 9999 SCT024 BKN050 25/21 Q1014=,SBRF
1663066800000,METAR SBRF 131100Z 16011KT 9999 SCT020 SCT070 27/21 Q1015=,SBRF
1663070400000,METAR SBRF 131200Z 16012KT 9999 SCT020 SCT070 27/21 Q1016=,SBRF
1663074000000,METAR SBRF 131300Z 15012KT 9999 SCT020 SCT070 27/21 Q1016=,SBRF
1663077600000,METAR SBRF 131400Z 14015KT 9999 SCT020 28/21 Q1015=,SBRF
1663081200000,METAR SBRF 131500Z 15012KT 9999 SCT021 28/21 Q1015=,SBRF
1663084800000,METAR SBRF 131600Z 17012KT 9999 SCT021 27/21 Q1014=,SBRF
1663088400000,METAR SBRF 131700Z 15011KT 9999 SCT021 27/21 Q1014=,SBRF
1663092000000,METAR SBRF 131800Z 16013KT 9999 SCT022 27/21 Q1013=,SBRF
1663095600000,METAR SBRF 131900Z 16011KT 9999 SCT020 27/21 Q1013=,SBRF
1663099200000,METAR SBRF 132000Z 15010KT 9999 SCT020 26/21 Q1013=,SBRF
1663102800000,METAR SBRF 132100Z 15010KT 9999 SCT020 26/21 Q1014=,SBRF
1663106400000,METAR SBRF 132200Z 15009KT 9999 FEW020 25/21 Q1014=,SBRF
1663110000000,METAR SBRF 132300Z 15010KT 9999 FEW020 26/21 Q1015=,SBRF
1663027200000,METAR SBRJ 130000Z 09004KT 010V160 9000 SCT012 OVC021 21/17 Q1018=,SBRJ
1663028400000,SPECI SBRJ 130020Z 08007KT 050V120 6000 -RA BKN012 OVC018 20/18 Q1018=,SBRJ
1663030800000,METAR SBRJ 130100Z 30013KT 6000 -RA BKN012 BKN018 OVC060 20/18 Q1016=,SBRJ
1663034400000,METAR SBRJ 130200Z 03009KT 7000 -TSRA BKN011 FEW030CB OVC040 19/18 Q1016=,SBRJ
1663038000000,METAR SBRJ 130300Z 08005KT 040V130 8000 -RA SCT009 BKN013 OVC100 19/18 Q1015 RETS=,SBRJ
1663040280000,SPECI SBRJ 130338Z 01005KT 320V040 9999 FEW009 SCT013 OVC100 19/18 Q1014=,SBRJ
1663041600000,METAR SBRJ 130400Z 03007KT 9000 -RA SCT010 OVC100 19/18 Q1014=,SBRJ
1663044300000,SPECI SBRJ 130445Z 28004KT 8000 -RA BKN011 OVC100 19/18 Q1014=,SBRJ
1663045200000,METAR SBRJ 130500Z 32003KT 260V020 5000 RA BR FEW009 BKN011 OVC100 19/18 Q1014=,SBRJ
1663047000000,SPECI SBRJ 130530Z VRB01KT 7000 -RA FEW009 SCT013 OVC100 19/18 Q1013 RERA=,SBRJ
1663048800000,METAR SBRJ 130600Z VRB02KT 9000 -RA FEW009 SCT013 OVC100 19/18 Q1013 RERA=,SBRJ
1663052400000,METAR SBRJ 130700Z 03003KT 350V070 9999 SCT015 BKN100 19/18 Q1012=,SBRJ
1663056000000,METAR SBRJ 130800Z 30003KT 260V350 9999 FEW010 BKN100 19/18 Q1013=,SBRJ
1663059600000,METAR SBRJ 130900Z 18002KT 9999 FEW015 SCT100 19/18 Q1013=,SBRJ
1663063200000,METAR SBRJ 131000Z 17003KT 9999 FEW015 SCT100 20/18 Q1013=,SBRJ
1663066800000,METAR SBRJ 131100Z 10001KT 9999 FEW015 BKN100 21/18 Q1013=,SBRJ
1663070400000,METAR SBRJ 131200Z 07002KT 9999 FEW012 22/19 Q1014=,SBRJ
1663074000000,METAR SBRJ 131300Z 12005KT 9999 FEW040 22/19 Q1014=,SBRJ
1663077600000,METAR SBRJ 131400Z 19015KT 9999 FEW012 24/19 Q1015=,SBRJ
1663081200000,METAR SBRJ 131500Z 15010KT 9999 FEW015 23/20 Q1013=,SBRJ
1663084800000,METAR SBRJ 131600Z 16006KT CAVOK 22/19 Q1012=,SBRJ
1663088400000,METAR SBRJ 131700Z 30003KT CAVOK 26/19 Q1010=,SBRJ
1663092000000,METAR SBRJ 131800Z 32009KT 9999 FEW030 BKN100 26/19 Q1009=,SBRJ
1663095600000,METAR SBRJ 131900Z 30008KT 9999 SCT030 BKN100 26/19 Q1008=,SBRJ
1663099200000,METAR SBRJ 132000Z 30005KT 9999 SCT040 BKN100 26/20 Q1008=,SBRJ
1663102800000,METAR SBRJ 132100Z 12006KT 9999 SCT040 BKN100 24/21 Q1009=,SBRJ
1663106400000,METAR SBRJ 132200Z 16008KT 9999 SCT020 FEW035TCU BKN100 24/21 Q1009=,SBRJ
1663110000000,METAR SBRJ 132300Z 17006KT 9999 SCT020 BKN100 24/21 Q1010=,SBRJ
1663027200000,METAR SBSP 130000Z VRB05KT 8000 -RA FEW011 BKN100 16/14 Q1019=,SBSP
1663030800000,METAR SBSP 130100Z 09007KT 040V120 9999 FEW013 BKN100 16/14 Q1018=,SBSP
1663034400000,METAR SBSP 130200Z 09010KT 9999 SCT008 SCT009 16/14 Q1017=,SBSP
1663034400000,SPECI SBSP 130200Z 08011KT 050V110 3700 BR BKN008 16/14 Q1017=,SBSP
1663034640000,SPECI SBSP 130204Z AUTO 08010KT 050V130 3700 BR SCT008 16/14 Q1017=,SBSP
1663035060000,SPECI SBSP 130211Z AUTO 08007KT 040V130 3700 BR FEW007 BKN009 16/14 Q1017=,SBSP
1663035780000,SPECI SBSP 130223Z AUTO 10005KT 030V150 3700 BR SCT007 16/14 Q1017=,SBSP
1663036680000,SPECI SBSP 130238Z AUTO 11007KT 070V130 3500 BR BKN008 16/14 Q1017=,SBSP
1663038000000,METAR SBSP 130300Z AUTO 09006KT 060V130 3500 BR SCT007 16/14 Q1017=,SBSP
1663038600000,SPECI SBSP 130310Z AUTO 09007KT 040V130 3500 BR FEW006 BKN008 16/14 Q1016=,SBSP
1663041600000,METAR SBSP 130400Z AUTO 10007KT 050V130 3200 BR SCT005 BKN007 16/15 Q1016=,SBSP
1663045200000,METAR SBSP 130500Z AUTO 09007KT 050V140 3300 BR OVC006 16/15 Q1015=,SBSP
1663048800000,METAR SBSP 130600Z AUTO 08006KT 030V120 3600 BR OVC007 16/14 Q1015=,SBSP
1663052400000,METAR SBSP 130700Z AUTO 09007KT 050V130 3700 BR SCT007 BKN009 16/14 Q1015=,SBSP
1663056000000,METAR SBSP 130800Z AUTO 16003KT 110V190 4100 BR OVC007 16/14 Q1016=,SBSP
1663059600000,METAR SBSP 130900Z 16002KT 9999 SCT007 OVC008 16/14 Q1017=,SBSP
1663063200000,METAR COR SBSP 131000Z 15006KT 9000 FEW006 SCT014 BKN100 16/15 Q1018=,SBSP
1663066800000,METAR SBSP 131100Z VRB02KT 9000 SCT008 SCT014 BKN100 16/15 Q1018=,SBSP
1663070400000,METAR SBSP 131200Z 05007KT 9000 FEW007 SCT008 BKN100 17/15 Q1018=,SBSP
1663074000000,METAR SBSP 131300Z 02008KT 350V050 9000 NSC 18/15 Q1018=,SBSP
1663077600000,METAR SBSP 131400Z 03009KT CAVOK 19/16 Q1017=,SBSP
1663081200000,METAR SBSP 131500Z 03007KT CAVOK 22/17 Q1016=,SBSP
1663084800000,METAR SBSP 131600Z 01006KT CAVOK 23/16 Q1015=,SBSP
1663088400000,METAR SBSP 131700Z 34007KT CAVOK 25/16 Q1014=,SBSP
1663092000000,METAR SBSP 131800Z 31009KT CAVOK 25/15 Q1014=,SBSP
1663095600000,METAR SBSP 131900Z 32004KT 270V350 9999 FEW046 25/16 Q1014=,SBSP
1663099200000,METAR COR SBSP 132000Z 31004KT 270V340 9999 -RA FEW050TCU OVC100 24/16 Q1015=,SBSP
1663102800000,METAR SBSP 132100Z VRB02KT 9999 -RA FEW046 BKN100 23/16 Q1015=,SBSP
1663106400000,METAR SBSP 132200Z 05001KT 9999 FEW046 22/17 Q1015=,SBSP
1663110000000,METAR SBSP 132300Z 14002KT CAVOK 22/17 Q1016=,SBSP
1663027200000,METAR SBSV 130000Z 09010KT 9999 SCT023 24/19 Q1016=,SBSV
1663030800000,METAR SBSV 130100Z 11009KT 9999 SCT023 25/21 Q1016=,SBSV
1663034400000,METAR SBSV 130200Z 12009KT 9999 SCT023 25/20 Q1016=,SBSV
1663038000000,METAR SBSV 130300Z 11009KT 9999 SCT023 25/20 Q1016=,SBSV
1663041600000,METAR SBSV 130400Z 11010KT 9999 SCT023 25/20 Q1015=,SBSV
1663045200000,METAR SBSV 130500Z 08010KT 9999 SCT023 23/21 Q1015=,SBSV
1663048800000,METAR SBSV 130600Z 11013KT 9999 SCT023 24/22 Q1015=,SBSV
1663052400000,METAR SBSV 130700Z 10008KT 9999 SCT023 24/20 Q1015=,SBSV
1663056000000,METAR SBSV 130800Z 11009KT 9999 SCT023 24/20 Q1015=,SBSV
1663059600000,METAR SBSV 130900Z 09012KT 9999 BKN023 24/21 Q1015=,SBSV
1663063200000,METAR SBSV 131000Z 10011KT 9999 BKN023 25/20 Q1016=,SBSV
1663066800000,METAR SBSV 131100Z 11011KT 9999 SCT023 BKN050 25/20 Q1017=,SBSV
1663070400000,METAR SBSV 131200Z 12011KT 9999 SCT025 BKN050 26/20 Q1018=,SBSV
1663074000000,METAR SBSV 131300Z 11011KT 9999 SCT025 27/20 Q1018=,SBSV
1663077600000,METAR SBSV 131400Z 11010KT 9999 SCT025 27/19 Q1017=,SBSV
1663081200000,METAR SBSV 131500Z 13010KT 9999 SCT025 BKN050 28/18 Q1017=,SBSV
1663084800000,METAR SBSV 131600Z 12010KT 9999 SCT025 BKN050 27/19 Q1016=,SBSV
1663088400000,METAR SBSV 131700Z 12010KT 9999 SCT025 BKN050 27/19 Q1015=,SBSV
1663092000000,METAR SBSV 131800Z 10009KT 070V170 9999 SCT025 BKN050 27/19 Q1015=,SBSV
1663095600000,METAR SBSV 131900Z 10009KT 9999 SCT025 SCT050 26/19 Q1014=,SBSV
1663099200000,METAR SBSV 132000Z 10009KT 9999 SCT025 SCT050 26/19 Q1015=,SBSV
1663102800000,METAR SBSV 132100Z 09007KT 9999 SCT025 25/18 Q1015=,SBSV
1663106400000,METAR SBSV 132200Z 08005KT 9999 FEW025 24/18 Q1015=,SBSV
1663110000000,METAR SBSV 132300Z 06003KT 9999 FEW025 24/18 Q1016=,SBSV
