hora,metar,aero
1673136000000,METAR SBBR 080000Z 01005KT 9999 SCT015 SCT080 21/18 Q1019=,SBBR
1673139600000,METAR SBBR 080100Z 36005KT 9999 SCT010 SCT100 21/19 Q1020=,SBBR
1673143200000,METAR SBBR 080200Z 34006KT 9999 BKN010 BKN100 20/18 Q1020=,SBBR
1673146800000,METAR SBBR 080300Z 23005KT 9999 BKN012 BKN090 20/18 Q1020=,SBBR
1673149200000,SPECI SBBR 080340Z 32004KT 9999 SCT012 BKN080 20/18 Q1019=,SBBR
1673150400000,METAR SBBR 080400Z VRB02KT 9999 SCT012 BKN090 20/18 Q1019=,SBBR
1673154000000,METAR SBBR 080500Z 35005KT 310V010 9999 SCT012 SCT040 BKN090 20/17 Q1018=,SBBR
1673157600000,METAR SBBR 080600Z 32004KT 9999 FEW040 BKN100 19/18 Q1018=,SBBR
1673161200000,METAR SBBR 080700Z 27002KT 9999 FEW040 BKN100 19/17 Q1017=,SBBR
1673164800000,METAR SBBR 080800Z 02002KT 9999 FEW040 BKN100 19/17 Q1018=,SBBR
1673168400000,METAR SBBR 080900Z 33002KT 9999 FEW040 BKN100 19/17 Q1018=,SBBR
1673172000000,METAR SBBR 081000Z 01002KT 9999 FEW030 BKN100 20/17 Q1019=,SBBR
1673175600000,METAR SBBR 081100Z 01003KT 9999 FEW017 BKN100 21/17 Q1020=,SBBR
1673179200000,METAR SBBR 081200Z 34005KT 9999 BKN017 BKN100 22/17 Q1021=,SBBR
1673182800000,METAR SBBR 081300Z 35007KT 9999 BKN030 BKN100 23/17 Q1021=,SBBR
1673186400000,METAR SBBR 081400Z 31008KT 9999 BKN020 BKN100 24/17 Q1021=,SBBR
1673190000000,METAR SBBR 081500Z 31007KT 9999 VCSH BKN030 FEW040TCU BKN100 25/17 Q1020=,SBBR
1673193600000,METAR SBBR 081600Z 32012KT 290V350 9999 VCSH BKN020 FEW030TCU BKN100 24/17 Q1019=,SBBR
1673197200000,METAR SBBR 081700Z 30014KT 270V330 9999 BKN030 FEW040TCU BKN080 25/17 Q1018=,SBBR
1673200800000,METAR SBBR 081800Z 36007KT 280V030 9999 BKN036 FEW040TCU BKN080 24/18 Q1017=,SBBR
1673204400000,METAR SBBR 081900Z 34011KT 9999 FEW036 FEW040TCU BKN080 24/17 Q1017=,SBBR
1673208000000,METAR SBBR 082000Z 32009KT 9999 FEW036 FEW040TCU BKN080 23/16 Q1016=,SBBR
1673211600000,METAR SBBR 082100Z 34005KT 310V010 9999 FEW036 FEW040TCU BKN080 23/16 Q1017=,SBBR
1673215200000,METAR SBBR 082200Z 01004KT 9999 FEW036 BKN080 22/17 Q1018=,SBBR
1673218800000,METAR SBBR 082300Z 04002KT CAVOK 22/18 Q1019=,SBBR
1673136000000,METAR SBCF 080000Z 14004KT 2000 -TSRA BR BKN002 FEW040CB OVC070 20/19 Q1019=,SBCF
1673137800000,SPECI SBCF 080030Z 14005KT 4000 -RA BR BKN002 OVC050 20/19 Q1019 RETS=,SBCF
1673139600000,METAR SBCF 080100Z 13005KT 6000 BKN002 BKN030 OVC090 20/19 Q1020 RETS=,SBCF
1673143200000,METAR SBCF 080200Z 16002KT 6000 BKN003 BKN030 OVC090 20/19 Q1020=,SBCF
1673143500000,SPECI SBCF 080205Z 00000KT 3000 RA BKN002 BKN030 OVC090 20/19 Q1019=,SBCF
1673146800000,METAR SBCF 080300Z 12004KT 4000 -RA BKN004 BKN030 OVC090 20/19 Q1019 RERA=,SBCF
1673150400000,METAR SBCF 080400Z 12005KT 4000 -RA BKN004 BKN030 OVC090 20/19 Q1018=,SBCF
1673154000000,METAR SBCF 080500Z 10006KT 4000 -RA BKN005 BKN030 OVC090 20/19 Q1018=,SBCF
1673157600000,METAR SBCF 080600Z 36006KT 3000 RA BKN003 BKN030 OVC090 20/19 Q1018=,SBCF
1673161200000,METAR SBCF 080700Z 05007KT 2000 -RA BR BKN003 BKN030 OVC090 19/18 Q1017 RERA=,SBCF
1673164800000,METAR SBCF 080800Z 06005KT 2000 -RA BR BKN002 BKN020 OVC090 20/19 Q1018=,SBCF
1673168400000,METAR SBCF 080900Z 06004KT 1500 R34L/P2000 R16R/P2000 BR BKN003 OVC012 20/19 Q1019=,SBCF
1673170260000,SPECI SBCF 080931Z 04005KT 2000 BR SCT003 BKN009 OVC019 20/19 Q1019=,SBCF
1673172000000,METAR SBCF 081000Z 02004KT 7000 FEW003 BKN012 BKN020 20/19 Q1019=,SBCF
1673175600000,METAR SBCF 081100Z 01003KT 4000 -RA BR SCT004 BKN014 BKN020 20/19 Q1020=,SBCF
1673176980000,SPECI SBCF 081123Z 36005KT 2500 -RA BR SCT006 BKN014 BKN030 20/19 Q1020=,SBCF
1673179200000,METAR SBCF 081200Z 36006KT 5000 -DZ BR SCT005 BKN014 BKN030 21/19 Q1020=,SBCF
1673182800000,METAR SBCF 081300Z 34010KT 5000 -RA BR SCT005 OVC011 21/19 Q1021=,SBCF
1673185320000,SPECI SBCF 081342Z 33010KT 2500 -RA BR BKN006 OVC014 21/19 Q1021=,SBCF
1673186400000,METAR SBCF 081400Z 33012KT 5000 -RA BR BKN009 BKN015 BKN040 22/20 Q1020=,SBCF
1673190000000,METAR SBCF 081500Z 33012KT 7000 -RA BKN011 BKN040 BKN100 22/20 Q1020=,SBCF
1673193600000,METAR SBCF 081600Z 34011KT 9000 -RA BKN014 BKN025 OVC070 23/20 Q1019=,SBCF
1673197200000,METAR SBCF 081700Z 32010KT 9999 BKN020 SCT035 BKN090 24/20 Q1018=,SBCF
1673200800000,METAR SBCF 081800Z 27010KT 9999 SCT020 SCT060 BKN100 24/19 Q1018=,SBCF
1673204400000,METAR SBCF 081900Z 24004KT 9999 -RA FEW010 SCT030 BKN100 23/19 Q1017=,SBCF
1673208000000,METAR SBCF 082000Z 24003KT 9999 FEW030 BKN100 23/19 Q1017=,SBCF
1673211600000,METAR SBCF 082100Z 18002KT 9999 FEW020 BKN100 22/19 Q1018=,SBCF
1673215200000,METAR SBCF 082200Z 12003KT 9999 FEW030 SCT060 BKN100 22/19 Q1018=,SBCF
1673218800000,METAR SBCF 082300Z 11001KT 9999 FEW030 SCT060 BKN100 22/19 Q1019=,SBCF
1673136000000,METAR SBCT 080000Z 11007KT 9999 FEW009 BKN014 BKN042 15/15 Q1023=,SBCT
1673139600000,METAR SBCT 080100Z 12006KT 9999 SCT008 BKN013 15/15 Q1023=,SBCT
1673143200000,METAR SBCT 080200Z 12006KT 9999 SCT008 BKN013 15/15 Q1023=,SBCT
1673146800000,METAR SBCT 080300Z 12005KT 9999 SCT008 BKN013 15/15 Q1022=,SBCT
1673150400000,METAR SBCT 080400Z 11005KT 9999 BKN010 14/14 Q1021=,SBCT
1673154000000,METAR SBCT 080500Z 13007KT 9999 SCT008 BKN011 OVC040 15/15 Q1021=,SBCT
1673157600000,METAR SBCT 080600Z 10007KT 9999 FEW009 BKN012 15/15 Q1020=,SBCT
1673161200000,METAR SBCT 080700Z 12006KT 9999 FEW009 BKN014 BKN022 14/14 Q1020=,SBCT
1673164800000,METAR SBCT 080800Z 13006KT 9999 FEW010 BKN014 BKN025 14/14 Q1020=,SBCT
1673168400000,METAR SBCT 080900Z 13007KT 9999 FEW010 BKN013 BKN030 15/15 Q1021=,SBCT
1673172000000,METAR SBCT 081000Z 13007KT 9999 FEW010 BKN013 BKN030 15/15 Q1021=,SBCT
1673175600000,METAR SBCT 081100Z 12004KT 6000 OVC006 16/16 Q1022=,SBCT
1673179200000,METAR SBCT 081200Z 11009KT 9999 BKN009 BKN030 17/15 Q1022=,SBCT
1673182800000,METAR SBCT 081300Z 09009KT 9999 BKN009 BKN030 18/15 Q1023=,SBCT
1673186400000,METAR SBCT 081400Z 08010KT 050V130 9999 BKN009 BKN030 20/15 Q1022=,SBCT
1673189100000,SPECI SBCT 081445Z 09009KT 9999 SCT009 BKN025 21/14 Q1022=,SBCT
1673190000000,METAR SBCT 081500Z 10008KT 060V140 9999 FEW009 BKN020 21/15 Q1022=,SBCT
1673193600000,METAR SBCT 081600Z 08008KT 050V130 9999 FEW009 BKN030 20/15 Q1022=,SBCT
1673197200000,METAR SBCT 081700Z 12007KT 080V160 9999 FEW009 BKN030 21/15 Q1021=,SBCT
1673199480000,SPECI SBCT 081738Z 11009KT 5000 -DZ BR SCT007 BKN014 OVC025 18/17 Q1021=,SBCT
1673200800000,METAR SBCT 081800Z 11008KT 080V140 5000 -DZ BR BKN006 BKN012 OVC030 18/18 Q1021=,SBCT
1673204400000,METAR SBCT 081900Z 11007KT 9999 FEW006 BKN010 OVC028 18/18 Q1020=,SBCT
1673208000000,METAR SBCT 082000Z 11007KT 9999 BKN010 OVC040 18/17 Q1020=,SBCT
1673211600000,METAR SBCT 082100Z 12009KT 9999 BKN010 OVC050 18/17 Q1020=,SBCT
1673215200000,METAR SBCT 082200Z 13009KT 9999 BKN010 OVC015 17/17 Q1020=,SBCT
1673218800000,METAR SBCT 082300Z 12007KT 080V150 5000 -DZ BR OVC005 16/16 Q1020=,SBCT
1673136000000,METAR SBFL 080000Z 14005KT 9999 FEW025 22/18 Q1020=,SBFL
1673139600000,METAR SBFL 080100Z 17004KT 9999 FEW025 22/18 Q1021=,SBFL
1673143200000,METAR SBFL 080200Z 17004KT 9999 FEW025 21/18 Q1021=,SBFL
1673146800000,METAR SBFL 080300Z 17004KT 9999 FEW025 22/19 Q1020=,SBFL
1673150400000,METAR SBFL 080400Z 18003KT 9999 FEW025 21/18 Q1020=,SBFL
1673154000000,METAR SBFL 080500Z 23005KT 9999 FEW025 20/19 Q1019=,SBFL
1673157600000,METAR SBFL 080600Z 36002KT 9999 FEW025 20/20 Q1019=,SBFL
1673161200000,METAR SBFL 080700Z 27004KT 9999 FEW025 20/19 Q1018=,SBFL
1673164800000,METAR SBFL 080800Z 26005KT 9999 FEW025 20/19 Q1018=,SBFL
1673168400000,METAR SBFL 080900Z 28003KT 9999 SCT025 20/20 Q1019=,SBFL
1673172000000,METAR SBFL 081000Z 25003KT 9999 SCT025 22/19 Q1019=,SBFL
1673175600000,METAR SBFL 081100Z 23007KT 9999 SCT025 23/19 Q1020=,SBFL
1673179200000,METAR SBFL 081200Z 20006KT 9999 SCT025 23/19 Q1020=,SBFL
1673182800000,METAR SBFL 081300Z 13009KT 9999 SCT025 26/19 Q1020=,SBFL
1673186400000,METAR SBFL 081400Z 13009KT 9999 SCT025 26/18 Q1020=,SBFL
1673190000000,METAR SBFL 081500Z 10011KT 9999 BKN025 26/18 Q1020=,SBFL
1673193600000,METAR SBFL 081600Z 11013KT 9999 BKN025 27/21 Q1019=,SBFL
1673197200000,METAR SBFL 081700Z 09011KT 9999 FEW022 BKN025 25/19 Q1019=,SBFL
1673200800000,METAR SBFL 081800Z 09011KT 060V120 9999 FEW020 SCT030 BKN070 25/18 Q1018=,SBFL
1673204400000,METAR SBFL 081900Z 11011KT 080V140 9999 SCT030 BKN050 BKN080 25/18 Q1018=,SBFL
1673208000000,METAR SBFL 082000Z 13010KT 9999 SCT027 BKN050 BKN080 25/18 Q1018=,SBFL
1673211600000,METAR SBFL 082100Z 12008KT 9999 SCT025 FEW030TCU BKN070 24/19 Q1017=,SBFL
1673215200000,METAR SBFL 082200Z 13006KT 9999 SCT030 FEW035TCU BKN050 24/20 Q1017=,SBFL
1673218800000,METAR SBFL 082300Z 12005KT 9999 SCT025 FEW030TCU BKN050 23/20 Q1018=,SBFL
1673136000000,METAR SBGL 080000Z 30004KT 7000 FEW007 BKN011 OVC030 20/19 Q1019=,SBGL
1673139600000,METAR SBGL 080100Z 30006KT 4000 -RA BR BKN007 OVC020 20/19 Q1019=,SBGL
1673143200000,METAR SBGL 080200Z 28005KT 4000 -RA BR BKN008 OVC025 20/19 Q1019=,SBGL
1673146800000,METAR SBGL 080300Z 30004KT 4000 -DZ BR BKN007 OVC020 20/19 Q1018=,SBGL
1673150400000,METAR SBGL 080400Z 31003KT 4000 -DZ BR BKN006 OVC015 20/19 Q1017=,SBGL
1673154000000,METAR SBGL 080500Z 31004KT 5000 BR BKN006 OVC018 20/19 Q1017=,SBGL
1673157600000,METAR SBGL 080600Z 29004KT 5000 BR BKN006 OVC018 20/19 Q1016=,SBGL
1673161200000,METAR SBGL 080700Z 30002KT 6000 BKN012 OVC025 20/19 Q1016=,SBGL
1673164800000,METAR SBGL 080800Z 31002KT 6000 BKN012 OVC030 20/19 Q1016=,SBGL
1673168400000,METAR SBGL 080900Z 29002KT 8000 BKN016 OVC040 20/19 Q1016=,SBGL
1673172000000,METAR SBGL 081000Z 32003KT 9000 SCT018 OVC050 21/19 Q1017=,SBGL
1673172900000,SPECI SBGL 081015Z 31003KT 6000 FEW006 BKN007 BKN018 21/20 Q1017=,SBGL
1673175600000,METAR SBGL 081100Z 27004KT 7000 SCT008 BKN011 OVC033 22/19 Q1017=,SBGL
1673179200000,METAR SBGL 081200Z 31004KT 7000 SCT013 BKN015 OVC046 22/19 Q1018=,SBGL
1673182800000,METAR SBGL 081300Z 35003KT 7000 FEW013 BKN017 OVC046 23/19 Q1018=,SBGL
1673186400000,METAR SBGL 081400Z 01006KT 7000 SCT009 BKN019 OVC046 22/20 Q1018=,SBGL
1673190000000,METAR SBGL 081500Z 35005KT 7000 SCT015 BKN019 OVC046 24/20 Q1017=,SBGL
1673193600000,METAR SBGL 081600Z 02005KT 7000 SCT016 BKN023 OVC033 24/20 Q1017=,SBGL
1673197200000,METAR SBGL 081700Z 11009KT 8000 SCT017 BKN023 OVC033 24/20 Q1016=,SBGL
1673200800000,METAR SBGL 081800Z 12010KT 8000 VCSH SCT017 BKN026 OVC033 23/19 Q1015=,SBGL
1673204400000,METAR SBGL 081900Z 13008KT 9999 SCT017 BKN026 OVC033 23/20 Q1015=,SBGL
1673208000000,METAR SBGL 082000Z 15006KT 9999 SCT021 BKN026 OVC033 22/20 Q1015=,SBGL
1673211600000,METAR SBGL 082100Z 11003KT 9999 FEW011 BKN026 OVC033 23/20 Q1015=,SBGL
1673215200000,METAR SBGL 082200Z 33003KT 7000 FEW009 BKN013 OVC026 22/20 Q1016=,SBGL
1673218800000,METAR SBGL 082300Z VRB02KT 8000 FEW009 BKN012 OVC020 22/20 Q1016=,SBGL
1673136000000,METAR SBGR 080000Z 12005KT 9999 BKN019 OVC036 17/15 Q1021=,SBGR
1673139600000,METAR SBGR 080100Z 08005KT 9000 SCT007 OVC020 16/16 Q1022=,SBGR
1673143200000,METAR SBGR 080200Z 08003KT 9999 SCT013 OVC030 17/16 Q1022=,SBGR
1673146800000,METAR SBGR 080300Z 13001KT 9999 OVC013 17/15 Q1021=,SBGR
1673150400000,METAR SBGR 080400Z 10002KT 9999 BKN010 OVC030 17/16 Q1021=,SBGR
1673154000000,METAR SBGR 080500Z 11003KT 9999 OVC017 17/16 Q1020=,SBGR
1673157600000,METAR SBGR 080600Z 09004KT 9999 OVC013 17/16 Q1019=,SBGR
1673161200000,METAR SBGR 080700Z 10003KT 9999 BKN013 OVC030 17/15 Q1019=,SBGR
1673164800000,METAR SBGR 080800Z 09003KT 9999 BKN013 OVC020 17/16 Q1019=,SBGR
1673168400000,METAR SBGR 080900Z 12001KT 9999 FEW013 BKN040 BKN080 17/16 Q1019=,SBGR
1673169600000,SPECI SBGR 080920Z 08003KT 9999 BKN009 17/16 Q1020=,SBGR
1673172000000,METAR SBGR 081000Z 11002KT 9999 BKN009 18/16 Q1020=,SBGR
1673175600000,METAR SBGR 081100Z 10005KT 9999 BKN013 19/16 Q1021=,SBGR
1673179200000,METAR SBGR 081200Z 08006KT 9999 BKN019 20/16 Q1021=,SBGR
1673182800000,METAR SBGR 081300Z 10005KT 9999 SCT021 21/16 Q1021=,SBGR
1673186400000,METAR SBGR 081400Z 11007KT 9999 BKN026 22/16 Q1021=,SBGR
1673190000000,METAR SBGR 081500Z 12005KT 9999 BKN026 23/17 Q1020=,SBGR
1673193600000,METAR SBGR 081600Z 14003KT 9999 -DZ FEW008 BKN030 23/17 Q1020=,SBGR
1673197200000,METAR SBGR 081700Z 17005KT 9999 OVC017 22/18 Q1019=,SBGR
1673200800000,METAR SBGR 081800Z 15008KT 9000 BKN015 OVC035 20/18 Q1019=,SBGR
1673204400000,METAR SBGR 081900Z 18005KT 9999 BKN013 OVC023 20/18 Q1018=,SBGR
1673208000000,METAR SBGR 082000Z 17005KT 4000 -RA BR SCT007 OVC012 19/19 Q1018=,SBGR
1673211600000,METAR SBGR 082100Z 16005KT 9999 SCT011 OVC017 19/18 Q1018=,SBGR
1673215200000,METAR SBGR 082200Z 16005KT 9999 BKN015 OVC035 19/18 Q1019=,SBGR
1673218800000,METAR SBGR 082300Z 17001KT 9999 BKN011 OVC015 19/19 Q1019=,SBGR
1673136000000,METAR SBKP 080000Z 14015KT 9999 FEW020 SCT040 BKN090 18/14 Q1019=,SBKP
1673139600000,METAR SBKP 080100Z 13012KT 9999 FEW020 SCT040 BKN100 18/14 Q1020=,SBKP
1673143200000,METAR SBKP 080200Z 13012KT 9999 FEW020 SCT040 BKN100 18/15 Q1020=,SBKP
1673146800000,METAR SBKP 080300Z 13013KT CAVOK 18/14 Q1019=,SBKP
1673150400000,METAR SBKP 080400Z 12012KT CAVOK 17/14 Q1018=,SBKP
1673154000000,METAR SBKP 080500Z 13012KT CAVOK 17/14 Q1018=,SBKP
1673157600000,METAR SBKP 080600Z 12011KT CAVOK 17/14 Q1017=,SBKP
1673161200000,METAR SBKP 080700Z 13012KT CAVOK 17/14 Q1017=,SBKP
1673164800000,METAR SBKP 080800Z 12009KT CAVOK 17/15 Q1017=,SBKP
1673168400000,METAR SBKP 080900Z 13008KT CAVOK 18/15 Q1018=,SBKP
1673172000000,METAR SBKP 081000Z 13013KT 9999 BKN045 18/15 Q1018=,SBKP
1673175600000,METAR SBKP 081100Z 12012KT 9999 FEW015 BKN045 BKN100 19/15 Q1019=,SBKP
1673179200000,METAR SBKP 081200Z 12013KT 9999 BKN045 BKN100 20/15 Q1019=,SBKP
1673182800000,METAR SBKP 081300Z 13014KT 9999 OVC045 22/16 Q1019=,SBKP
1673186400000,METAR SBKP 081400Z 11009KT 9999 FEW020 OVC045 23/16 Q1019=,SBKP
1673190000000,METAR SBKP 081500Z 13010KT 9999 FEW025 OVC040 24/17 Q1019=,SBKP
1673193600000,METAR SBKP 081600Z 13007KT 9999 VCSH FEW030 OVC035 24/17 Q1018=,SBKP
1673197200000,METAR SBKP 081700Z 14006KT 9999 VCSH FEW030 OVC035 24/17 Q1018=,SBKP
1673200800000,METAR SBKP 081800Z 28003KT 240V340 9999 4000N -RA FEW020 FEW025TCU OVC030 23/18 Q1017=,SBKP
1673202180000,SPECI SBKP 081823Z 30005KT 4500 2000N -RA BR SCT015 FEW020TCU OVC030 21/19 Q1017=,SBKP
1673204400000,METAR SBKP 081900Z 35002KT 8000 2000SE -RA SCT020 OVC030 21/20 Q1016=,SBKP
1673208000000,METAR SBKP 082000Z 12007KT 7000 -RA SCT030 OVC040 22/19 Q1016=,SBKP
1673211600000,METAR SBKP 082100Z 13013KT 9999 FEW010 SCT040 BKN050 21/18 Q1016=,SBKP
1673215200000,METAR SBKP 082200Z 14016KT 9999 SCT040 BKN100 21/18 Q1016=,SBKP
1673218800000,METAR SBKP 082300Z 13012KT CAVOK 21/18 Q1017=,SBKP
1673136000000,METAR SBPA 080000Z 11014KT CAVOK 23/17 Q1020=,SBPA
1673139600000,METAR SBPA 080100Z 11013KT CAVOK 22/17 Q1020=,SBPA
1673143200000,METAR SBPA 080200Z 11013KT CAVOK 22/18 Q1020=,SBPA
1673146800000,METAR SBPA 080300Z 11014KT CAVOK 22/18 Q1020=,SBPA
1673150400000,METAR SBPA 080400Z 10012KT CAVOK 21/18 Q1019=,SBPA
1673154000000,METAR SBPA 080500Z 06007KT CAVOK 20/18 Q1019=,SBPA
1673157600000,METAR SBPA 080600Z 05004KT CAVOK 20/18 Q1019=,SBPA
1673161200000,METAR SBPA 080700Z 10005KT CAVOK 19/18 Q1018=,SBPA
1673164800000,METAR SBPA 080800Z 10006KT 9999 FEW025 20/18 Q1019=,SBPA
1673168400000,METAR SBPA 080900Z 06003KT 9999 FEW025 19/18 Q1019=,SBPA
1673172000000,METAR SBPA 081000Z 10006KT 9999 FEW025 21/18 Q1020=,SBPA
1673175600000,METAR SBPA 081100Z 10005KT 050V140 CAVOK 23/19 Q1021=,SBPA
1673179200000,METAR SBPA 081200Z 06004KT 340V120 9999 FEW025 25/17 Q1021=,SBPA
1673182800000,METAR SBPA 081300Z 06005KT 010V120 9999 SCT035 26/17 Q1021=,SBPA
1673186400000,METAR SBPA 081400Z 11008KT 080V170 9999 BKN040 27/16 Q1020=,SBPA
1673190000000,METAR SBPA 081500Z 09008KT 040V130 9999 BKN045 27/16 Q1020=,SBPA
1673193600000,METAR SBPA 081600Z 10010KT 060V140 9999 BKN045 29/15 Q1019=,SBPA
1673197200000,METAR SBPA 081700Z 08008KT 050V140 9999 BKN045 29/15 Q1018=,SBPA
1673200800000,METAR SBPA 081800Z 10014KT 070V140 9999 BKN045 30/17 Q1017=,SBPA
1673204400000,METAR SBPA 081900Z 12015KT 090V150 9999 BKN043 29/18 Q1017=,SBPA
1673208000000,METAR SBPA 082000Z 11017KT 9999 SCT040 27/17 Q1016=,SBPA
1673211600000,METAR SBPA 082100Z 10016KT 9999 FEW030 26/18 Q1017=,SBPA
1673215200000,METAR SBPA 082200Z 11016KT 9999 FEW030 24/17 Q1017=,SBPA
1673218800000,METAR SBPA 082300Z 11013KT 080V140 9999 FEW030 23/17 Q1017=,SBPA
1673136000000,METAR SBRF 080000Z 11007KT 9999 FEW023 27/21 Q1015=,SBRF
1673139600000,METAR SBRF 080100Z 10007KT 060V140 9999 SCT023 27/21 Q1015=,SBRF
1673143200000,METAR SBRF 080200Z 09005KT 040V140 9999 SCT023 27/21 Q1014=,SBRF
1673146800000,METAR SBRF 080300Z 12007KT 080V140 9999 SCT023 27/21 Q1013=,SBRF
1673150400000,METAR SBRF 080400Z 10004KT 060V130 9999 SCT023 27/21 Q1013=,SBRF
1673154000000,METAR SBRF 080500Z 11004KT 070V150 9999 SCT023 27/21 Q1013=,SBRF
1673157600000,METAR SBRF 080600Z 09007KT 050V130 9999 SCT023 27/21 Q1013=,SBRF
1673161200000,METAR SBRF 080700Z 11006KT 080V150 9999 SCT023 27/21 Q1013=,SBRF
1673164800000,METAR SBRF 080800Z 11005KT 060V140 9999 BKN023 27/21 Q1014=,SBRF
1673168400000,METAR SBRF 080900Z 10005KT 060V140 9999 BKN023 27/21 Q1014=,SBRF
1673172000000,METAR SBRF 081000Z 09007KT 060V120 9999 SCT023 28/21 Q1015=,SBRF
1673175600000,METAR SBRF 081100Z 10006KT 9999 SCT023 28/22 Q1015=,SBRF
1673179200000,METAR SBRF 081200Z VRB07KT 9999 SCT024 29/21 Q1015=,SBRF
1673182800000,METAR SBRF 081300Z 11008KT 040V140 9999 SCT025 BKN050 28/22 Q1016=,SBRF
1673186400000,METAR SBRF 081400Z 10008KT 9999 SCT025 BKN060 29/20 Q1015=,SBRF
1673190000000,METAR SBRF 081500Z 11007KT 9999 FEW025 BKN060 29/21 Q1015=,SBRF
1673193600000,METAR SBRF 081600Z 10009KT 050V160 9999 FEW025 BKN070 29/21 Q1014=,SBRF
1673197200000,METAR SBRF 081700Z 09008KT 050V140 9999 SCT023 BKN070 29/21 Q1013=,SBRF
1673200800000,METAR SBRF 081800Z 10007KT 050V140 9999 SCT025 BKN070 28/21 Q1013=,SBRF
1673204400000,METAR SBRF 081900Z 11008KT 050V140 9999 SCT025 BKN070 28/21 Q1013=,SBRF
1673208000000,METAR SBRF 082000Z 10007KT 050V130 9999 SCT025 BKN070 28/21 Q1013=,SBRF
1673211600000,METAR SBRF 082100Z 09006KT 030V160 9999 SCT023 28/21 Q1013=,SBRF
1673215200000,METAR SBRF 082200Z 11007KT 080V140 9999 SCT023 27/21 Q1014=,SBRF
1673218800000,METAR SBRF 082300Z 10007KT 060V140 9999 FEW023 27/21 Q1014=,SBRF
1673136000000,METAR SBRJ 080000Z 32004KT 4500 -RA BR SCT004 BKN007 OVC020 20/20 Q1018=,SBRJ
1673139600000,METAR SBRJ 080100Z VRB02KT 4500 -RA BR SCT005 BKN007 OVC015 20/19 Q1018=,SBRJ
1673143200000,METAR SBRJ 080200Z VRB02KT 4500 -DZ BR SCT004 BKN006 OVC015 20/20 Q1018=,SBRJ
1673146800000,METAR SBRJ 080300Z 31003KT 250V010 4000 -DZ BR BKN003 OVC006 20/19 Q1017=,SBRJ
1673150400000,METAR SBRJ 080400Z 31005KT 7000 BKN005 OVC008 20/19 Q1017=,SBRJ
1673154000000,METAR SBRJ 080500Z 30006KT 8000 BKN005 OVC014 20/19 Q1016=,SBRJ
1673157600000,METAR SBRJ 080600Z 30006KT 8000 SCT005 BKN013 OVC040 20/19 Q1016=,SBRJ
1673161200000,METAR SBRJ 080700Z 29004KT 260V330 9000 SCT008 BKN015 OVC040 21/19 Q1015=,SBRJ
1673164800000,METAR SBRJ 080800Z 32005KT 9999 FEW008 SCT015 OVC040 21/19 Q1015=,SBRJ
1673168400000,METAR SBRJ 080900Z 32004KT 9000 FEW008 OVC050 21/19 Q1016=,SBRJ
1673172000000,METAR SBRJ 081000Z 35004KT 8000 SCT008 BKN050 OVC070 21/19 Q1016=,SBRJ
1673175600000,METAR SBRJ 081100Z 01003KT 8000 SCT008 SCT050 BKN070 21/20 Q1017=,SBRJ
1673179200000,METAR SBRJ 081200Z 01003KT 340V040 9000 SCT009 BKN050 OVC070 22/20 Q1017=,SBRJ
1673182800000,METAR SBRJ 081300Z 03003KT 8000 -DZ SCT008 BKN036 OVC050 22/19 Q1018=,SBRJ
1673186400000,METAR SBRJ 081400Z VRB02KT 9000 SCT012 BKN030 BKN070 24/20 Q1017=,SBRJ
1673190000000,METAR SBRJ 081500Z 12003KT 080V150 8000 -DZ FEW010 SCT017 BKN030 24/20 Q1017=,SBRJ
1673193600000,METAR SBRJ 081600Z 14006KT 9000 SCT017 BKN040 OVC070 23/20 Q1016=,SBRJ
1673197200000,METAR SBRJ 081700Z 14007KT 9999 SCT015 BKN033 OVC070 23/20 Q1016=,SBRJ
1673200800000,METAR SBRJ 081800Z 16007KT 9999 FEW010 SCT020 BKN040 23/20 Q1015=,SBRJ
1673204400000,METAR SBRJ 081900Z 15007KT 9999 FEW008 SCT020 BKN035 23/20 Q1015=,SBRJ
1673208000000,METAR SBRJ 082000Z 16007KT 9999 -RA SCT010 SCT020 OVC035 23/20 Q1015=,SBRJ
1673211600000,METAR SBRJ 082100Z 15005KT 9999 -RA FEW010 SCT020 OVC035 22/20 Q1015=,SBRJ
1673215200000,METAR SBRJ 082200Z 14005KT 9999 FEW010 SCT020 OVC035 22/20 Q1015=,SBRJ
1673218800000,METAR SBRJ 082300Z 15003KT 9000 -RA FEW010 SCT020 OVC035 22/20 Q1015=,SBRJ
1673136000000,METAR SBSP 080000Z 16008KT 9999 SCT011 OVC030 17/15 Q1022=,SBSP
1673139600000,METAR SBSP 080100Z 14010KT 9999 SCT009 BKN013 17/15 Q1022=,SBSP
1673143200000,METAR SBSP 080200Z 15008KT 9999 SCT013 BKN026 17/14 Q1022=,SBSP
1673143200000,SPECI SBSP 080200Z 15008KT 9999 FEW010 SCT012 OVC026 17/14 Q1022=,SBSP
1673146800000,METAR SBSP 080300Z AUTO 14005KT 110V180 9999 FEW010 SCT013 BKN042 17/15 Q1021=,SBSP
1673148960000,SPECI SBSP 080336Z AUTO 12003KT 9999 SCT011 BKN013 OVC043 17/15 Q1021=,SBSP
1673150400000,METAR SBSP 080400Z AUTO 13005KT 9999 SCT010 BKN012 OVC044 17/15 Q1021=,SBSP
1673151240000,SPECI SBSP 080414Z AUTO 12005KT 9999 SCT010 BKN015 OVC045 17/15 Q1020=,SBSP
1673151300000,SPECI SBSP 080415Z AUTO 12005KT 9999 SCT009 BKN014 OVC019 17/15 Q1020=,SBSP
1673153160000,SPECI SBSP 080446Z AUTO 13004KT 9999 FEW008 BKN010 OVC014 17/15 Q1020=,SBSP
1673154000000,METAR SBSP 080500Z AUTO 13004KT 9999 SCT008 OVC013 17/15 Q1020=,SBSP
1673154600000,SPECI SBSP 080510Z AUTO 12004KT 090V150 9999 SCT009 BKN012 OVC014 17/15 Q1020=,SBSP
1673156580000,SPECI SBSP 080543Z AUTO 14005KT 9999 SCT006 BKN010 OVC020 17/15 Q1020=,SBSP
1673156760000,SPECI SBSP 080546Z AUTO 14005KT 9999 SCT006 BKN009 OVC020 17/15 Q1019=,SBSP
1673157600000,METAR SBSP 080600Z AUTO 12005KT 9999 SCT006 BKN009 OVC017 17/15 Q1019=,SBSP
1673159340000,SPECI SBSP 080629Z AUTO 13004KT 100V160 5000 BR SCT002 BKN008 OVC010 17/15 Q1019=,SBSP
1673159640000,SPECI COR SBSP 080634Z AUTO 12004KT 090V160 4400 BR SCT002 BKN007 OVC009 17/15 Q1019=,SBSP
1673160180000,SPECI SBSP 080643Z AUTO 12005KT 5000 BR BKN002 BKN009 OVC011 17/15 Q1019=,SBSP
1673160240000,SPECI SBSP 080644Z AUTO 13006KT 4300 BR SCT002 BKN006 OVC011 17/15 Q1019=,SBSP
1673160660000,SPECI SBSP 080651Z AUTO 13005KT 4500 BR SCT002 BKN005 OVC008 17/16 Q1019=,SBSP
1673161200000,METAR SBSP 080700Z AUTO 12005KT 4100 BR SCT002 BKN005 OVC008 16/15 Q1019=,SBSP
1673161500000,SPECI SBSP 080705Z AUTO 12005KT 3500 BR SCT002 BKN004 OVC011 17/16 Q1019=,SBSP
1673162220000,SPECI COR SBSP 080717Z AUTO 13005KT 2800 BR BKN002 OVC004 17/16 Q1019=,SBSP
1673163360000,SPECI SBSP 080736Z AUTO 13004KT 4700 -RA BKN002 BKN004 OVC011 17/16 Q1019=,SBSP
1673163600000,SPECI SBSP 080740Z AUTO 12004KT 090V150 5000 -RA BKN002 OVC012 17/16 Q1019=,SBSP
1673163660000,SPECI SBSP 080741Z AUTO 12004KT 090V150 4600 -RA BKN002 OVC012 17/16 Q1019=,SBSP
1673163780000,SPECI SBSP 080743Z AUTO 12005KT 4400 -RA BKN003 BKN008 OVC012 17/16 Q1019=,SBSP
1673164080000,SPECI SBSP 080748Z AUTO 12006KT 2700 BR BKN003 OVC011 16/16 Q1019=,SBSP
1673164260000,SPECI SBSP 080751Z AUTO 12006KT 2800 BR BKN003 BKN009 OVC016 16/16 Q1019=,SBSP
1673164800000,METAR SBSP 080800Z AUTO 13006KT 2800 BR BKN003 BKN010 OVC018 17/16 Q1019=,SBSP
1673165280000,SPECI SBSP 080808Z AUTO 13007KT 4700 BR BKN003 BKN011 OVC026 16/16 Q1019=,SBSP
1673165340000,SPECI SBSP 080809Z AUTO 13007KT 9999 SCT004 BKN011 OVC026 16/16 Q1019=,SBSP
1673167260000,SPECI SBSP 080841Z AUTO 14007KT 9999 SCT005 BKN009 BKN026 17/16 Q1019=,SBSP
1673168400000,METAR SBSP 080900Z 14007KT 9999 SCT006 BKN008 17/16 Q1020=,SBSP
1673170500000,SPECI SBSP 080935Z 14006KT 9999 SCT009 BKN040 17/16 Q1021=,SBSP
1673172000000,METAR SBSP 081000Z 14006KT 9999 SCT007 BKN040 18/16 Q1021=,SBSP
1673175600000,METAR SBSP 081100Z 14008KT 110V170 9999 SCT009 BKN026 19/16 Q1021=,SBSP
1673176920000,SPECI SBSP 081122Z 14007KT 9999 BKN013 BKN026 19/16 Q1022=,SBSP
1673179200000,METAR SBSP 081200Z 12006KT 090V150 9999 FEW011 OVC015 20/16 Q1022=,SBSP
1673182800000,METAR SBSP 081300Z 12006KT 100V160 9999 BKN015 OVC019 20/16 Q1022=,SBSP
1673186400000,METAR SBSP 081400Z 13007KT 100V160 9999 BKN017 OVC021 21/16 Q1022=,SBSP
1673190000000,METAR SBSP 081500Z 17010KT 9999 BKN017 OVC023 21/17 Q1021=,SBSP
1673193600000,METAR SBSP 081600Z 15011KT 9999 BKN017 OVC023 21/17 Q1021=,SBSP
1673197200000,METAR SBSP 081700Z 16012KT 9999 SCT015 BKN017 22/17 Q1020=,SBSP
1673200800000,METAR SBSP 081800Z 16012KT 9999 SCT009 BKN011 20/17 Q1020=,SBSP
1673204400000,METAR SBSP 081900Z 16013KT 8000 SCT009 BKN011 19/17 Q1019=,SBSP
1673208000000,METAR SBSP 082000Z 15011KT 9999 SCT006 BKN009 19/17 Q1019=,SBSP
1673211600000,METAR SBSP 082100Z 16010KT 5000 BR SCT006 BKN009 19/17 Q1019=,SBSP
1673215200000,METAR SBSP 082200Z 15010KT 9999 SCT006 BKN011 19/17 Q1019=,SBSP
1673215800000,SPECI SBSP 082210Z 15008KT 5000 BR SCT004 OVC007 19/17 Q1019=,SBSP
1673218800000,METAR SBSP 082300Z 14007KT 7000 SCT004 OVC007 19/17 Q1020=,SBSP
1673136000000,METAR SBSV 080000Z 06008KT 9999 SCT016 27/24 Q1015=,SBSV
1673139600000,METAR SBSV 080100Z 06008KT 9999 FEW016 27/24 Q1015=,SBSV
1673143200000,METAR SBSV 080200Z 06007KT 9999 FEW016 27/24 Q1015=,SBSV
1673146800000,METAR SBSV 080300Z 05005KT 9999 FEW015 27/24 Q1014=,SBSV
1673150400000,METAR SBSV 080400Z VRB02KT 9999 FEW015 26/23 Q1014=,SBSV
1673154000000,METAR SBSV 080500Z 36002KT 9999 FEW015 26/24 Q1014=,SBSV
1673157600000,METAR SBSV 080600Z 36003KT 9999 FEW017 26/24 Q1013=,SBSV
1673161200000,METAR SBSV 080700Z 35002KT 9999 FEW017 25/23 Q1013=,SBSV
1673164800000,METAR SBSV 080800Z 32002KT 9999 SCT018 25/23 Q1014=,SBSV
1673168400000,METAR SBSV 080900Z 30002KT 9999 SCT018 25/24 Q1014=,SBSV
1673172000000,METAR SBSV 081000Z 35004KT 9999 FEW018 27/24 Q1015=,SBSV
1673175600000,METAR SBSV 081100Z 03007KT 9999 BKN018 29/24 Q1015=,SBSV
1673179200000,METAR SBSV 081200Z 03006KT 9999 BKN020 29/23 Q1016=,SBSV
1673182800000,METAR SBSV 081300Z 08012KT 9999 BKN023 31/24 Q1016=,SBSV
1673186400000,METAR SBSV 081400Z 07013KT 9999 BKN023 31/23 Q1015=,SBSV
1673190000000,METAR SBSV 081500Z 08014KT 9999 BKN023 31/23 Q1015=,SBSV
1673193600000,METAR SBSV 081600Z 08013KT 9999 VCSH BKN023 FEW025TCU 31/24 Q1014=,SBSV
1673197200000,METAR SBSV 081700Z 07016KT 9999 VCSH BKN023 FEW025TCU 30/24 Q1013=,SBSV
1673200800000,METAR SBSV 081800Z 07018KT 9999 SCT017 28/24 Q1013=,SBSV
1673204400000,METAR SBSV 081900Z 09013KT 9999 SCT017 29/23 Q1012=,SBSV
1673208000000,METAR SBSV 082000Z 07012KT 9999 FEW017 28/23 Q1012=,SBSV
1673211600000,METAR SBSV 082100Z 07013KT 9999 FEW017 28/23 Q1013=,SBSV
1673215200000,METAR SBSV 082200Z 06012KT 9999 FEW017 27/24 Q1013=,SBSV
1673218800000,METAR SBSV 082300Z 07013KT 9999 FEW018 27/24 Q1014=,SBSV
