hora,metar,aero
1674432000000,METAR SBBR 230000Z 32010KT 9999 FEW020 BKN080 21/17 Q1017=,SBBR
1674435600000,METAR SBBR 230100Z 32008KT 260V340 9999 SCT015 BKN080 20/17 Q1018=,SBBR
1674439200000,METAR SBBR 230200Z 32006KT 9999 SCT015 BKN080 20/17 Q1018=,SBBR
1674442800000,METAR SBBR 230300Z 31007KT 9999 SCT015 BKN080 20/17 Q1018=,SBBR
1674446400000,METAR SBBR 230400Z 30006KT 9999 FEW015 BKN080 20/18 Q1017=,SBBR
1674450000000,METAR SBBR 230500Z 28005KT CAVOK 20/17 Q1016=,SBBR
1674453600000,METAR SBBR 230600Z 29006KT CAVOK 20/17 Q1016=,SBBR
1674457200000,METAR SBBR 230700Z 27005KT CAVOK 20/17 Q1016=,SBBR
1674460800000,METAR SBBR 230800Z 28005KT 9999 FEW040 BKN090 20/17 Q1016=,SBBR
1674464400000,METAR SBBR 230900Z 30004KT 9999 SCT020 BKN100 19/17 Q1017=,SBBR
1674468000000,METAR SBBR 231000Z 33006KT 9999 SCT017 BKN100 20/17 Q1017=,SBBR
1674471600000,METAR SBBR 231100Z 28010KT 9999 SCT017 BKN100 21/17 Q1017=,SBBR
1674475200000,METAR SBBR 231200Z 29010KT 260V320 9999 FEW017 BKN100 22/17 Q1018=,SBBR
1674478800000,METAR SBBR 231300Z 32012KT 290V350 9999 BKN025 BKN090 23/17 Q1019=,SBBR
1674482400000,METAR SBBR 231400Z 30014KT 9999 BKN025 BKN080 24/17 Q1019=,SBBR
1674486000000,METAR SBBR 231500Z 28012KT 9999 BKN030 BKN070 25/17 Q1018=,SBBR
1674489600000,METAR SBBR 231600Z 34009KT 280V060 9999 BKN030 FEW035TCU BKN070 26/17 Q1017=,SBBR
1674493200000,METAR SBBR 231700Z 26009KT 220V300 9999 VCSH BKN030 FEW035TCU BKN070 27/17 Q1016=,SBBR
1674496800000,METAR SBBR 231800Z 26013KT 9999 BKN030 FEW040TCU BKN100 24/18 Q1015=,SBBR
1674500400000,METAR SBBR 231900Z 33010KT 9999 BKN030 FEW040TCU BKN100 26/17 Q1015=,SBBR
1674504000000,METAR SBBR 232000Z 26014KT 9999 BKN030 FEW040TCU BKN100 23/18 Q1015=,SBBR
1674504900000,SPECI SBBR 232015Z 28014KT 2000 RA BKN020 FEW030TCU BKN100 20/19 Q1015=,SBBR
1674505920000,SPECI SBBR 232032Z 27007KT 8000 3000E -RA BKN020 FEW030TCU BKN100 21/19 Q1015 RERA=,SBBR
1674507600000,METAR SBBR 232100Z 30005KT 9999 BKN020 FEW030TCU BKN100 21/19 Q1016 RERA=,SBBR
1674511200000,METAR SBBR 232200Z VRB02KT 9999 SCT025 FEW030TCU BKN100 21/18 Q1016=,SBBR
1674514800000,METAR SBBR 232300Z VRB02KT 9999 FEW030 21/18 Q1016=,SBBR
1674432000000,METAR SBCF 230000Z 03005KT 9999 VCTS FEW040CB BKN100 21/20 Q1014=,SBCF
1674435600000,METAR SBCF 230100Z 03007KT 9999 FEW040 BKN080 21/19 Q1015=,SBCF
1674439200000,METAR SBCF 230200Z 00000KT 9999 FEW040 BKN080 21/19 Q1015=,SBCF
1674442800000,METAR SBCF 230300Z 33009KT 9999 FEW020 BKN035 BKN070 21/19 Q1015=,SBCF
1674445620000,SPECI SBCF 230347Z 34012KT 9999 BKN007 BKN070 21/19 Q1015=,SBCF
1674446400000,METAR SBCF 230400Z 34013KT 9999 BKN006 BKN070 21/19 Q1015=,SBCF
1674447120000,SPECI SBCF 230412Z 34013KT 9999 BKN004 BKN070 21/19 Q1015=,SBCF
1674450000000,METAR SBCF 230500Z 33009KT 9999 BKN004 BKN011 BKN070 20/19 Q1015=,SBCF
1674452220000,SPECI SBCF 230537Z 30008KT 6000 -RA BKN006 BKN010 BKN070 20/19 Q1014=,SBCF
1674453600000,METAR SBCF 230600Z 29009KT 6000 -RA BKN006 BKN014 OVC070 20/19 Q1014=,SBCF
1674454380000,SPECI SBCF 230613Z 28007KT 5000 RA FEW005 BKN014 OVC070 20/19 Q1014=,SBCF
1674455880000,SPECI SBCF 230638Z 30009KT 5000 -RA BR SCT005 BKN014 OVC070 20/19 Q1014 RERA=,SBCF
1674457200000,METAR SBCF 230700Z 32008KT 5000 -RA BR SCT005 BKN014 BKN070 20/19 Q1014 RERA=,SBCF
1674459060000,SPECI SBCF 230731Z 01007KT 2000 -RA BR SCT005 BKN014 BKN070 20/19 Q1014=,SBCF
1674459660000,SPECI SBCF 230741Z 02007KT 2000 BR FEW003 BKN007 BKN035 20/19 Q1014=,SBCF
1674460800000,METAR SBCF 230800Z 01007KT 2000 BR BKN003 BKN007 BKN036 20/19 Q1014=,SBCF
1674464400000,METAR SBCF 230900Z 01006KT 2000 BR OVC006 20/19 Q1015=,SBCF
1674466560000,SPECI SBCF 230936Z 02005KT 2000 BR BKN003 OVC010 20/19 Q1015=,SBCF
1674468000000,METAR SBCF 231000Z 02004KT 3000 BR BKN003 OVC010 20/19 Q1016=,SBCF
1674471600000,METAR SBCF 231100Z 34004KT 3000 BR BKN003 OVC015 21/20 Q1016=,SBCF
1674475200000,METAR SBCF 231200Z 33005KT 5000 BR BKN007 OVC020 22/20 Q1016=,SBCF
1674478800000,METAR SBCF 231300Z 36005KT 9999 BKN012 FEW030TCU 24/20 Q1016=,SBCF
1674481560000,SPECI SBCF 231346Z 33007KT 9999 BKN020 FEW030TCU 24/20 Q1016=,SBCF
1674482400000,METAR SBCF 231400Z 33007KT 9999 BKN020 FEW030TCU 24/19 Q1016=,SBCF
1674486000000,METAR SBCF 231500Z 34009KT 9999 BKN020 BKN040 24/20 Q1016=,SBCF
1674489600000,METAR SBCF 231600Z 34010KT 9999 VCSH BKN020 FEW030TCU 25/20 Q1016=,SBCF
1674493200000,METAR SBCF 231700Z 32005KT 9000 VCSH BKN020 FEW030TCU 25/21 Q1015=,SBCF
1674496800000,METAR SBCF 231800Z 34007KT 9999 BKN025 FEW030TCU 25/19 Q1013=,SBCF
1674498900000,SPECI SBCF 231835Z 33009KT 4000 SHRA BKN025 FEW030TCU 25/21 Q1013=,SBCF
1674500400000,METAR SBCF 231900Z 32008KT 4000 SHRA BKN023 FEW030TCU 26/20 Q1013=,SBCF
1674504000000,METAR SBCF 232000Z 32008KT 9999 VCSH BKN030 FEW040TCU 26/19 Q1013 RESHRA=,SBCF
1674507600000,METAR SBCF 232100Z 33005KT 9999 SCT030 FEW040TCU BKN100 25/19 Q1013=,SBCF
1674511200000,METAR SBCF 232200Z 35003KT 9999 FEW030 BKN100 24/19 Q1014=,SBCF
1674514800000,METAR SBCF 232300Z 35004KT 9999 FEW030 BKN070 24/19 Q1014=,SBCF
1674432000000,METAR SBCT 230000Z 00000KT 9999 FEW045 BKN100 22/18 Q1013=,SBCT
1674435600000,METAR SBCT 230100Z 00000KT 9999 FEW030 BKN070 22/19 Q1013=,SBCT
1674439200000,METAR SBCT 230200Z VRB02KT 9999 FEW030 BKN100 21/20 Q1013=,SBCT
1674442800000,METAR SBCT 230300Z 16005KT 9999 FEW045 BKN100 20/20 Q1013=,SBCT
1674446400000,METAR SBCT 230400Z 17006KT 9999 FEW030 BKN100 20/20 Q1013=,SBCT
1674450000000,METAR SBCT 230500Z 19002KT 9999 FEW040 BKN100 20/20 Q1012=,SBCT
1674453600000,METAR SBCT 230600Z 14003KT CAVOK 20/20 Q1012=,SBCT
1674457200000,METAR SBCT 230700Z 14003KT CAVOK 19/19 Q1012=,SBCT
1674460800000,METAR SBCT 230800Z 13003KT CAVOK 19/19 Q1013=,SBCT
1674464400000,METAR SBCT 230900Z 12004KT CAVOK 18/18 Q1013=,SBCT
1674468000000,METAR SBCT 231000Z 09003KT 060V130 CAVOK 20/20 Q1014=,SBCT
1674471600000,METAR SBCT 231100Z 03001KT CAVOK 23/19 Q1014=,SBCT
1674475200000,METAR SBCT 231200Z 04002KT 9999 FEW030 25/19 Q1015=,SBCT
1674478800000,METAR SBCT 231300Z 12002KT 9999 FEW030 SCT060 26/19 Q1015=,SBCT
1674482400000,METAR SBCT 231400Z 18003KT 9999 FEW030 SCT060 26/18 Q1014=,SBCT
1674486000000,METAR SBCT 231500Z 23004KT 9999 SCT040 BKN090 28/17 Q1014=,SBCT
1674489600000,METAR SBCT 231600Z 24007KT 9999 SCT040 BKN090 27/19 Q1013=,SBCT
1674493200000,METAR SBCT 231700Z 05006KT 9999 BKN040 FEW045TCU 25/20 Q1013=,SBCT
1674496800000,METAR SBCT 231800Z 06011KT 9999 SCT025 FEW030TCU BKN090 23/22 Q1012=,SBCT
1674500400000,METAR SBCT 231900Z 10008KT 060V130 9999 VCSH FEW025 FEW030TCU SCT100 23/18 Q1012=,SBCT
1674502320000,SPECI SBCT 231932Z 02004KT 340V070 8000 -TSRA SCT020 FEW030CB OVC060 22/20 Q1012=,SBCT
1674503400000,SPECI SBCT 231950Z 24008KT 160V280 2000 +TSRA SCT020 FEW030CB BKN050 OVC100 20/20 Q1012=,SBCT
1674504000000,METAR SBCT 232000Z VRB05KT 9999 -TSRA SCT020 FEW030CB OVC060 20/20 Q1012 RERA=,SBCT
1674507600000,METAR SBCT 232100Z 13012KT 9999 FEW009 BKN100 21/21 Q1012 RETS=,SBCT
1674508500000,SPECI SBCT 232115Z 16015KT 9999 BKN013 BKN060 BKN100 20/19 Q1013=,SBCT
1674511200000,METAR SBCT 232200Z 16011KT 3000 -RA BKN009 OVC060 19/18 Q1015=,SBCT
1674514800000,METAR SBCT 232300Z 10007KT 070V130 6000 -RA SCT009 BKN060 OVC100 17/17 Q1015=,SBCT
1674432000000,METAR SBFL 230000Z 14006KT 9999 FEW030 BKN090 28/21 Q1007=,SBFL
1674435600000,METAR SBFL 230100Z 13005KT 9999 FEW030 BKN090 27/22 Q1007=,SBFL
1674439200000,METAR SBFL 230200Z 23005KT 9999 FEW030 BKN090 26/24 Q1007=,SBFL
1674442800000,METAR SBFL 230300Z 25005KT 9999 FEW030 BKN090 26/23 Q1007=,SBFL
1674446400000,METAR SBFL 230400Z 26004KT 9999 FEW030 BKN090 25/23 Q1007=,SBFL
1674450000000,METAR SBFL 230500Z 26004KT 9999 FEW030 BKN090 25/23 Q1006=,SBFL
1674453600000,METAR SBFL 230600Z 28007KT 9999 FEW030 BKN090 25/23 Q1006=,SBFL
1674457200000,METAR SBFL 230700Z 23002KT 9999 FEW040 BKN090 24/23 Q1007=,SBFL
1674460800000,METAR SBFL 230800Z 30003KT 9999 FEW040 BKN090 24/23 Q1007=,SBFL
1674464400000,METAR SBFL 230900Z 21002KT 9999 FEW040 BKN090 24/22 Q1008=,SBFL
1674468000000,METAR SBFL 231000Z 07002KT CAVOK 25/23 Q1008=,SBFL
1674471600000,METAR SBFL 231100Z 28003KT CAVOK 26/23 Q1009=,SBFL
1674475200000,METAR SBFL 231200Z 31003KT CAVOK 26/24 Q1009=,SBFL
1674478800000,METAR SBFL 231300Z 34002KT CAVOK 27/23 Q1009=,SBFL
1674482400000,METAR SBFL 231400Z 18003KT CAVOK 29/23 Q1009=,SBFL
1674486000000,METAR SBFL 231500Z 11009KT CAVOK 29/23 Q1009=,SBFL
1674489600000,METAR SBFL 231600Z 11010KT CAVOK 29/23 Q1008=,SBFL
1674493200000,METAR SBFL 231700Z 12012KT 9999 SCT030 SCT100 29/24 Q1008=,SBFL
1674496800000,METAR SBFL 231800Z 13009KT 9999 FEW024 27/24 Q1008=,SBFL
1674500400000,METAR SBFL 231900Z 14008KT CAVOK 27/26 Q1008=,SBFL
1674504000000,METAR SBFL 232000Z 13009KT 9999 FEW021 27/25 Q1008=,SBFL
1674507600000,METAR SBFL 232100Z 13009KT 9999 SCT026 26/25 Q1008=,SBFL
1674511200000,METAR SBFL 232200Z 20005KT 160V230 9999 -RA SCT011 25/24 Q1009=,SBFL
1674514800000,METAR SBFL 232300Z 27004KT 160V330 CAVOK 24/21 Q1008=,SBFL
1674432000000,METAR SBGL 230000Z 14005KT 9999 FEW040 26/22 Q1008=,SBGL
1674435600000,METAR SBGL 230100Z VRB02KT CAVOK 26/21 Q1008=,SBGL
1674439200000,METAR SBGL 230200Z 10004KT CAVOK 25/22 Q1008=,SBGL
1674442800000,METAR SBGL 230300Z VRB02KT CAVOK 25/22 Q1008=,SBGL
1674446400000,METAR SBGL 230400Z 14002KT CAVOK 25/22 Q1008=,SBGL
1674450000000,METAR SBGL 230500Z 08002KT CAVOK 25/22 Q1008=,SBGL
1674453600000,METAR SBGL 230600Z 05002KT CAVOK 24/22 Q1007=,SBGL
1674457200000,METAR SBGL 230700Z 03002KT CAVOK 24/22 Q1006=,SBGL
1674460800000,METAR SBGL 230800Z 01002KT CAVOK 24/22 Q1006=,SBGL
1674464400000,METAR SBGL 230900Z 04002KT CAVOK 24/23 Q1007=,SBGL
1674468000000,METAR SBGL 231000Z 33002KT CAVOK 26/23 Q1008=,SBGL
1674471600000,METAR SBGL 231100Z 34003KT CAVOK 28/24 Q1008=,SBGL
1674475200000,METAR SBGL 231200Z 04004KT CAVOK 29/24 Q1008=,SBGL
1674478800000,METAR SBGL 231300Z 05007KT CAVOK 29/24 Q1008=,SBGL
1674482400000,METAR SBGL 231400Z 36009KT CAVOK 31/23 Q1008=,SBGL
1674486000000,METAR SBGL 231500Z 02007KT 9999 FEW026 SCT100 34/23 Q1008=,SBGL
1674489600000,METAR SBGL 231600Z 05009KT 9999 FEW026TCU SCT100 34/23 Q1007=,SBGL
1674493200000,METAR SBGL 231700Z 04006KT 9999 FEW020 FEW030TCU BKN100 32/24 Q1006=,SBGL
1674496800000,METAR SBGL 231800Z 21010KT 9999 TS FEW020 FEW030CB BKN080 29/21 Q1006=,SBGL
1674498120000,SPECI SBGL 231822Z 25014KT 5000 -TSRA BR FEW020 FEW030CB BKN050 26/23 Q1007=,SBGL
1674500400000,METAR SBGL 231900Z 25013KT 5000 -TSRA BR FEW020 FEW030CB BKN100 25/21 Q1007=,SBGL
1674504000000,METAR SBGL 232000Z 33006KT 290V010 6000 -TSRA FEW020 FEW030CB BKN040 25/23 Q1007=,SBGL
1674507600000,METAR SBGL 232100Z 30004KT 8000 FEW020 BKN060 25/23 Q1008 RETS=,SBGL
1674511200000,METAR SBGL 232200Z 07011KT 9999 SCT010 BKN030 25/23 Q1008=,SBGL
1674514800000,METAR SBGL 232300Z 06008KT 9999 FEW025 SCT050 BKN100 25/23 Q1009=,SBGL
1674432000000,METAR SBGR 230000Z 26003KT CAVOK 24/20 Q1012=,SBGR
1674435600000,METAR SBGR 230100Z 12012KT 7000 +RA FEW003 SCT030 OVC080 20/18 Q1013=,SBGR
1674436800000,SPECI SBGR 230120Z 34004KT 7000 -RA SCT040 OVC080 22/19 Q1013 RERA=,SBGR
1674439200000,METAR SBGR 230200Z 16002KT CAVOK 20/20 Q1013 RERA=,SBGR
1674442800000,METAR SBGR 230300Z 11002KT CAVOK 19/19 Q1012=,SBGR
1674446400000,METAR SBGR 230400Z 00000KT CAVOK 19/19 Q1013=,SBGR
1674450000000,METAR SBGR 230500Z 09002KT CAVOK 20/19 Q1012=,SBGR
1674453600000,METAR SBGR 230600Z 09002KT 9999 SCT030 19/19 Q1011=,SBGR
1674457200000,METAR SBGR 230700Z 00000KT CAVOK 20/19 Q1012=,SBGR
1674460800000,METAR SBGR 230800Z 09002KT CAVOK 20/19 Q1012=,SBGR
1674464400000,METAR SBGR 230900Z 08002KT CAVOK 20/19 Q1013=,SBGR
1674468000000,METAR SBGR 231000Z 06005KT CAVOK 22/20 Q1013=,SBGR
1674471600000,METAR SBGR 231100Z 30003KT 9999 SCT025 24/20 Q1014=,SBGR
1674475200000,METAR SBGR 231200Z 30006KT 9999 SCT025 25/19 Q1014=,SBGR
1674478800000,METAR SBGR 231300Z 31006KT 9999 FEW025 27/20 Q1014=,SBGR
1674482400000,METAR SBGR 231400Z 29007KT 9999 BKN030 26/20 Q1014=,SBGR
1674486000000,METAR SBGR 231500Z 36007KT 9999 BKN030 FEW040TCU 28/19 Q1013=,SBGR
1674489600000,METAR SBGR 231600Z 33009KT 9999 BKN030 FEW040TCU 29/19 Q1012=,SBGR
1674493200000,METAR SBGR 231700Z 28011KT 9999 -RA BKN030 FEW040TCU BKN100 24/20 Q1012=,SBGR
1674496800000,METAR SBGR 231800Z 19005KT 9999 -RA SCT040 BKN080 24/21 Q1012=,SBGR
1674500400000,METAR SBGR 231900Z 19005KT 9999 SCT040 BKN080 23/20 Q1012=,SBGR
1674504000000,METAR SBGR 232000Z 12004KT 9999 SCT030 BKN100 23/19 Q1012=,SBGR
1674507600000,METAR SBGR 232100Z 08007KT 9999 SCT019 BKN100 24/20 Q1012=,SBGR
1674511200000,METAR SBGR 232200Z 06006KT 9999 FEW030 BKN100 23/19 Q1012=,SBGR
1674514800000,METAR SBGR 232300Z 06006KT CAVOK 23/19 Q1012=,SBGR
1674432000000,METAR SBKP 230000Z 23006KT 170V250 CAVOK 27/21 Q1011=,SBKP
1674435600000,METAR SBKP 230100Z 05002KT CAVOK 25/21 Q1012=,SBKP
1674439200000,METAR SBKP 230200Z 34002KT CAVOK 24/21 Q1012=,SBKP
1674442800000,METAR SBKP 230300Z 04003KT CAVOK 23/21 Q1012=,SBKP
1674446400000,METAR SBKP 230400Z 06002KT CAVOK 23/21 Q1011=,SBKP
1674450000000,METAR SBKP 230500Z 02004KT CAVOK 23/21 Q1011=,SBKP
1674453600000,METAR SBKP 230600Z 35003KT CAVOK 22/20 Q1011=,SBKP
1674457200000,METAR SBKP 230700Z 01006KT CAVOK 22/20 Q1011=,SBKP
1674460800000,METAR SBKP 230800Z 04004KT CAVOK 22/20 Q1012=,SBKP
1674464400000,METAR SBKP 230900Z 04006KT 9999 FEW030 SCT100 22/20 Q1012=,SBKP
1674468000000,METAR SBKP 231000Z 03006KT CAVOK 22/19 Q1013=,SBKP
1674471600000,METAR SBKP 231100Z 02007KT CAVOK 23/20 Q1013=,SBKP
1674475200000,METAR SBKP 231200Z 35004KT 9999 SCT019 SCT100 25/20 Q1014=,SBKP
1674478800000,METAR SBKP 231300Z 30006KT 9999 BKN019 25/20 Q1014=,SBKP
1674482400000,METAR SBKP 231400Z 32007KT 9999 BKN023 26/20 Q1013=,SBKP
1674485100000,SPECI COR SBKP 231445Z 22003KT 9999 4000SE SHRA TS BKN023 FEW050CB 25/21 Q1013=,SBKP
1674486000000,METAR SBKP 231500Z 20004KT 9999 4000S SHRA TS BKN023 FEW050CB 25/22 Q1013=,SBKP
1674489600000,METAR SBKP 231600Z 05001KT 9999 TS SCT030 FEW050CB 25/21 Q1012 RESHRA=,SBKP
1674493200000,METAR SBKP 231700Z 27005KT 9999 TS SCT040 FEW050CB 27/21 Q1011=,SBKP
1674496800000,METAR SBKP 231800Z 28016G30KT 5000 TSRA BR SCT040 FEW050CB 21/19 Q1012 WS R33=,SBKP
1674498300000,SPECI SBKP 231825Z VRB01KT 9999 -TSRA SCT030 FEW040CB 24/19 Q1011 RERA=,SBKP
1674500400000,METAR SBKP 231900Z 03004KT 360V080 9999 SCT040 FEW045TCU 24/21 Q1011 RETSRA=,SBKP
1674504000000,METAR SBKP 232000Z VRB02KT 9999 FEW025 FEW035TCU SCT100 24/21 Q1010=,SBKP
1674507600000,METAR SBKP 232100Z VRB02KT 9999 FEW025 FEW040TCU 24/21 Q1011=,SBKP
1674511200000,METAR SBKP 232200Z 11004KT 9999 FEW040 24/21 Q1011=,SBKP
1674514800000,METAR SBKP 232300Z 19003KT 160V220 9999 SCT017 FEW040TCU SCT100 24/21 Q1012=,SBKP
1674432000000,METAR SBPA 230000Z 10010KT CAVOK 27/20 Q1006=,SBPA
1674435600000,METAR SBPA 230100Z 08011KT CAVOK 26/21 Q1007=,SBPA
1674439200000,METAR SBPA 230200Z 10006KT CAVOK 25/21 Q1007=,SBPA
1674442800000,METAR SBPA 230300Z 13005KT CAVOK 25/20 Q1008=,SBPA
1674446400000,METAR SBPA 230400Z VRB02KT CAVOK 25/21 Q1008=,SBPA
1674450000000,METAR SBPA 230500Z VRB02KT CAVOK 24/20 Q1007=,SBPA
1674453600000,METAR SBPA 230600Z 17005KT CAVOK 24/20 Q1007=,SBPA
1674457200000,METAR SBPA 230700Z VRB02KT CAVOK 24/19 Q1008=,SBPA
1674460800000,METAR SBPA 230800Z 05002KT CAVOK 24/21 Q1008=,SBPA
1674464400000,METAR SBPA 230900Z 05004KT 9999 FEW045 22/21 Q1009=,SBPA
1674468000000,METAR SBPA 231000Z VRB02KT 9999 FEW048 24/21 Q1009=,SBPA
1674471600000,METAR SBPA 231100Z VRB02KT CAVOK 25/22 Q1010=,SBPA
1674475200000,METAR SBPA 231200Z VRB02KT CAVOK 28/21 Q1009=,SBPA
1674478800000,METAR SBPA 231300Z VRB03KT 9999 FEW040 29/20 Q1009=,SBPA
1674482400000,METAR SBPA 231400Z 29006KT 250V010 9999 FEW040 FEW045TCU 31/20 Q1009=,SBPA
1674486000000,METAR SBPA 231500Z 28005KT 170V320 9999 FEW040 FEW045TCU 32/15 Q1009=,SBPA
1674489600000,METAR SBPA 231600Z 26006KT 200V360 9999 SCT040 FEW045TCU 34/18 Q1008=,SBPA
1674493200000,METAR SBPA 231700Z 29009KT 260V330 9999 BKN040 FEW045TCU 34/15 Q1008=,SBPA
1674496800000,METAR SBPA 231800Z 02007KT 340V080 9999 SCT040 FEW045TCU BKN090 33/19 Q1007=,SBPA
1674498960000,SPECI SBPA 231836Z 27013G23KT 4000 TSRA BKN020 FEW040CB BKN090 26/18 Q1008=,SBPA
1674500400000,METAR SBPA 231900Z 09017G30KT 4000 TSRA BKN020 FEW040CB BKN090 26/22 Q1007=,SBPA
1674504000000,METAR SBPA 232000Z 23007KT 9999 VCSH SCT030 FEW040TCU BKN100 25/21 Q1007 RETSRA=,SBPA
1674507600000,METAR SBPA 232100Z VRB02KT 9999 SCT040 BKN100 28/21 Q1007=,SBPA
1674511200000,METAR SBPA 232200Z 10008KT 9999 FEW040 SCT100 27/22 Q1007=,SBPA
1674514800000,METAR SBPA 232300Z 09008KT 9999 FEW040 SCT100 26/22 Q1008=,SBPA
1674432000000,METAR SBRF 230000Z 09007KT 040V120 9999 SCT020 28/23 Q1012=,SBRF
1674435600000,METAR SBRF 230100Z 09007KT 050V120 9999 SCT020 28/23 Q1012=,SBRF
1674439200000,METAR SBRF 230200Z 09005KT 040V130 9999 SCT020 28/23 Q1012=,SBRF
1674442800000,METAR SBRF 230300Z 09006KT 050V120 9999 BKN019 BKN066 28/23 Q1012=,SBRF
1674446400000,METAR SBRF 230400Z 07005KT 040V100 9999 BKN017 27/23 Q1011=,SBRF
1674450000000,METAR SBRF 230500Z 06005KT 020V110 9999 BKN017 27/23 Q1010=,SBRF
1674453600000,METAR SBRF 230600Z 07006KT 040V120 9999 BKN017 27/22 Q1010=,SBRF
1674457200000,METAR SBRF 230700Z 06004KT 010V080 9999 BKN017 27/22 Q1010=,SBRF
1674460800000,METAR SBRF 230800Z 06004KT 350V090 9999 BKN019 27/22 Q1011=,SBRF
1674464400000,METAR SBRF 230900Z 05004KT 020V090 9999 BKN019 27/22 Q1011=,SBRF
1674468000000,METAR SBRF 231000Z 09007KT 9999 BKN019 28/22 Q1012=,SBRF
1674471600000,METAR SBRF 231100Z 07008KT 9999 BKN019 28/23 Q1012=,SBRF
1674475200000,METAR SBRF 231200Z 06006KT 360V100 9999 BKN020 29/23 Q1013=,SBRF
1674478800000,METAR SBRF 231300Z 09008KT 9999 SCT030 30/23 Q1013=,SBRF
1674482400000,METAR SBRF 231400Z 09007KT 020V170 9999 SCT020 30/23 Q1013=,SBRF
1674486000000,METAR SBRF 231500Z 11009KT 030V150 9999 SCT025 30/23 Q1012=,SBRF
1674489600000,METAR SBRF 231600Z 12011KT 9999 SCT025 30/23 Q1012=,SBRF
1674493200000,METAR SBRF 231700Z 10010KT 9999 FEW020 29/23 Q1011=,SBRF
1674496800000,METAR SBRF 231800Z 09007KT 050V150 9999 SCT023 29/22 Q1011=,SBRF
1674500400000,METAR SBRF 231900Z VRB06KT 9999 BKN023 29/22 Q1011=,SBRF
1674504000000,METAR SBRF 232000Z 11008KT 050V150 9999 BKN021 28/22 Q1011=,SBRF
1674507600000,METAR SBRF 232100Z 11006KT 060V200 9999 BKN021 28/22 Q1011=,SBRF
1674511200000,METAR SBRF 232200Z 12006KT 9999 BKN020 28/22 Q1011=,SBRF
1674514800000,METAR SBRF 232300Z 11007KT 9999 BKN022 28/22 Q1012=,SBRF
1674432000000,METAR SBRJ 230000Z 16002KT CAVOK 27/20 Q1007=,SBRJ
1674435600000,METAR SBRJ 230100Z 17002KT CAVOK 27/20 Q1008=,SBRJ
1674439200000,METAR SBRJ 230200Z 33003KT 250V030 CAVOK 26/21 Q1008=,SBRJ
1674442800000,METAR SBRJ 230300Z 34004KT CAVOK 26/22 Q1008=,SBRJ
1674446400000,METAR SBRJ 230400Z 33006KT CAVOK 25/22 Q1007=,SBRJ
1674450000000,METAR SBRJ 230500Z 01007KT CAVOK 25/23 Q1007=,SBRJ
1674453600000,METAR SBRJ 230600Z 36006KT CAVOK 24/22 Q1006=,SBRJ
1674457200000,METAR SBRJ 230700Z 35006KT CAVOK 24/23 Q1007=,SBRJ
1674460800000,METAR SBRJ 230800Z 36004KT CAVOK 24/23 Q1007=,SBRJ
1674464400000,METAR SBRJ 230900Z 36006KT CAVOK 25/23 Q1007=,SBRJ
1674468000000,METAR SBRJ 231000Z 35007KT CAVOK 25/23 Q1007=,SBRJ
1674471600000,METAR SBRJ 231100Z 36005KT CAVOK 26/23 Q1008=,SBRJ
1674475200000,METAR SBRJ 231200Z 01005KT CAVOK 27/23 Q1008=,SBRJ
1674478800000,METAR SBRJ 231300Z 35005KT CAVOK 28/24 Q1008=,SBRJ
1674482400000,METAR SBRJ 231400Z 01005KT CAVOK 30/24 Q1008=,SBRJ
1674486000000,METAR SBRJ 231500Z 01003KT 310V040 9999 FEW025 32/23 Q1007=,SBRJ
1674489600000,METAR SBRJ 231600Z 13004KT 9999 FEW025 FEW030TCU 31/24 Q1007=,SBRJ
1674493200000,METAR SBRJ 231700Z 11005KT 080V140 9999 TS FEW025 FEW030CB 30/24 Q1006=,SBRJ
1674496800000,METAR SBRJ 231800Z 18015KT 9999 -TSRA SCT018 FEW030CB SCT100 28/22 Q1006=,SBRJ
1674499740000,SPECI SBRJ 231849Z 22008KT 4000 +TSRA BR SCT015 FEW030CB BKN050 27/23 Q1006=,SBRJ
1674500400000,METAR SBRJ 231900Z 24008KT 200V260 4000 +TSRA BR SCT015 FEW030CB OVC050 27/23 Q1006=,SBRJ
1674501060000,SPECI SBRJ 231911Z 21010KT 6000 -TSRA SCT018 FEW030CB BKN050 BKN100 27/24 Q1006 RERA=,SBRJ
1674504000000,METAR SBRJ 232000Z 25004KT 180V350 7000 -RA SCT018 BKN050 OVC100 27/23 Q1006 RETSRA=,SBRJ
1674507600000,METAR SBRJ 232100Z 33009KT 8000 -RA SCT018 BKN050 OVC100 25/23 Q1007=,SBRJ
1674511200000,METAR SBRJ 232200Z 33008KT 290V360 8000 BKN018 BKN050 OVC100 26/23 Q1008=,SBRJ
1674514800000,METAR SBRJ 232300Z VRB01KT 8000 -RA BKN018 BKN050 OVC090 25/23 Q1009=,SBRJ
1674432000000,METAR SBSP 230000Z 20008KT 9999 SCT046 24/17 Q1013=,SBSP
1674435600000,METAR SBSP 230100Z 22004KT 150V300 CAVOK 24/18 Q1014=,SBSP
1674439200000,METAR SBSP 230200Z VRB02KT CAVOK 24/17 Q1013=,SBSP
1674439200000,SPECI SBSP 230200Z VRB01KT CAVOK 24/17 Q1013=,SBSP
1674442800000,METAR SBSP 230300Z AUTO 14003KT CAVOK 23/18 Q1013=,SBSP
1674446400000,METAR SBSP 230400Z AUTO 05004KT CAVOK 24/17 Q1013=,SBSP
1674450000000,METAR SBSP 230500Z AUTO 04004KT 360V080 CAVOK 24/17 Q1012=,SBSP
1674453600000,METAR SBSP 230600Z AUTO VRB02KT CAVOK 23/18 Q1012=,SBSP
1674457200000,METAR SBSP 230700Z AUTO 04006KT 010V070 CAVOK 23/18 Q1012=,SBSP
1674460800000,METAR SBSP 230800Z AUTO 05005KT CAVOK 23/18 Q1012=,SBSP
1674464400000,METAR COR SBSP 230900Z VRB02KT CAVOK 23/18 Q1013=,SBSP
1674468000000,METAR SBSP 231000Z 35010KT CAVOK 23/19 Q1014=,SBSP
1674471600000,METAR SBSP 231100Z 36007KT 9999 BKN017 24/19 Q1014=,SBSP
1674475200000,METAR SBSP 231200Z 33007KT 250V020 9999 BKN030 25/19 Q1015=,SBSP
1674475380000,SPECI SBSP 231203Z 30005KT 240V360 9999 RA SCT033 BKN036 27/18 Q1014=,SBSP
1674478800000,METAR SBSP 231300Z 33011KT 9999 BKN023 26/19 Q1015=,SBSP
1674482400000,METAR SBSP 231400Z 31008KT 270V360 9999 BKN023 27/19 Q1014=,SBSP
1674486000000,METAR COR SBSP 231500Z VRB05KT 9999 -RA SCT033 BKN036 27/18 Q1014=,SBSP
1674486180000,SPECI SBSP 231503Z 30005KT 240V360 9999 RA SCT033 BKN036 27/18 Q1014=,SBSP
1674486780000,SPECI SBSP 231513Z 26005KT 210V010 9999 SCT033 BKN036 26/20 Q1014 RERA=,SBSP
1674489600000,METAR SBSP 231600Z 29005KT 200V330 9999 SCT046 BKN083 24/18 Q1014 RERA=,SBSP
1674491520000,SPECI SBSP 231632Z 32006KT 270V040 9999 TS VCSH SCT046 FEW050CB BKN083 28/19 Q1013=,SBSP
1674493200000,METAR SBSP 231700Z 31015KT 280V350 9999 -TSRA SCT030 BKN033 FEW045CB 25/19 Q1013=,SBSP
1674496800000,METAR SBSP 231800Z 21007KT 180V250 9999 -TSRA SCT008 BKN035 FEW040CB 22/19 Q1014=,SBSP
1674498540000,SPECI SBSP 231829Z 22007KT 190V260 9999 SCT007 BKN045 22/19 Q1013 RETS=,SBSP
1674500400000,METAR SBSP 231900Z 22005KT 190V260 9999 -RA FEW026 BKN047 21/19 Q1012 RETS=,SBSP
1674504000000,METAR SBSP 232000Z VRB02KT 9999 FEW033 22/19 Q1012=,SBSP
1674507600000,METAR SBSP 232100Z 15004KT CAVOK 23/20 Q1013=,SBSP
1674511200000,METAR SBSP 232200Z 08004KT 040V120 CAVOK 23/19 Q1013=,SBSP
1674514800000,METAR SBSP 232300Z 14005KT CAVOK 22/20 Q1014=,SBSP
1674432000000,METAR SBSV 230000Z 06009KT CAVOK 27/24 Q1011=,SBSV
1674435600000,METAR SBSV 230100Z 05010KT CAVOK 27/24 Q1011=,SBSV
1674439200000,METAR SBSV 230200Z 05007KT CAVOK 27/24 Q1012=,SBSV
1674442800000,METAR SBSV 230300Z 05006KT CAVOK 27/24 Q1012=,SBSV
1674446400000,METAR SBSV 230400Z 01003KT CAVOK 26/24 Q1011=,SBSV
1674450000000,METAR SBSV 230500Z 35002KT CAVOK 25/24 Q1011=,SBSV
1674453600000,METAR SBSV 230600Z 35003KT 9999 SCT017 25/24 Q1011=,SBSV
1674457200000,METAR SBSV 230700Z 34006KT 9999 SCT017 25/23 Q1011=,SBSV
1674460800000,METAR SBSV 230800Z 29002KT 9999 SCT017 25/23 Q1012=,SBSV
1674464400000,METAR SBSV 230900Z 31002KT 9999 SCT018 25/24 Q1013=,SBSV
1674468000000,METAR SBSV 231000Z 34004KT 9999 SCT018 27/24 Q1013=,SBSV
1674471600000,METAR SBSV 231100Z 03008KT 9999 SCT018 28/24 Q1014=,SBSV
1674475200000,METAR SBSV 231200Z 36007KT 330V050 9999 SCT023 29/23 Q1014=,SBSV
1674478800000,METAR SBSV 231300Z 09009KT 060V130 9999 SCT023 31/23 Q1014=,SBSV
1674482400000,METAR SBSV 231400Z 08011KT 060V120 9999 SCT023 31/23 Q1013=,SBSV
1674486000000,METAR SBSV 231500Z 08011KT 060V120 9999 SCT023 31/23 Q1013=,SBSV
1674489600000,METAR SBSV 231600Z 09012KT 9999 SCT025 30/23 Q1013=,SBSV
1674493200000,METAR SBSV 231700Z 10011KT 070V130 9999 SCT025 30/23 Q1012=,SBSV
1674496800000,METAR SBSV 231800Z 11011KT 9999 FEW025 30/24 Q1012=,SBSV
1674500400000,METAR SBSV 231900Z 10011KT 9999 FEW025 30/23 Q1011=,SBSV
1674504000000,METAR SBSV 232000Z 09009KT CAVOK 30/23 Q1011=,SBSV
1674507600000,METAR SBSV 232100Z 09009KT CAVOK 29/23 Q1011=,SBSV
1674511200000,METAR SBSV 232200Z 08010KT CAVOK 28/23 Q1011=,SBSV
1674514800000,METAR SBSV 232300Z 08011KT CAVOK 27/23 Q1012=,SBSV
