hora,metar,aero
1655510400000,METAR SBBR 180000Z 28003KT 250V330 CAVOK 17/08 Q1019=,SBBR
1655514000000,METAR SBBR 180100Z VRB02KT CAVOK 17/08 Q1019=,SBBR
1655517600000,METAR SBBR 180200Z 17004KT CAVOK 17/07 Q1019=,SBBR
1655521200000,METAR SBBR 180300Z VRB02KT CAVOK 16/07 Q1020=,SBBR
1655524800000,METAR SBBR 180400Z 00000KT CAVOK 14/08 Q1020=,SBBR
1655528400000,METAR SBBR 180500Z 28002KT CAVOK 13/07 Q1019=,SBBR
1655532000000,METAR SBBR 180600Z VRB01KT CAVOK 14/08 Q1019=,SBBR
1655535600000,METAR SBBR 180700Z VRB01KT CAVOK 13/08 Q1019=,SBBR
1655539200000,METAR SBBR 180800Z 08003KT CAVOK 12/08 Q1019=,SBBR
1655542800000,METAR SBBR 180900Z 23003KT CAVOK 12/08 Q1020=,SBBR
1655546400000,METAR SBBR 181000Z VRB02KT CAVOK 11/08 Q1020=,SBBR
1655550000000,METAR SBBR 181100Z VRB01KT CAVOK 16/09 Q1021=,SBBR
1655553600000,METAR SBBR 181200Z 04003KT 360V090 CAVOK 20/10 Q1021=,SBBR
1655557200000,METAR SBBR 181300Z 28005KT 230V340 CAVOK 25/13 Q1022=,SBBR
1655560800000,METAR SBBR 181400Z 25011KT 9999 SCT040 26/12 Q1022=,SBBR
1655564400000,METAR SBBR 181500Z 26011KT 220V300 9999 FEW040 27/12 Q1021=,SBBR
1655568000000,METAR SBBR 181600Z 25007KT 210V290 9999 FEW040 27/12 Q1021=,SBBR
1655571600000,METAR SBBR 181700Z 22009KT 170V270 9999 FEW040 28/13 Q1020=,SBBR
1655575200000,METAR SBBR 181800Z 23007KT 9999 FEW040 27/11 Q1020=,SBBR
1655578800000,METAR SBBR 181900Z 21004KT 9999 FEW040 27/11 Q1020=,SBBR
1655582400000,METAR SBBR 182000Z 19010KT 160V220 CAVOK 26/12 Q1020=,SBBR
1655586000000,METAR SBBR 182100Z 17008KT CAVOK 24/12 Q1021=,SBBR
1655589600000,METAR SBBR 182200Z 17006KT CAVOK 22/12 Q1021=,SBBR
1655593200000,METAR SBBR 182300Z 20005KT CAVOK 21/12 Q1021=,SBBR
1655510400000,METAR SBCF 180000Z 00000KT CAVOK 18/08 Q1018=,SBCF
1655514000000,METAR SBCF 180100Z 07002KT CAVOK 17/09 Q1018=,SBCF
1655517600000,METAR SBCF 180200Z 20002KT CAVOK 14/09 Q1018=,SBCF
1655521200000,METAR SBCF 180300Z 19002KT CAVOK 13/09 Q1018=,SBCF
1655524800000,METAR SBCF 180400Z 20002KT CAVOK 13/09 Q1018=,SBCF
1655528400000,METAR SBCF 180500Z 16002KT CAVOK 12/09 Q1018=,SBCF
1655532000000,METAR SBCF 180600Z 12002KT CAVOK 13/09 Q1018=,SBCF
1655535600000,METAR SBCF 180700Z 00000KT CAVOK 11/08 Q1018=,SBCF
1655539200000,METAR SBCF 180800Z 00000KT CAVOK 13/08 Q1018=,SBCF
1655542800000,METAR SBCF 180900Z 13002KT 8000 NSC 11/08 Q1019=,SBCF
1655546400000,METAR SBCF 181000Z 16002KT CAVOK 11/08 Q1020=,SBCF
1655550000000,METAR SBCF 181100Z 14002KT CAVOK 12/09 Q1020=,SBCF
1655553600000,METAR SBCF 181200Z 16002KT CAVOK 15/10 Q1021=,SBCF
1655557200000,METAR SBCF 181300Z 20005KT CAVOK 19/10 Q1021=,SBCF
1655560800000,METAR SBCF 181400Z 22005KT CAVOK 22/10 Q1021=,SBCF
1655564400000,METAR SBCF 181500Z 25005KT CAVOK 24/10 Q1020=,SBCF
1655568000000,METAR SBCF 181600Z 25005KT CAVOK 26/09 Q1020=,SBCF
1655571600000,METAR SBCF 181700Z 22006KT 9999 FEW035 SCT100 26/10 Q1019=,SBCF
1655575200000,METAR SBCF 181800Z 23007KT 9999 FEW035 BKN100 26/10 Q1019=,SBCF
1655578800000,METAR SBCF 181900Z 24005KT 9999 FEW035 BKN070 24/11 Q1019=,SBCF
1655582400000,METAR SBCF 182000Z 23006KT 9999 FEW035 BKN100 23/11 Q1019=,SBCF
1655586000000,METAR SBCF 182100Z 22006KT CAVOK 22/11 Q1020=,SBCF
1655589600000,METAR SBCF 182200Z 16003KT CAVOK 22/11 Q1020=,SBCF
1655593200000,METAR SBCF 182300Z 21002KT CAVOK 21/11 Q1020=,SBCF
1655510400000,METAR SBCT 180000Z 34012KT 9999 -RA BKN011 OVC020 16/15 Q1013=,SBCT
1655514000000,METAR SBCT 180100Z 32011KT 9999 BKN011 OVC030 16/16 Q1013=,SBCT
1655517600000,METAR SBCT 180200Z 30010KT 9999 BKN008 OVC030 16/15 Q1013=,SBCT
1655521200000,METAR SBCT 180300Z 28008KT 9999 BKN010 BKN060 16/15 Q1014=,SBCT
1655524800000,METAR SBCT 180400Z 29008KT 9999 BKN009 16/15 Q1014=,SBCT
1655528400000,METAR SBCT 180500Z 25007KT 9999 BKN009 15/14 Q1015=,SBCT
1655532000000,METAR SBCT 180600Z 25011KT 9999 BKN014 15/13 Q1016=,SBCT
1655535600000,METAR SBCT 180700Z 24008KT 9999 BKN014 14/12 Q1016=,SBCT
1655539200000,METAR SBCT 180800Z 24010KT 9999 BKN014 13/11 Q1016=,SBCT
1655542800000,METAR SBCT 180900Z 24007KT 9999 BKN013 13/11 Q1017=,SBCT
1655546400000,METAR SBCT 181000Z 24008KT 9999 BKN010 12/11 Q1018=,SBCT
1655550000000,METAR SBCT 181100Z 26008KT 9999 BKN014 10/09 Q1019=,SBCT
1655553600000,METAR SBCT 181200Z VRB09KT 9999 FEW014 11/07 Q1020=,SBCT
1655557200000,METAR SBCT 181300Z 26008KT 230V290 9999 FEW015 12/07 Q1020=,SBCT
1655560800000,METAR SBCT 181400Z 25006KT 9999 FEW017 13/07 Q1021=,SBCT
1655564400000,METAR SBCT 181500Z 24005KT 180V300 CAVOK 14/07 Q1021=,SBCT
1655568000000,METAR SBCT 181600Z 24006KT 210V290 CAVOK 16/04 Q1020=,SBCT
1655571600000,METAR SBCT 181700Z 23005KT CAVOK 17/04 Q1020=,SBCT
1655575200000,METAR SBCT 181800Z VRB04KT CAVOK 17/00 Q1020=,SBCT
1655578800000,METAR SBCT 181900Z 25004KT 200V270 CAVOK 17/01 Q1020=,SBCT
1655582400000,METAR SBCT 182000Z 19005KT 9999 FEW010 16/00 Q1021=,SBCT
1655586000000,METAR SBCT 182100Z 12006KT 9999 FEW010 12/09 Q1021=,SBCT
1655588400000,SPECI SBCT 182140Z 13008KT 9000 BKN004 11/10 Q1022=,SBCT
1655589600000,METAR SBCT 182200Z 13007KT 9000 BKN004 11/10 Q1022=,SBCT
1655593200000,METAR SBCT 182300Z 11005KT 9999 SCT005 09/09 Q1022=,SBCT
1655510400000,METAR SBFL 180000Z 27006KT CAVOK 19/18 Q1006=,SBFL
1655514000000,METAR SBFL 180100Z 18006KT 9999 SCT013 BKN050 19/18 Q1008=,SBFL
1655515500000,SPECI SBFL 180125Z 16009KT 9999 BKN007 BKN050 18/17 Q1008=,SBFL
1655517600000,METAR SBFL 180200Z 17009KT 9999 BKN008 BKN050 18/15 Q1009=,SBFL
1655521200000,METAR SBFL 180300Z 15009G19KT 9999 BKN012 BKN050 17/14 Q1010=,SBFL
1655524800000,METAR SBFL 180400Z 18017G27KT 9999 BKN012 BKN050 17/12 Q1011=,SBFL
1655528400000,METAR SBFL 180500Z 19011G21KT 9999 BKN012 BKN050 17/12 Q1011=,SBFL
1655532000000,METAR SBFL 180600Z 17009KT 9999 SCT030 17/12 Q1012=,SBFL
1655535600000,METAR SBFL 180700Z 16011KT 9999 SCT030 17/12 Q1012=,SBFL
1655539200000,METAR SBFL 180800Z 16010KT 9999 SCT030 17/12 Q1012=,SBFL
1655542800000,METAR SBFL 180900Z 01006KT CAVOK 15/12 Q1014=,SBFL
1655546400000,METAR SBFL 181000Z 04002KT 9999 SCT026 14/13 Q1015=,SBFL
1655550000000,METAR SBFL 181100Z VRB02KT 9999 FEW026 15/11 Q1016=,SBFL
1655553600000,METAR SBFL 181200Z 06004KT 9999 FEW026 16/10 Q1017=,SBFL
1655557200000,METAR SBFL 181300Z 12005KT 080V150 9999 FEW026 17/10 Q1018=,SBFL
1655560800000,METAR SBFL 181400Z VRB06KT 9999 FEW020 17/09 Q1018=,SBFL
1655564400000,METAR SBFL 181500Z 15007KT 120V210 9999 FEW040 17/08 Q1019=,SBFL
1655568000000,METAR SBFL 181600Z 11007KT 060V140 9999 FEW040 17/08 Q1018=,SBFL
1655571600000,METAR SBFL 181700Z 14005KT 080V180 9999 FEW040 18/08 Q1018=,SBFL
1655575200000,METAR SBFL 181800Z 13010KT 090V150 9999 FEW040 17/08 Q1018=,SBFL
1655578800000,METAR SBFL 181900Z 14009KT CAVOK 16/08 Q1019=,SBFL
1655582400000,METAR SBFL 182000Z 13007KT CAVOK 14/09 Q1020=,SBFL
1655586000000,METAR SBFL 182100Z 12005KT CAVOK 12/08 Q1021=,SBFL
1655589600000,METAR SBFL 182200Z 08003KT CAVOK 12/08 Q1022=,SBFL
1655593200000,METAR SBFL 182300Z VRB02KT 9999 BKN030 11/09 Q1022=,SBFL
1655510400000,METAR SBGL 180000Z 14002KT CAVOK 18/16 Q1009=,SBGL
1655514000000,METAR SBGL 180100Z VRB02KT CAVOK 17/15 Q1010=,SBGL
1655517600000,METAR SBGL 180200Z 27004KT CAVOK 18/16 Q1010=,SBGL
1655521200000,METAR SBGL 180300Z VRB02KT CAVOK 16/15 Q1010=,SBGL
1655524800000,METAR SBGL 180400Z 04004KT 010V080 7000 NSC 16/15 Q1010=,SBGL
1655528400000,METAR SBGL 180500Z 36002KT 6000 NSC 17/15 Q1010=,SBGL
1655532000000,METAR SBGL 180600Z VRB02KT 6000 NSC 16/15 Q1010=,SBGL
1655535600000,METAR SBGL 180700Z 22002KT 7000 NSC 16/14 Q1010=,SBGL
1655539200000,METAR SBGL 180800Z 27004KT 7000 NSC 16/14 Q1011=,SBGL
1655542800000,METAR SBGL 180900Z 07003KT 050V110 8000 NSC 15/14 Q1012=,SBGL
1655546400000,METAR SBGL 181000Z 33006KT 8000 NSC 17/15 Q1013=,SBGL
1655550000000,METAR SBGL 181100Z 01004KT CAVOK 19/15 Q1013=,SBGL
1655553600000,METAR SBGL 181200Z 06002KT CAVOK 21/16 Q1013=,SBGL
1655557200000,METAR SBGL 181300Z 15002KT 9999 FEW040 BKN090 23/17 Q1013=,SBGL
1655560800000,METAR SBGL 181400Z 12002KT 9999 FEW040 BKN090 23/18 Q1014=,SBGL
1655564400000,METAR SBGL 181500Z 30003KT 9999 FEW040 BKN090 25/17 Q1014=,SBGL
1655568000000,METAR SBGL 181600Z 22010KT 9999 FEW040 BKN090 26/18 Q1015=,SBGL
1655571600000,METAR SBGL 181700Z 21013KT 9999 SCT035 BKN080 25/18 Q1016=,SBGL
1655575200000,METAR SBGL 181800Z 22011KT 9999 SCT035 BKN070 24/18 Q1016=,SBGL
1655578800000,METAR SBGL 181900Z 22009KT 9999 BKN020 OVC060 23/19 Q1017=,SBGL
1655582400000,METAR SBGL 182000Z 21010KT 9000 VCSH BKN016 OVC060 22/18 Q1018=,SBGL
1655583060000,SPECI SBGL 182011Z 22013KT 6000 -RA BKN012 OVC050 21/18 Q1018=,SBGL
1655586000000,METAR SBGL 182100Z 22009KT 4000 -RA BR BKN012 OVC040 21/19 Q1019=,SBGL
1655589600000,METAR SBGL 182200Z 23010KT 7000 BKN012 OVC040 21/18 Q1019=,SBGL
1655593200000,METAR SBGL 182300Z 25008KT 7000 BKN013 OVC026 20/18 Q1020=,SBGL
1655510400000,METAR SBGR 180000Z 34005KT CAVOK 23/07 Q1014=,SBGR
1655514000000,METAR SBGR 180100Z 31009KT CAVOK 23/08 Q1014=,SBGR
1655517600000,METAR SBGR 180200Z 32008KT CAVOK 22/07 Q1015=,SBGR
1655521200000,METAR SBGR 180300Z 32009KT CAVOK 22/08 Q1015=,SBGR
1655524800000,METAR SBGR 180400Z 28014KT CAVOK 21/09 Q1016=,SBGR
1655528400000,METAR SBGR 180500Z 32017G29KT CAVOK 20/13 Q1016 WS R27L=,SBGR
1655532000000,METAR SBGR 180600Z 29015KT CAVOK 20/13 Q1016=,SBGR
1655535600000,METAR SBGR 180700Z 34013KT CAVOK 19/14 Q1015=,SBGR
1655539200000,METAR SBGR 180800Z 33020KT CAVOK 20/14 Q1014=,SBGR
1655542800000,METAR SBGR 180900Z 30014KT CAVOK 20/13 Q1015=,SBGR
1655546400000,METAR SBGR 181000Z 29010KT CAVOK 18/14 Q1017=,SBGR
1655550000000,METAR COR SBGR 181100Z 31006KT 9999 SCT025 18/14 Q1018=,SBGR
1655553600000,METAR SBGR 181200Z 28006KT 9999 BKN030 BKN070 19/14 Q1019=,SBGR
1655557200000,METAR SBGR 181300Z 29009KT 9999 BKN030 BKN100 19/15 Q1019=,SBGR
1655560800000,METAR SBGR 181400Z 29007KT 9999 BKN020 20/15 Q1019=,SBGR
1655564400000,METAR SBGR 181500Z 18009KT 9999 OVC009 16/14 Q1020=,SBGR
1655568000000,METAR SBGR 181600Z 16006KT 9999 OVC009 15/13 Q1020=,SBGR
1655571600000,METAR SBGR 181700Z 18005KT 9999 OVC010 15/13 Q1020=,SBGR
1655575200000,METAR SBGR 181800Z 16006KT 9999 OVC010 15/13 Q1020=,SBGR
1655578800000,METAR SBGR 181900Z 15005KT 9999 OVC008 14/13 Q1021=,SBGR
1655582400000,METAR SBGR 182000Z 14004KT 9999 OVC011 15/12 Q1021=,SBGR
1655586000000,METAR SBGR 182100Z 14005KT 9999 OVC011 14/12 Q1022=,SBGR
1655589600000,METAR SBGR 182200Z 15004KT 9999 OVC009 14/13 Q1022=,SBGR
1655593200000,METAR SBGR 182300Z 10005KT 5000 -DZ BR OVC006 14/13 Q1023=,SBGR
1655510400000,METAR SBKP 180000Z 36006KT CAVOK 22/09 Q1014=,SBKP
1655514000000,METAR SBKP 180100Z 02004KT 9999 FEW040 BKN080 22/09 Q1014=,SBKP
1655517600000,METAR SBKP 180200Z 29006KT 250V350 9999 FEW040 OVC100 21/10 Q1015=,SBKP
1655521200000,METAR SBKP 180300Z 29005KT 270V030 CAVOK 20/10 Q1016=,SBKP
1655524800000,METAR SBKP 180400Z 28010KT 9000 -RA SCT030 FEW040TCU OVC070 18/14 Q1017=,SBKP
1655528400000,METAR SBKP 180500Z 34008KT 9999 FEW030 SCT070 BKN100 18/15 Q1017=,SBKP
1655532000000,METAR SBKP 180600Z 34005KT CAVOK 18/16 Q1017=,SBKP
1655535600000,METAR SBKP 180700Z 02006KT 9999 -RA NSC 18/16 Q1016=,SBKP
1655539200000,METAR SBKP 180800Z 02013KT 9999 -RA NSC 18/15 Q1015=,SBKP
1655542800000,METAR SBKP 180900Z 36008KT 9999 FEW030 SCT080 BKN100 18/15 Q1016=,SBKP
1655546400000,METAR SBKP 181000Z 34003KT 300V020 9999 FEW030 SCT080 17/15 Q1017=,SBKP
1655550000000,METAR SBKP 181100Z 35005KT 9999 BKN030 OVC080 17/15 Q1018=,SBKP
1655553600000,METAR SBKP 181200Z 02007KT 9999 BKN026 18/16 Q1018=,SBKP
1655557200000,METAR SBKP 181300Z 35006KT 9999 BKN023 19/16 Q1019=,SBKP
1655560800000,METAR SBKP 181400Z 35005KT 9999 BKN023 19/16 Q1019=,SBKP
1655564400000,METAR SBKP 181500Z 32007KT 9999 BKN017 SCT030 20/16 Q1019=,SBKP
1655568000000,METAR SBKP 181600Z 33007KT 9999 BKN017 21/16 Q1019=,SBKP
1655571600000,METAR SBKP 181700Z 24005KT 9999 BKN023 FEW030TCU 21/16 Q1018=,SBKP
1655575200000,METAR SBKP 181800Z 28005KT 9999 BKN023 FEW030TCU 22/16 Q1018=,SBKP
1655578800000,METAR SBKP 181900Z 21004KT 180V240 9999 SCT030 FEW040TCU 22/16 Q1018=,SBKP
1655582400000,METAR SBKP 182000Z 12007KT 9999 SCT030 19/15 Q1019=,SBKP
1655586000000,METAR SBKP 182100Z 12009KT 9999 SCT030 FEW040TCU 17/14 Q1020=,SBKP
1655589600000,METAR SBKP 182200Z 12013KT 9999 SCT025 16/13 Q1020=,SBKP
1655593200000,METAR SBKP 182300Z 12013KT 9999 FEW025 16/13 Q1020=,SBKP
1655510400000,METAR SBPA 180000Z 29010KT 4000 -RA BKN011 OVC030 14/14 Q1011=,SBPA
1655514000000,METAR SBPA 180100Z 28012KT 6000 BKN013 BKN035 14/13 Q1012=,SBPA
1655517600000,METAR SBPA 180200Z 28013KT 6000 BKN013 BKN040 13/12 Q1014=,SBPA
1655521200000,METAR SBPA 180300Z 28012KT 9999 FEW020 12/10 Q1015=,SBPA
1655524800000,METAR SBPA 180400Z 28010KT CAVOK 11/09 Q1016=,SBPA
1655528400000,METAR SBPA 180500Z 28008KT CAVOK 10/09 Q1016=,SBPA
1655532000000,METAR SBPA 180600Z 28007KT CAVOK 10/09 Q1017=,SBPA
1655535600000,METAR SBPA 180700Z 28009KT CAVOK 09/08 Q1017=,SBPA
1655539200000,METAR SBPA 180800Z 28008KT CAVOK 09/08 Q1018=,SBPA
1655542800000,METAR SBPA 180900Z 29011KT CAVOK 09/06 Q1019=,SBPA
1655546400000,METAR SBPA 181000Z 28007KT CAVOK 07/07 Q1019=,SBPA
1655550000000,METAR SBPA 181100Z 28008KT CAVOK 08/06 Q1020=,SBPA
1655553600000,METAR SBPA 181200Z 29011KT CAVOK 09/06 Q1021=,SBPA
1655557200000,METAR SBPA 181300Z 28013KT CAVOK 10/06 Q1021=,SBPA
1655560800000,METAR SBPA 181400Z 28011KT CAVOK 11/06 Q1022=,SBPA
1655564400000,METAR SBPA 181500Z 30015KT 9999 FEW030 12/04 Q1022=,SBPA
1655568000000,METAR SBPA 181600Z 29014KT CAVOK 12/04 Q1021=,SBPA
1655571600000,METAR SBPA 181700Z 28015KT CAVOK 13/03 Q1021=,SBPA
1655575200000,METAR SBPA 181800Z 27014KT CAVOK 13/03 Q1021=,SBPA
1655578800000,METAR SBPA 181900Z 30013KT CAVOK 13/04 Q1021=,SBPA
1655582400000,METAR SBPA 182000Z 27012KT CAVOK 12/04 Q1021=,SBPA
1655586000000,METAR SBPA 182100Z 27007KT CAVOK 10/04 Q1022=,SBPA
1655589600000,METAR SBPA 182200Z 25005KT CAVOK 10/05 Q1022=,SBPA
1655593200000,METAR SBPA 182300Z 26003KT 230V300 CAVOK 10/04 Q1022=,SBPA
1655510400000,METAR SBRF 180000Z 20006KT CAVOK 24/22 Q1014=,SBRF
1655514000000,METAR SBRF 180100Z 19004KT 160V230 9999 FEW025 BKN060 24/23 Q1014=,SBRF
1655517600000,METAR SBRF 180200Z 23006KT 190V270 9999 SCT015 OVC060 24/22 Q1014=,SBRF
1655521200000,METAR SBRF 180300Z 21004KT 140V260 9999 FEW025 SCT070 23/21 Q1014=,SBRF
1655524800000,METAR SBRF 180400Z VRB02KT 9999 FEW020 SCT070 23/21 Q1014=,SBRF
1655528400000,METAR SBRF 180500Z 20003KT 170V240 9999 FEW025 OVC050 23/21 Q1014=,SBRF
1655532000000,METAR SBRF 180600Z 23009KT 9000 VCSH FEW010 OVC050 22/21 Q1013=,SBRF
1655535600000,METAR SBRF 180700Z 24010KT 9000 VCSH FEW010 OVC050 23/21 Q1013=,SBRF
1655539200000,METAR SBRF 180800Z 22003KT 160V250 9999 FEW023 BKN060 23/21 Q1014=,SBRF
1655542800000,METAR SBRF 180900Z VRB02KT 9999 FEW023 BKN060 23/21 Q1014=,SBRF
1655546400000,METAR SBRF 181000Z 25004KT 210V280 9999 FEW025 SCT050 25/22 Q1015=,SBRF
1655550000000,METAR SBRF 181100Z 22003KT 9999 SCT046 26/22 Q1015=,SBRF
1655553600000,METAR SBRF 181200Z 20003KT 9999 FEW023 28/21 Q1015=,SBRF
1655557200000,METAR SBRF 181300Z 15003KT 9999 FEW023 29/21 Q1015=,SBRF
1655560800000,METAR SBRF 181400Z 11006KT 9999 FEW023 29/19 Q1015=,SBRF
1655564400000,METAR SBRF 181500Z 11006KT 9999 FEW023 30/19 Q1014=,SBRF
1655568000000,METAR SBRF 181600Z 09006KT 9999 FEW023 29/19 Q1014=,SBRF
1655571600000,METAR SBRF 181700Z 11008KT 9999 FEW023 29/20 Q1013=,SBRF
1655575200000,METAR SBRF 181800Z 13008KT 9999 FEW025 28/20 Q1013=,SBRF
1655578800000,METAR SBRF 181900Z 11006KT 9999 FEW025 28/21 Q1014=,SBRF
1655582400000,METAR SBRF 182000Z 12007KT 9999 FEW023 27/22 Q1014=,SBRF
1655586000000,METAR SBRF 182100Z 14006KT 9999 FEW023 27/22 Q1014=,SBRF
1655589600000,METAR SBRF 182200Z 13007KT 9999 FEW020 SCT070 26/22 Q1015=,SBRF
1655593200000,METAR SBRF 182300Z 14007KT 9999 FEW020 SCT070 26/23 Q1015=,SBRF
1655510400000,METAR SBRJ 180000Z VRB02KT CAVOK 23/17 Q1008=,SBRJ
1655514000000,METAR SBRJ 180100Z VRB02KT CAVOK 22/19 Q1009=,SBRJ
1655517600000,METAR SBRJ 180200Z 05003KT CAVOK 21/19 Q1009=,SBRJ
1655542200000,SPECI SBRJ 180850Z 36004KT CAVOK 21/18 Q1011=,SBRJ
1655542800000,METAR SBRJ 180900Z 01005KT CAVOK 20/18 Q1011=,SBRJ
1655546400000,METAR SBRJ 181000Z 36005KT CAVOK 20/19 Q1012=,SBRJ
1655550000000,METAR SBRJ 181100Z 01010KT CAVOK 20/18 Q1013=,SBRJ
1655553600000,METAR SBRJ 181200Z 36007KT CAVOK 21/18 Q1013=,SBRJ
1655557200000,METAR SBRJ 181300Z 34007KT 9999 FEW045 BKN090 21/17 Q1013=,SBRJ
1655560800000,METAR SBRJ 181400Z 30005KT 9999 FEW045 BKN090 22/17 Q1013=,SBRJ
1655564400000,METAR SBRJ 181500Z 18007KT 9999 FEW045 BKN090 25/19 Q1014=,SBRJ
1655568000000,METAR SBRJ 181600Z 20013KT 9999 FEW040 BKN090 27/18 Q1014=,SBRJ
1655571600000,METAR SBRJ 181700Z 22010KT 9999 FEW030 BKN090 26/18 Q1015=,SBRJ
1655575200000,METAR SBRJ 181800Z 24006KT 9999 FEW020 SCT040 BKN080 24/19 Q1015=,SBRJ
1655578800000,METAR SBRJ 181900Z 21011KT 9999 FEW018 SCT050 BKN080 23/19 Q1016=,SBRJ
1655582400000,METAR SBRJ 182000Z 19008KT 5000 -RA BR BKN012 BKN040 22/20 Q1017=,SBRJ
1655586000000,METAR SBRJ 182100Z 20012KT 5000 -RA BR BKN012 OVC030 21/19 Q1018 WS R20=,SBRJ
1655589600000,METAR SBRJ 182200Z 21004KT 7000 -RA BKN012 OVC040 21/19 Q1019=,SBRJ
1655593200000,METAR SBRJ 182300Z 20012KT 7000 -RA BKN014 OVC040 21/18 Q1019=,SBRJ
1655510400000,METAR SBSP 180000Z 35006KT CAVOK 20/07 Q1015=,SBSP
1655514000000,METAR SBSP 180100Z 35008KT CAVOK 21/07 Q1015=,SBSP
1655517600000,METAR SBSP 180200Z 34008KT CAVOK 21/07 Q1015=,SBSP
1655517660000,SPECI SBSP 180201Z 33007KT CAVOK 21/07 Q1015=,SBSP
1655521200000,METAR SBSP 180300Z AUTO 29006KT CAVOK 20/07 Q1016=,SBSP
1655524200000,SPECI SBSP 180350Z AUTO 31016G32KT CAVOK 20/12 Q1017=,SBSP
1655524800000,METAR SBSP 180400Z AUTO 31016G32KT 270V340 CAVOK 20/12 Q1017=,SBSP
1655524860000,SPECI SBSP 180401Z AUTO 30015KT 270V330 CAVOK 19/13 Q1016=,SBSP
1655525220000,SPECI SBSP 180407Z AUTO 30014G26KT CAVOK 19/12 Q1016=,SBSP
1655525820000,SPECI SBSP 180417Z AUTO 31015KT 270V330 CAVOK 19/13 Q1016=,SBSP
1655528400000,METAR SBSP 180500Z AUTO 32015KT CAVOK 18/13 Q1016=,SBSP
1655532000000,METAR SBSP 180600Z AUTO 32012KT 280V340 CAVOK 18/13 Q1016=,SBSP
1655535600000,METAR SBSP 180700Z AUTO 35015KT 320V030 CAVOK 17/13 Q1015=,SBSP
1655536260000,SPECI SBSP 180711Z AUTO 33012KT CAVOK 17/13 Q1015=,SBSP
1655539200000,METAR SBSP 180800Z AUTO 34012KT CAVOK 17/13 Q1015=,SBSP
1655540460000,SPECI SBSP 180821Z AUTO 28009KT 240V330 CAVOK 17/13 Q1016=,SBSP
1655542800000,METAR SBSP 180900Z 29008KT 240V340 9999 FEW046 17/13 Q1017=,SBSP
1655546400000,METAR SBSP 181000Z 33006KT 290V010 9999 FEW040 17/14 Q1017=,SBSP
1655550000000,METAR SBSP 181100Z 32009KT 280V350 9999 FEW023 BKN043 17/14 Q1018=,SBSP
1655553600000,METAR SBSP 181200Z 32007KT 270V350 9999 FEW015 OVC021 17/14 Q1019=,SBSP
1655557200000,METAR SBSP 181300Z 31006KT 250V340 9000 -DZ SCT013 OVC017 18/14 Q1020=,SBSP
1655558340000,SPECI SBSP 181319Z 23009KT 190V260 8000 -RA FEW005 OVC013 16/14 Q1020=,SBSP
1655560800000,METAR SBSP 181400Z 19012KT 170V230 9999 FEW005 BKN013 OVC023 15/13 Q1021=,SBSP
1655564400000,METAR SBSP 181500Z 19009KT 9999 OVC008 14/12 Q1021=,SBSP
1655568000000,METAR SBSP 181600Z 19009KT 160V220 9999 BKN008 OVC015 15/12 Q1021=,SBSP
1655571600000,METAR SBSP 181700Z 15008KT 9999 SCT006 OVC009 14/12 Q1021=,SBSP
1655575200000,METAR SBSP 181800Z 14011KT 9000 SCT005 OVC007 13/11 Q1021=,SBSP
1655578800000,METAR SBSP 181900Z 14007KT 110V170 9999 SCT007 OVC009 14/11 Q1021=,SBSP
1655582400000,METAR SBSP 182000Z 14008KT 9999 SCT004 OVC007 13/12 Q1022=,SBSP
1655583600000,SPECI SBSP 182020Z 16009KT 4000 BR SCT003 OVC005 13/12 Q1022=,SBSP
1655586000000,METAR SBSP 182100Z 16010KT 4000 -DZ BR SCT003 OVC005 13/11 Q1023=,SBSP
1655589600000,METAR SBSP 182200Z 16006KT 5000 -DZ BR SCT002 OVC005 13/12 Q1023=,SBSP
1655593200000,METAR SBSP 182300Z 14008KT 9000 -DZ SCT003 OVC005 13/12 Q1023=,SBSP
1655510400000,METAR SBSV 180000Z 14004KT 9999 SCT023 26/19 Q1016=,SBSV
1655514000000,METAR SBSV 180100Z 15005KT 9999 FEW030 26/20 Q1016=,SBSV
1655517600000,METAR SBSV 180200Z 14003KT 9999 FEW030 25/20 Q1016=,SBSV
1655521200000,METAR SBSV 180300Z 13004KT 9999 SCT025 25/19 Q1015=,SBSV
1655524800000,METAR SBSV 180400Z 15005KT 9999 SCT025 25/19 Q1015=,SBSV
1655528400000,METAR SBSV 180500Z 15003KT 9999 SCT025 25/20 Q1015=,SBSV
1655532000000,METAR SBSV 180600Z 27002KT 9999 SCT023 22/19 Q1014=,SBSV
1655535600000,METAR SBSV 180700Z 29001KT 9999 FEW023 21/19 Q1014=,SBSV
1655539200000,METAR SBSV 180800Z 00000KT 9999 FEW023 21/19 Q1015=,SBSV
1655542800000,METAR SBSV 180900Z 00000KT 9999 SCT023 21/19 Q1015=,SBSV
1655546400000,METAR SBSV 181000Z 27002KT 9999 SCT023 23/20 Q1016=,SBSV
1655550000000,METAR SBSV 181100Z 16005KT 120V190 9999 SCT023 27/21 Q1017=,SBSV
1655553600000,METAR SBSV 181200Z 15006KT 9999 SCT023 27/21 Q1017=,SBSV
1655557200000,METAR SBSV 181300Z 15007KT 100V230 9999 SCT023 27/20 Q1017=,SBSV
1655560800000,METAR SBSV 181400Z 17008KT 130V210 9999 SCT025 28/21 Q1017=,SBSV
1655564400000,METAR SBSV 181500Z 14009KT 110V180 9999 SCT025 28/21 Q1016=,SBSV
1655568000000,METAR SBSV 181600Z 16008KT 090V210 9999 SCT025 28/21 Q1016=,SBSV
1655571600000,METAR SBSV 181700Z 15008KT 110V190 9999 SCT025 28/21 Q1015=,SBSV
1655575200000,METAR SBSV 181800Z 16008KT 120V210 9999 SCT025 28/20 Q1015=,SBSV
1655578800000,METAR SBSV 181900Z 15007KT 9999 FEW025 27/20 Q1015=,SBSV
1655582400000,METAR SBSV 182000Z 13006KT 9999 FEW025 27/20 Q1015=,SBSV
1655586000000,METAR SBSV 182100Z 14005KT CAVOK 26/21 Q1015=,SBSV
1655589600000,METAR SBSV 182200Z 13005KT CAVOK 26/21 Q1016=,SBSV
1655593200000,METAR SBSV 182300Z 13005KT 9999 FEW020 26/21 Q1016=,SBSV
