hora,metar,aero
1679011200000,METAR SBBR 170000Z 30001KT 9999 -RA FEW040 FEW045TCU BKN100 20/19 Q1017=,SBBR
1679014800000,METAR SBBR 170100Z 27002KT 9999 FEW040 FEW045TCU BKN100 20/19 Q1018=,SBBR
1679018400000,METAR SBBR 170200Z 07001KT 9999 FEW045 BKN100 20/19 Q1018=,SBBR
1679022000000,METAR SBBR 170300Z VRB01KT 9999 FEW045 BKN100 20/19 Q1017=,SBBR
1679025600000,METAR SBBR 170400Z 22003KT CAVOK 20/19 Q1017=,SBBR
1679029200000,METAR SBBR 170500Z 20003KT CAVOK 20/19 Q1017=,SBBR
1679032800000,METAR SBBR 170600Z 19003KT CAVOK 20/19 Q1016=,SBBR
1679036400000,METAR SBBR 170700Z 27002KT CAVOK 19/18 Q1016=,SBBR
1679040000000,METAR SBBR 170800Z 29002KT CAVOK 19/18 Q1017=,SBBR
1679043600000,METAR SBBR 170900Z 07002KT 9999 FEW040 BKN100 20/19 Q1017=,SBBR
1679047200000,METAR SBBR 171000Z 22003KT 190V250 9999 SCT015 BKN100 20/18 Q1018=,SBBR
1679050800000,METAR SBBR 171100Z 18004KT 9999 FEW015 BKN100 21/18 Q1018=,SBBR
1679054400000,METAR SBBR 171200Z 09006KT 030V130 9999 SCT017 BKN100 23/16 Q1019=,SBBR
1679058000000,METAR SBBR 171300Z 09011KT 9999 BKN025 BKN100 25/18 Q1019=,SBBR
1679061600000,METAR SBBR 171400Z 08011KT 9999 BKN030 FEW035TCU 25/17 Q1019=,SBBR
1679065200000,METAR SBBR 171500Z 05010KT 010V090 9999 BKN030 FEW040TCU 24/17 Q1018=,SBBR
1679068800000,METAR SBBR 171600Z 06010KT 9999 SCT030 FEW040TCU BKN100 24/17 Q1017=,SBBR
1679072400000,METAR SBBR 171700Z 04003KT 010V090 9999 SCT030 FEW040TCU BKN100 23/17 Q1016=,SBBR
1679076000000,METAR SBBR 171800Z VRB02KT 9999 SCT030 FEW040TCU BKN100 24/17 Q1015=,SBBR
1679079600000,METAR SBBR 171900Z 21004KT 180V240 9999 SCT030 FEW040TCU BKN100 23/18 Q1015=,SBBR
1679083200000,METAR SBBR 172000Z VRB01KT 9999 SCT030 FEW040TCU BKN100 23/18 Q1015=,SBBR
1679085000000,SPECI SBBR 172030Z 10017KT 0500 R11L/P2000 R29R/P2000 R11R/P2000 R29L/P2000 SHRA BKN015 BKN030 FEW040TCU BKN100 19/17 Q1016=,SBBR
1679086800000,METAR SBBR 172100Z 03004KT 310V080 2000 TSRA SCT020 BKN030 FEW040CB OVC100 18/16 Q1016 RESHRA=,SBBR
1679087700000,SPECI SBBR 172115Z 36003KT 310V040 5000 -TSRA SCT030 FEW040CB OVC100 18/17 Q1016 RERA=,SBBR
1679090400000,METAR SBBR 172200Z 22006KT 9999 TS SCT040 FEW045CB BKN100 18/16 Q1017 RERA=,SBBR
1679094000000,METAR SBBR 172300Z VRB02KT 9999 SCT040 FEW045TCU BKN100 18/17 Q1017 RETS=,SBBR
1679011200000,METAR SBCF 170000Z 10010KT CAVOK 24/16 Q1017=,SBCF
1679014800000,METAR SBCF 170100Z 12008KT CAVOK 23/16 Q1018=,SBCF
1679018400000,METAR SBCF 170200Z 11008KT CAVOK 22/17 Q1018=,SBCF
1679022000000,METAR SBCF 170300Z 10009KT CAVOK 22/17 Q1018=,SBCF
1679025600000,METAR SBCF 170400Z 11005KT CAVOK 21/17 Q1017=,SBCF
1679029200000,METAR SBCF 170500Z 10008KT CAVOK 21/16 Q1017=,SBCF
1679032800000,METAR SBCF 170600Z 10008KT CAVOK 20/16 Q1017=,SBCF
1679036400000,METAR SBCF 170700Z 13005KT CAVOK 19/16 Q1017=,SBCF
1679040000000,METAR SBCF 170800Z 12007KT CAVOK 19/16 Q1017=,SBCF
1679043600000,METAR SBCF 170900Z 13005KT 9999 FEW026 19/16 Q1018=,SBCF
1679047200000,METAR SBCF 171000Z 10009KT 9999 FEW026 21/16 Q1018=,SBCF
1679050800000,METAR SBCF 171100Z 11010KT 9999 FEW025 22/17 Q1019=,SBCF
1679054400000,METAR SBCF 171200Z 12007KT 9999 FEW025 SCT100 24/16 Q1019=,SBCF
1679058000000,METAR SBCF 171300Z 09008KT 9999 BKN025 25/17 Q1020=,SBCF
1679061600000,METAR SBCF 171400Z 11008KT 9999 SCT030 26/17 Q1019=,SBCF
1679065200000,METAR SBCF 171500Z 12005KT 9999 SCT030 27/16 Q1019=,SBCF
1679068800000,METAR SBCF 171600Z 10007KT 9999 SCT040 27/17 Q1018=,SBCF
1679072400000,METAR SBCF 171700Z 10006KT 9999 SCT040 FEW045TCU 28/16 Q1017=,SBCF
1679076000000,METAR SBCF 171800Z 07009KT 9999 SCT045 28/16 Q1016=,SBCF
1679079600000,METAR SBCF 171900Z 08009KT 9999 SCT045 28/16 Q1016=,SBCF
1679083200000,METAR SBCF 172000Z 07009KT 9999 SCT045 FEW050TCU 27/15 Q1015=,SBCF
1679086800000,METAR SBCF 172100Z 06007KT 9999 SCT045 FEW050TCU 26/16 Q1015=,SBCF
1679090400000,METAR SBCF 172200Z 09012KT 9999 FEW045 25/15 Q1016=,SBCF
1679094000000,METAR SBCF 172300Z 10005KT 9999 FEW045 24/15 Q1017=,SBCF
1679011200000,METAR SBCT 170000Z 11007KT 9999 BKN013 18/17 Q1020=,SBCT
1679014800000,METAR SBCT 170100Z 10005KT 9999 FEW009 BKN011 18/17 Q1021=,SBCT
1679018400000,METAR SBCT 170200Z 10005KT 9999 BKN014 18/17 Q1021=,SBCT
1679022000000,METAR SBCT 170300Z 10003KT 9999 FEW008 BKN012 18/17 Q1021=,SBCT
1679025600000,METAR SBCT 170400Z 08005KT 9999 BKN014 17/16 Q1020=,SBCT
1679029200000,METAR SBCT 170500Z 09005KT 9999 BKN014 17/16 Q1020=,SBCT
1679032800000,METAR SBCT 170600Z 09006KT 9999 FEW012 17/15 Q1020=,SBCT
1679036400000,METAR SBCT 170700Z 09004KT 9999 FEW012 16/15 Q1020=,SBCT
1679040000000,METAR SBCT 170800Z 12005KT 9999 SCT013 BKN018 16/15 Q1020=,SBCT
1679041500000,SPECI SBCT 170825Z 10004KT 9999 BKN012 17/16 Q1020=,SBCT
1679043600000,METAR SBCT 170900Z 13002KT 9999 BKN012 17/16 Q1020=,SBCT
1679047200000,METAR SBCT 171000Z 10002KT 9999 BKN014 17/16 Q1020=,SBCT
1679050800000,METAR SBCT 171100Z 10004KT 9999 BKN014 18/17 Q1021=,SBCT
1679054400000,METAR SBCT 171200Z 07008KT 5000 -DZ BR BKN009 OVC013 19/17 Q1021=,SBCT
1679058000000,METAR SBCT 171300Z 06011KT 9999 FEW008 BKN012 20/17 Q1022=,SBCT
1679061600000,METAR SBCT 171400Z 06011KT 030V090 9999 OVC016 22/17 Q1022=,SBCT
1679065200000,METAR SBCT 171500Z 08009KT 050V110 9999 BKN021 23/18 Q1021=,SBCT
1679068800000,METAR SBCT 171600Z 08009KT 060V120 9999 BKN025 23/18 Q1021=,SBCT
1679072400000,METAR SBCT 171700Z 10009KT 9999 FEW025 BKN035 24/17 Q1020=,SBCT
1679076000000,METAR SBCT 171800Z 10008KT 9999 SCT035 24/16 Q1020=,SBCT
1679079600000,METAR SBCT 171900Z 11007KT 9999 SCT035 25/15 Q1019=,SBCT
1679083200000,METAR SBCT 172000Z 12009KT 9999 FEW035 24/17 Q1019=,SBCT
1679086800000,METAR SBCT 172100Z 12009KT 9999 FEW033 21/18 Q1018=,SBCT
1679090400000,METAR SBCT 172200Z 11009KT 9999 FEW020 19/17 Q1018=,SBCT
1679094000000,METAR SBCT 172300Z 11006KT 9999 SCT010 18/17 Q1019=,SBCT
1679011200000,METAR SBFL 170000Z 34003KT 9999 FEW023 BKN071 25/23 Q1016=,SBFL
1679014800000,METAR SBFL 170100Z 02004KT 9999 SCT012 SCT070 26/24 Q1017=,SBFL
1679018400000,METAR SBFL 170200Z VRB02KT 9999 SCT015 BKN080 26/24 Q1017=,SBFL
1679022000000,METAR SBFL 170300Z 32004KT 9999 -SHRA BKN015 BKN080 25/24 Q1017=,SBFL
1679025600000,METAR SBFL 170400Z 01004KT 330V030 9999 BKN015 BKN080 25/24 Q1016=,SBFL
1679029200000,METAR SBFL 170500Z 28004KT 9999 BKN015 BKN080 25/25 Q1016=,SBFL
1679032800000,METAR SBFL 170600Z VRB02KT 9999 -SHRA BKN020 BKN070 24/24 Q1016=,SBFL
1679036400000,METAR SBFL 170700Z VRB02KT 9999 BKN015 BKN070 24/24 Q1016=,SBFL
1679040000000,METAR SBFL 170800Z 28003KT 250V310 9999 -SHRA BKN015 BKN070 23/23 Q1016=,SBFL
1679043600000,METAR SBFL 170900Z 31007KT 270V330 9999 BKN006 BKN070 24/24 Q1016=,SBFL
1679047200000,METAR SBFL 171000Z 26003KT 9999 SCT008 SCT015 24/24 Q1017=,SBFL
1679050800000,METAR COR SBFL 171100Z 28005KT 9999 FEW013 SCT018 24/24 Q1017=,SBFL
1679054400000,METAR SBFL 171200Z 27006KT 9999 SCT025 FEW035TCU 26/24 Q1018=,SBFL
1679058000000,METAR SBFL 171300Z 29005KT 250V320 9999 SCT030 FEW035TCU 27/24 Q1018=,SBFL
1679061600000,METAR SBFL 171400Z 32007KT 9999 -RA BKN030 SCT035 27/23 Q1018=,SBFL
1679065200000,METAR SBFL 171500Z 01004KT 340V050 9999 BKN025 SCT030 28/24 Q1017=,SBFL
1679068800000,METAR SBFL 171600Z 06007KT 9999 BKN030 27/23 Q1017=,SBFL
1679072400000,METAR SBFL 171700Z 01008KT 9999 SCT030 30/21 Q1016=,SBFL
1679076000000,METAR SBFL 171800Z 35009KT 320V050 9999 FEW030 SCT060 29/21 Q1016=,SBFL
1679079600000,METAR SBFL 171900Z 02007KT 290V090 9999 SCT030 29/22 Q1015=,SBFL
1679083200000,METAR SBFL 172000Z 01005KT 310V120 9999 FEW030 28/22 Q1015=,SBFL
1679086800000,METAR SBFL 172100Z 01007KT 290V040 9999 FEW030 27/20 Q1014=,SBFL
1679090400000,METAR SBFL 172200Z 05004KT 9999 FEW030 25/22 Q1014=,SBFL
1679094000000,METAR SBFL 172300Z 03004KT 9999 FEW030 25/22 Q1015=,SBFL
1679011200000,METAR SBGL 170000Z 12005KT 9999 SCT025 BKN060 25/21 Q1015=,SBGL
1679014800000,METAR SBGL 170100Z 12005KT CAVOK 25/21 Q1015=,SBGL
1679018400000,METAR SBGL 170200Z 13005KT CAVOK 24/21 Q1015=,SBGL
1679022000000,METAR SBGL 170300Z 13004KT CAVOK 24/21 Q1015=,SBGL
1679025600000,METAR SBGL 170400Z 10004KT CAVOK 24/21 Q1015=,SBGL
1679029200000,METAR SBGL 170500Z 03003KT 9999 FEW015 23/21 Q1015=,SBGL
1679032800000,METAR SBGL 170600Z 31002KT 9999 FEW015 23/21 Q1014=,SBGL
1679036400000,METAR SBGL 170700Z 08002KT 9999 FEW015 22/20 Q1014=,SBGL
1679040000000,METAR SBGL 170800Z 06001KT 9999 FEW013 22/21 Q1015=,SBGL
1679043600000,METAR SBGL 170900Z 32002KT 9999 FEW014 22/21 Q1015=,SBGL
1679047200000,METAR SBGL 171000Z 33004KT CAVOK 23/21 Q1016=,SBGL
1679050800000,METAR SBGL 171100Z 36003KT 330V040 9999 FEW020 25/21 Q1016=,SBGL
1679054400000,METAR SBGL 171200Z 03004KT 9999 FEW016 27/22 Q1017=,SBGL
1679058000000,METAR SBGL 171300Z 01006KT 9999 FEW020 28/21 Q1017=,SBGL
1679061600000,METAR SBGL 171400Z 02007KT 9999 FEW020 29/20 Q1016=,SBGL
1679065200000,METAR SBGL 171500Z 01007KT 350V060 9999 FEW025 30/20 Q1016=,SBGL
1679068800000,METAR SBGL 171600Z 13009KT 9999 FEW025 30/21 Q1015=,SBGL
1679072400000,METAR SBGL 171700Z 13012KT 9999 FEW025 SCT090 29/21 Q1014=,SBGL
1679076000000,METAR SBGL 171800Z 14015KT 9999 FEW025 BKN090 28/21 Q1014=,SBGL
1679079600000,METAR SBGL 171900Z 14014KT 9999 FEW030 BKN090 27/21 Q1014=,SBGL
1679083200000,METAR SBGL 172000Z 14011KT 9999 FEW030 BKN080 27/21 Q1014=,SBGL
1679086800000,METAR SBGL 172100Z 14013KT 9999 FEW025 BKN070 26/21 Q1014=,SBGL
1679090400000,METAR SBGL 172200Z 15011KT 9999 FEW020 BKN070 26/22 Q1014=,SBGL
1679094000000,METAR SBGL 172300Z 13008KT 9999 FEW020 BKN070 26/22 Q1015=,SBGL
1679011200000,METAR SBGR 170000Z 11004KT 9999 SCT015 21/18 Q1018=,SBGR
1679014800000,METAR SBGR 170100Z 10005KT 9999 SCT020 21/18 Q1019=,SBGR
1679018400000,METAR SBGR 170200Z 09002KT 9999 SCT018 20/18 Q1019=,SBGR
1679022000000,METAR SBGR 170300Z 12004KT 9999 FEW018 20/17 Q1019=,SBGR
1679025600000,METAR SBGR 170400Z 11004KT CAVOK 19/17 Q1019=,SBGR
1679029200000,METAR SBGR 170500Z 11003KT CAVOK 19/17 Q1018=,SBGR
1679032800000,METAR SBGR 170600Z 12002KT CAVOK 18/17 Q1018=,SBGR
1679036400000,METAR SBGR 170700Z 09002KT CAVOK 17/17 Q1018=,SBGR
1679040000000,METAR SBGR 170800Z 10001KT CAVOK 17/17 Q1018=,SBGR
1679043600000,METAR SBGR 170900Z 06004KT 9000 3000E NSC 17/16 Q1019=,SBGR
1679047200000,METAR SBGR 171000Z 07004KT 9999 FEW010 18/17 Q1019=,SBGR
1679050800000,METAR SBGR 171100Z 06009KT 9999 SCT010 SCT050 20/18 Q1020=,SBGR
1679054400000,METAR SBGR 171200Z 06008KT 9999 SCT017 22/18 Q1020=,SBGR
1679058000000,METAR SBGR 171300Z 08006KT 9999 FEW020 24/18 Q1020=,SBGR
1679061600000,METAR SBGR 171400Z 07006KT 9999 FEW030 25/17 Q1020=,SBGR
1679065200000,METAR SBGR 171500Z 06006KT 9999 SCT035 26/17 Q1020=,SBGR
1679068800000,METAR SBGR 171600Z 11006KT 9999 BKN040 27/15 Q1019=,SBGR
1679072400000,METAR SBGR 171700Z 07004KT 9999 BKN045 28/15 Q1018=,SBGR
1679076000000,METAR SBGR 171800Z 15004KT CAVOK 27/16 Q1017=,SBGR
1679079600000,METAR SBGR 171900Z 14007KT 9999 FEW030TCU BKN045 25/19 Q1017=,SBGR
1679083200000,METAR SBGR 172000Z 15008KT 9999 SCT025 FEW030TCU 24/18 Q1017=,SBGR
1679086800000,METAR SBGR 172100Z 18008KT 9999 BKN023 23/18 Q1017=,SBGR
1679090400000,METAR SBGR 172200Z 18005KT 9999 BKN025 22/18 Q1017=,SBGR
1679094000000,METAR SBGR 172300Z 17004KT 9999 BKN020 21/18 Q1018=,SBGR
1679011200000,METAR SBKP 170000Z 13012KT CAVOK 23/18 Q1016=,SBKP
1679014800000,METAR SBKP 170100Z 14012KT CAVOK 22/18 Q1017=,SBKP
1679018400000,METAR SBKP 170200Z 13012KT CAVOK 21/18 Q1017=,SBKP
1679022000000,METAR SBKP 170300Z 13011KT CAVOK 21/18 Q1017=,SBKP
1679025600000,METAR SBKP 170400Z 13008KT CAVOK 20/18 Q1017=,SBKP
1679029200000,METAR SBKP 170500Z 12011KT CAVOK 20/17 Q1016=,SBKP
1679032800000,METAR SBKP 170600Z 12011KT CAVOK 20/17 Q1016=,SBKP
1679036400000,METAR SBKP 170700Z 12012KT CAVOK 19/17 Q1016=,SBKP
1679040000000,METAR SBKP 170800Z 12011KT CAVOK 19/17 Q1016=,SBKP
1679043600000,METAR SBKP 170900Z 12008KT 9000 NSC 19/17 Q1017=,SBKP
1679047200000,METAR SBKP 171000Z 12010KT 9000 NSC 20/17 Q1018=,SBKP
1679050800000,METAR SBKP 171100Z 12010KT 9000 NSC 21/17 Q1018=,SBKP
1679054400000,METAR SBKP 171200Z 11010KT CAVOK 23/17 Q1019=,SBKP
1679058000000,METAR SBKP 171300Z 12007KT 9999 FEW030 25/18 Q1019=,SBKP
1679061600000,METAR SBKP 171400Z 12004KT 030V200 9999 FEW030 27/17 Q1019=,SBKP
1679065200000,METAR SBKP 171500Z 11005KT 060V160 9999 FEW040 28/18 Q1018=,SBKP
1679068800000,METAR SBKP 171600Z 15005KT 090V250 9999 SCT040 28/16 Q1017=,SBKP
1679072400000,METAR SBKP 171700Z VRB02KT 9999 SCT040 29/17 Q1017=,SBKP
1679076000000,METAR SBKP 171800Z 16010KT 9999 SCT040 29/16 Q1016=,SBKP
1679079600000,METAR SBKP 171900Z 19009KT 9999 FEW045 29/17 Q1015=,SBKP
1679083200000,METAR SBKP 172000Z 17008KT 9999 FEW045 29/16 Q1015=,SBKP
1679086800000,METAR SBKP 172100Z 18006KT CAVOK 28/17 Q1014=,SBKP
1679090400000,METAR SBKP 172200Z 14016KT CAVOK 25/19 Q1015=,SBKP
1679094000000,METAR SBKP 172300Z 13016KT CAVOK 23/18 Q1016=,SBKP
1679011200000,METAR SBPA 170000Z 10009KT CAVOK 25/22 Q1013=,SBPA
1679014800000,METAR SBPA 170100Z 10008KT CAVOK 25/22 Q1013=,SBPA
1679018400000,METAR SBPA 170200Z 10005KT CAVOK 25/22 Q1013=,SBPA
1679022000000,METAR SBPA 170300Z 11006KT CAVOK 25/22 Q1013=,SBPA
1679025600000,METAR SBPA 170400Z 09004KT CAVOK 24/22 Q1013=,SBPA
1679029200000,METAR SBPA 170500Z 11005KT CAVOK 24/22 Q1013=,SBPA
1679032800000,METAR SBPA 170600Z 09002KT CAVOK 24/22 Q1013=,SBPA
1679036400000,METAR SBPA 170700Z 10002KT CAVOK 23/22 Q1012=,SBPA
1679040000000,METAR SBPA 170800Z 08003KT CAVOK 23/21 Q1013=,SBPA
1679043600000,METAR SBPA 170900Z 08003KT CAVOK 23/22 Q1013=,SBPA
1679047200000,METAR SBPA 171000Z VRB01KT CAVOK 22/21 Q1014=,SBPA
1679050800000,METAR SBPA 171100Z 00000KT CAVOK 27/23 Q1015=,SBPA
1679054400000,METAR SBPA 171200Z 33005KT 270V010 CAVOK 27/20 Q1015=,SBPA
1679058000000,METAR SBPA 171300Z 33009KT 290V360 CAVOK 29/19 Q1016=,SBPA
1679061600000,METAR SBPA 171400Z 34008KT 310V010 CAVOK 30/19 Q1016=,SBPA
1679065200000,METAR SBPA 171500Z 34006KT 270V050 CAVOK 32/19 Q1015=,SBPA
1679068800000,METAR SBPA 171600Z 01005KT 290V100 CAVOK 32/19 Q1014=,SBPA
1679072400000,METAR SBPA 171700Z VRB04KT CAVOK 33/19 Q1013=,SBPA
1679076000000,METAR SBPA 171800Z 03004KT CAVOK 34/20 Q1012=,SBPA
1679079600000,METAR SBPA 171900Z 08007KT CAVOK 34/20 Q1011=,SBPA
1679083200000,METAR SBPA 172000Z 05007KT 020V100 CAVOK 34/20 Q1011=,SBPA
1679086800000,METAR SBPA 172100Z 10008KT CAVOK 32/19 Q1011=,SBPA
1679090400000,METAR SBPA 172200Z 12009KT CAVOK 29/22 Q1012=,SBPA
1679094000000,METAR SBPA 172300Z 11010KT CAVOK 28/21 Q1012=,SBPA
1679011200000,METAR SBRF 170000Z 14005KT 9999 FEW023 27/22 Q1012=,SBRF
1679014800000,METAR SBRF 170100Z VRB02KT 9999 SCT023 27/22 Q1012=,SBRF
1679018400000,METAR SBRF 170200Z 30003KT 260V340 9999 SCT023 26/22 Q1012=,SBRF
1679022000000,METAR SBRF 170300Z 34003KT 9999 SCT023 25/21 Q1011=,SBRF
1679025600000,METAR SBRF 170400Z 32003KT 9999 SCT023 24/21 Q1011=,SBRF
1679029200000,METAR SBRF 170500Z 33004KT 9999 FEW023 24/21 Q1010=,SBRF
1679032800000,METAR SBRF 170600Z 23002KT 9999 FEW023 25/22 Q1010=,SBRF
1679036400000,METAR SBRF 170700Z 27002KT 9999 FEW023 25/23 Q1010=,SBRF
1679040000000,METAR SBRF 170800Z 29002KT 9999 FEW023 24/22 Q1010=,SBRF
1679043600000,METAR SBRF 170900Z 35002KT 9999 FEW023 24/22 Q1011=,SBRF
1679047200000,METAR SBRF 171000Z 30003KT 9999 FEW023 25/22 Q1012=,SBRF
1679050800000,METAR SBRF 171100Z 26003KT 220V310 9999 FEW022 27/22 Q1012=,SBRF
1679054400000,METAR SBRF 171200Z 24004KT 180V320 9999 FEW020 29/21 Q1013=,SBRF
1679058000000,METAR SBRF 171300Z VRB03KT 9999 SCT023 30/21 Q1012=,SBRF
1679061600000,METAR SBRF 171400Z 11007KT 010V150 9999 SCT023 30/21 Q1012=,SBRF
1679065200000,METAR SBRF 171500Z 13009KT 9999 SCT025 30/21 Q1011=,SBRF
1679068800000,METAR SBRF 171600Z 14009KT 9999 FEW025 30/21 Q1010=,SBRF
1679072400000,METAR SBRF 171700Z 10007KT 9999 FEW025 29/22 Q1010=,SBRF
1679076000000,METAR SBRF 171800Z 09007KT 9999 FEW025 29/22 Q1010=,SBRF
1679079600000,METAR SBRF 171900Z 06008KT 9999 FEW025 29/22 Q1010=,SBRF
1679083200000,METAR SBRF 172000Z 06006KT 9999 SCT020 28/22 Q1010=,SBRF
1679086800000,METAR SBRF 172100Z 04005KT 9999 SCT020 28/22 Q1010=,SBRF
1679090400000,METAR SBRF 172200Z 04004KT CAVOK 27/22 Q1011=,SBRF
1679094000000,METAR SBRF 172300Z 02003KT 9999 SCT023 28/22 Q1011=,SBRF
1679011200000,METAR SBRJ 170000Z 08005KT 9999 FEW020 SCT050 26/22 Q1015=,SBRJ
1679014800000,METAR SBRJ 170100Z 12004KT 9999 FEW020 SCT080 25/21 Q1015=,SBRJ
1679018400000,METAR SBRJ 170200Z 08008KT CAVOK 25/21 Q1015=,SBRJ
1679022000000,METAR SBRJ 170300Z 11008KT CAVOK 25/21 Q1015=,SBRJ
1679025600000,METAR SBRJ 170400Z 15002KT CAVOK 24/21 Q1014=,SBRJ
1679029200000,METAR SBRJ 170500Z 04001KT CAVOK 24/21 Q1014=,SBRJ
1679032800000,METAR SBRJ 170600Z 32002KT CAVOK 25/21 Q1014=,SBRJ
1679036400000,METAR SBRJ 170700Z 18001KT CAVOK 24/21 Q1014=,SBRJ
1679040000000,METAR SBRJ 170800Z 14005KT CAVOK 24/22 Q1014=,SBRJ
1679043600000,METAR SBRJ 170900Z 17001KT 9999 FEW015 24/22 Q1014=,SBRJ
1679047200000,METAR SBRJ 171000Z VRB02KT 9999 FEW015 25/21 Q1015=,SBRJ
1679050800000,METAR SBRJ 171100Z 02007KT 9999 FEW020 25/22 Q1016=,SBRJ
1679054400000,METAR SBRJ 171200Z 34005KT 300V360 9999 FEW020 25/22 Q1016=,SBRJ
1679058000000,METAR SBRJ 171300Z 34004KT 280V010 9999 FEW025 27/22 Q1016=,SBRJ
1679061600000,METAR SBRJ 171400Z 09003KT 040V130 9999 FEW025 28/22 Q1016=,SBRJ
1679065200000,METAR SBRJ 171500Z 16011KT 9999 FEW025 27/22 Q1016=,SBRJ
1679068800000,METAR SBRJ 171600Z 16014KT 9999 FEW025 27/23 Q1015=,SBRJ
1679072400000,METAR SBRJ 171700Z 16013KT 9999 FEW025 SCT100 27/22 Q1015=,SBRJ
1679076000000,METAR SBRJ 171800Z 16013KT 9999 FEW025 BKN100 28/23 Q1014=,SBRJ
1679079600000,METAR SBRJ 171900Z 16012KT 9999 FEW025 BKN100 27/23 Q1014=,SBRJ
1679083200000,METAR SBRJ 172000Z 16012KT 9999 FEW020 BKN080 26/23 Q1014=,SBRJ
1679086800000,METAR SBRJ 172100Z 16013KT 9999 FEW018 BKN080 26/22 Q1014=,SBRJ
1679090400000,METAR SBRJ 172200Z 17009KT 9999 SCT018 BKN080 25/23 Q1014=,SBRJ
1679094000000,METAR SBRJ 172300Z 14008KT 9999 FEW015 SCT020 BKN070 26/23 Q1014=,SBRJ
1679011200000,METAR SBSP 170000Z 13009KT 100V160 9999 SCT015 21/18 Q1019=,SBSP
1679014800000,METAR SBSP 170100Z 13009KT 9999 SCT013 20/17 Q1020=,SBSP
1679018400000,METAR SBSP 170200Z 12006KT 080V140 9999 FEW017 20/17 Q1020=,SBSP
1679018400000,SPECI SBSP 170200Z 12006KT 9999 FEW018 20/17 Q1020=,SBSP
1679022000000,METAR SBSP 170300Z AUTO 15006KT 9999 FEW015 19/17 Q1020=,SBSP
1679025600000,METAR SBSP 170400Z AUTO 12006KT CAVOK 19/17 Q1019=,SBSP
1679029200000,METAR SBSP 170500Z AUTO 13006KT CAVOK 19/17 Q1019=,SBSP
1679032800000,METAR SBSP 170600Z AUTO 11004KT 080V150 CAVOK 19/16 Q1019=,SBSP
1679036400000,METAR SBSP 170700Z AUTO 13004KT 090V150 CAVOK 18/16 Q1018=,SBSP
1679040000000,METAR SBSP 170800Z AUTO 14005KT CAVOK 18/15 Q1019=,SBSP
1679043600000,METAR SBSP 170900Z 13004KT 100V160 CAVOK 18/16 Q1020=,SBSP
1679047200000,METAR SBSP 171000Z 13004KT 090V150 CAVOK 19/16 Q1020=,SBSP
1679050800000,METAR SBSP 171100Z 10006KT 070V130 9999 FEW013 SCT030 21/16 Q1021=,SBSP
1679054400000,METAR SBSP 171200Z 09007KT 050V150 9999 FEW046 22/16 Q1021=,SBSP
1679058000000,METAR SBSP 171300Z 07007KT 020V130 9999 FEW030 24/15 Q1021=,SBSP
1679061600000,METAR SBSP 171400Z VRB05KT 9999 FEW033 25/15 Q1021=,SBSP
1679065200000,METAR SBSP 171500Z VRB05KT 9999 SCT046 26/15 Q1021=,SBSP
1679068800000,METAR SBSP 171600Z 09006KT 030V200 9999 BKN046 27/15 Q1020=,SBSP
1679072400000,METAR SBSP 171700Z 16010KT 120V210 9999 SCT030 26/18 Q1019=,SBSP
1679076000000,METAR SBSP 171800Z 17011KT 9999 SCT026 26/18 Q1018=,SBSP
1679079600000,METAR SBSP 171900Z 18014KT 9999 FEW025 25/18 Q1018=,SBSP
1679083200000,METAR SBSP 172000Z 17013KT 9999 BKN019 23/17 Q1018=,SBSP
1679086800000,METAR SBSP 172100Z 16013KT 9999 BKN023 22/18 Q1018=,SBSP
1679090400000,METAR SBSP 172200Z 15012KT 9999 SCT021 21/17 Q1018=,SBSP
1679094000000,METAR SBSP 172300Z 15010KT 9999 BKN015 20/17 Q1019=,SBSP
1679011200000,METAR SBSV 170000Z 13008KT 9999 SCT020 28/24 Q1012=,SBSV
1679014800000,METAR SBSV 170100Z 12008KT 9999 SCT020 28/23 Q1012=,SBSV
1679018400000,METAR SBSV 170200Z 12008KT 9999 SCT020 28/23 Q1012=,SBSV
1679022000000,METAR SBSV 170300Z 11008KT 9999 SCT020 28/23 Q1012=,SBSV
1679025600000,METAR SBSV 170400Z 11007KT 9999 SCT020 28/23 Q1011=,SBSV
1679029200000,METAR SBSV 170500Z 12005KT 9999 SCT020 28/23 Q1011=,SBSV
1679032800000,METAR SBSV 170600Z 20002KT 9999 SCT020 SCT060 27/22 Q1011=,SBSV
1679036400000,METAR SBSV 170700Z 16002KT 9999 SCT020 FEW023TCU 26/23 Q1011=,SBSV
1679040000000,METAR SBSV 170800Z 07003KT 9999 VCSH SCT020 FEW023TCU 25/23 Q1011=,SBSV
1679043600000,METAR SBSV 170900Z 24002KT 9999 -RA BKN020 FEW023TCU 25/24 Q1012=,SBSV
1679047200000,METAR SBSV 171000Z VRB02KT 6000 -RA FEW010 BKN020 FEW023TCU 26/24 Q1013=,SBSV
1679050800000,METAR SBSV 171100Z 33004KT 290V010 9000 VCSH BKN023 FEW025TCU 27/24 Q1013=,SBSV
1679054400000,METAR SBSV 171200Z 30003KT 260V360 9000 VCSH BKN020 FEW023TCU 28/24 Q1013=,SBSV
1679058000000,METAR SBSV 171300Z 11007KT 050V170 9999 VCSH BKN020 FEW023TCU 30/24 Q1013=,SBSV
1679061600000,METAR SBSV 171400Z 13006KT 030V180 9999 SCT021 FEW023TCU 30/25 Q1013=,SBSV
1679065200000,METAR SBSV 171500Z 14008KT 070V180 9999 SCT021 FEW023TCU 30/24 Q1012=,SBSV
1679068800000,METAR SBSV 171600Z 15008KT 100V200 9999 SCT021 FEW023TCU 30/24 Q1011=,SBSV
1679072400000,METAR SBSV 171700Z 17008KT 140V200 9999 VCSH SCT021 FEW023TCU 30/24 Q1011=,SBSV
1679076000000,METAR SBSV 171800Z 16008KT 110V200 9999 SCT021 FEW023TCU 29/24 Q1011=,SBSV
1679079600000,METAR SBSV 171900Z 12009KT 9999 SCT021 FEW023TCU SCT070 29/23 Q1011=,SBSV
1679083200000,METAR SBSV 172000Z 12008KT 9999 SCT021 FEW023TCU SCT070 29/22 Q1011=,SBSV
1679086800000,METAR SBSV 172100Z 11009G19KT 090V150 9999 SCT021 SCT070 29/22 Q1011=,SBSV
1679090400000,METAR SBSV 172200Z 11008KT 080V160 9999 FEW023 SCT070 29/22 Q1011=,SBSV
1679094000000,METAR SBSV 172300Z 10008KT 9999 FEW023 SCT070 28/22 Q1012=,SBSV
