hora,metar,aero
1672617600000,METAR SBBR 020000Z 12006KT 9999 FEW040 FEW045TCU SCT100 25/17 Q1018=,SBBR
1672621200000,METAR SBBR 020100Z 06003KT 360V120 9999 FEW040 SCT100 23/17 Q1019=,SBBR
1672624800000,METAR SBBR 020200Z 11006KT 9999 FEW040 SCT100 23/17 Q1019=,SBBR
1672628400000,METAR SBBR 020300Z 11005KT 9999 FEW040 BKN090 23/17 Q1019=,SBBR
1672632000000,METAR SBBR 020400Z 11007KT 9999 SCT040 BKN090 23/18 Q1018=,SBBR
1672635600000,METAR SBBR 020500Z 08009KT 9999 FEW040 BKN090 22/17 Q1017=,SBBR
1672639200000,METAR SBBR 020600Z 07005KT 9999 FEW040 BKN090 22/17 Q1017=,SBBR
1672642800000,METAR SBBR 020700Z 09004KT 9999 FEW040 BKN090 21/17 Q1017=,SBBR
1672646400000,METAR SBBR 020800Z 24002KT 9999 FEW040 19/18 Q1017=,SBBR
1672650000000,METAR SBBR 020900Z VRB02KT CAVOK 21/17 Q1017=,SBBR
1672653600000,METAR SBBR 021000Z 07005KT 040V100 CAVOK 22/17 Q1018=,SBBR
1672657200000,METAR SBBR 021100Z 04008KT 010V080 CAVOK 24/15 Q1019=,SBBR
1672660800000,METAR SBBR 021200Z 03011KT 360V060 9999 FEW020 25/14 Q1019=,SBBR
1672664400000,METAR SBBR 021300Z 01010KT 340V050 9999 SCT035 25/15 Q1019=,SBBR
1672668000000,METAR SBBR 021400Z 01009KT 320V060 9999 BKN040 26/15 Q1019=,SBBR
1672671600000,METAR SBBR 021500Z 02008KT 350V050 9999 BKN040 27/14 Q1018=,SBBR
1672675200000,METAR SBBR 021600Z 03006KT 320V080 9999 BKN040 29/16 Q1017=,SBBR
1672678800000,METAR SBBR 021700Z 05009KT 020V100 9999 BKN040 28/15 Q1015=,SBBR
1672682400000,METAR SBBR 021800Z 07009KT 030V110 9999 BKN040 29/16 Q1014=,SBBR
1672686000000,METAR SBBR 021900Z 07009KT 040V100 9999 BKN040 FEW045TCU 27/16 Q1013=,SBBR
1672689600000,METAR SBBR 022000Z 27008KT 9999 BKN040 FEW045TCU 25/17 Q1013=,SBBR
1672692120000,SPECI SBBR 022042Z 33011G25KT 1500 R11L/P2000 R29L/P2000 R11R/P2000 R29R/P2000 -TSRA BKN040 FEW045CB 22/19 Q1014=,SBBR
1672693200000,METAR SBBR 022100Z 34018KT 1000 R11L/P2000 R29R/P2000 R29L/P2000 R11R/P2000 -TSRA BKN010 BKN040 FEW045CB 19/17 Q1014=,SBBR
1672694160000,SPECI SBBR 022116Z 35011KT 310V030 8000 1500N SHRA TS BKN040 FEW045CB 20/18 Q1014=,SBBR
1672696800000,METAR SBBR 022200Z 33003KT 9999 VCTS FEW040 FEW045CB 21/19 Q1014 RETS RESHRA=,SBBR
1672700400000,METAR SBBR 022300Z VRB02KT 9999 FEW040 22/19 Q1016=,SBBR
1672617600000,METAR SBCF 020000Z 34008KT 9999 -RA FEW040 FEW045TCU BKN100 20/19 Q1019=,SBCF
1672620480000,SPECI SBCF 020048Z 35007KT 3000 -RA BR SCT004 SCT040 FEW045TCU BKN100 20/19 Q1019=,SBCF
1672621200000,METAR SBCF 020100Z 01004KT 3000 -RA BR SCT004 SCT040 FEW045TCU BKN100 20/19 Q1019=,SBCF
1672622820000,SPECI SBCF 020127Z 12007KT 8000 -RA VCTS SCT004 BKN010 FEW030CB BKN100 20/19 Q1019=,SBCF
1672624800000,METAR SBCF 020200Z 09004KT 9999 -RA VCTS FEW008 SCT030 FEW040CB BKN100 20/19 Q1019=,SBCF
1672627260000,SPECI SBCF 020241Z 18003KT 3000 -RA BR FEW008 SCT030 BKN100 20/19 Q1019=,SBCF
1672628400000,METAR COR SBCF 020300Z 14003KT 4000 -RA BR FEW004 BKN030 OVC080 19/18 Q1018=,SBCF
1672632000000,METAR SBCF 020400Z 09006KT 3000 -RA BR FEW030 BKN100 20/19 Q1018=,SBCF
1672635600000,METAR SBCF 020500Z 14005KT 4000 -RA FEW002 OVC070 19/18 Q1018=,SBCF
1672639200000,METAR SBCF 020600Z 15004KT 4000 -RA FEW004 BKN100 19/18 Q1018=,SBCF
1672642800000,METAR SBCF 020700Z 08006KT 8000 FEW010 BKN100 20/18 Q1017=,SBCF
1672646400000,METAR SBCF 020800Z 01006KT 9999 FEW010 BKN100 19/18 Q1016=,SBCF
1672650000000,METAR SBCF 020900Z 13004KT 9999 FEW020 BKN100 19/18 Q1018=,SBCF
1672653600000,METAR SBCF 021000Z 14003KT 090V180 9999 FEW010 BKN100 19/18 Q1019=,SBCF
1672657200000,METAR SBCF 021100Z 16003KT 120V210 9999 FEW020 BKN100 20/19 Q1019=,SBCF
1672660800000,METAR SBCF 021200Z 02005KT 340V070 9999 FEW015 SCT100 22/18 Q1019=,SBCF
1672664400000,METAR SBCF 021300Z 36004KT 300V090 9999 BKN020 BKN100 24/18 Q1019=,SBCF
1672668000000,METAR SBCF 021400Z 32009KT 9999 BKN025 SCT100 25/18 Q1019=,SBCF
1672671600000,METAR SBCF 021500Z 31011KT 9999 VCSH BKN025 FEW030TCU SCT100 26/18 Q1017=,SBCF
1672675200000,METAR SBCF 021600Z 33010KT 270V010 9999 VCSH BKN030 FEW035TCU BKN080 26/18 Q1017=,SBCF
1672678800000,METAR SBCF 021700Z 29008KT 9999 VCSH VCTS SCT033 FEW040CB BKN080 27/16 Q1015=,SBCF
1672682400000,METAR SBCF 021800Z 32008KT 9999 SCT035 FEW040TCU BKN080 27/17 Q1014=,SBCF
1672686000000,METAR SBCF 021900Z 08013KT 9999 VCSH SCT035 FEW040TCU SCT060 BKN080 25/18 Q1014=,SBCF
1672689600000,METAR SBCF 022000Z 05014KT 9999 VCSH SCT040 FEW045TCU SCT066 BKN100 23/17 Q1014=,SBCF
1672693200000,METAR SBCF 022100Z 04004KT 9999 SCT043 FEW045TCU SCT100 22/17 Q1014=,SBCF
1672696800000,METAR SBCF 022200Z 03002KT 9999 SCT040 FEW045TCU SCT100 22/17 Q1015=,SBCF
1672700400000,METAR SBCF 022300Z 15004KT 9999 FEW040 BKN100 21/19 Q1016=,SBCF
1672617600000,METAR SBCT 020000Z 08007KT 9999 BKN007 OVC014 19/19 Q1018=,SBCT
1672621200000,METAR SBCT 020100Z 09006KT 070V130 9999 BKN007 19/19 Q1018=,SBCT
1672624800000,METAR SBCT 020200Z 10005KT 9999 BKN006 19/19 Q1018=,SBCT
1672628400000,METAR SBCT 020300Z VRB02KT 9999 BKN007 19/19 Q1018=,SBCT
1672632000000,METAR SBCT 020400Z 07003KT 9999 BKN009 19/19 Q1018=,SBCT
1672635600000,METAR SBCT 020500Z 12006KT 9999 BKN009 18/18 Q1016=,SBCT
1672639200000,METAR SBCT 020600Z 04003KT 9999 BKN007 18/18 Q1016=,SBCT
1672642800000,METAR SBCT 020700Z 03003KT 9999 BKN009 18/18 Q1016=,SBCT
1672646400000,METAR SBCT 020800Z 04003KT 9999 BKN009 17/17 Q1016=,SBCT
1672650000000,METAR SBCT 020900Z VRB02KT 9999 BKN009 BKN100 18/18 Q1017=,SBCT
1672652400000,SPECI SBCT 020940Z 08004KT 9999 FEW009 BKN100 19/19 Q1017=,SBCT
1672653600000,METAR SBCT 021000Z VRB02KT 9999 FEW006 BKN100 19/19 Q1017=,SBCT
1672657200000,METAR SBCT 021100Z 01005KT 9999 FEW009 BKN100 21/19 Q1017=,SBCT
1672660800000,METAR SBCT 021200Z 36005KT CAVOK 23/19 Q1017=,SBCT
1672664400000,METAR SBCT 021300Z 30008KT 9999 FEW025 OVC100 24/19 Q1017=,SBCT
1672668000000,METAR SBCT 021400Z 31009KT 9999 FEW025 OVC100 25/20 Q1016=,SBCT
1672671600000,METAR SBCT 021500Z 32011KT 9999 FEW025 OVC100 26/20 Q1016=,SBCT
1672675200000,METAR SBCT 021600Z 32008KT 9999 FEW030 BKN100 26/19 Q1014=,SBCT
1672678800000,METAR SBCT 021700Z 28008KT 9999 FEW030 BKN100 27/19 Q1013=,SBCT
1672682400000,METAR SBCT 021800Z 29007KT 220V330 9999 BKN040 27/18 Q1012=,SBCT
1672686000000,METAR SBCT 021900Z 31009KT 9999 BKN045 27/17 Q1011=,SBCT
1672689600000,METAR SBCT 022000Z 10004KT 3000 -RA HZ BKN033 23/20 Q1011=,SBCT
1672690980000,SPECI SBCT 022023Z VRB10KT 4500 TSRA BR BKN025 FEW040CB 22/19 Q1012=,SBCT
1672691940000,SPECI SBCT 022039Z 21005KT 140V270 4500 BR TS BKN027 FEW040CB 21/19 Q1012 RERA=,SBCT
1672693200000,METAR SBCT 022100Z 17004KT 110V210 8000 SCT028 FEW035TCU 21/20 Q1012 RETS=,SBCT
1672696800000,METAR SBCT 022200Z VRB02KT 9999 FEW033 20/20 Q1012=,SBCT
1672700400000,METAR SBCT 022300Z 04004KT 9999 FEW030 21/20 Q1012=,SBCT
1672617600000,METAR SBFL 020000Z 03006KT 9999 FEW035TCU BKN040 26/23 Q1013=,SBFL
1672621200000,METAR SBFL 020100Z 02006KT 350V070 9999 BKN020 FEW030TCU 26/23 Q1014=,SBFL
1672624800000,METAR SBFL 020200Z 02008KT 9999 BKN017 26/23 Q1014=,SBFL
1672628400000,METAR SBFL 020300Z 36008KT 9999 BKN015 26/24 Q1014=,SBFL
1672632000000,METAR SBFL 020400Z 36009KT 9999 BKN015 26/23 Q1013=,SBFL
1672635600000,METAR SBFL 020500Z 01010KT 9999 SCT010 BKN020 26/23 Q1012=,SBFL
1672639200000,METAR SBFL 020600Z 36009KT 9999 SCT010 BKN020 25/24 Q1011=,SBFL
1672642800000,METAR SBFL 020700Z 25010KT 9999 SCT010 BKN020 25/23 Q1011=,SBFL
1672646400000,METAR SBFL 020800Z 33007KT 9999 BKN015 25/24 Q1011=,SBFL
1672650000000,METAR SBFL 020900Z 33009KT 9999 SCT015 25/24 Q1011=,SBFL
1672653600000,METAR SBFL 021000Z 31010KT 9999 SCT020 25/24 Q1012=,SBFL
1672657200000,METAR SBFL 021100Z 34012KT 9999 FEW020 27/23 Q1012=,SBFL
1672660800000,METAR SBFL 021200Z 35013KT 9999 SCT030 27/23 Q1011=,SBFL
1672664400000,METAR SBFL 021300Z 35013KT 9999 SCT030 28/22 Q1010=,SBFL
1672668000000,METAR SBFL 021400Z 36013KT 9999 FEW030 29/23 Q1010=,SBFL
1672671600000,METAR SBFL 021500Z 36013KT 9999 FEW030 30/22 Q1009=,SBFL
1672675200000,METAR SBFL 021600Z 01016KT 9999 FEW030 29/23 Q1008=,SBFL
1672678800000,METAR SBFL 021700Z 01016KT 9999 FEW030 28/23 Q1007=,SBFL
1672682400000,METAR SBFL 021800Z 02016KT 9999 FEW030 29/23 Q1006=,SBFL
1672686000000,METAR SBFL 021900Z 36015KT 9999 FEW030 29/23 Q1006=,SBFL
1672689600000,METAR SBFL 022000Z 02015KT 9999 FEW030 28/23 Q1005=,SBFL
1672693200000,METAR SBFL 022100Z 01014KT 9999 SCT030 28/23 Q1005=,SBFL
1672696800000,METAR SBFL 022200Z 01008KT 9999 SCT030 26/23 Q1006=,SBFL
1672700400000,METAR SBFL 022300Z 36013KT 9999 SCT030 26/23 Q1006=,SBFL
1672617600000,METAR SBGL 020000Z 10004KT 9999 SCT025 BKN070 25/21 Q1014=,SBGL
1672621200000,METAR SBGL 020100Z 10004KT 9999 SCT025 24/21 Q1014=,SBGL
1672624800000,METAR SBGL 020200Z 09002KT 9999 SCT025 24/21 Q1014=,SBGL
1672628400000,METAR SBGL 020300Z 18002KT 9999 FEW025 23/21 Q1013=,SBGL
1672632000000,METAR SBGL 020400Z 07004KT CAVOK 23/22 Q1012=,SBGL
1672635600000,METAR SBGL 020500Z 05004KT CAVOK 23/21 Q1012=,SBGL
1672639200000,METAR SBGL 020600Z 10003KT CAVOK 23/21 Q1012=,SBGL
1672642800000,METAR SBGL 020700Z 12003KT CAVOK 22/21 Q1011=,SBGL
1672646400000,METAR SBGL 020800Z 09005KT CAVOK 22/21 Q1012=,SBGL
1672650000000,METAR SBGL 020900Z 13006KT CAVOK 23/21 Q1013=,SBGL
1672653600000,METAR SBGL 021000Z 08005KT 9999 FEW015 25/22 Q1013=,SBGL
1672657200000,METAR SBGL 021100Z 09004KT 020V160 CAVOK 25/20 Q1013=,SBGL
1672660800000,METAR SBGL 021200Z 08004KT 030V150 CAVOK 28/21 Q1013=,SBGL
1672664400000,METAR SBGL 021300Z 17004KT 360V140 CAVOK 29/19 Q1013=,SBGL
1672668000000,METAR SBGL 021400Z VRB04KT 9999 FEW020 30/18 Q1012=,SBGL
1672671600000,METAR SBGL 021500Z 01004KT 290V100 9999 FEW030 31/18 Q1011=,SBGL
1672675200000,METAR SBGL 021600Z VRB06KT 9999 FEW030 32/20 Q1010=,SBGL
1672678800000,METAR SBGL 021700Z 06006KT 010V170 9999 FEW030 33/19 Q1009=,SBGL
1672682400000,METAR SBGL 021800Z 09006KT 9999 FEW030 33/19 Q1008=,SBGL
1672686000000,METAR SBGL 021900Z 14007KT 100V160 9999 FEW020 FEW030TCU 33/20 Q1007=,SBGL
1672689600000,METAR SBGL 022000Z 15006KT 9999 FEW020 FEW030TCU 32/20 Q1007=,SBGL
1672693200000,METAR SBGL 022100Z 22005KT 190V270 9999 FEW020 SCT050 31/20 Q1007=,SBGL
1672696800000,METAR SBGL 022200Z 03010KT 9999 VCSH FEW020 SCT050 27/20 Q1008=,SBGL
1672700400000,METAR SBGL 022300Z 34003KT 9999 FEW030 SCT050 26/21 Q1008=,SBGL
1672617600000,METAR SBGR 020000Z 13005KT 8000 BKN011 21/19 Q1017=,SBGR
1672621200000,METAR SBGR 020100Z 13004KT 9999 BKN013 BKN023 21/19 Q1018=,SBGR
1672624800000,METAR SBGR 020200Z 09003KT 9999 BKN013 BKN023 21/19 Q1018=,SBGR
1672625700000,SPECI SBGR 020215Z 08004KT 9999 SCT013 SCT023 21/19 Q1017=,SBGR
1672628400000,METAR SBGR 020300Z 06006KT 9999 BKN011 BKN019 20/19 Q1017=,SBGR
1672632000000,METAR SBGR 020400Z 08005KT 9999 SCT009 SCT019 20/19 Q1016=,SBGR
1672635600000,METAR SBGR 020500Z 08004KT 9999 BKN009 19/19 Q1016=,SBGR
1672639200000,METAR SBGR 020600Z 09004KT 9999 SCT009 19/19 Q1016=,SBGR
1672642800000,METAR SBGR 020700Z 08004KT 9999 SCT008 19/19 Q1015=,SBGR
1672644300000,SPECI SBGR 020725Z 06005KT 9999 BKN008 19/19 Q1016=,SBGR
1672646400000,METAR SBGR 020800Z 06003KT 9999 BKN006 19/18 Q1016=,SBGR
1672650000000,METAR SBGR 020900Z 05004KT 8000 BKN006 19/19 Q1016=,SBGR
1672653600000,METAR SBGR 021000Z 31003KT 9999 SCT007 20/19 Q1016=,SBGR
1672657200000,METAR SBGR 021100Z 08002KT CAVOK 22/19 Q1016=,SBGR
1672660800000,METAR SBGR 021200Z 06004KT 360V100 9999 FEW021 24/19 Q1017=,SBGR
1672664400000,METAR SBGR 021300Z 31003KT 9999 FEW032 27/17 Q1016=,SBGR
1672668000000,METAR SBGR 021400Z 33008KT 270V010 9999 BKN036 28/18 Q1016=,SBGR
1672671600000,METAR SBGR 021500Z 31008G18KT 9999 BKN040 28/18 Q1015=,SBGR
1672675200000,METAR SBGR 021600Z 31011KT 290V350 9999 BKN043 29/18 Q1013=,SBGR
1672678800000,METAR SBGR 021700Z 28008KT 9999 BKN040 30/19 Q1012=,SBGR
1672682400000,METAR SBGR 021800Z 29010KT 8000 VCSH SCT040TCU BKN050 30/17 Q1011=,SBGR
1672686000000,METAR SBGR 021900Z 13008KT 8000 VCSH BKN040 FEW045TCU 22/20 Q1011=,SBGR
1672689600000,METAR SBGR 022000Z 06014KT 9999 VCSH FEW050TCU BKN100 24/18 Q1011=,SBGR
1672693200000,METAR SBGR 022100Z 05005KT 9999 FEW040 24/17 Q1011=,SBGR
1672696800000,METAR SBGR 022200Z 08010KT CAVOK 22/18 Q1012=,SBGR
1672700400000,METAR SBGR 022300Z 08006KT CAVOK 22/18 Q1013=,SBGR
1672617600000,METAR SBKP 020000Z 07004KT 9999 -TSRA SCT048 FEW050CB BKN100 22/19 Q1016=,SBKP
1672621200000,METAR SBKP 020100Z 11004KT 9999 FEW048 BKN100 22/19 Q1016 RETS=,SBKP
1672624800000,METAR SBKP 020200Z 13007KT CAVOK 22/19 Q1016=,SBKP
1672628400000,METAR SBKP 020300Z 12006KT CAVOK 21/19 Q1015=,SBKP
1672632000000,METAR SBKP 020400Z 12007KT CAVOK 20/19 Q1015=,SBKP
1672635600000,METAR SBKP 020500Z 12005KT CAVOK 20/18 Q1015=,SBKP
1672639200000,METAR SBKP 020600Z 11004KT CAVOK 20/18 Q1015=,SBKP
1672642800000,METAR SBKP 020700Z 10004KT CAVOK 20/18 Q1015=,SBKP
1672646400000,METAR SBKP 020800Z 10004KT CAVOK 20/18 Q1015=,SBKP
1672650000000,METAR SBKP 020900Z 09004KT CAVOK 20/18 Q1015=,SBKP
1672653600000,METAR SBKP 021000Z 11003KT CAVOK 22/19 Q1015=,SBKP
1672657200000,METAR SBKP 021100Z 01003KT 310V030 CAVOK 24/19 Q1016=,SBKP
1672660800000,METAR SBKP 021200Z 36007KT 320V030 9999 FEW025 25/19 Q1016=,SBKP
1672664400000,METAR SBKP 021300Z 02008KT 330V070 9999 SCT030 26/19 Q1016=,SBKP
1672668000000,METAR SBKP 021400Z 34007KT 9999 BKN033 27/20 Q1016=,SBKP
1672671600000,METAR SBKP 021500Z 31008KT 280V350 9999 BKN033 27/20 Q1014=,SBKP
1672675200000,METAR SBKP 021600Z 32008KT 270V020 9999 BKN040 29/20 Q1013=,SBKP
1672678800000,METAR SBKP 021700Z 35006KT 310V050 9999 BKN040 29/20 Q1012=,SBKP
1672682400000,METAR SBKP 021800Z 23005KT 180V310 9999 SCT040 30/19 Q1011=,SBKP
1672686000000,METAR SBKP 021900Z 30005KT 260V010 9999 SCT045 30/19 Q1009=,SBKP
1672689600000,METAR SBKP 022000Z 23006KT 200V280 9999 SCT045 FEW050TCU 30/18 Q1009=,SBKP
1672693200000,METAR SBKP 022100Z 27005KT 230V300 9999 VCSH SCT045 FEW050TCU 30/19 Q1009=,SBKP
1672694700000,SPECI SBKP 022125Z 01016G26KT 9999 VCSH BKN045 FEW050TCU 26/19 Q1010=,SBKP
1672696800000,METAR SBKP 022200Z 02014G25KT 9999 TS VCSH BKN045 FEW050CB BKN100 24/19 Q1011=,SBKP
1672698720000,SPECI SBKP 022232Z 06007KT 030V110 9999 SCT045 FEW050TCU SCT100 23/19 Q1011 RETS=,SBKP
1672700400000,METAR SBKP 022300Z 06008KT 9999 BKN045 23/19 Q1012 RETS=,SBKP
1672617600000,METAR SBPA 020000Z 09011KT CAVOK 27/21 Q1008=,SBPA
1672621200000,METAR SBPA 020100Z 10009KT CAVOK 26/21 Q1008=,SBPA
1672624800000,METAR SBPA 020200Z 10009KT CAVOK 26/21 Q1009=,SBPA
1672628400000,METAR SBPA 020300Z 09010KT CAVOK 26/21 Q1008=,SBPA
1672632000000,METAR SBPA 020400Z 09011KT CAVOK 26/21 Q1007=,SBPA
1672635600000,METAR SBPA 020500Z 09003KT 060V130 CAVOK 26/21 Q1007=,SBPA
1672639200000,METAR SBPA 020600Z 09004KT CAVOK 25/21 Q1007=,SBPA
1672642800000,METAR SBPA 020700Z 30004KT CAVOK 25/22 Q1007=,SBPA
1672646400000,METAR SBPA 020800Z 30004KT 9999 FEW020 25/22 Q1007=,SBPA
1672650000000,METAR SBPA 020900Z 27003KT 230V350 9999 VCSH FEW020 26/22 Q1007=,SBPA
1672653600000,METAR SBPA 021000Z 29004KT 260V330 9999 FEW020 27/21 Q1008=,SBPA
1672657200000,METAR SBPA 021100Z 27006KT 9999 -RA FEW035 BKN100 27/22 Q1008=,SBPA
1672660800000,METAR SBPA 021200Z 01003KT 300V060 9999 VCSH FEW035 BKN100 27/22 Q1008=,SBPA
1672664400000,METAR SBPA 021300Z 35008KT 320V020 9999 VCSH FEW035 BKN100 29/21 Q1008=,SBPA
1672668000000,METAR SBPA 021400Z 31010G20KT 260V350 9999 FEW035 BKN100 30/21 Q1007=,SBPA
1672671600000,METAR SBPA 021500Z 27008KT 250V310 9999 SCT035 BKN100 31/22 Q1007=,SBPA
1672675200000,METAR SBPA 021600Z 28012KT 9999 SCT030 BKN100 32/21 Q1006=,SBPA
1672678800000,METAR SBPA 021700Z 28011KT 250V310 9999 SCT030 BKN100 32/22 Q1005=,SBPA
1672682400000,METAR SBPA 021800Z 30011KT 270V330 9999 SCT035 FEW040TCU 33/21 Q1004=,SBPA
1672686000000,METAR SBPA 021900Z 29009KT 260V340 9999 VCSH SCT040 FEW045TCU 33/21 Q1003=,SBPA
1672689600000,METAR SBPA 022000Z 30006KT 230V340 9999 VCSH SCT040 FEW045TCU 33/21 Q1002=,SBPA
1672691760000,SPECI SBPA 022036Z 31007KT 250V340 3500 -TSRA SCT040 FEW045CB BKN070 32/23 Q1002=,SBPA
1672692420000,SPECI SBPA 022047Z 25013G23KT 3500 TSRA BR BKN016 FEW045CB BKN070 26/23 Q1003=,SBPA
1672693200000,METAR SBPA 022100Z 27013G23KT 220V320 2000 +TSRA BR BKN015 FEW040CB BKN070 26/23 Q1003 RERA=,SBPA
1672693620000,SPECI SBPA 022107Z 08002KT 4000 -TSRA BR BKN017 FEW040CB BKN070 25/23 Q1003 RERA=,SBPA
1672696800000,METAR SBPA 022200Z 17005KT 8000 TS VCSH SCT020 FEW040CB BKN060 25/22 Q1003 RERA=,SBPA
1672700400000,METAR SBPA 022300Z 10003KT 070V150 9999 TS VCSH SCT035 FEW040CB BKN060 26/24 Q1003=,SBPA
1672617600000,METAR SBRF 020000Z 11008KT 070V160 4000 RA BR SCT008 BKN015 BKN050 24/23 Q1013=,SBRF
1672619460000,SPECI SBRF 020031Z 24011KT 3000 RA BR BKN008 OVC050 24/22 Q1013=,SBRF
1672621200000,METAR SBRF 020100Z 00000KT 9000 BKN008 BKN060 25/23 Q1013 RERA=,SBRF
1672624800000,METAR SBRF 020200Z 10006KT 9000 VCSH FEW010 BKN020 BKN050 27/23 Q1013=,SBRF
1672628400000,METAR SBRF 020300Z 10008KT 9999 SCT021 SCT070 27/22 Q1012=,SBRF
1672632000000,METAR SBRF 020400Z 09009KT 9999 SCT021 27/22 Q1012=,SBRF
1672635600000,METAR SBRF 020500Z 09007KT 9999 SCT022 SCT060 27/22 Q1011=,SBRF
1672639200000,METAR SBRF 020600Z 10008KT 9999 BKN020 SCT060 27/22 Q1011=,SBRF
1672642800000,METAR SBRF 020700Z 10008KT 9999 VCSH BKN022 27/22 Q1011=,SBRF
1672646400000,METAR SBRF 020800Z 10007KT 060V140 9999 BKN021 SCT050 27/22 Q1012=,SBRF
1672650000000,METAR SBRF 020900Z 09007KT 9999 SCT023 BKN060 27/22 Q1012=,SBRF
1672653600000,METAR SBRF 021000Z 09005KT 9999 BKN021 BKN050 28/22 Q1013=,SBRF
1672657200000,METAR SBRF 021100Z 08007KT 050V130 9999 VCSH BKN021 BKN050 27/22 Q1014=,SBRF
1672660800000,METAR SBRF 021200Z 09009KT 060V130 9999 BKN021 SCT050 29/22 Q1014=,SBRF
1672664400000,METAR SBRF 021300Z 09009KT 060V130 9999 SCT023 SCT050 29/22 Q1014=,SBRF
1672668000000,METAR SBRF 021400Z 10007KT 040V140 9999 BKN023 SCT050 29/23 Q1013=,SBRF
1672671600000,METAR SBRF 021500Z VRB09KT 9999 BKN023 SCT050 30/23 Q1013=,SBRF
1672675200000,METAR SBRF 021600Z 11009KT 050V160 9999 BKN023 29/22 Q1012=,SBRF
1672678800000,METAR SBRF 021700Z 10008KT 050V140 9999 BKN023 29/22 Q1011=,SBRF
1672682400000,METAR SBRF 021800Z 09008KT 9999 BKN023 29/22 Q1010=,SBRF
1672686000000,METAR SBRF 021900Z 10008KT 9999 BKN023 29/22 Q1010=,SBRF
1672689600000,METAR SBRF 022000Z 10006KT 040V140 9999 BKN023 BKN060 28/22 Q1011=,SBRF
1672693200000,METAR SBRF 022100Z 09005KT 010V130 9999 BKN023 BKN060 28/22 Q1011=,SBRF
1672696800000,METAR SBRF 022200Z 09007KT 060V120 9999 BKN021 27/22 Q1012=,SBRF
1672700400000,METAR SBRF 022300Z 09006KT 9999 BKN021 27/22 Q1013=,SBRF
1672617600000,METAR SBRJ 020000Z 03004KT 9999 FEW025 SCT080 25/22 Q1014=,SBRJ
1672621200000,METAR SBRJ 020100Z 04009KT 9999 BKN018 25/22 Q1014=,SBRJ
1672624800000,METAR SBRJ 020200Z 36005KT 9999 SCT020 24/23 Q1014=,SBRJ
1672628400000,METAR SBRJ 020300Z 00000KT CAVOK 24/22 Q1013=,SBRJ
1672632000000,METAR SBRJ 020400Z 00000KT CAVOK 23/22 Q1012=,SBRJ
1672635600000,METAR SBRJ 020500Z 16003KT 120V180 CAVOK 23/22 Q1012=,SBRJ
1672639200000,METAR SBRJ 020600Z VRB01KT CAVOK 23/22 Q1011=,SBRJ
1672642800000,METAR SBRJ 020700Z 20001KT CAVOK 23/22 Q1011=,SBRJ
1672646400000,METAR SBRJ 020800Z 13003KT CAVOK 23/22 Q1012=,SBRJ
1672650000000,METAR SBRJ 020900Z VRB02KT CAVOK 23/22 Q1013=,SBRJ
1672653600000,METAR SBRJ 021000Z 34004KT 290V040 CAVOK 24/21 Q1013=,SBRJ
1672657200000,METAR SBRJ 021100Z 33006KT CAVOK 25/22 Q1013=,SBRJ
1672660800000,METAR SBRJ 021200Z 32005KT 290V040 CAVOK 26/22 Q1012=,SBRJ
1672664400000,METAR SBRJ 021300Z 32005KT 290V360 CAVOK 27/21 Q1012=,SBRJ
1672668000000,METAR SBRJ 021400Z 13004KT 9999 FEW030 27/22 Q1012=,SBRJ
1672671600000,METAR SBRJ 021500Z 15008KT 9999 FEW030 29/21 Q1011=,SBRJ
1672675200000,METAR SBRJ 021600Z 15008KT 9999 FEW030 29/21 Q1010=,SBRJ
1672678800000,METAR SBRJ 021700Z 16008KT 9999 FEW030 29/22 Q1009=,SBRJ
1672682400000,METAR SBRJ 021800Z 16009KT 9999 FEW030 29/23 Q1008=,SBRJ
1672686000000,METAR SBRJ 021900Z 19009KT 9999 FEW030 31/23 Q1007=,SBRJ
1672689600000,METAR SBRJ 022000Z 19007KT 150V220 9999 FEW030 FEW035TCU 30/22 Q1007=,SBRJ
1672693200000,METAR SBRJ 022100Z 19009KT 9999 FEW030 FEW035TCU 30/22 Q1007=,SBRJ
1672695600000,SPECI SBRJ 022140Z 33015KT 300V360 9999 VCSH FEW030 FEW035TCU SCT050 30/23 Q1007=,SBRJ
1672696800000,METAR SBRJ 022200Z 33011KT 9999 VCSH FEW030 FEW035TCU SCT050 29/20 Q1008=,SBRJ
1672700400000,METAR SBRJ 022300Z 06003KT 9999 FEW030 27/23 Q1008=,SBRJ
1672617600000,METAR SBSP 020000Z 16008KT 9999 BKN011 21/18 Q1018=,SBSP
1672621200000,METAR SBSP 020100Z 13005KT 080V160 9999 SCT011 BKN015 21/18 Q1019=,SBSP
1672624800000,METAR SBSP 020200Z 08003KT 040V150 9999 SCT011 OVC013 21/18 Q1019=,SBSP
1672624860000,SPECI SBSP 020201Z 11003KT 040V160 9999 // SCT012 BKN014 21/18 Q1018=,SBSP
1672626360000,SPECI SBSP 020226Z AUTO 07005KT 9999 // FEW013/// SCT019/// 21/17 Q1018=,SBSP
1672628400000,METAR SBSP 020300Z AUTO 09004KT 050V120 9999 FEW012 SCT018 20/18 Q1017=,SBSP
1672632000000,METAR SBSP 020400Z AUTO 09004KT 040V130 9999 FEW009 20/18 Q1016=,SBSP
1672635600000,METAR SBSP 020500Z AUTO 04003KT CAVOK 20/18 Q1016=,SBSP
1672639200000,METAR SBSP 020600Z AUTO 06003KT 030V090 CAVOK 20/18 Q1016=,SBSP
1672642800000,METAR SBSP 020700Z AUTO 04003KT 010V080 CAVOK 20/18 Q1016=,SBSP
1672646400000,METAR SBSP 020800Z AUTO 04003KT 9999 // NCD 20/18 Q1016=,SBSP
1672650000000,METAR SBSP 020900Z 08003KT 050V110 9999 FEW005 20/18 Q1017=,SBSP
1672653600000,METAR SBSP 021000Z 01003KT 330V060 9999 FEW007 21/18 Q1017=,SBSP
1672657200000,METAR SBSP 021100Z VRB04KT CAVOK 23/18 Q1017=,SBSP
1672660800000,METAR SBSP 021200Z 35006KT 300V040 CAVOK 25/17 Q1017=,SBSP
1672664400000,METAR SBSP 021300Z 33007KT 240V010 CAVOK 26/17 Q1017=,SBSP
1672668000000,METAR SBSP 021400Z 32010KT 290V360 9999 BKN036 28/18 Q1016=,SBSP
1672671600000,METAR SBSP 021500Z 32008KT 260V010 9999 BKN040 28/17 Q1015=,SBSP
1672675200000,METAR SBSP 021600Z 32010KT 290V350 9999 SCT043 BKN083 28/18 Q1014=,SBSP
1672678800000,METAR SBSP 021700Z 32008KT 260V360 9999 SCT043 BKN083 29/16 Q1013=,SBSP
1672682400000,METAR COR SBSP 021800Z 16017KT 9999 -RA SCT043 BKN050 24/20 Q1013=,SBSP
1672686000000,METAR SBSP 021900Z 13009KT 9999 SCT046 25/19 Q1012=,SBSP
1672689600000,METAR SBSP 022000Z 09009KT 060V130 CAVOK 26/16 Q1012=,SBSP
1672693200000,METAR SBSP 022100Z 09007KT CAVOK 24/17 Q1012=,SBSP
1672696800000,METAR SBSP 022200Z 14005KT 9999 FEW046 24/17 Q1013=,SBSP
1672700400000,METAR SBSP 022300Z 07003KT 010V110 CAVOK 23/17 Q1013=,SBSP
1672617600000,METAR SBSV 020000Z 06011KT 9999 SCT020 SCT080 25/23 Q1015=,SBSV
1672621200000,METAR SBSV 020100Z 05005KT 9999 SCT020 SCT080 26/22 Q1015=,SBSV
1672624800000,METAR SBSV 020200Z 35003KT 9999 SCT020 SCT080 25/23 Q1014=,SBSV
1672628400000,METAR SBSV 020300Z 30002KT 9999 SCT020 SCT080 25/23 Q1014=,SBSV
1672632000000,METAR SBSV 020400Z 29004KT 9999 SCT020 25/23 Q1013=,SBSV
1672635600000,METAR SBSV 020500Z 26003KT 9999 SCT020 24/22 Q1013=,SBSV
1672639200000,METAR SBSV 020600Z 00000KT 9999 SCT020 24/23 Q1012=,SBSV
1672642800000,METAR SBSV 020700Z 28003KT 9999 SCT020 24/23 Q1013=,SBSV
1672646400000,METAR SBSV 020800Z 26004KT 9999 VCSH SCT020 FEW025TCU 24/23 Q1012=,SBSV
1672647900000,SPECI SBSV 020825Z 01007KT 2500 -SHRA BKN020 FEW025TCU 24/23 Q1013=,SBSV
1672650000000,METAR SBSV 020900Z 31003KT 9999 VCSH BKN020 FEW025TCU 24/24 Q1013=,SBSV
1672653600000,METAR SBSV 021000Z VRB02KT 9000 VCSH BKN020 FEW025TCU SCT070 25/23 Q1014=,SBSV
1672657200000,METAR SBSV 021100Z 02004KT 290V060 9999 VCSH SCT020 FEW025TCU SCT070 28/24 Q1014=,SBSV
1672660800000,METAR SBSV 021200Z 07011KT 9999 VCSH SCT020 FEW025TCU SCT070 28/24 Q1015=,SBSV
1672661520000,SPECI SBSV 021212Z 05014KT 020V080 2200 SHRA BKN008 BKN016 FEW020TCU 25/23 Q1015=,SBSV
1672663320000,SPECI SBSV 021242Z 02009KT 350V060 4000 -RA BKN010 BKN016 FEW020TCU 25/24 Q1015 RESHRA=,SBSV
1672664400000,METAR SBSV 021300Z 04011KT 5000 -RA BKN012 BKN016 FEW020TCU 25/24 Q1015 RESHRA=,SBSV
1672666200000,SPECI SBSV 021330Z 05013KT 5000 -RA BR FEW013 BKN016 FEW020TCU BKN070 25/24 Q1014=,SBSV
1672668000000,METAR SBSV 021400Z 05011KT 8000 VCSH FEW013 BKN016 FEW020TCU BKN070 26/24 Q1014=,SBSV
1672671600000,METAR SBSV 021500Z 07010KT 9999 BKN020 FEW023TCU BKN070 27/23 Q1014=,SBSV
1672675200000,METAR SBSV 021600Z 06013KT 9999 SCT020 FEW023TCU BKN070 28/24 Q1012=,SBSV
1672678800000,METAR SBSV 021700Z 06016KT 9999 SCT020 BKN070 29/23 Q1011=,SBSV
1672682400000,METAR SBSV 021800Z 07014KT 9999 SCT020 BKN070 28/22 Q1011=,SBSV
1672686000000,METAR SBSV 021900Z 06013KT 9999 SCT020 BKN070 28/23 Q1011=,SBSV
1672689600000,METAR SBSV 022000Z 06013KT 9999 SCT020 BKN070 27/23 Q1011=,SBSV
1672693200000,METAR SBSV 022100Z 06011KT 9999 SCT020 BKN070 27/23 Q1012=,SBSV
1672696800000,METAR SBSV 022200Z 07010KT 9999 SCT020 BKN070 27/23 Q1012=,SBSV
1672700400000,METAR SBSV 022300Z 07011KT 9999 FEW020 SCT070 27/23 Q1013=,SBSV
