hora,metar,aero
1681048800000,METAR SBBR 091400Z 10006KT 9999 SCT025 SCT070 25/18 Q1021=,SBBR
1680998400000,METAR SBBR 090000Z 09003KT 070V140 9999 SCT019 SCT040 FEW045TCU BKN100 21/19 Q1020=,SBBR
1681002000000,METAR SBBR 090100Z 14003KT 090V220 9999 SCT010 SCT040 BKN080 21/19 Q1020=,SBBR
1681005600000,METAR SBBR 090200Z 24002KT 9999 FEW019 SCT080 21/19 Q1020=,SBBR
1681009200000,METAR SBBR 090300Z 25002KT 9999 FEW020 SCT080 20/19 Q1021=,SBBR
1681012800000,METAR SBBR 090400Z 24002KT 9999 FEW020 SCT080 20/18 Q1021=,SBBR
1681016400000,METAR SBBR 090500Z 20004KT 9999 FEW020 SCT080 20/18 Q1020=,SBBR
1681020000000,METAR SBBR 090600Z 22003KT 9999 FEW020 SCT080 20/18 Q1019=,SBBR
1681023600000,METAR SBBR 090700Z 16004KT 9999 FEW010 SCT080 20/18 Q1019=,SBBR
1681025580000,SPECI SBBR 090733Z 20004KT 9999 BKN006 20/18 Q1019=,SBBR
1681027200000,METAR SBBR 090800Z 19003KT 9999 BKN006 20/18 Q1019=,SBBR
1681030800000,METAR SBBR 090900Z VRB02KT 9999 FEW006 19/18 Q1019=,SBBR
1681034400000,METAR SBBR 091000Z 15002KT 9999 FEW020 20/18 Q1019=,SBBR
1681038000000,METAR SBBR 091100Z 18003KT 9999 FEW020 21/18 Q1020=,SBBR
1681041600000,METAR SBBR 091200Z 13009KT 9999 FEW020 23/17 Q1021=,SBBR
1681045200000,METAR SBBR 091300Z 15010KT 9999 FEW025 25/17 Q1021=,SBBR
1681052400000,METAR SBBR 091500Z 10006KT 9999 SCT030 SCT070 27/19 Q1020=,SBBR
1681056000000,METAR SBBR 091600Z 13006KT 9999 BKN030 FEW035TCU SCT070 27/17 Q1020=,SBBR
1681059600000,METAR SBBR 091700Z 08005KT 9999 BKN030 FEW035TCU SCT070 28/18 Q1018=,SBBR
1681063200000,METAR SBBR 091800Z 32006KT 280V010 9999 TS VCSH BKN040 FEW045CB BKN090 25/19 Q1018=,SBBR
1681066800000,METAR SBBR 091900Z 21007KT 9999 TS SCT040 FEW045CB BKN100 23/16 Q1017=,SBBR
1681070400000,METAR SBBR 092000Z 22004KT 200V270 9999 VCTS SCT040 FEW045CB SCT100 23/18 Q1017 RETS=,SBBR
1681074000000,METAR SBBR 092100Z 05003KT 020V080 9999 SCT040 FEW045TCU SCT100 23/19 Q1017=,SBBR
1681077600000,METAR SBBR 092200Z VRB01KT 9999 SCT040 FEW045TCU SCT100 22/19 Q1017=,SBBR
1681081200000,METAR SBBR 092300Z VRB01KT 9999 SCT040 FEW045TCU SCT100 22/19 Q1019=,SBBR
1680998400000,METAR SBCF 090000Z 13002KT CAVOK 23/19 Q1018=,SBCF
1681002000000,METAR SBCF 090100Z 07007KT CAVOK 24/19 Q1018=,SBCF
1681005600000,METAR SBCF 090200Z 09009KT 9999 SCT040 SCT100 23/19 Q1019=,SBCF
1681009200000,METAR SBCF 090300Z 11009KT 9999 FEW040 SCT100 22/19 Q1019=,SBCF
1681012800000,METAR SBCF 090400Z 12007KT 9999 FEW040 SCT100 22/19 Q1019=,SBCF
1681015200000,SPECI SBCF 090440Z 23016G26KT 4000 TSRA BKN011 FEW014CB SCT100 20/18 Q1019=,SBCF
1681016400000,METAR SBCF 090500Z 23013G24KT 1200 R16R/1500D R34L/2000N TSRA BR BKN007 BKN018 FEW020CB 18/17 Q1019=,SBCF
1681017060000,SPECI SBCF 090511Z 19006KT 1700 R16R/0100U R34L/P2000N -TSRA BR BKN005 BKN018 FEW020CB 18/17 Q1019 RERA=,SBCF
1681018920000,SPECI SBCF 090542Z 15004KT 5000 BR VCTS SCT005 BKN012 FEW020CB 19/18 Q1018 RETSRA=,SBCF
1681020000000,METAR SBCF 090600Z 14006KT 9999 VCTS SCT005 BKN011 FEW020CB 19/18 Q1019=,SBCF
1681023600000,METAR SBCF 090700Z 08006KT 9999 BKN020 20/19 Q1018=,SBCF
1681027200000,METAR SBCF 090800Z 10005KT 9999 BKN020 20/18 Q1018=,SBCF
1681030800000,METAR SBCF 090900Z 15003KT 4000 BR BKN020 BKN090 19/18 Q1019=,SBCF
1681034400000,METAR SBCF 091000Z 11006KT 9999 SCT020 BKN060 20/19 Q1019=,SBCF
1681036260000,SPECI SBCF 091031Z 15005KT 4000 BR FEW003 SCT020 BKN060 20/19 Q1020=,SBCF
1681038000000,METAR SBCF 091100Z 13005KT 9000 -RA FEW003 SCT020 BKN060 20/19 Q1020=,SBCF
1681041600000,METAR SBCF 091200Z 13008KT 9999 FEW008 SCT020 BKN060 21/19 Q1020=,SBCF
1681045200000,METAR SBCF 091300Z 13007KT 9999 SCT010 BKN070 23/19 Q1020=,SBCF
1681048800000,METAR SBCF 091400Z 08008KT 9999 FEW013 BKN070 24/18 Q1020=,SBCF
1681052400000,METAR SBCF 091500Z 08008KT 9999 FEW015 BKN070 25/18 Q1019=,SBCF
1681056000000,METAR SBCF 091600Z 15007KT 9999 SCT020 BKN080 24/18 Q1019=,SBCF
1681059600000,METAR SBCF 091700Z 14005KT 9999 -RA FEW025 FEW030TCU SCT050 BKN080 25/18 Q1018=,SBCF
1681063200000,METAR SBCF 091800Z 07005KT 9999 FEW025 FEW035TCU BKN100 25/18 Q1017=,SBCF
1681066800000,METAR SBCF 091900Z 06006KT 9999 FEW030 FEW035TCU BKN100 25/18 Q1017=,SBCF
1681070400000,METAR SBCF 092000Z 07007KT 9999 FEW030 FEW035TCU BKN100 24/18 Q1017=,SBCF
1681074000000,METAR SBCF 092100Z 12005KT 9999 VCSH VCTS SCT030 FEW035CB BKN090 23/18 Q1018=,SBCF
1681075980000,SPECI SBCF 092133Z 22017G40KT 0500 R16R/0350 R34L/P2000 +TSRA SCT020 FEW035CB BKN090 23/19 Q1019=,SBCF
1681076760000,SPECI SBCF 092146Z 14013KT 3000 TSRA FEW005 BKN020 FEW035CB BKN090 19/18 Q1019 RERA=,SBCF
1681077600000,METAR SBCF 092200Z 13011KT 3000 -TSRA FEW005 BKN020 FEW035CB BKN043 19/18 Q1019 RERA=,SBCF
1681078500000,SPECI SBCF 092215Z 07009KT 9999 -TSRA FEW005 BKN020 FEW035CB BKN100 20/18 Q1019=,SBCF
1681081200000,METAR SBCF 092300Z 14005KT 9999 -RA VCTS FEW005 SCT025 FEW035CB BKN080 20/18 Q1020 RETS=,SBCF
1680998400000,METAR SBCT 090000Z 12006KT 100V160 9000 BKN006 16/16 Q1022=,SBCT
1681002000000,METAR SBCT 090100Z 13007KT 6000 -DZ OVC004 16/16 Q1022=,SBCT
1681005600000,METAR SBCT 090200Z 10006KT 8000 -DZ OVC003 16/16 Q1022=,SBCT
1681009200000,METAR SBCT 090300Z 12005KT 9999 OVC004 16/16 Q1022=,SBCT
1681012800000,METAR SBCT 090400Z 14005KT 9999 SCT004 OVC007 16/16 Q1022=,SBCT
1681016400000,METAR SBCT 090500Z 13005KT 9999 OVC005 16/16 Q1022=,SBCT
1681020000000,METAR SBCT 090600Z 11004KT 9999 OVC004 16/15 Q1021=,SBCT
1681023600000,METAR SBCT 090700Z 13004KT 9999 OVC005 16/16 Q1021=,SBCT
1681027200000,METAR SBCT 090800Z 12004KT 9999 OVC007 16/16 Q1021=,SBCT
1681030800000,METAR SBCT 090900Z 12006KT 9999 OVC007 16/16 Q1022=,SBCT
1681034400000,METAR SBCT 091000Z 10006KT 9999 BKN007 BKN083 16/15 Q1022=,SBCT
1681038000000,METAR SBCT 091100Z 08006KT 9999 BKN009 17/15 Q1022=,SBCT
1681041600000,METAR SBCT 091200Z 07006KT 9999 BKN013 17/15 Q1023=,SBCT
1681045200000,METAR SBCT 091300Z 11004KT 9999 OVC010 18/17 Q1023=,SBCT
1681048800000,METAR SBCT 091400Z 10006KT 9999 OVC014 19/16 Q1024=,SBCT
1681052400000,METAR SBCT 091500Z 09007KT 9999 BKN014 OVC020 20/16 Q1023=,SBCT
1681052700000,SPECI SBCT 091505Z 09007KT 9999 SCT018 OVC025 20/16 Q1023=,SBCT
1681056000000,METAR SBCT 091600Z 07009KT 9999 FEW014 OVC020 21/17 Q1022=,SBCT
1681059600000,METAR SBCT 091700Z 10009KT 9999 BKN020 OVC030 21/16 Q1022=,SBCT
1681063200000,METAR SBCT 091800Z 11010KT 8000 -DZ FEW005 BKN015 OVC030 20/17 Q1021=,SBCT
1681066800000,METAR SBCT 091900Z 10007KT 9999 SCT012 BKN035 19/16 Q1021=,SBCT
1681067700000,SPECI SBCT 091915Z 10008KT 070V130 9999 BKN010 BKN040 19/16 Q1021=,SBCT
1681070400000,METAR SBCT 092000Z 09009KT 9999 BKN010 BKN040 19/16 Q1021=,SBCT
1681074000000,METAR SBCT 092100Z 12007KT 9999 BKN012 BKN040 17/15 Q1021=,SBCT
1681077600000,METAR SBCT 092200Z 11005KT 9999 BKN010 BKN030 17/15 Q1022=,SBCT
1681078500000,SPECI SBCT 092215Z 09005KT 9999 SCT010 BKN030 17/15 Q1022=,SBCT
1681081200000,METAR SBCT 092300Z 12005KT 9000 BKN008 BKN030 16/15 Q1022=,SBCT
1680998400000,METAR SBFL 090000Z VRB01KT 9999 FEW015 OVC049 21/20 Q1019=,SBFL
1681002000000,METAR SBFL 090100Z 26004KT 9999 FEW015 OVC049 21/21 Q1019=,SBFL
1681005600000,METAR SBFL 090200Z 28003KT 9999 FEW015 OVC049 21/21 Q1020=,SBFL
1681009200000,METAR SBFL 090300Z 25004KT 9999 FEW015 OVC049 21/21 Q1019=,SBFL
1681012800000,METAR SBFL 090400Z 34002KT 5000 -RA BKN015 OVC049 21/21 Q1020=,SBFL
1681016400000,METAR SBFL 090500Z 25002KT 9999 SCT015 OVC049 20/20 Q1019=,SBFL
1681020000000,METAR SBFL 090600Z 21002KT 9999 SCT015 OVC049 20/20 Q1019=,SBFL
1681023600000,METAR SBFL 090700Z 29002KT 9999 SCT015 OVC049 20/20 Q1019=,SBFL
1681027200000,METAR COR SBFL 090800Z 30002KT 9999 FEW025 OVC049 20/20 Q1019=,SBFL
1681030800000,METAR SBFL 090900Z 30004KT 9999 FEW025 OVC049 20/20 Q1019=,SBFL
1681034400000,METAR SBFL 091000Z 30004KT 9999 FEW025 OVC049 20/20 Q1019=,SBFL
1681038000000,METAR SBFL 091100Z 32006KT 9999 FEW025 OVC049 21/21 Q1019=,SBFL
1681041600000,METAR SBFL 091200Z 30003KT 9999 OVC049 22/20 Q1020=,SBFL
1681045200000,METAR SBFL 091300Z 30005KT 9999 OVC049 24/20 Q1020=,SBFL
1681048800000,METAR SBFL 091400Z 29003KT 9999 OVC049 25/20 Q1020=,SBFL
1681052400000,METAR SBFL 091500Z 06007KT 9999 BKN020 26/20 Q1019=,SBFL
1681056000000,METAR SBFL 091600Z 03007KT 9999 FEW010 BKN020 26/20 Q1019=,SBFL
1681059600000,METAR SBFL 091700Z 07006KT 9999 -RA FEW010 BKN020 FEW030TCU 25/22 Q1018=,SBFL
1681063200000,METAR SBFL 091800Z 06008KT 030V090 9999 VCSH FEW010 BKN025 FEW030TCU BKN060 24/21 Q1018=,SBFL
1681066800000,METAR SBFL 091900Z 04005KT 350V060 9999 VCSH BKN022 FEW030TCU BKN050 24/20 Q1018=,SBFL
1681070400000,METAR SBFL 092000Z 03004KT 360V070 9999 SCT025 FEW030TCU BKN050 24/20 Q1018=,SBFL
1681074000000,METAR SBFL 092100Z 06003KT 9999 SCT025 FEW030TCU BKN050 24/20 Q1018=,SBFL
1681077600000,METAR SBFL 092200Z 35004KT 9999 FEW025 SCT050 23/21 Q1019=,SBFL
1681081200000,METAR SBFL 092300Z 05002KT 9999 FEW025 BKN050 23/22 Q1019=,SBFL
1680998400000,METAR SBGL 090000Z 29004KT 9999 BKN016 OVC035 23/22 Q1016=,SBGL
1681001160000,SPECI SBGL 090046Z 25004KT 200V300 3000 RA BR SCT004 BKN014 OVC017 23/22 Q1016=,SBGL
1681002000000,METAR SBGL 090100Z VRB06KT 2500 RA BR BKN004 OVC010 23/22 Q1017=,SBGL
1681002780000,SPECI SBGL 090113Z 14005KT 4000 -RA BR SCT004 BKN016 OVC050 23/22 Q1017 RERA=,SBGL
1681005600000,METAR SBGL 090200Z VRB02KT 3500 RA BR SCT004 SCT020 OVC050 23/22 Q1017=,SBGL
1681006860000,SPECI SBGL 090221Z VRB02KT 6000 -RA FEW005 SCT013 OVC050 23/22 Q1017 RERA=,SBGL
1681008060000,SPECI SBGL 090241Z 25003KT 8000 -RA SCT005 BKN009 OVC060 23/22 Q1017 RERA=,SBGL
1681009200000,METAR SBGL 090300Z 27003KT 9999 -RA SCT005 BKN060 OVC090 23/22 Q1017 RERA=,SBGL
1681010460000,SPECI SBGL 090321Z 31003KT 9999 FEW005 BKN013 OVC090 23/22 Q1017=,SBGL
1681011240000,SPECI SBGL 090334Z 33003KT 300V030 3000 RA BR SCT005 BKN013 OVC016 23/22 Q1017=,SBGL
1681012800000,METAR SBGL 090400Z 18005KT 130V210 3000 RA BR FEW003 BKN006 OVC045 22/22 Q1017=,SBGL
1681016400000,METAR SBGL 090500Z 17006KT 150V210 4000 -RA BR SCT005 BKN020 OVC100 22/21 Q1016 RERA=,SBGL
1681020000000,METAR SBGL 090600Z 06005KT 060V130 8000 -RA SCT005 BKN018 OVC035 22/21 Q1016=,SBGL
1681023600000,METAR SBGL 090700Z VRB02KT 9000 -RA SCT020 BKN050 22/21 Q1016=,SBGL
1681027200000,METAR SBGL 090800Z 29004KT 7000 -RA SCT006 BKN025 OVC040 22/22 Q1016=,SBGL
1681030800000,METAR SBGL 090900Z 33004KT 9999 FEW015 BKN050 22/22 Q1016=,SBGL
1681034400000,METAR SBGL 091000Z 30005KT 9999 SCT019 OVC070 23/22 Q1017=,SBGL
1681037160000,SPECI SBGL 091046Z 27003KT 4000 -RA FEW005 BKN013 OVC024 23/22 Q1017=,SBGL
1681038000000,METAR SBGL 091100Z 32003KT 4000 -RA BR FEW005 BKN013 OVC023 23/22 Q1017=,SBGL
1681041600000,METAR COR SBGL 091200Z 04004KT 1500 RA BR BKN004 BKN009 OVC020 23/22 Q1018=,SBGL
1681045200000,METAR SBGL 091300Z 33008KT 2500 -RA BR BKN004 BKN016 OVC100 21/21 Q1018 RERA=,SBGL
1681048800000,METAR SBGL 091400Z 35001KT 3000 -RA BR FEW005 BKN013 OVC021 22/21 Q1018=,SBGL
1681052400000,METAR SBGL 091500Z 01005KT 3000 -RA BR BKN012 OVC025 22/21 Q1018=,SBGL
1681056000000,METAR SBGL 091600Z 31002KT 7000 -RA FEW007 BKN020 OVC030 23/21 Q1018=,SBGL
1681059600000,METAR SBGL 091700Z 32004KT 9999 -RA FEW006 BKN050 OVC060 23/22 Q1017=,SBGL
1681063200000,METAR SBGL 091800Z 32005KT 7000 -RA FEW005 BKN007 OVC016 23/21 Q1017=,SBGL
1681066800000,METAR SBGL 091900Z 33005KT 7000 -RA FEW005 BKN007 OVC016 23/21 Q1017=,SBGL
1681070400000,METAR SBGL 092000Z 34003KT 310V040 2000 -RA BR BKN005 BKN011 OVC070 22/21 Q1018=,SBGL
1681074000000,METAR SBGL 092100Z 11008KT 6000 VCSH SCT009 BKN013 OVC026 22/21 Q1018=,SBGL
1681077600000,METAR SBGL 092200Z 05004KT 7000 VCSH FEW011 BKN017 OVC021 22/20 Q1018=,SBGL
1681081200000,METAR SBGL 092300Z 35004KT 4500 -RA BR SCT007 SCT009 BKN011 22/20 Q1019=,SBGL
1680998400000,METAR SBGR 090000Z 10005KT 9999 BKN011 BKN025 19/18 Q1021=,SBGR
1681002000000,METAR SBGR 090100Z 12005KT 9999 BKN019 BKN050 19/18 Q1021=,SBGR
1681005600000,METAR SBGR 090200Z 08006KT 9999 BKN009 BKN050 19/18 Q1021=,SBGR
1681009200000,METAR SBGR 090300Z 13006KT 9999 SCT020 BKN050 19/18 Q1021=,SBGR
1681012800000,METAR SBGR 090400Z 12006KT 9999 BKN010 BKN021 19/17 Q1020=,SBGR
1681016400000,METAR SBGR 090500Z 12005KT 9999 BKN010 BKN019 19/18 Q1020=,SBGR
1681020000000,METAR SBGR 090600Z 12007KT 9999 BKN010 BKN019 19/17 Q1020=,SBGR
1681023600000,METAR SBGR 090700Z 11005KT 9999 BKN009 BKN066 18/17 Q1020=,SBGR
1681027200000,METAR SBGR 090800Z 12005KT 6000 -RA BKN010 BKN066 18/17 Q1020=,SBGR
1681030800000,METAR SBGR 090900Z 12005KT 8000 -RA BKN007 BKN020 18/18 Q1020=,SBGR
1681034400000,METAR SBGR 091000Z 10004KT 9999 SCT007 BKN030 OVC070 18/17 Q1021=,SBGR
1681038000000,METAR SBGR 091100Z 13006KT 9999 BKN009 BKN030 18/17 Q1021=,SBGR
1681041600000,METAR SBGR 091200Z 10006KT 9999 BKN013 BKN080 20/17 Q1022=,SBGR
1681045200000,METAR SBGR 091300Z 10007KT 9999 FEW013 BKN017 20/17 Q1022=,SBGR
1681048800000,METAR SBGR 091400Z 10006KT 9999 BKN019 BKN070 21/17 Q1022=,SBGR
1681052400000,METAR SBGR 091500Z 09007KT 9999 BKN020 BKN060 21/17 Q1022=,SBGR
1681056000000,METAR SBGR 091600Z 10005KT 9999 FEW013 BKN020 20/17 Q1021=,SBGR
1681059600000,METAR SBGR 091700Z 12007KT 9999 BKN017 BKN070 21/17 Q1021=,SBGR
1681063200000,METAR SBGR 091800Z 11006KT 9999 BKN017 BKN070 21/17 Q1021=,SBGR
1681066800000,METAR SBGR 091900Z 14007KT 9999 SCT017 BKN070 21/16 Q1020=,SBGR
1681070400000,METAR SBGR 092000Z 13004KT 9999 FEW015 BKN030 20/16 Q1020=,SBGR
1681074000000,METAR SBGR 092100Z 12008KT 9999 FEW015 SCT070 19/16 Q1020=,SBGR
1681077600000,METAR SBGR 092200Z 12008KT 9999 FEW010 BKN015 19/16 Q1021=,SBGR
1681081200000,METAR SBGR 092300Z 11008KT 9999 FEW010 BKN015 19/16 Q1022=,SBGR
1680998400000,METAR SBKP 090000Z 13013KT CAVOK 21/18 Q1018=,SBKP
1681002000000,METAR SBKP 090100Z 11009KT 9999 FEW040 21/18 Q1019=,SBKP
1681005600000,METAR SBKP 090200Z 11009KT CAVOK 21/17 Q1019=,SBKP
1681009200000,METAR SBKP 090300Z 12007KT 9999 BKN048 20/17 Q1019=,SBKP
1681012800000,METAR SBKP 090400Z 11009KT 9999 BKN048 20/17 Q1018=,SBKP
1681016400000,METAR SBKP 090500Z 12008KT 9999 BKN048 20/17 Q1018=,SBKP
1681020000000,METAR SBKP 090600Z 12007KT 9999 FEW015 BKN045 BKN070 20/17 Q1018=,SBKP
1681023600000,METAR SBKP 090700Z 13006KT 9999 FEW010 BKN045 BKN070 20/17 Q1018=,SBKP
1681027200000,METAR SBKP 090800Z 12010KT 9999 FEW015 BKN045 BKN070 20/17 Q1018=,SBKP
1681030800000,METAR SBKP 090900Z 11011KT 9999 FEW015 SCT040 BKN070 20/17 Q1018=,SBKP
1681034400000,METAR SBKP 091000Z 11012KT 9999 FEW015 SCT040 20/17 Q1018=,SBKP
1681038000000,METAR SBKP 091100Z 11011KT 9999 FEW012 BKN043 20/17 Q1019=,SBKP
1681041600000,METAR SBKP 091200Z 13012KT 9999 FEW012 BKN043 21/17 Q1020=,SBKP
1681045200000,METAR SBKP 091300Z 12009KT 9999 -RA FEW015 BKN045 21/17 Q1020=,SBKP
1681048800000,METAR SBKP 091400Z 11008KT 070V150 9999 FEW015 BKN043 22/18 Q1020=,SBKP
1681052400000,METAR SBKP 091500Z 14010KT 9999 3500NE -RA FEW015 BKN045 22/17 Q1020=,SBKP
1681054740000,SPECI SBKP 091539Z 14011KT 7000 3000E RA FEW010 SCT020 BKN045 21/18 Q1020=,SBKP
1681056000000,METAR SBKP 091600Z 14011KT 8000 3000SE -RA SCT020 BKN045 21/19 Q1020 RERA=,SBKP
1681059600000,METAR SBKP 091700Z 12008KT 9999 -RA FEW017 OVC046 21/18 Q1019=,SBKP
1681063200000,METAR SBKP 091800Z 12009KT 9999 VCSH SCT045 SCT060 22/18 Q1019=,SBKP
1681066800000,METAR SBKP 091900Z 11008KT 9999 BKN045 BKN070 22/17 Q1019=,SBKP
1681070400000,METAR SBKP 092000Z 13012KT 9999 FEW045 SCT090 23/17 Q1018=,SBKP
1681074000000,METAR SBKP 092100Z 12008KT 9999 FEW045 21/17 Q1018=,SBKP
1681077600000,METAR SBKP 092200Z 13008KT 9999 FEW045 20/17 Q1019=,SBKP
1681081200000,METAR SBKP 092300Z 13010KT 9999 FEW045 20/16 Q1019=,SBKP
1680998400000,METAR SBPA 090000Z 12009KT 9999 FEW040 SCT090 21/17 Q1018=,SBPA
1681002000000,METAR SBPA 090100Z 11009KT CAVOK 21/17 Q1018=,SBPA
1681005600000,METAR SBPA 090200Z 11009KT CAVOK 20/17 Q1018=,SBPA
1681009200000,METAR SBPA 090300Z 11008KT CAVOK 20/18 Q1018=,SBPA
1681012800000,METAR SBPA 090400Z 12008KT CAVOK 20/18 Q1018=,SBPA
1681016400000,METAR SBPA 090500Z 10006KT CAVOK 19/17 Q1018=,SBPA
1681020000000,METAR SBPA 090600Z 06004KT CAVOK 18/17 Q1018=,SBPA
1681023600000,METAR SBPA 090700Z 12004KT 9999 SCT040 19/18 Q1017=,SBPA
1681027200000,METAR SBPA 090800Z 10003KT 9999 FEW040 19/17 Q1017=,SBPA
1681030800000,METAR SBPA 090900Z 04002KT CAVOK 18/17 Q1018=,SBPA
1681034400000,METAR SBPA 091000Z 09002KT CAVOK 17/16 Q1018=,SBPA
1681038000000,METAR SBPA 091100Z VRB02KT 9999 FEW010 19/18 Q1018=,SBPA
1681041600000,METAR SBPA 091200Z 08004KT 050V120 9999 FEW010 22/18 Q1019=,SBPA
1681045200000,METAR SBPA 091300Z 06004KT 010V130 9999 FEW020 24/18 Q1019=,SBPA
1681048800000,METAR SBPA 091400Z VRB02KT 9999 FEW030 26/18 Q1019=,SBPA
1681052400000,METAR SBPA 091500Z VRB02KT 9999 FEW035 27/17 Q1018=,SBPA
1681056000000,METAR SBPA 091600Z VRB03KT 9999 SCT040 28/17 Q1017=,SBPA
1681059600000,METAR SBPA 091700Z 32004KT 250V040 9999 SCT040 29/18 Q1016=,SBPA
1681063200000,METAR SBPA 091800Z VRB04KT 9999 SCT047 30/18 Q1016=,SBPA
1681066800000,METAR SBPA 091900Z 13007KT 100V160 9999 SCT047 28/18 Q1016=,SBPA
1681070400000,METAR SBPA 092000Z 15008KT 110V200 CAVOK 28/19 Q1016=,SBPA
1681074000000,METAR SBPA 092100Z 12011KT CAVOK 27/19 Q1016=,SBPA
1681077600000,METAR SBPA 092200Z 10010KT CAVOK 25/19 Q1016=,SBPA
1681081200000,METAR SBPA 092300Z 11007KT CAVOK 24/19 Q1016=,SBPA
1680998400000,METAR SBRF 090000Z 29003KT 240V310 9000 VCSH FEW009 SCT018 BKN045 25/23 Q1012 RERA=,SBRF
1681002000000,METAR SBRF 090100Z 30003KT 270V340 5000 -RA BR SCT009 BKN017 BKN045 25/23 Q1013=,SBRF
1681005600000,METAR SBRF 090200Z 25004KT 8000 -RA SCT009 BKN015 25/23 Q1013=,SBRF
1681006920000,SPECI SBRF 090222Z 27003KT 8000 -TSRA SCT009 BKN015 FEW023CB 25/23 Q1012=,SBRF
1681009200000,METAR SBRF 090300Z 19005KT 080V250 4000 RA BR FEW003 BKN010 BKN015 FEW023TCU 25/24 Q1012 RETS=,SBRF
1681012800000,METAR SBRF 090400Z 28003KT 250V310 9999 SCT010 BKN016 FEW023TCU 25/23 Q1011 RERA=,SBRF
1681016400000,METAR SBRF 090500Z 20001KT 6000 -RA SCT010 BKN016 FEW023TCU 25/23 Q1011=,SBRF
1681020000000,METAR SBRF 090600Z 04001KT 4000 RA BR BKN009 BKN016 FEW023TCU OVC050 25/23 Q1011=,SBRF
1681023600000,METAR SBRF 090700Z 21004KT 8000 -RA BKN009 BKN016 FEW023TCU OVC050 25/23 Q1012 RERA=,SBRF
1681027200000,METAR SBRF 090800Z 26003KT 8000 -RA BKN009 BKN016 FEW023TCU OVC050 24/22 Q1012=,SBRF
1681030800000,METAR SBRF 090900Z 27004KT 2500 RA BR SCT003 BKN009 BKN016 FEW023TCU 24/23 Q1013=,SBRF
1681034400000,METAR SBRF 091000Z 27007KT 230V310 2500 RA BR FEW003 BKN009 BKN016 FEW023TCU 23/22 Q1014=,SBRF
1681036140000,SPECI SBRF 091029Z 30003KT 240V010 5000 -RA BR SCT009 BKN018 FEW023TCU BKN050 24/22 Q1014 RERA=,SBRF
1681038000000,METAR SBRF 091100Z VRB02KT 9000 -RA SCT009 SCT018 FEW023TCU BKN050 25/23 Q1014=,SBRF
1681041600000,METAR SBRF 091200Z 32007KT 9000 VCSH SCT009 SCT018 FEW023TCU BKN050 26/23 Q1014=,SBRF
1681045200000,METAR SBRF 091300Z 34008KT 9999 VCSH FEW010 SCT020 FEW023TCU BKN050 27/22 Q1014=,SBRF
1681048800000,METAR SBRF 091400Z 33005KT 9999 FEW013 SCT023 FEW025TCU BKN050 28/23 Q1013=,SBRF
1681052400000,METAR SBRF 091500Z 15003KT 080V220 9999 FEW013 SCT023 FEW025TCU BKN050 30/23 Q1012=,SBRF
1681056000000,METAR SBRF 091600Z 14006KT 080V180 9999 SCT023 FEW025TCU BKN070 30/23 Q1012=,SBRF
1681059600000,METAR SBRF 091700Z 13007KT 9999 SCT023 BKN070 30/23 Q1011=,SBRF
1681063200000,METAR SBRF 091800Z 13008KT 090V160 9999 SCT023 BKN070 29/23 Q1011=,SBRF
1681066800000,METAR SBRF 091900Z 13008KT 090V160 9999 SCT023 SCT070 29/23 Q1011=,SBRF
1681070400000,METAR SBRF 092000Z 14009KT 9999 SCT023 SCT080 28/23 Q1011=,SBRF
1681074000000,METAR SBRF 092100Z 12005KT 080V180 9999 SCT018 SCT080 28/24 Q1011=,SBRF
1681077600000,METAR SBRF 092200Z 12008KT 090V160 9999 SCT020 28/23 Q1012=,SBRF
1681081200000,METAR SBRF 092300Z 11007KT 9999 SCT020 28/23 Q1012=,SBRF
1680998400000,METAR SBRJ 090000Z 22006KT 8000 SCT010 BKN015 OVC030 24/22 Q1015=,SBRJ
1680999900000,SPECI SBRJ 090025Z 14009KT 4000 RA BR BKN010 BKN015 OVC030 23/22 Q1016=,SBRJ
1681002000000,METAR COR SBRJ 090100Z 14007KT 4000 RA BR BKN010 BKN015 OVC030 23/22 Q1016 RERA=,SBRJ
1681003500000,SPECI SBRJ 090125Z VRB02KT 4500 -RA BR BKN013 BKN018 OVC030 23/22 Q1016 RERA=,SBRJ
1681005600000,METAR SBRJ 090200Z VRB02KT 4500 -RA BR BKN013 BKN018 OVC040 23/22 Q1016 RERA=,SBRJ
1681009200000,METAR SBRJ 090300Z VRB01KT 4000 +RA BR BKN010 BKN015 OVC040 23/22 Q1016=,SBRJ
1681010760000,SPECI SBRJ 090326Z 14010KT 4500 RA BR BKN012 BKN020 OVC040 22/22 Q1016 RERA=,SBRJ
1681012800000,METAR SBRJ 090400Z 12006KT 100V170 5000 -RA BR BKN012 BKN020 OVC040 23/21 Q1016 RERA=,SBRJ
1681013520000,SPECI SBRJ 090412Z 09010KT 4000 RA BR BKN012 BKN018 OVC030 23/22 Q1016=,SBRJ
1681014120000,SPECI SBRJ 090422Z 11013KT 3000 +RA BR BKN010 BKN015 OVC030 23/22 Q1016 RERA=,SBRJ
1681015080000,SPECI SBRJ 090438Z 06003KT 010V140 4500 -RA BR BKN012 BKN018 OVC030 22/22 Q1016 RERA=,SBRJ
1681016400000,METAR SBRJ 090500Z 09003KT 060V120 4500 -RA BR BKN012 BKN018 OVC030 23/22 Q1016 RERA=,SBRJ
1681020000000,METAR SBRJ 090600Z 34004KT 6000 -RA BKN013 BKN018 OVC030 23/22 Q1015=,SBRJ
1681023600000,METAR SBRJ 090700Z VRB05KT 6000 -RA BKN013 BKN020 OVC050 23/21 Q1015=,SBRJ
1681027200000,METAR SBRJ 090800Z 20006KT 8000 -RA SCT013 BKN020 OVC050 23/21 Q1015=,SBRJ
1681030800000,METAR SBRJ 090900Z 17004KT 9999 -RA FEW013 BKN023 OVC090 23/21 Q1016=,SBRJ
1681034400000,METAR SBRJ 091000Z 16004KT 9999 -RA SCT013 BKN018 OVC090 23/22 Q1016=,SBRJ
1681037400000,SPECI SBRJ 091050Z 16004KT 110V210 5000 RA BR FEW010 BKN013 OVC020 23/22 Q1017=,SBRJ
1681038000000,METAR SBRJ 091100Z VRB04KT 5000 RA BR FEW010 BKN013 OVC020 23/21 Q1016=,SBRJ
1681039200000,SPECI SBRJ 091120Z 04003KT 330V090 5000 -RA BR FEW007 BKN012 OVC020 23/22 Q1017 RERA=,SBRJ
1681041600000,METAR SBRJ 091200Z 10003KT 070V130 8000 -RA FEW007 BKN013 OVC020 23/22 Q1017 RERA=,SBRJ
1681045200000,METAR SBRJ 091300Z 03007KT 4000 RA BR SCT007 BKN010 OVC013 23/22 Q1018=,SBRJ
1681048800000,METAR SBRJ 091400Z 35005KT 4000 -RA BR BKN005 OVC013 23/22 Q1018 RERA=,SBRJ
1681051200000,SPECI SBRJ 091440Z 32005KT 5000 -RA BR BKN010 OVC018 23/22 Q1018=,SBRJ
1681052400000,METAR SBRJ 091500Z 31006KT 270V340 9000 -RA BKN010 OVC020 23/22 Q1017=,SBRJ
1681056000000,METAR SBRJ 091600Z 32005KT 9999 FEW010 BKN015 OVC030 23/22 Q1017=,SBRJ
1681059600000,METAR SBRJ 091700Z VRB03KT 9999 FEW007 BKN020 OVC030 24/23 Q1017=,SBRJ
1681063200000,METAR SBRJ 091800Z 22006KT 8000 -RA FEW008 SCT035 OVC050 24/21 Q1017=,SBRJ
1681066800000,METAR SBRJ 091900Z 12008KT 8000 VCSH SCT015 SCT035 OVC050 23/21 Q1017=,SBRJ
1681070400000,METAR SBRJ 092000Z 21006KT 6000 2500NE -RA BKN017 OVC030 24/21 Q1017=,SBRJ
1681074000000,METAR SBRJ 092100Z 17003KT 8000 -RA SCT017 SCT025 OVC050 22/20 Q1017=,SBRJ
1681077600000,METAR SBRJ 092200Z 17005KT 9999 -RA SCT015 SCT025 OVC050 22/21 Q1017=,SBRJ
1681081200000,METAR SBRJ 092300Z 16011KT 9999 -RA FEW015 SCT030 OVC050 23/20 Q1018=,SBRJ
1680998400000,METAR SBSP 090000Z 13007KT 5000 -DZ BR SCT004 OVC007 19/18 Q1021=,SBSP
1681002000000,METAR SBSP 090100Z 14007KT 6000 SCT005 OVC007 18/17 Q1022=,SBSP
1681005600000,METAR SBSP 090200Z 13006KT 9999 BKN007 OVC066 18/17 Q1022=,SBSP
1681005660000,SPECI SBSP 090201Z 12007KT 9999 BKN006 OVC019 18/17 Q1021=,SBSP
1681006260000,SPECI SBSP 090211Z AUTO 12007KT 090V160 9999 BKN006 BKN013 OVC019 18/17 Q1021=,SBSP
1681006980000,SPECI SBSP 090223Z AUTO 13007KT 100V160 9000 BKN005 BKN016 OVC019 18/17 Q1021=,SBSP
1681007700000,SPECI SBSP 090235Z AUTO 12007KT 070V150 9999 SCT005 BKN007 OVC012 18/17 Q1021=,SBSP
1681009200000,METAR SBSP 090300Z AUTO 13007KT 100V160 9999 BKN005 OVC010 18/17 Q1021=,SBSP
1681009620000,SPECI SBSP 090307Z AUTO 13007KT 9999 BKN006 OVC009 18/17 Q1021=,SBSP
1681011240000,SPECI SBSP 090334Z AUTO 14007KT 9999 OVC007 18/17 Q1021=,SBSP
1681012800000,METAR SBSP 090400Z AUTO 14007KT 9999 BKN007 18/17 Q1021=,SBSP
1681014180000,SPECI SBSP 090423Z AUTO 14008KT 9999 SCT007 18/17 Q1021=,SBSP
1681016400000,METAR SBSP 090500Z AUTO 15008KT 9999 SCT008 18/17 Q1021=,SBSP
1681017300000,SPECI SBSP 090515Z AUTO 14006KT 9999 FEW005 BKN009 18/17 Q1020=,SBSP
1681020000000,METAR SBSP 090600Z AUTO 14008KT 9999 SCT006 OVC008 18/17 Q1020=,SBSP
1681023600000,METAR SBSP 090700Z AUTO 14008KT 9999 SCT007 BKN009 18/16 Q1020=,SBSP
1681024320000,SPECI SBSP 090712Z AUTO 15007KT 9999 SCT007 SCT009 18/17 Q1020=,SBSP
1681026600000,SPECI SBSP 090750Z AUTO 13007KT 9999 SCT007 BKN009 18/16 Q1020=,SBSP
1681027200000,METAR SBSP 090800Z AUTO 13006KT 9999 SCT008 18/16 Q1020=,SBSP
1681030080000,SPECI SBSP 090848Z AUTO 12008KT 9999 BKN009 18/16 Q1020=,SBSP
1681030800000,METAR SBSP 090900Z 13008KT 9999 BKN009 18/16 Q1021=,SBSP
1681034400000,METAR SBSP 091000Z 13009KT 9999 SCT009 BKN083 18/16 Q1021=,SBSP
1681038000000,METAR SBSP 091100Z 13009KT 9999 FEW008 BKN011 BKN083 18/16 Q1022=,SBSP
1681041600000,METAR SBSP 091200Z 13006KT 9999 SCT013 BKN050 19/17 Q1023=,SBSP
1681045200000,METAR SBSP 091300Z 13008KT 9999 BKN017 20/16 Q1023=,SBSP
1681048800000,METAR SBSP 091400Z 15009KT 9999 BKN019 20/16 Q1023=,SBSP
1681052400000,METAR SBSP 091500Z 15010KT 9999 BKN021 21/17 Q1023=,SBSP
1681056000000,METAR SBSP 091600Z 16011KT 9999 BKN021 21/16 Q1022=,SBSP
1681059600000,METAR SBSP 091700Z 15009KT 120V200 9999 BKN023 BKN083 21/16 Q1021=,SBSP
1681063200000,METAR SBSP 091800Z 16011KT 9999 SCT030 21/15 Q1021=,SBSP
1681066800000,METAR SBSP 091900Z 15009KT 9999 FEW017 SCT050 21/15 Q1021=,SBSP
1681070400000,METAR SBSP 092000Z 15011KT 120V180 9999 FEW017 SCT050 20/15 Q1021=,SBSP
1681074000000,METAR SBSP 092100Z 14010KT 9999 FEW011 BKN015 19/16 Q1021=,SBSP
1681077600000,METAR SBSP 092200Z 15013KT 9999 BKN015 OVC027 19/16 Q1021=,SBSP
1681081200000,METAR SBSP 092300Z 12009KT 9999 SCT015 BKN019 18/15 Q1022=,SBSP
1680998400000,METAR SBSV 090000Z 04005KT 9999 FEW016 BKN100 26/24 Q1013=,SBSV
1681002000000,METAR SBSV 090100Z 35004KT 9999 FEW025 BKN100 25/24 Q1014=,SBSV
1681005600000,METAR SBSV 090200Z 34002KT 9999 FEW025 SCT080 25/24 Q1014=,SBSV
1681009200000,METAR SBSV 090300Z 00000KT 9999 FEW025 25/24 Q1014=,SBSV
1681012800000,METAR SBSV 090400Z 00000KT 9999 FEW025 25/24 Q1013=,SBSV
1681016400000,METAR SBSV 090500Z 29003KT CAVOK 25/24 Q1013=,SBSV
1681020000000,METAR SBSV 090600Z 27002KT CAVOK 24/24 Q1013=,SBSV
1681023600000,METAR SBSV 090700Z 28002KT 9999 FEW025 24/24 Q1013=,SBSV
1681027200000,METAR SBSV 090800Z 00000KT 9999 FEW025 SCT100 25/24 Q1012=,SBSV
1681030800000,METAR SBSV 090900Z 00000KT 9999 SCT020 25/24 Q1013=,SBSV
1681034400000,METAR SBSV 091000Z 26002KT 9999 SCT020 26/24 Q1013=,SBSV
1681038000000,METAR SBSV 091100Z 05003KT 9999 SCT020 28/25 Q1014=,SBSV
1681041600000,METAR SBSV 091200Z 07008KT 9999 SCT020 29/24 Q1014=,SBSV
1681045200000,METAR SBSV 091300Z 06008KT 9999 SCT020 30/25 Q1015=,SBSV
1681048800000,METAR SBSV 091400Z 08008KT 9999 SCT020 30/24 Q1014=,SBSV
1681052400000,METAR SBSV 091500Z 08009KT 9999 SCT020 SCT050 30/24 Q1014=,SBSV
1681056000000,METAR SBSV 091600Z 09008KT 9999 SCT020 BKN050 30/24 Q1013=,SBSV
1681059600000,METAR SBSV 091700Z 09009KT 9999 FEW020 BKN050 30/24 Q1012=,SBSV
1681063200000,METAR SBSV 091800Z 08008KT 9999 FEW020 30/24 Q1012=,SBSV
1681066800000,METAR SBSV 091900Z 10007KT 9999 FEW020 29/24 Q1011=,SBSV
1681070400000,METAR SBSV 092000Z 10006KT 9999 FEW020 29/24 Q1011=,SBSV
1681074000000,METAR SBSV 092100Z 09007KT 9999 FEW020 28/24 Q1011=,SBSV
1681077600000,METAR SBSV 092200Z 08008KT 9999 FEW020 28/24 Q1012=,SBSV
1681081200000,METAR SBSV 092300Z 09008KT 9999 FEW020 28/23 Q1012=,SBSV
