hora,metar,aero
1682640000000,METAR SBBR 280000Z 13002KT 9999 SCT045 FEW048TCU BKN100 21/17 Q1020 RETS=,SBBR
1682643600000,METAR SBBR 280100Z 18007KT 9999 VCSH FEW045 FEW048TCU SCT100 22/18 Q1020=,SBBR
1682647200000,METAR SBBR 280200Z 06002KT 9999 VCSH FEW045 FEW048TCU SCT100 21/18 Q1020=,SBBR
1682650800000,METAR SBBR 280300Z 26004KT 9999 FEW045 SCT100 20/18 Q1020=,SBBR
1682654400000,METAR SBBR 280400Z 27002KT 9999 FEW045 SCT100 20/18 Q1019=,SBBR
1682658000000,METAR SBBR 280500Z 31002KT 9999 FEW045 SCT100 19/18 Q1019=,SBBR
1682661600000,METAR SBBR 280600Z 24002KT 9999 FEW045 FEW048TCU SCT100 20/18 Q1018=,SBBR
1682665200000,METAR SBBR 280700Z 15002KT CAVOK 19/17 Q1018=,SBBR
1682668800000,METAR SBBR 280800Z 00000KT CAVOK 18/17 Q1018=,SBBR
1682672400000,METAR SBBR 280900Z 19005KT CAVOK 18/16 Q1019=,SBBR
1682676000000,METAR SBBR 281000Z 22003KT CAVOK 18/16 Q1020=,SBBR
1682679600000,METAR SBBR 281100Z 34002KT 9999 FEW040 SCT100 20/17 Q1020=,SBBR
1682683200000,METAR SBBR 281200Z VRB01KT 9999 FEW040 FEW045TCU SCT100 24/17 Q1021=,SBBR
1682686800000,METAR SBBR 281300Z 29004KT 210V350 9999 FEW040 FEW045TCU SCT100 26/17 Q1021=,SBBR
1682690400000,METAR SBBR 281400Z VRB03KT 9999 SCT040 FEW045TCU SCT100 27/16 Q1021=,SBBR
1682694000000,METAR SBBR 281500Z VRB03KT 9999 SCT040 FEW045TCU SCT100 27/17 Q1020=,SBBR
1682697600000,METAR SBBR 281600Z 08007KT 9999 VCSH SCT040 FEW045TCU 26/24 Q1019=,SBBR
1682701200000,METAR SBBR 281700Z 13011KT 9999 TS VCSH SCT040 FEW045CB 26/18 Q1018=,SBBR
1682704800000,METAR SBBR 281800Z 18009KT 9999 TS VCSH BKN040 FEW045CB 24/17 Q1018=,SBBR
1682708400000,METAR SBBR 281900Z 20008KT 9999 VCTS SCT040 FEW045CB SCT100 25/18 Q1018 RETS=,SBBR
1682712000000,METAR SBBR 282000Z 24006KT 190V280 9999 SCT040 FEW045TCU SCT100 25/17 Q1019=,SBBR
1682715600000,METAR SBBR 282100Z 26004KT 9999 SCT040 FEW045TCU SCT100 24/17 Q1019=,SBBR
1682719200000,METAR SBBR 282200Z VRB03KT 9999 FEW040 FEW045TCU SCT100 23/17 Q1019=,SBBR
1682722800000,METAR SBBR 282300Z 07002KT CAVOK 22/17 Q1020=,SBBR
1682640000000,METAR SBCF 280000Z 14003KT CAVOK 21/19 Q1017=,SBCF
1682643600000,METAR SBCF 280100Z 00000KT CAVOK 20/19 Q1017=,SBCF
1682647200000,METAR SBCF 280200Z 15003KT CAVOK 20/18 Q1017=,SBCF
1682650800000,METAR SBCF 280300Z 22001KT 9999 FEW040 SCT090 20/18 Q1017=,SBCF
1682654400000,METAR SBCF 280400Z 20001KT 9999 VCSH FEW040 BKN100 19/18 Q1017=,SBCF
1682658000000,METAR SBCF 280500Z 15002KT 9999 VCSH VCTS FEW040 FEW045CB BKN090 19/18 Q1016=,SBCF
1682661600000,METAR SBCF 280600Z 22006KT 8000 -RA VCTS SCT045 FEW050CB BKN070 19/18 Q1017=,SBCF
1682663100000,SPECI SBCF 280625Z 21006KT 6000 TSRA FEW010 FEW050CB BKN070 19/18 Q1017=,SBCF
1682664240000,SPECI SBCF 280644Z 23006KT 6000 -TSRA FEW007 FEW050CB BKN070 19/18 Q1018 RERA=,SBCF
1682665200000,METAR SBCF 280700Z 23007KT 6000 -TSRA FEW003 FEW050CB BKN070 19/18 Q1018 RERA=,SBCF
1682666460000,SPECI SBCF 280721Z 20006KT 6000 TSRA FEW003 FEW050CB BKN070 19/18 Q1018=,SBCF
1682667420000,SPECI SBCF 280737Z 19004KT 7000 -RA FEW002 BKN070 19/18 Q1018 RETSRA=,SBCF
1682668800000,METAR SBCF 280800Z 18007KT 7000 -RA FEW002 SCT040 BKN080 19/18 Q1018 RETSRA=,SBCF
1682672400000,METAR SBCF 280900Z 16005KT 9000 -RA BCFG FEW005 SCT040 BKN090 19/18 Q1018=,SBCF
1682672760000,SPECI SBCF 280906Z 19006KT 3000 -RA BR FEW005 SCT040 BKN090 19/18 Q1018=,SBCF
1682676000000,METAR SBCF 281000Z 09003KT 4000 BCFG FEW005 SCT040 BKN090 19/18 Q1018=,SBCF
1682679600000,METAR SBCF 281100Z 13003KT 4000 -DZ BR FEW005 SCT040 BKN090 19/18 Q1019=,SBCF
1682683200000,METAR SBCF 281200Z 13002KT 4000 -DZ BR SCT008 SCT040 BKN090 20/19 Q1020=,SBCF
1682685480000,SPECI SBCF 281238Z 07004KT 8000 SCT008 SCT040 BKN090 21/18 Q1020=,SBCF
1682686800000,METAR SBCF 281300Z 08004KT 8000 SCT008 SCT040 BKN090 21/19 Q1020=,SBCF
1682690400000,METAR SBCF 281400Z 05004KT 9999 SCT020 24/19 Q1019=,SBCF
1682694000000,METAR SBCF 281500Z 33003KT 9999 SCT020 26/19 Q1018=,SBCF
1682697600000,METAR SBCF 281600Z 32007KT 9999 SCT030 27/20 Q1018=,SBCF
1682701200000,METAR SBCF 281700Z 35006KT 9000 -RA BKN035 FEW040TCU 28/20 Q1016=,SBCF
1682704800000,METAR SBCF 281800Z 29003KT 9999 -RA BKN040 FEW045TCU 28/19 Q1016=,SBCF
1682708400000,METAR SBCF 281900Z 15003KT 9999 VCSH BKN040 FEW045TCU 26/19 Q1016=,SBCF
1682712000000,METAR SBCF 282000Z 00000KT 9999 VCSH BKN040 FEW045TCU 27/19 Q1017=,SBCF
1682715600000,METAR SBCF 282100Z 03004KT 9999 TS VCSH SCT040 FEW045CB 24/19 Q1017=,SBCF
1682719200000,METAR SBCF 282200Z 03002KT 9999 TS SCT040 FEW045CB 24/18 Q1018=,SBCF
1682722800000,METAR SBCF 282300Z 14003KT 9999 VCTS FEW040 FEW045CB SCT100 22/20 Q1018 RETS=,SBCF
1682640000000,METAR SBCT 280000Z 12005KT CAVOK 14/14 Q1018=,SBCT
1682643600000,METAR SBCT 280100Z 14006KT 9999 SCT005 13/13 Q1019=,SBCT
1682647200000,METAR SBCT 280200Z 12004KT 9999 SCT008 13/13 Q1019=,SBCT
1682648100000,SPECI SBCT 280215Z 11004KT 9999 BKN007 14/13 Q1019=,SBCT
1682650800000,METAR SBCT 280300Z 11003KT 9999 BKN008 14/14 Q1018=,SBCT
1682654400000,METAR SBCT 280400Z 11003KT 9999 BKN009 14/13 Q1018=,SBCT
1682658000000,METAR SBCT 280500Z 10002KT 9999 BKN009 14/13 Q1018=,SBCT
1682661600000,METAR SBCT 280600Z 14004KT 9999 BKN013 14/13 Q1018=,SBCT
1682665200000,METAR SBCT 280700Z 10003KT 9999 BKN013 14/14 Q1018=,SBCT
1682668800000,METAR SBCT 280800Z 11003KT 9999 BKN009 14/14 Q1018=,SBCT
1682672400000,METAR SBCT 280900Z 12004KT 9999 SCT010 13/13 Q1018=,SBCT
1682676000000,METAR SBCT 281000Z 05002KT 8000 SCT009 13/13 Q1019=,SBCT
1682679600000,METAR SBCT 281100Z 01003KT 9999 SCT009 BKN023 15/14 Q1020=,SBCT
1682680800000,SPECI SBCT 281120Z 06003KT 9999 BKN008 BKN020 15/14 Q1020=,SBCT
1682683200000,METAR SBCT 281200Z 12004KT 4000 1200SE R33/2000 R15/2000 -DZ BR BKN005 BKN013 15/15 Q1021=,SBCT
1682686800000,METAR SBCT 281300Z 10003KT 6000 FEW004 BKN006 OVC014 15/15 Q1022=,SBCT
1682690400000,METAR SBCT 281400Z 07007KT 9999 FEW005 BKN009 OVC030 17/15 Q1021=,SBCT
1682694000000,METAR SBCT 281500Z 11007KT 9999 BKN013 BKN030 18/15 Q1021=,SBCT
1682697600000,METAR SBCT 281600Z 13009KT 9999 SCT006 BKN012 17/15 Q1021=,SBCT
1682701200000,METAR SBCT 281700Z 13010KT 9999 SCT010 BKN020 18/15 Q1020=,SBCT
1682704800000,METAR SBCT 281800Z 13010KT 090V160 9999 SCT013 19/15 Q1020=,SBCT
1682706180000,SPECI SBCT 281823Z 13010KT 090V150 9999 BKN012 17/14 Q1020=,SBCT
1682708400000,METAR SBCT 281900Z 13010KT 9999 BKN012 BKN070 17/14 Q1020=,SBCT
1682712000000,METAR SBCT 282000Z 10006KT 070V140 9999 BKN014 17/14 Q1020=,SBCT
1682715600000,METAR SBCT 282100Z 10005KT 060V130 9999 FEW009 BKN014 16/14 Q1020=,SBCT
1682719200000,METAR SBCT 282200Z 10006KT 9999 BKN008 15/14 Q1021=,SBCT
1682722800000,METAR SBCT 282300Z 11005KT 9999 BKN008 BKN020 15/14 Q1021=,SBCT
1682647200000,METAR SBFL 280200Z 18001KT CAVOK 21/17 Q1015=,SBFL
1682640000000,METAR SBFL 280000Z 19005KT CAVOK 21/17 Q1015=,SBFL
1682643600000,METAR SBFL 280100Z 15002KT CAVOK 21/17 Q1015=,SBFL
1682650800000,METAR SBFL 280300Z 22004KT CAVOK 20/17 Q1015=,SBFL
1682654400000,METAR SBFL 280400Z 21005KT CAVOK 20/17 Q1015=,SBFL
1682658000000,METAR SBFL 280500Z 23003KT CAVOK 19/18 Q1015=,SBFL
1682661600000,METAR SBFL 280600Z 17004KT CAVOK 20/17 Q1015=,SBFL
1682665200000,METAR SBFL 280700Z 00000KT CAVOK 20/17 Q1015=,SBFL
1682668800000,METAR SBFL 280800Z 26002KT CAVOK 19/18 Q1015=,SBFL
1682672400000,METAR SBFL 280900Z 27003KT CAVOK 18/18 Q1016=,SBFL
1682676000000,METAR SBFL 281000Z 28005KT CAVOK 18/18 Q1017=,SBFL
1682679600000,METAR SBFL 281100Z 29006KT CAVOK 19/18 Q1017=,SBFL
1682683200000,METAR SBFL 281200Z 26003KT CAVOK 21/17 Q1018=,SBFL
1682686800000,METAR SBFL 281300Z 20005KT 170V250 CAVOK 23/15 Q1018=,SBFL
1682690400000,METAR SBFL 281400Z 20005KT 150V230 CAVOK 24/15 Q1018=,SBFL
1682694000000,METAR SBFL 281500Z 12007KT 070V160 9999 FEW033 24/16 Q1017=,SBFL
1682697600000,METAR SBFL 281600Z 12011KT 060V150 9999 FEW035 25/17 Q1017=,SBFL
1682701200000,METAR SBFL 281700Z 12011KT 9999 FEW035 25/17 Q1017=,SBFL
1682704800000,METAR SBFL 281800Z 12011KT 9999 FEW030 24/17 Q1017=,SBFL
1682708400000,METAR SBFL 281900Z 11011KT 9999 FEW030 24/16 Q1017=,SBFL
1682712000000,METAR SBFL 282000Z 13007KT 9999 SCT030 SCT070 22/16 Q1017=,SBFL
1682715600000,METAR SBFL 282100Z 15006KT 9999 SCT030 BKN070 22/16 Q1017=,SBFL
1682719200000,METAR SBFL 282200Z 15006KT 9999 BKN035 BKN080 22/16 Q1018=,SBFL
1682722800000,METAR SBFL 282300Z 16003KT 9999 BKN035 SCT100 22/17 Q1018=,SBFL
1682640000000,METAR SBGL 280000Z 25005KT CAVOK 24/20 Q1014=,SBGL
1682643600000,METAR SBGL 280100Z 24006KT 9999 FEW030 SCT070 25/20 Q1014=,SBGL
1682647200000,METAR SBGL 280200Z 21004KT 9999 FEW030 BKN080 25/20 Q1014=,SBGL
1682650800000,METAR SBGL 280300Z 30002KT 9999 SCT025 BKN050 24/20 Q1014=,SBGL
1682654400000,METAR SBGL 280400Z 34002KT 9999 SCT020 BKN040 24/21 Q1013=,SBGL
1682658000000,METAR SBGL 280500Z 01003KT 9999 SCT018 BKN040 23/21 Q1013=,SBGL
1682661600000,METAR SBGL 280600Z 35006KT 9999 SCT016 OVC040 23/20 Q1013=,SBGL
1682665200000,METAR SBGL 280700Z 21005KT 4000 -RA BR BKN012 OVC035 21/20 Q1013=,SBGL
1682668800000,METAR SBGL 280800Z 26003KT 6000 BKN012 OVC040 22/21 Q1014=,SBGL
1682672400000,METAR SBGL 280900Z 26005KT 8000 BKN012 OVC040 22/20 Q1014=,SBGL
1682676000000,METAR SBGL 281000Z 28004KT 8000 BKN012 OVC040 22/20 Q1015=,SBGL
1682679600000,METAR SBGL 281100Z 24006KT 6000 -RA BKN009 SCT014 OVC018 22/20 Q1016=,SBGL
1682683200000,METAR SBGL 281200Z 30004KT 8000 -RA FEW009 SCT022 OVC027 22/20 Q1017=,SBGL
1682686800000,METAR COR SBGL 281300Z 25005KT 7000 -RA FEW006 SCT020 OVC035 22/20 Q1017=,SBGL
1682690400000,METAR SBGL 281400Z 27005KT 6000 -RA FEW007 BKN014 OVC035 22/20 Q1017=,SBGL
1682694000000,METAR SBGL 281500Z VRB02KT 8000 FEW004 SCT009 OVC021 22/20 Q1016=,SBGL
1682697600000,METAR SBGL 281600Z 30003KT 8000 BKN011 OVC026 22/20 Q1016=,SBGL
1682701200000,METAR SBGL 281700Z 32003KT 9999 FEW009 SCT017 OVC035 23/20 Q1015=,SBGL
1682704800000,METAR SBGL 281800Z 35005KT 9999 BKN020 OVC040 23/21 Q1015=,SBGL
1682708400000,METAR SBGL 281900Z 35005KT 9999 FEW009 BKN040 OVC055 23/21 Q1015=,SBGL
1682712000000,METAR SBGL 282000Z 34006KT 8000 FEW015 BKN021 OVC045 22/20 Q1016=,SBGL
1682715600000,METAR SBGL 282100Z 34005KT 9999 FEW021 BKN040 OVC045 22/20 Q1017=,SBGL
1682719200000,METAR SBGL 282200Z 32003KT 9999 FEW017 BKN029 OVC040 22/20 Q1017=,SBGL
1682722800000,METAR SBGL 282300Z 30002KT 9999 FEW015 BKN020 OVC030 22/20 Q1018=,SBGL
1682640000000,METAR SBGR 280000Z 16004KT 4000 -RA BR SCT011 OVC070 19/18 Q1017=,SBGR
1682643600000,METAR SBGR 280100Z 12004KT 7000 OVC007 19/18 Q1018=,SBGR
1682647200000,METAR SBGR 280200Z 16005KT 6000 -RA OVC009 18/18 Q1018=,SBGR
1682650800000,METAR SBGR 280300Z 17006KT 4500 -RA BKN005 OVC025 18/18 Q1017=,SBGR
1682654400000,METAR SBGR 280400Z 19004KT 9999 -RA OVC014 17/16 Q1017=,SBGR
1682658000000,METAR SBGR 280500Z 00000KT 7000 -RA OVC008 17/17 Q1017=,SBGR
1682661600000,METAR SBGR 280600Z 18003KT 9999 OVC011 17/16 Q1017=,SBGR
1682665200000,METAR SBGR 280700Z 19003KT 9000 OVC007 17/16 Q1017=,SBGR
1682668800000,METAR SBGR 280800Z 17004KT 9000 -RA OVC007 16/16 Q1017=,SBGR
1682672400000,METAR SBGR 280900Z 24002KT 9000 -RA OVC017 16/16 Q1018=,SBGR
1682676000000,METAR SBGR 281000Z 25002KT 8000 -RA SCT011 OVC015 16/16 Q1019=,SBGR
1682679600000,METAR SBGR 281100Z 09002KT 8000 BKN012 OVC015 18/16 Q1019=,SBGR
1682683200000,METAR SBGR 281200Z 15004KT 8000 -RA SCT013 OVC015 17/16 Q1020=,SBGR
1682686800000,METAR SBGR 281300Z 13004KT 5000 -RA BR BKN010 OVC015 17/16 Q1020=,SBGR
1682690400000,METAR SBGR 281400Z 07004KT 5000 -RA BR BKN010 OVC015 18/16 Q1020=,SBGR
1682694000000,METAR SBGR 281500Z 08005KT 8000 SCT013 OVC020 18/16 Q1020=,SBGR
1682697600000,METAR SBGR 281600Z 14002KT 8000 OVC020 19/15 Q1019=,SBGR
1682701200000,METAR SBGR 281700Z 13002KT 8000 OVC017 18/16 Q1019=,SBGR
1682704800000,METAR SBGR 281800Z 18005KT 9000 FEW011 OVC017 18/16 Q1019=,SBGR
1682708400000,METAR SBGR 281900Z 18004KT 9999 FEW015 OVC023 18/15 Q1019=,SBGR
1682712000000,METAR SBGR 282000Z 18003KT 9999 BKN023 18/15 Q1020=,SBGR
1682715600000,METAR SBGR 282100Z 14003KT 9999 BKN030 17/14 Q1020=,SBGR
1682719200000,METAR SBGR 282200Z 11003KT 9999 SCT030 17/15 Q1020=,SBGR
1682722800000,METAR SBGR 282300Z 13003KT CAVOK 16/15 Q1020=,SBGR
1682640000000,METAR SBKP 280000Z 15002KT 9000 -RA FEW011 BKN015 OVC070 21/19 Q1016=,SBKP
1682641200000,SPECI SBKP 280020Z 12003KT 4000 -RA BR BKN009 OVC070 20/19 Q1016=,SBKP
1682643600000,METAR SBKP 280100Z 12004KT 2500 -RA BR BKN004 OVC070 20/19 Q1016=,SBKP
1682644800000,SPECI SBKP 280120Z 13006KT 4000 -RA BR SCT004 BKN011 OVC025 20/19 Q1016=,SBKP
1682647200000,METAR SBKP 280200Z 13007KT 3000 -RA BR SCT004 BKN011 OVC025 19/18 Q1017=,SBKP
1682649300000,SPECI SBKP 280235Z 15010KT 8000 BKN014 OVC020 19/18 Q1016=,SBKP
1682650800000,METAR SBKP 280300Z 13007KT 9999 SCT007 BKN014 OVC020 19/18 Q1016=,SBKP
1682654400000,METAR SBKP 280400Z 14006KT 9999 SCT006 BKN011 OVC017 19/18 Q1016=,SBKP
1682658000000,METAR SBKP 280500Z 13008KT 9999 FEW006 SCT011 BKN017 19/18 Q1015=,SBKP
1682661600000,METAR SBKP 280600Z 14010KT 9999 SCT017 BKN020 19/17 Q1015=,SBKP
1682665200000,METAR SBKP 280700Z 13010KT 9999 BKN023 18/17 Q1015=,SBKP
1682668800000,METAR SBKP 280800Z 13011KT 9999 BKN023 18/16 Q1016=,SBKP
1682672400000,METAR SBKP 280900Z 12011KT 9999 BKN026 18/16 Q1016=,SBKP
1682676000000,METAR SBKP 281000Z 12009KT 090V150 9999 FEW007 OVC030 18/16 Q1017=,SBKP
1682679600000,METAR SBKP 281100Z 13008KT 9999 FEW012 OVC030 18/15 Q1018=,SBKP
1682683200000,METAR SBKP 281200Z 12008KT 5000 -RA BR FEW012 OVC026 18/16 Q1019=,SBKP
1682686800000,METAR SBKP 281300Z 13009KT 9999 FEW013 OVC026 18/16 Q1019=,SBKP
1682690400000,METAR SBKP 281400Z 13011KT 9999 FEW009 OVC023 19/16 Q1019=,SBKP
1682694000000,METAR SBKP 281500Z 14011KT 9999 SCT010 OVC023 19/16 Q1019=,SBKP
1682697600000,METAR SBKP 281600Z 14010KT 9999 SCT013 OVC020 20/17 Q1019=,SBKP
1682701200000,METAR SBKP 281700Z 15010KT 9999 BKN020 SCT040 20/16 Q1018=,SBKP
1682704800000,METAR SBKP 281800Z 13011KT 9999 FEW020 21/16 Q1018=,SBKP
1682708400000,METAR SBKP 281900Z 13007KT 9999 SCT020 21/16 Q1018=,SBKP
1682712000000,METAR SBKP 282000Z 13008KT 9999 FEW025 SCT050 20/16 Q1018=,SBKP
1682715600000,METAR SBKP 282100Z 13011KT 8000 NSC 19/16 Q1018=,SBKP
1682719200000,METAR SBKP 282200Z 13009KT CAVOK 18/15 Q1018=,SBKP
1682722800000,METAR SBKP 282300Z 12011KT CAVOK 17/15 Q1019=,SBKP
1682640000000,METAR SBPA 280000Z 31003KT 280V010 9999 SCT035 19/17 Q1016=,SBPA
1682643600000,METAR SBPA 280100Z VRB01KT CAVOK 17/16 Q1016=,SBPA
1682647200000,METAR SBPA 280200Z 06003KT 9000 NSC 17/16 Q1016=,SBPA
1682650800000,METAR SBPA 280300Z VRB02KT 8000 NSC 17/16 Q1016=,SBPA
1682654400000,METAR SBPA 280400Z 00000KT 8000 NSC 16/15 Q1016=,SBPA
1682658000000,METAR SBPA 280500Z 33003KT 9000 SCT033 17/16 Q1016=,SBPA
1682661600000,METAR SBPA 280600Z 29004KT 9000 SCT033 16/16 Q1016=,SBPA
1682665200000,METAR SBPA 280700Z 31002KT 9000 SCT040 16/15 Q1016=,SBPA
1682668800000,METAR SBPA 280800Z 27004KT 9000 SCT040 15/15 Q1016=,SBPA
1682672400000,METAR SBPA 280900Z 28004KT 270V340 CAVOK 16/15 Q1017=,SBPA
1682676000000,METAR SBPA 281000Z VRB02KT CAVOK 15/14 Q1017=,SBPA
1682679600000,METAR SBPA 281100Z 28003KT CAVOK 15/15 Q1018=,SBPA
1682683200000,METAR SBPA 281200Z 28003KT 240V320 CAVOK 17/16 Q1018=,SBPA
1682686800000,METAR SBPA 281300Z 30003KT 240V040 CAVOK 19/17 Q1019=,SBPA
1682690400000,METAR SBPA 281400Z 29004KT 250V330 9999 FEW033 21/17 Q1019=,SBPA
1682694000000,METAR SBPA 281500Z VRB03KT 9999 FEW035 23/17 Q1018=,SBPA
1682697600000,METAR SBPA 281600Z VRB03KT 9999 SCT040 23/13 Q1018=,SBPA
1682701200000,METAR SBPA 281700Z 06004KT 350V120 9999 FEW040 25/13 Q1017=,SBPA
1682704800000,METAR SBPA 281800Z 07006KT 010V130 9999 FEW040 25/12 Q1016=,SBPA
1682708400000,METAR SBPA 281900Z VRB02KT CAVOK 25/12 Q1016=,SBPA
1682712000000,METAR SBPA 282000Z 19005KT 150V220 CAVOK 24/13 Q1016=,SBPA
1682715600000,METAR SBPA 282100Z 17008KT CAVOK 22/12 Q1017=,SBPA
1682719200000,METAR SBPA 282200Z 14006KT CAVOK 21/12 Q1017=,SBPA
1682722800000,METAR SBPA 282300Z 12010KT 090V150 CAVOK 21/12 Q1017=,SBPA
1682640000000,METAR SBRF 280000Z 11003KT 9999 SCT023 28/23 Q1014=,SBRF
1682643600000,METAR SBRF 280100Z 15002KT 9999 FEW022 27/23 Q1014=,SBRF
1682647200000,METAR SBRF 280200Z 21004KT 9999 FEW022 27/23 Q1013=,SBRF
1682650800000,METAR SBRF 280300Z 19004KT 9999 SCT020 26/23 Q1012=,SBRF
1682654400000,METAR SBRF 280400Z 20003KT 5000 -RA FEW010 SCT018 BKN060 26/23 Q1012=,SBRF
1682658000000,METAR SBRF 280500Z 24003KT 4000 -RA FEW010 OVC018 26/24 Q1012=,SBRF
1682661600000,METAR SBRF 280600Z 21004KT 9000 VCSH BKN020 BKN060 25/24 Q1012=,SBRF
1682665200000,METAR SBRF 280700Z 21004KT 9999 BKN020 BKN060 26/23 Q1012=,SBRF
1682668800000,METAR SBRF 280800Z 22004KT 9999 SCT020 26/23 Q1013=,SBRF
1682672400000,METAR SBRF 280900Z 22003KT 9999 BKN020 26/23 Q1013=,SBRF
1682676000000,METAR SBRF 281000Z 21005KT 9999 -RA BKN020 26/24 Q1014=,SBRF
1682679600000,METAR SBRF 281100Z 23004KT 9999 BKN020 27/24 Q1014=,SBRF
1682683200000,METAR SBRF 281200Z 15007KT 100V180 9999 SCT020 29/23 Q1014=,SBRF
1682686800000,METAR SBRF 281300Z 13008KT 9999 SCT022 29/24 Q1014=,SBRF
1682690400000,METAR SBRF 281400Z 14008KT 100V170 9999 SCT022 30/23 Q1014=,SBRF
1682694000000,METAR SBRF 281500Z 14007KT 080V180 9999 SCT022 30/24 Q1013=,SBRF
1682697600000,METAR SBRF 281600Z 14008KT 070V180 9999 SCT025 30/24 Q1012=,SBRF
1682701200000,METAR SBRF 281700Z 15010KT 120V180 9999 SCT025 30/23 Q1011=,SBRF
1682704800000,METAR SBRF 281800Z 14010KT 9999 FEW025 29/23 Q1011=,SBRF
1682708400000,METAR SBRF 281900Z 15009KT 9999 FEW025 29/23 Q1012=,SBRF
1682712000000,METAR SBRF 282000Z 14006KT 090V180 9999 SCT025 28/23 Q1012=,SBRF
1682715600000,METAR SBRF 282100Z 14007KT 100V170 9999 FEW023 28/23 Q1013=,SBRF
1682719200000,METAR SBRF 282200Z 14007KT 9999 FEW023 28/22 Q1014=,SBRF
1682722800000,METAR SBRF 282300Z 12005KT 080V140 9999 FEW023 28/22 Q1015=,SBRF
1682640000000,METAR SBRJ 280000Z 18006KT CAVOK 24/20 Q1013=,SBRJ
1682643600000,METAR SBRJ 280100Z 17005KT 9999 SCT040 BKN100 25/20 Q1014=,SBRJ
1682647200000,METAR SBRJ 280200Z 04002KT 9999 FEW040 BKN100 25/20 Q1014=,SBRJ
1682650800000,METAR SBRJ 280300Z 02005KT 9999 SCT040 BKN100 24/22 Q1013=,SBRJ
1682654400000,METAR SBRJ 280400Z 04006KT 9999 FEW015 OVC050 24/22 Q1013=,SBRJ
1682658000000,METAR SBRJ 280500Z 03008KT 9999 SCT015 OVC050 24/21 Q1013=,SBRJ
1682661600000,METAR SBRJ 280600Z 14007KT 8000 -RA FEW015 BKN020 OVC050 23/21 Q1012=,SBRJ
1682663100000,SPECI SBRJ 280625Z 31002KT 4000 RA BR FEW015 BKN020 OVC040 22/20 Q1013=,SBRJ
1682665200000,METAR SBRJ 280700Z 33003KT 4000 RA BR FEW010 BKN020 OVC040 21/20 Q1013=,SBRJ
1682666400000,SPECI SBRJ 280720Z 10004KT 6000 -RA FEW010 BKN020 OVC040 22/21 Q1013 RERA=,SBRJ
1682668800000,METAR SBRJ 280800Z 14006KT 6000 -RA FEW010 BKN020 OVC040 22/21 Q1013 RERA=,SBRJ
1682672400000,METAR SBRJ 280900Z 18003KT 8000 FEW010 SCT020 BKN040 22/21 Q1014=,SBRJ
1682674800000,SPECI SBRJ 280940Z 20003KT 170V240 8000 SCT011 BKN013 OVC030 23/21 Q1014=,SBRJ
1682676000000,METAR SBRJ 281000Z 19009KT 7000 -DZ BKN010 OVC013 22/21 Q1015=,SBRJ
1682677200000,SPECI SBRJ 281020Z 16008KT 4500 -RA BR BKN007 OVC017 21/20 Q1015=,SBRJ
1682679600000,METAR SBRJ 281100Z 18005KT 6000 -RA BKN010 OVC030 21/20 Q1015=,SBRJ
1682680800000,SPECI SBRJ 281120Z 12003KT 7000 -RA FEW010 BKN025 OVC033 22/20 Q1015=,SBRJ
1682683200000,METAR SBRJ 281200Z 10004KT 9000 FEW007 BKN025 OVC030 22/20 Q1016=,SBRJ
1682686080000,SPECI SBRJ 281248Z 02004KT 7000 BKN012 BKN025 OVC030 22/20 Q1016=,SBRJ
1682686800000,METAR SBRJ 281300Z 02003KT 330V060 7000 BKN012 BKN025 OVC030 22/20 Q1016=,SBRJ
1682690400000,METAR SBRJ 281400Z 35005KT 5000 -RA BR BKN009 BKN020 OVC030 22/21 Q1016=,SBRJ
1682694000000,METAR SBRJ 281500Z 15003KT 090V220 5000 -RA BR BKN009 BKN020 OVC030 23/20 Q1016=,SBRJ
1682697600000,METAR SBRJ 281600Z 34003KT 290V020 8000 SCT012 BKN020 OVC080 23/21 Q1015=,SBRJ
1682701200000,METAR SBRJ 281700Z 09003KT 8000 SCT010 BKN020 OVC080 23/21 Q1015=,SBRJ
1682704800000,METAR SBRJ 281800Z 02003KT 350V050 9000 FEW010 BKN020 BKN080 23/20 Q1014=,SBRJ
1682708400000,METAR SBRJ 281900Z 05003KT 010V080 9000 FEW010 BKN018 BKN050 24/20 Q1015=,SBRJ
1682712000000,METAR SBRJ 282000Z 03003KT 360V060 9999 FEW010 BKN040 BKN060 23/21 Q1016=,SBRJ
1682715600000,METAR SBRJ 282100Z 01005KT 350V050 9999 SCT010 BKN018 OVC050 23/21 Q1016=,SBRJ
1682719200000,METAR SBRJ 282200Z 11008KT 050V170 9999 SCT010 BKN018 OVC040 23/20 Q1017=,SBRJ
1682722800000,METAR SBRJ 282300Z 32004KT 280V360 9999 FEW010 OVC050 23/21 Q1017=,SBRJ
1682640000000,METAR SBSP 280000Z 18007KT 150V210 9999 FEW006 SCT011 OVC021 18/17 Q1018=,SBSP
1682642940000,SPECI SBSP 280049Z 16006KT 7000 -RA FEW004 BKN007 OVC025 18/17 Q1018=,SBSP
1682643600000,METAR SBSP 280100Z 15006KT 7000 -DZ FEW004 BKN006 OVC025 18/17 Q1018=,SBSP
1682647200000,METAR SBSP 280200Z 16008KT 5000 -DZ BR SCT003 OVC005 18/17 Q1019=,SBSP
1682647260000,SPECI SBSP 280201Z 17009KT 6000 -DZ OVC003 17/16 Q1018=,SBSP
1682648040000,SPECI SBSP 280214Z AUTO 17008KT 9999 -RA FEW003 BKN005 OVC011 17/16 Q1018=,SBSP
1682648400000,SPECI SBSP 280220Z AUTO 16007KT 9000 -DZ BKN004 BKN011 OVC037 17/16 Q1018=,SBSP
1682649720000,SPECI SBSP 280242Z AUTO 17008KT 9999 -RA BKN004 BKN008 OVC033 17/16 Q1018=,SBSP
1682650440000,SPECI SBSP 280254Z AUTO 17006KT 9999 -RA SCT005 SCT018 OVC034 17/16 Q1018=,SBSP
1682650800000,METAR SBSP 280300Z AUTO 17006KT 9999 -RA SCT005 SCT018 OVC034 17/16 Q1018=,SBSP
1682653500000,SPECI SBSP 280345Z AUTO 17008KT 9999 -RA SCT006 BKN008 OVC020 17/16 Q1018=,SBSP
1682654400000,METAR SBSP 280400Z AUTO 18009KT 9999 -RA SCT006 BKN008 OVC021 17/16 Q1018=,SBSP
1682655060000,SPECI SBSP 280411Z AUTO 17008KT 9999 FEW008 BKN025 OVC036 17/15 Q1018=,SBSP
1682657280000,SPECI SBSP 280448Z AUTO 16006KT 9999 SCT009 BKN012 OVC027 17/15 Q1018=,SBSP
1682658000000,METAR SBSP 280500Z AUTO 17006KT 9999 SCT008 BKN011 OVC028 17/15 Q1017=,SBSP
1682658600000,SPECI SBSP 280510Z AUTO 18006KT 9999 OVC008 17/15 Q1017=,SBSP
1682659800000,SPECI SBSP 280530Z AUTO 17008KT 9999 BKN007 OVC012 17/15 Q1017=,SBSP
1682661600000,METAR SBSP 280600Z AUTO 15006KT 9999 BKN006 OVC012 17/16 Q1017=,SBSP
1682662620000,SPECI SBSP 280617Z AUTO 15006KT 9999 BKN006 OVC016 17/16 Q1017=,SBSP
1682664660000,SPECI SBSP 280651Z AUTO 15006KT 6000 -DZ SCT007 BKN009 OVC014 17/15 Q1018=,SBSP
1682665200000,METAR SBSP 280700Z AUTO 15006KT 6000 -DZ SCT006 OVC008 17/16 Q1018=,SBSP
1682665560000,SPECI SBSP 280706Z AUTO 16006KT 5000 -DZ BR OVC004 17/16 Q1018=,SBSP
1682665740000,SPECI SBSP 280709Z AUTO 17006G16KT 150V220 5000 -DZ BKN003 OVC009 17/16 Q1018=,SBSP
1682666700000,SPECI SBSP 280725Z AUTO 14009KT 9999 -RA SCT003 OVC011 16/15 Q1018=,SBSP
1682668260000,SPECI SBSP 280751Z AUTO 15006KT 9999 OVC019 16/15 Q1018=,SBSP
1682668800000,METAR SBSP 280800Z AUTO 15006KT 9999 OVC020 16/15 Q1018=,SBSP
1682672400000,METAR SBSP 280900Z 15004KT 9999 SCT007 BKN009 OVC033 17/15 Q1019=,SBSP
1682676000000,METAR SBSP 281000Z 15005KT 120V180 9999 SCT011 OVC033 17/16 Q1019=,SBSP
1682678340000,SPECI SBSP 281039Z 14007KT 9000 SCT009 BKN011 OVC030 17/16 Q1020=,SBSP
1682679600000,METAR SBSP 281100Z 15006KT 9000 SCT009 BKN013 OVC023 17/16 Q1020=,SBSP
1682683200000,METAR SBSP 281200Z 13006KT 9000 FEW011 BKN013 OVC026 18/15 Q1020=,SBSP
1682686800000,METAR SBSP 281300Z 17007KT 8000 BKN013 SCT017 OVC022 17/15 Q1021=,SBSP
1682690400000,METAR SBSP 281400Z 13007KT 8000 BKN013 SCT015 OVC025 18/15 Q1021=,SBSP
1682694000000,METAR SBSP 281500Z 14008KT 8000 BKN011 OVC023 18/15 Q1021=,SBSP
1682697600000,METAR SBSP 281600Z 15006KT 120V190 9000 SCT011 BKN013 OVC036 17/15 Q1020=,SBSP
1682701200000,METAR SBSP 281700Z 16008KT 9999 SCT011 BKN019 OVC036 17/14 Q1020=,SBSP
1682704800000,METAR SBSP 281800Z 19008KT 8000 SCT009 BKN011 OVC036 16/14 Q1020=,SBSP
1682708400000,METAR SBSP 281900Z 17006KT 9999 BKN011 OVC036 17/13 Q1020=,SBSP
1682712000000,METAR SBSP 282000Z 17009KT 9999 OVC036 18/12 Q1021=,SBSP
1682715600000,METAR SBSP 282100Z 15007KT CAVOK 16/12 Q1020=,SBSP
1682719200000,METAR SBSP 282200Z 15005KT CAVOK 16/13 Q1021=,SBSP
1682722800000,METAR SBSP 282300Z 13007KT 9999 FEW015 BKN026 16/14 Q1021=,SBSP
1682640000000,METAR SBSV 280000Z 00000KT 9999 FEW020 26/24 Q1015=,SBSV
1682643600000,METAR SBSV 280100Z 36002KT 9999 FEW020 26/24 Q1015=,SBSV
1682647200000,METAR SBSV 280200Z VRB02KT 9999 FEW020 25/24 Q1014=,SBSV
1682650800000,METAR SBSV 280300Z 26003KT 240V330 9999 FEW020 25/24 Q1014=,SBSV
1682654400000,METAR SBSV 280400Z 27003KT 250V320 9999 FEW020 SCT070 25/24 Q1013=,SBSV
1682658000000,METAR SBSV 280500Z VRB02KT 9999 FEW020 SCT070 25/24 Q1013=,SBSV
1682661600000,METAR SBSV 280600Z 27003KT 9999 FEW020 25/24 Q1013=,SBSV
1682665200000,METAR SBSV 280700Z VRB02KT 9999 FEW020 25/24 Q1013=,SBSV
1682668800000,METAR SBSV 280800Z 31002KT 9999 FEW020 25/24 Q1013=,SBSV
1682672400000,METAR SBSV 280900Z 27002KT 9999 FEW020 24/23 Q1013=,SBSV
1682676000000,METAR SBSV 281000Z 29002KT 9999 FEW020 26/25 Q1014=,SBSV
1682679600000,METAR SBSV 281100Z 00000KT 9999 SCT015 28/25 Q1014=,SBSV
1682683200000,METAR SBSV 281200Z 08003KT 9999 SCT015 29/25 Q1015=,SBSV
1682686800000,METAR SBSV 281300Z 12006KT 8000 VCSH BKN017 FEW023TCU 28/25 Q1015=,SBSV
1682690400000,METAR SBSV 281400Z 13007KT 9999 SCT020 FEW023TCU 28/24 Q1014=,SBSV
1682694000000,METAR SBSV 281500Z 15006KT 9999 VCSH SCT020 FEW023TCU 31/26 Q1014=,SBSV
1682697600000,METAR SBSV 281600Z 13006KT 9999 SCT020 30/25 Q1013=,SBSV
1682701200000,METAR SBSV 281700Z 14007KT 9999 SCT020 29/25 Q1012=,SBSV
1682704800000,METAR SBSV 281800Z 13007KT 9999 SCT020 30/25 Q1012=,SBSV
1682708400000,METAR SBSV 281900Z 10006KT 9999 SCT020 29/25 Q1012=,SBSV
1682712000000,METAR SBSV 282000Z 08008KT 9999 FEW020 29/25 Q1012=,SBSV
1682715600000,METAR SBSV 282100Z 08007KT 9999 FEW020 28/24 Q1013=,SBSV
1682719200000,METAR SBSV 282200Z 08009KT 9999 FEW020 28/24 Q1014=,SBSV
1682722800000,METAR SBSV 282300Z 08009KT 9999 FEW020 28/25 Q1015=,SBSV
