hora,metar,aero
1656115200000,METAR SBBR 250000Z 14005KT CAVOK 22/11 Q1022=,SBBR
1656118800000,METAR SBBR 250100Z 09002KT CAVOK 19/12 Q1023=,SBBR
1656122400000,METAR SBBR 250200Z 15003KT CAVOK 19/11 Q1023=,SBBR
1656126000000,METAR SBBR 250300Z 10006KT CAVOK 18/11 Q1023=,SBBR
1656129600000,METAR SBBR 250400Z 28002KT CAVOK 17/11 Q1022=,SBBR
1656133200000,METAR SBBR 250500Z 00000KT CAVOK 14/10 Q1022=,SBBR
1656136800000,METAR SBBR 250600Z 28002KT CAVOK 13/10 Q1021=,SBBR
1656140400000,METAR SBBR 250700Z 26002KT CAVOK 12/10 Q1021=,SBBR
1656144000000,METAR SBBR 250800Z 28002KT CAVOK 12/09 Q1021=,SBBR
1656147600000,METAR SBBR 250900Z 26004KT CAVOK 12/10 Q1021=,SBBR
1656151200000,METAR SBBR 251000Z 00000KT CAVOK 12/09 Q1022=,SBBR
1656154800000,METAR SBBR 251100Z 00000KT CAVOK 16/11 Q1023=,SBBR
1656158400000,METAR SBBR 251200Z VRB01KT CAVOK 18/11 Q1023=,SBBR
1656162000000,METAR SBBR 251300Z 08008KT CAVOK 22/09 Q1023=,SBBR
1656165600000,METAR SBBR 251400Z 12010KT CAVOK 24/08 Q1023=,SBBR
1656169200000,METAR SBBR 251500Z 16008KT CAVOK 24/08 Q1022=,SBBR
1656172800000,METAR SBBR 251600Z 13009KT CAVOK 26/08 Q1021=,SBBR
1656176400000,METAR SBBR 251700Z 18009KT CAVOK 26/07 Q1021=,SBBR
1656180000000,METAR SBBR 251800Z 15007KT 100V210 CAVOK 26/07 Q1020=,SBBR
1656183600000,METAR SBBR 251900Z 12009KT 100V170 CAVOK 26/07 Q1019=,SBBR
1656187200000,METAR SBBR 252000Z 14006KT 120V180 CAVOK 25/08 Q1019=,SBBR
1656190800000,METAR SBBR 252100Z 17005KT CAVOK 24/07 Q1020=,SBBR
1656194400000,METAR SBBR 252200Z 13005KT 100V160 CAVOK 21/08 Q1020=,SBBR
1656198000000,METAR SBBR 252300Z 12006KT CAVOK 21/08 Q1021=,SBBR
1656115200000,METAR SBCF 250000Z 00000KT CAVOK 18/09 Q1022=,SBCF
1656118800000,METAR SBCF 250100Z 15002KT CAVOK 17/09 Q1023=,SBCF
1656122400000,METAR SBCF 250200Z 22002KT CAVOK 15/09 Q1022=,SBCF
1656126000000,METAR SBCF 250300Z 23002KT CAVOK 14/09 Q1022=,SBCF
1656129600000,METAR SBCF 250400Z 17002KT CAVOK 14/09 Q1022=,SBCF
1656133200000,METAR SBCF 250500Z 16006KT CAVOK 14/10 Q1022=,SBCF
1656136800000,METAR SBCF 250600Z 19002KT CAVOK 13/10 Q1021=,SBCF
1656140400000,METAR SBCF 250700Z 15002KT CAVOK 13/10 Q1022=,SBCF
1656144000000,METAR SBCF 250800Z 18002KT CAVOK 13/10 Q1021=,SBCF
1656147600000,METAR SBCF 250900Z 18003KT CAVOK 12/09 Q1022=,SBCF
1656151200000,METAR SBCF 251000Z 16003KT 9999 PRFG NSC 12/10 Q1022=,SBCF
1656154800000,METAR SBCF 251100Z 16003KT CAVOK 13/10 Q1022=,SBCF
1656158400000,METAR SBCF 251200Z 13002KT CAVOK 16/11 Q1023=,SBCF
1656162000000,METAR SBCF 251300Z 10002KT CAVOK 20/12 Q1023=,SBCF
1656165600000,METAR SBCF 251400Z 16006KT CAVOK 23/09 Q1023=,SBCF
1656169200000,METAR SBCF 251500Z 19004KT CAVOK 24/09 Q1022=,SBCF
1656172800000,METAR SBCF 251600Z 12005KT CAVOK 25/08 Q1020=,SBCF
1656176400000,METAR SBCF 251700Z 20006KT 160V230 CAVOK 26/09 Q1020=,SBCF
1656180000000,METAR SBCF 251800Z VRB03KT CAVOK 26/09 Q1019=,SBCF
1656183600000,METAR SBCF 251900Z 07003KT 030V150 CAVOK 26/09 Q1019=,SBCF
1656187200000,METAR SBCF 252000Z 21003KT CAVOK 25/09 Q1019=,SBCF
1656190800000,METAR SBCF 252100Z 25002KT CAVOK 23/09 Q1019=,SBCF
1656194400000,METAR SBCF 252200Z 07006KT CAVOK 22/10 Q1020=,SBCF
1656198000000,METAR SBCF 252300Z 10006KT CAVOK 22/10 Q1020=,SBCF
1656115200000,METAR SBCT 250000Z 03005KT CAVOK 17/13 Q1022=,SBCT
1656118800000,METAR SBCT 250100Z 02002KT 5000 BR NSC 15/13 Q1023=,SBCT
1656122400000,METAR SBCT 250200Z 00000KT 5000 BR NSC 15/14 Q1023=,SBCT
1656126000000,METAR SBCT 250300Z 31001KT 5000 BR NSC 14/14 Q1023=,SBCT
1656129600000,METAR SBCT 250400Z 08002KT 5000 BR NSC 13/13 Q1023=,SBCT
1656133200000,METAR SBCT 250500Z 10001KT 5000 BR NSC 13/13 Q1023=,SBCT
1656136800000,METAR SBCT 250600Z 00000KT 5000 BR NSC 12/12 Q1022=,SBCT
1656140400000,METAR SBCT 250700Z 09002KT 5000 BR NSC 11/11 Q1022=,SBCT
1656144000000,METAR SBCT 250800Z 06002KT 5000 2000SE BR NSC 11/11 Q1022=,SBCT
1656147600000,METAR SBCT 250900Z 06002KT 5000 2000SE BR NSC 11/11 Q1023=,SBCT
1656151200000,METAR SBCT 251000Z VRB01KT 5000 1500NE R15/1500 R33/2000 BR MIFG NSC 11/11 Q1023=,SBCT
1656154800000,METAR SBCT 251100Z 00000KT 5000 BR NSC 13/13 Q1024=,SBCT
1656158400000,METAR SBCT 251200Z 04002KT 5000 BR NSC 15/14 Q1025=,SBCT
1656162000000,METAR SBCT 251300Z 13004KT 8000 FEW009 SCT020 18/14 Q1025=,SBCT
1656165600000,METAR SBCT 251400Z 12008KT 9999 SCT006 BKN025 17/15 Q1025=,SBCT
1656169200000,METAR SBCT 251500Z 11007KT 9999 SCT009 BKN025 18/15 Q1025=,SBCT
1656170400000,SPECI SBCT 251520Z 11007KT 9999 BKN013 18/14 Q1025=,SBCT
1656172800000,METAR SBCT 251600Z 09007KT 9999 BKN013 18/14 Q1024=,SBCT
1656176400000,METAR SBCT 251700Z 10006KT 9999 SCT017 SCT020 19/14 Q1024=,SBCT
1656180000000,METAR SBCT 251800Z 09009KT 9999 SCT012 BKN016 17/14 Q1023=,SBCT
1656180600000,SPECI SBCT 251810Z 10009KT 9999 BKN011 BKN017 17/14 Q1024=,SBCT
1656182280000,SPECI SBCT 251838Z 11009KT 080V140 9999 BKN007 BKN011 OVC019 16/14 Q1024=,SBCT
1656183600000,METAR SBCT 251900Z 10009KT 9000 BKN007 BKN020 15/14 Q1023=,SBCT
1656187200000,METAR SBCT 252000Z 09009KT 9999 BKN007 OVC020 14/12 Q1024=,SBCT
1656190800000,METAR SBCT 252100Z 07008KT 9999 BKN006 OVC010 13/12 Q1024=,SBCT
1656194400000,METAR SBCT 252200Z 13008KT 9999 BKN004 OVC009 13/12 Q1025=,SBCT
1656198000000,METAR SBCT 252300Z 12011KT 6000 -DZ BKN004 OVC009 12/12 Q1025=,SBCT
1656115200000,METAR SBFL 250000Z 06007KT 9999 FEW002 SCT006 BKN014 17/17 Q1018 RETS=,SBFL
1656118800000,METAR SBFL 250100Z 00000KT 9999 FEW002 SCT006 BKN014 17/17 Q1018=,SBFL
1656122400000,METAR SBFL 250200Z 32003KT 9999 FEW002 SCT006 BKN014 17/17 Q1019=,SBFL
1656126000000,METAR SBFL 250300Z 25004KT 9999 FEW002 SCT006 BKN014 17/17 Q1019=,SBFL
1656129600000,METAR SBFL 250400Z 14002KT 2000 -RA FEW002 SCT006 BKN010 17/17 Q1019=,SBFL
1656133200000,METAR SBFL 250500Z 12005KT 4000 -RA FEW002 SCT006 BKN010 17/17 Q1019=,SBFL
1656136800000,METAR SBFL 250600Z 20002KT 9999 FEW002 SCT006 BKN010 17/17 Q1019=,SBFL
1656140400000,METAR SBFL 250700Z 19005KT 9999 FEW002 SCT006 BKN010 17/17 Q1019=,SBFL
1656144000000,METAR SBFL 250800Z 17010KT 9999 FEW002 SCT006 BKN010 18/17 Q1019=,SBFL
1656147600000,METAR SBFL 250900Z 16010KT 9999 FEW002 SCT006 BKN010 18/15 Q1020=,SBFL
1656151200000,METAR SBFL 251000Z 17010KT 9999 SCT014 BKN030 18/15 Q1021=,SBFL
1656154800000,METAR SBFL 251100Z 17013G23KT 9999 SCT020 BKN090 18/15 Q1022=,SBFL
1656158400000,METAR SBFL 251200Z 18013G27KT 9999 SCT025 BKN090 18/14 Q1023=,SBFL
1656162000000,METAR SBFL 251300Z 19015KT 9999 BKN025 18/14 Q1023=,SBFL
1656165600000,METAR SBFL 251400Z 19011KT 9999 SCT030 18/14 Q1023=,SBFL
1656169200000,METAR SBFL 251500Z 19013KT 9999 SCT030 18/14 Q1024=,SBFL
1656172800000,METAR SBFL 251600Z 19015KT 9999 SCT035 19/14 Q1023=,SBFL
1656176400000,METAR SBFL 251700Z 19013KT 9999 SCT040 19/14 Q1022=,SBFL
1656180000000,METAR SBFL 251800Z 18014G24KT 9999 FEW033 SCT066 18/13 Q1022=,SBFL
1656183600000,METAR SBFL 251900Z 17013KT 140V200 9999 FEW033 18/13 Q1022=,SBFL
1656187200000,METAR SBFL 252000Z 16007KT 090V210 9999 FEW015 SCT066 17/13 Q1023=,SBFL
1656190800000,METAR SBFL 252100Z 16012KT 130V190 9999 FEW017 BKN050 16/11 Q1024=,SBFL
1656194400000,METAR SBFL 252200Z 16011KT 130V190 9999 FEW017 BKN050 16/10 Q1024=,SBFL
1656198000000,METAR SBFL 252300Z 15011KT 9999 FEW017 BKN050 16/10 Q1024=,SBFL
1656115200000,METAR SBGL 250000Z 29004KT 8000 NSC 20/18 Q1018=,SBGL
1656118800000,METAR SBGL 250100Z 30004KT 8000 NSC 20/18 Q1019=,SBGL
1656122400000,METAR SBGL 250200Z 29006KT 7000 FEW010 19/18 Q1019=,SBGL
1656126000000,METAR SBGL 250300Z 28005KT 6000 FEW010 19/18 Q1019=,SBGL
1656129600000,METAR SBGL 250400Z 29004KT 6000 OVC010 19/18 Q1018=,SBGL
1656133200000,METAR SBGL 250500Z 27005KT 6000 OVC008 19/17 Q1018=,SBGL
1656136800000,METAR SBGL 250600Z 29004KT 6000 OVC009 19/18 Q1017=,SBGL
1656140400000,METAR SBGL 250700Z 32005KT 6000 OVC009 19/17 Q1017=,SBGL
1656144000000,METAR SBGL 250800Z 33003KT 5000 BR OVC006 19/17 Q1017=,SBGL
1656147600000,METAR SBGL 250900Z 36004KT 320V020 3000 BR OVC005 18/17 Q1017=,SBGL
1656151200000,METAR SBGL 251000Z 01003KT 2000 BR OVC003 18/17 Q1018=,SBGL
1656154800000,METAR SBGL 251100Z 03003KT 2000 BR OVC003 18/17 Q1019=,SBGL
1656158400000,METAR SBGL 251200Z 01004KT 2000 BR OVC003 19/17 Q1019=,SBGL
1656162000000,METAR SBGL 251300Z VRB02KT 3000 BR BKN005 20/17 Q1019=,SBGL
1656163800000,SPECI SBGL 251330Z 13002KT 4000 HZ SCT008 22/18 Q1019=,SBGL
1656165600000,METAR SBGL 251400Z 10004KT 4000 HZ SCT010 23/18 Q1019=,SBGL
1656169200000,METAR SBGL 251500Z 10006KT 4000 HZ SCT012 23/18 Q1019=,SBGL
1656172800000,METAR SBGL 251600Z 16004KT 120V250 5000 HZ NSC 25/19 Q1018=,SBGL
1656176400000,METAR SBGL 251700Z 21012KT 9999 SCT025 24/17 Q1018=,SBGL
1656180000000,METAR SBGL 251800Z 21017KT 9999 BKN025 23/16 Q1018=,SBGL
1656183600000,METAR SBGL 251900Z 21013KT 9999 BKN030 22/16 Q1019=,SBGL
1656187200000,METAR SBGL 252000Z 21012KT 9999 BKN030 22/16 Q1020=,SBGL
1656190800000,METAR SBGL 252100Z 23008KT 210V270 9999 BKN030 OVC040 22/15 Q1020=,SBGL
1656194400000,METAR SBGL 252200Z 30003KT 9999 BKN030 OVC040 22/16 Q1020=,SBGL
1656198000000,METAR SBGL 252300Z 30005KT 9999 BKN030 OVC040 22/16 Q1021=,SBGL
1656115200000,METAR SBGR 250000Z 00000KT CAVOK 16/13 Q1022=,SBGR
1656118800000,METAR SBGR 250100Z 00000KT CAVOK 15/13 Q1022=,SBGR
1656122400000,METAR SBGR 250200Z 13001KT CAVOK 15/14 Q1022=,SBGR
1656126000000,METAR SBGR 250300Z 00000KT 8000 NSC 14/14 Q1022=,SBGR
1656129600000,METAR SBGR 250400Z 08002KT 8000 NSC 13/13 Q1022=,SBGR
1656133200000,METAR SBGR 250500Z 08002KT 8000 NSC 13/13 Q1022=,SBGR
1656136800000,METAR SBGR 250600Z 09002KT 8000 NSC 12/12 Q1021=,SBGR
1656140400000,METAR SBGR 250700Z 00000KT CAVOK 12/12 Q1021=,SBGR
1656144000000,METAR SBGR 250800Z 09002KT CAVOK 12/12 Q1021=,SBGR
1656147600000,METAR SBGR 250900Z 00000KT CAVOK 11/11 Q1022=,SBGR
1656151200000,METAR SBGR 251000Z 13001KT 9000 3500E NSC 10/10 Q1022=,SBGR
1656154800000,METAR SBGR 251100Z 00000KT 8000 3000E NSC 13/13 Q1023=,SBGR
1656158400000,METAR SBGR 251200Z 01002KT 8000 3000E NSC 17/13 Q1023=,SBGR
1656162000000,METAR SBGR 251300Z 13001KT 7000 NSC 20/13 Q1024=,SBGR
1656165600000,METAR SBGR 251400Z VRB02KT 8000 NSC 23/13 Q1023=,SBGR
1656169200000,METAR SBGR 251500Z 18006KT 120V240 6000 BKN029 22/14 Q1023=,SBGR
1656172800000,METAR SBGR 251600Z 19006KT 130V250 CAVOK 21/14 Q1023=,SBGR
1656176400000,METAR SBGR 251700Z 18007KT CAVOK 21/14 Q1022=,SBGR
1656180000000,METAR SBGR 251800Z 19007KT 130V260 9999 BKN021 21/15 Q1022=,SBGR
1656183600000,METAR SBGR 251900Z 17009KT 140V230 9999 BKN013 BKN017 18/16 Q1023=,SBGR
1656187200000,METAR SBGR 252000Z 18008KT 9999 BKN011 BKN013 OVC017 17/16 Q1023=,SBGR
1656190800000,METAR SBGR 252100Z 19005KT 9999 BKN011 BKN013 OVC017 17/16 Q1023=,SBGR
1656194400000,METAR SBGR 252200Z 17007KT 9999 OVC011 17/16 Q1024=,SBGR
1656198000000,METAR SBGR 252300Z 19005KT 9999 BKN011 BKN015 OVC017 16/16 Q1024=,SBGR
1656115200000,METAR SBKP 250000Z 19002KT CAVOK 19/11 Q1021=,SBKP
1656118800000,METAR SBKP 250100Z 12005KT CAVOK 18/12 Q1021=,SBKP
1656122400000,METAR SBKP 250200Z 12004KT CAVOK 18/12 Q1021=,SBKP
1656126000000,METAR SBKP 250300Z 13005KT CAVOK 17/12 Q1021=,SBKP
1656129600000,METAR SBKP 250400Z 15006KT CAVOK 17/13 Q1021=,SBKP
1656133200000,METAR SBKP 250500Z 15006KT CAVOK 16/12 Q1021=,SBKP
1656136800000,METAR SBKP 250600Z 12005KT 9000 NSC 16/12 Q1020=,SBKP
1656140400000,METAR SBKP 250700Z 10003KT 9000 NSC 16/12 Q1020=,SBKP
1656144000000,METAR SBKP 250800Z 13002KT 9000 NSC 16/12 Q1020=,SBKP
1656147600000,METAR SBKP 250900Z 12002KT 8000 NSC 15/12 Q1021=,SBKP
1656151200000,METAR SBKP 251000Z 12005KT 8000 3000SE NSC 14/11 Q1021=,SBKP
1656154800000,METAR SBKP 251100Z 14006KT 8000 3500SE NSC 14/12 Q1022=,SBKP
1656158400000,METAR SBKP 251200Z 13004KT 8000 NSC 18/13 Q1022=,SBKP
1656162000000,METAR SBKP 251300Z 13005KT 9000 NSC 21/11 Q1023=,SBKP
1656165600000,METAR SBKP 251400Z 25003KT 170V290 CAVOK 23/12 Q1023=,SBKP
1656169200000,METAR SBKP 251500Z VRB04KT CAVOK 24/12 Q1022=,SBKP
1656172800000,METAR SBKP 251600Z 22004KT 160V290 CAVOK 25/11 Q1021=,SBKP
1656176400000,METAR SBKP 251700Z 19007KT 150V240 CAVOK 27/10 Q1020=,SBKP
1656180000000,METAR SBKP 251800Z 17008KT 130V200 9999 SCT045 27/13 Q1020=,SBKP
1656183600000,METAR SBKP 251900Z 15015KT 9999 FEW045 24/14 Q1020=,SBKP
1656187200000,METAR SBKP 252000Z 18014KT 9999 FEW045 22/15 Q1020=,SBKP
1656190800000,METAR SBKP 252100Z 14014KT 9999 FEW025 19/14 Q1022=,SBKP
1656194400000,METAR SBKP 252200Z 15010KT 9999 FEW025 19/14 Q1022=,SBKP
1656198000000,METAR SBKP 252300Z 14012KT 9999 FEW025 18/14 Q1022=,SBKP
1656115200000,METAR SBPA 250000Z 18007KT 160V220 5000 SHRA BR BKN006 OVC020 15/14 Q1021=,SBPA
1656118800000,METAR SBPA 250100Z 19009KT 160V220 5000 SHRA BR BKN006 OVC026 15/15 Q1022=,SBPA
1656122400000,METAR SBPA 250200Z 21006KT 180V250 8000 SHRA BKN006 BKN012 OVC030 15/14 Q1023=,SBPA
1656126000000,METAR SBPA 250300Z 21005KT 130V250 8000 SHRA BKN007 BKN012 OVC038 14/13 Q1023 WS R11=,SBPA
1656129600000,METAR SBPA 250400Z 18007KT 120V230 8000 SHRA BKN008 OVC038 13/12 Q1024=,SBPA
1656133200000,METAR SBPA 250500Z 22004KT 140V280 8000 BKN009 BKN018 13/11 Q1024 RESHRA=,SBPA
1656136800000,METAR SBPA 250600Z 22006KT 170V300 8000 BKN012 BKN021 13/11 Q1024=,SBPA
1656140400000,METAR SBPA 250700Z 30003KT 240V030 8000 BKN012 BKN020 13/11 Q1024=,SBPA
1656144000000,METAR SBPA 250800Z 23004KT 190V290 8000 BKN012 BKN020 13/11 Q1025=,SBPA
1656147600000,METAR SBPA 250900Z 20003KT 150V260 8000 BKN011 BKN019 13/11 Q1025=,SBPA
1656151200000,METAR SBPA 251000Z 20005KT 170V230 9000 BKN011 BKN021 13/11 Q1026=,SBPA
1656154800000,METAR SBPA 251100Z 22004KT 180V250 9999 BKN014 BKN040 12/10 Q1026=,SBPA
1656158400000,METAR SBPA 251200Z 20005KT 140V240 9999 BKN014 BKN040 12/10 Q1027=,SBPA
1656162000000,METAR SBPA 251300Z 17007KT 130V240 9999 BKN013 BKN050 13/10 Q1028=,SBPA
1656165600000,METAR SBPA 251400Z 19007KT 160V240 9999 BKN014 BKN050 13/10 Q1028=,SBPA
1656169200000,METAR SBPA 251500Z 18007KT 150V220 9999 BKN016 BKN050 13/10 Q1028=,SBPA
1656172800000,METAR SBPA 251600Z 21004KT 140V260 9999 SCT020 BKN050 14/09 Q1027=,SBPA
1656176400000,METAR SBPA 251700Z 20007KT 160V230 9999 FEW023 BKN045 14/10 Q1026=,SBPA
1656180000000,METAR SBPA 251800Z 18004KT 120V240 9999 BKN023 14/09 Q1026=,SBPA
1656183600000,METAR SBPA 251900Z 16007KT 130V200 9999 BKN023 14/09 Q1026=,SBPA
1656187200000,METAR SBPA 252000Z 17009KT 140V210 9999 FEW025 BKN040 13/08 Q1027=,SBPA
1656190800000,METAR SBPA 252100Z 17005KT 140V220 9999 FEW025 BKN040 12/09 Q1027=,SBPA
1656194400000,METAR SBPA 252200Z 18005KT 150V210 9999 FEW025 BKN040 12/09 Q1027=,SBPA
1656198000000,METAR SBPA 252300Z 20005KT 9999 FEW025 BKN040 12/09 Q1028=,SBPA
1656115200000,METAR SBRF 250000Z 13006KT 9000 VCSH BKN022 25/19 Q1015=,SBRF
1656118800000,METAR SBRF 250100Z 15010KT 9999 SCT021 26/20 Q1015=,SBRF
1656122400000,METAR SBRF 250200Z 16009KT 9999 SCT023 25/19 Q1015=,SBRF
1656126000000,METAR SBRF 250300Z 24004KT 9999 FEW025 23/21 Q1014=,SBRF
1656129600000,METAR SBRF 250400Z 00000KT 9999 FEW025 22/20 Q1014=,SBRF
1656133200000,METAR SBRF 250500Z 23006KT CAVOK 22/20 Q1013=,SBRF
1656136800000,METAR SBRF 250600Z 22005KT 9999 SCT025 22/20 Q1013=,SBRF
1656140400000,METAR SBRF 250700Z 22006KT CAVOK 22/21 Q1013=,SBRF
1656144000000,METAR SBRF 250800Z VRB01KT 9999 FEW025 SCT080 22/20 Q1013=,SBRF
1656147600000,METAR SBRF 250900Z 23003KT 9999 FEW023 22/20 Q1013=,SBRF
1656151200000,METAR SBRF 251000Z 21006KT 9999 FEW023 23/21 Q1014=,SBRF
1656154800000,METAR SBRF 251100Z 22007KT 9999 SCT023 FEW025TCU 24/21 Q1014=,SBRF
1656158400000,METAR SBRF 251200Z 20007KT 9999 SCT023 FEW025TCU 25/22 Q1015=,SBRF
1656162000000,METAR SBRF 251300Z 20006KT 160V240 9999 SCT023 27/21 Q1014=,SBRF
1656165600000,METAR SBRF 251400Z 18008KT 9999 SCT025 27/21 Q1013=,SBRF
1656169200000,METAR SBRF 251500Z 17007KT 9999 SCT025 28/21 Q1013=,SBRF
1656172800000,METAR SBRF 251600Z 14011KT 090V170 9999 FEW025 28/19 Q1012=,SBRF
1656176400000,METAR SBRF 251700Z 15011KT 120V180 9999 FEW025 28/20 Q1011=,SBRF
1656180000000,METAR SBRF 251800Z 15012KT 9999 FEW025 27/21 Q1011=,SBRF
1656183600000,METAR SBRF 251900Z 17012KT CAVOK 27/21 Q1012=,SBRF
1656187200000,METAR SBRF 252000Z 17010KT CAVOK 26/21 Q1012=,SBRF
1656190800000,METAR SBRF 252100Z 18008KT CAVOK 26/22 Q1012=,SBRF
1656194400000,METAR SBRF 252200Z 20005KT 9999 FEW025 25/22 Q1013=,SBRF
1656198000000,METAR SBRF 252300Z 20006KT 9999 FEW025 25/22 Q1013=,SBRF
1656115200000,METAR SBRJ 250000Z 15003KT CAVOK 21/19 Q1018=,SBRJ
1656118800000,METAR SBRJ 250100Z 17005KT CAVOK 21/19 Q1018=,SBRJ
1656122400000,METAR SBRJ 250200Z 17005KT 9000 NSC 20/19 Q1018=,SBRJ
1656147000000,SPECI SBRJ 250850Z 36006KT 4000 BR BKN008 19/18 Q1017=,SBRJ
1656147600000,METAR SBRJ 250900Z 36007KT 4000 BR BKN008 19/18 Q1017=,SBRJ
1656149400000,SPECI SBRJ 250930Z 35005KT 300V040 3000 BR OVC007 19/18 Q1017=,SBRJ
1656151200000,METAR SBRJ 251000Z VRB02KT 2500 BR OVC007 19/18 Q1018=,SBRJ
1656154800000,METAR SBRJ 251100Z 01003KT 320V050 2500 BR OVC007 19/18 Q1018=,SBRJ
1656158400000,METAR SBRJ 251200Z 33006KT 310V010 2500 BR BKN007 19/18 Q1018=,SBRJ
1656162000000,METAR SBRJ 251300Z 03003KT 2500 BR BKN008 20/18 Q1019=,SBRJ
1656164100000,SPECI SBRJ 251335Z VRB02KT 3000 BR SCT009 21/19 Q1019=,SBRJ
1656165600000,METAR SBRJ 251400Z 12004KT 070V150 4000 BR FEW009 BKN010 21/19 Q1019=,SBRJ
1656166200000,SPECI SBRJ 251410Z 15007KT 6000 SCT010 22/19 Q1019=,SBRJ
1656169200000,METAR SBRJ 251500Z 15008KT 7000 FEW015 23/19 Q1018=,SBRJ
1656172800000,METAR SBRJ 251600Z 17012KT 9999 FEW020 24/19 Q1018=,SBRJ
1656176400000,METAR SBRJ 251700Z 20015KT 9999 BKN020 23/18 Q1018=,SBRJ
1656180000000,METAR SBRJ 251800Z 20012KT 9999 FEW018 BKN030 23/17 Q1018=,SBRJ
1656183600000,METAR SBRJ 251900Z 21012KT 9999 FEW015 BKN030 22/17 Q1018=,SBRJ
1656187200000,METAR SBRJ 252000Z 23011KT 180V250 9999 FEW018 BKN030 22/16 Q1019=,SBRJ
1656190800000,METAR SBRJ 252100Z 21006KT 180V280 9999 FEW018 BKN030 22/17 Q1020=,SBRJ
1656194400000,METAR SBRJ 252200Z 24009KT 200V280 9999 FEW020 BKN030 23/17 Q1020=,SBRJ
1656198000000,METAR SBRJ 252300Z 26007KT 210V310 9999 FEW020 BKN030 23/17 Q1020=,SBRJ
1656115200000,METAR SBSP 250000Z 19006KT CAVOK 19/12 Q1023=,SBSP
1656118800000,METAR SBSP 250100Z VRB02KT CAVOK 19/12 Q1023=,SBSP
1656122400000,METAR SBSP 250200Z VRB01KT CAVOK 17/12 Q1023=,SBSP
1656122460000,SPECI SBSP 250201Z VRB01KT 7000 NSC 17/12 Q1023=,SBSP
1656126000000,METAR SBSP 250300Z AUTO VRB02KT 8000 NCD 18/12 Q1023=,SBSP
1656129600000,METAR SBSP 250400Z AUTO 00000KT 8000 NCD 16/12 Q1023=,SBSP
1656133200000,METAR SBSP 250500Z AUTO 03001KT 7000 NCD 16/12 Q1022=,SBSP
1656136800000,METAR SBSP 250600Z AUTO 31001KT 7000 NCD 15/11 Q1022=,SBSP
1656140400000,METAR SBSP 250700Z AUTO 18001KT 7000 NCD 15/11 Q1022=,SBSP
1656144000000,METAR SBSP 250800Z AUTO 00000KT 5000 BR NCD 15/12 Q1022=,SBSP
1656147600000,METAR SBSP 250900Z 01002KT 7000 NSC 15/12 Q1022=,SBSP
1656151200000,METAR SBSP 251000Z 31003KT 260V010 CAVOK 15/11 Q1023=,SBSP
1656154800000,METAR SBSP 251100Z 34003KT CAVOK 16/11 Q1023=,SBSP
1656158400000,METAR SBSP 251200Z VRB02KT CAVOK 18/12 Q1024=,SBSP
1656162000000,METAR SBSP 251300Z VRB01KT CAVOK 22/12 Q1024=,SBSP
1656165600000,METAR SBSP 251400Z 18010KT CAVOK 22/12 Q1024=,SBSP
1656169200000,METAR SBSP 251500Z 17012KT 9999 SCT009 SCT012 18/14 Q1025=,SBSP
1656172800000,METAR SBSP 251600Z 17008KT 130V240 9999 FEW010 19/14 Q1024=,SBSP
1656176400000,METAR SBSP 251700Z 19010KT 9999 SCT013 BKN015 19/14 Q1024=,SBSP
1656180000000,METAR SBSP 251800Z 19010KT 9999 SCT011 OVC013 18/14 Q1023=,SBSP
1656183600000,METAR SBSP 251900Z 19010KT 150V240 7000 SCT006 OVC009 17/13 Q1023=,SBSP
1656187200000,METAR SBSP 252000Z 18011KT 9999 SCT007 OVC009 17/13 Q1024=,SBSP
1656190800000,METAR SBSP 252100Z 19010KT 9999 SCT008 OVC010 17/13 Q1024=,SBSP
1656194400000,METAR SBSP 252200Z 18012KT 9999 SCT007 OVC009 16/13 Q1025=,SBSP
1656198000000,METAR SBSP 252300Z 19011KT 9999 SCT005 OVC008 15/13 Q1025=,SBSP
1656115200000,METAR SBSV 250000Z 08009KT 9999 FEW020 25/20 Q1017=,SBSV
1656118800000,METAR SBSV 250100Z 16007KT 120V180 9999 FEW019 SCT060 26/19 Q1017=,SBSV
1656122400000,METAR SBSV 250200Z 20007KT 9999 FEW018 SCT056 24/18 Q1017=,SBSV
1656126000000,METAR SBSV 250300Z 20003KT 9999 FEW018 SCT060 24/20 Q1017=,SBSV
1656129600000,METAR SBSV 250400Z 24003KT 210V290 9999 FEW020 SCT080 24/21 Q1016=,SBSV
1656133200000,METAR SBSV 250500Z 19006KT 160V230 9999 SCT041 24/21 Q1016=,SBSV
1656136800000,METAR SBSV 250600Z 20003KT 160V230 9999 FEW029 24/21 Q1015=,SBSV
1656140400000,METAR SBSV 250700Z 10008KT 2000 RA SCT018 23/22 Q1015=,SBSV
1656140940000,SPECI SBSV 250709Z 09011KT 8000 -RA FEW006 SCT018 23/22 Q1015 RERA=,SBSV
1656144000000,METAR SBSV 250800Z 14004KT 9999 FEW014 SCT034 24/20 Q1015 RERA=,SBSV
1656147600000,METAR SBSV 250900Z 14007KT 9999 FEW016 BKN060 25/21 Q1016=,SBSV
1656151200000,METAR SBSV 251000Z 14008KT 9999 SCT017 BKN060 26/22 Q1016=,SBSV
1656154800000,METAR SBSV 251100Z 14008KT 9999 SCT020 BKN060 27/22 Q1017=,SBSV
1656158400000,METAR SBSV 251200Z 15010KT 9999 SCT020 28/22 Q1017=,SBSV
1656162000000,METAR SBSV 251300Z 11011KT 9999 SCT020 28/20 Q1017=,SBSV
1656165600000,METAR SBSV 251400Z 11012KT 9999 SCT020 28/22 Q1017=,SBSV
1656169200000,METAR SBSV 251500Z 12009KT 9999 SCT023 29/21 Q1016=,SBSV
1656172800000,METAR SBSV 251600Z 14008KT 9999 SCT023 29/20 Q1015=,SBSV
1656176400000,METAR SBSV 251700Z 15006KT 9999 SCT023 28/20 Q1014=,SBSV
1656180000000,METAR SBSV 251800Z 13006KT 9999 SCT023 FEW025TCU 29/20 Q1014=,SBSV
1656183600000,METAR SBSV 251900Z 14008KT 9999 SCT023 FEW025TCU 27/21 Q1014=,SBSV
1656187200000,METAR SBSV 252000Z 14007KT 9999 FEW023 27/20 Q1014=,SBSV
1656190800000,METAR SBSV 252100Z 15008KT 9999 FEW023 26/21 Q1015=,SBSV
1656194400000,METAR SBSV 252200Z 15007KT 9999 FEW023 27/21 Q1015=,SBSV
1656198000000,METAR SBSV 252300Z 15008KT 9999 FEW023 27/20 Q1015=,SBSV
