hora,metaf,aero,hora_dt
1654041600000,"METAF SBGL 010000Z  25002KT 3000     BR OVC033   23/21 Q1016=
",SBGL,2022-06-01 00:00:00
1654045200000,"METAF SBGL 010100Z 02001KT 2000     BR OVC011   22/21 Q1017=
",SBGL,2022-06-01 01:00:00
1654048800000,"METAF SBGL 010200Z 09000KT 2000     BR OVC011   22/21 Q1018=
",SBGL,2022-06-01 02:00:00
1654052400000,"METAF SBGL 010300Z 09002KT 1000    RABR OVC033   22/21 Q1017=
",SBGL,2022-06-01 03:00:00
1654056000000,"METAF SBGL 010400Z 07003KT 1000    RABR OVC033   22/21 Q1016=
",SBGL,2022-06-01 04:00:00
1654059600000,"METAF SBGL 010500Z 09003KT 1000    RABR OVC033   22/21 Q1016=
",SBGL,2022-06-01 05:00:00
1654063200000,"METAF SBGL 010600Z 05002KT 1000     BR OVC033   22/21 Q1014=
",SBGL,2022-06-01 06:00:00
1654066800000,"METAF SBGL 010700Z 04004KT 1000     BR OVC033   21/21 Q1016=
",SBGL,2022-06-01 07:00:00
1654070400000,"METAF SBGL 010800Z 02003KT 1000     BR OVC033   21/21 Q1016=
",SBGL,2022-06-01 08:00:00
1654074000000,"METAF SBGL 010900Z 03005KT 1000     BR OVC011   21/21 Q1016=
",SBGL,2022-06-01 09:00:00
1654077600000,"METAF SBGL 011000Z 04005KT 1000     BR OVC013   22/21 Q1017=
",SBGL,2022-06-01 10:00:00
1654081200000,"METAF SBGL 011100Z 07003KT 2000     BR BKN033   22/20 Q1017=
",SBGL,2022-06-01 11:00:00
1654084800000,"METAF SBGL 011200Z  15002KT 2000     BR BKN033   22/21 Q1017=
",SBGL,2022-06-01 12:00:00
1654088400000,"METAF SBGL 011300Z  10002KT 4000     BR SCT014   23/20 Q1018=
",SBGL,2022-06-01 13:00:00
1654092000000,"METAF SBGL 011400Z  11002KT 8000       FEW021   24/20 Q1017=
",SBGL,2022-06-01 14:00:00
1654095600000,"METAF SBGL 011500Z  14002KT 9000       SCT033   25/20 Q1015=
",SBGL,2022-06-01 15:00:00
1654099200000,"METAF SBGL 011600Z  15003KT 9999       SCT033   25/20 Q1013=
",SBGL,2022-06-01 16:00:00
1654102800000,"METAF SBGL 011700Z  17005KT 9999       SCT033   26/20 Q1013=
",SBGL,2022-06-01 17:00:00
1654106400000,"METAF SBGL 011800Z  15008KT 9999       SCT030   26/21 Q1013=
",SBGL,2022-06-01 18:00:00
1654110000000,"METAF SBGL 011900Z  13009KT 9999       FEW033   26/21 Q1013=
",SBGL,2022-06-01 19:00:00
1654113600000,"METAF SBGL 012000Z  12009KT 9000       SCT033   25/21 Q1013=
",SBGL,2022-06-01 20:00:00
1654117200000,"METAF SBGL 012100Z 09008KT 8000       FEW033   25/21 Q1013=
",SBGL,2022-06-01 21:00:00
1654120800000,"METAF SBGL 012200Z 09008KT 7000       FEW033   24/21 Q1014=
",SBGL,2022-06-01 22:00:00
1654124400000,"METAF SBGL 012300Z 09007KT CAVOK 24/21 Q1014=
",SBGL,2022-06-01 23:00:00
1654041600000,"METAF SBGR 010000Z  12008KT 1000     BR OVC033   15/14 Q1017=
",SBGR,2022-06-01 00:00:00
1654045200000,"METAF SBGR 010100Z  11008KT 1000     BR OVC033   15/14 Q1018=
",SBGR,2022-06-01 01:00:00
1654048800000,"METAF SBGR 010200Z  12008KT 1000     BR OVC033   15/14 Q1018=
",SBGR,2022-06-01 02:00:00
1654052400000,"METAF SBGR 010300Z  11008KT 1000     BR OVC033   15/14 Q1017=
",SBGR,2022-06-01 03:00:00
1654056000000,"METAF SBGR 010400Z  11008KT 1000     BR OVC033   15/14 Q1017=
",SBGR,2022-06-01 04:00:00
1654059600000,"METAF SBGR 010500Z  11007KT 1000     BR OVC033   15/14 Q1017=
",SBGR,2022-06-01 05:00:00
1654063200000,"METAF SBGR 010600Z  10005KT 0750 FG     OVC033   15/15 Q1015=
",SBGR,2022-06-01 06:00:00
1654066800000,"METAF SBGR 010700Z  12005KT 1000     BR OVC033   15/15 Q1016=
",SBGR,2022-06-01 07:00:00
1654070400000,"METAF SBGR 010800Z  10005KT 1000     BR OVC033   16/15 Q1016=
",SBGR,2022-06-01 08:00:00
1654074000000,"METAF SBGR 010900Z  10005KT 1000     BR OVC033   16/15 Q1015=
",SBGR,2022-06-01 09:00:00
1654077600000,"METAF SBGR 011000Z  10006KT 1000     BR OVC033   16/15 Q1017=
",SBGR,2022-06-01 10:00:00
1654081200000,"METAF SBGR 011100Z 09005KT 1000     BR OVC033   16/15 Q1017=
",SBGR,2022-06-01 11:00:00
1654084800000,"METAF SBGR 011200Z 09004KT 2000     BR OVC033   17/16 Q1016=
",SBGR,2022-06-01 12:00:00
1654088400000,"METAF SBGR 011300Z  10004KT 4000     BR OVC033   18/16 Q1018=
",SBGR,2022-06-01 13:00:00
1654092000000,"METAF SBGR 011400Z 08003KT 7000       BKN015   20/16 Q1017=
",SBGR,2022-06-01 14:00:00
1654095600000,"METAF SBGR 011500Z 01002KT 9999       OVC026   23/16 Q1015=
",SBGR,2022-06-01 15:00:00
1654099200000,"METAF SBGR 011600Z  21000KT 9999    RA  FEW030   23/17 Q1014=
",SBGR,2022-06-01 16:00:00
1654102800000,"METAF SBGR 011700Z  10001KT 9999  -TSRA   FEW030CB 23/17 Q1014=
",SBGR,2022-06-01 17:00:00
1654106400000,"METAF SBGR 011800Z  22003KT 9999  -TSRA   FEW030CB 23/17 Q1013=
",SBGR,2022-06-01 18:00:00
1654110000000,"METAF SBGR 011900Z  22003KT CAVOK 24/16 Q1013=
",SBGR,2022-06-01 19:00:00
1654113600000,"METAF SBGR 012000Z  19005KT 9999    RA  FEW028   22/17 Q1014=
",SBGR,2022-06-01 20:00:00
1654117200000,"METAF SBGR 012100Z  15006KT 3000    RABR BKN013   19/17 Q1014=
",SBGR,2022-06-01 21:00:00
1654120800000,"METAF SBGR 012200Z  15006KT 2000     BR OVC013   18/17 Q1015=
",SBGR,2022-06-01 22:00:00
1654124400000,"METAF SBGR 012300Z  13004KT 1000     BR OVC027   18/17 Q1016=
",SBGR,2022-06-01 23:00:00
1654041600000,"METAF SBKP 010000Z  12013KT 5000     BR BKN033   17/14 Q1015=
",SBKP,2022-06-01 00:00:00
1654045200000,"METAF SBKP 010100Z  11014KT 6000       BKN033   17/14 Q1017=
",SBKP,2022-06-01 01:00:00
1654048800000,"METAF SBKP 010200Z  11014KT 5000     BR BKN033   17/14 Q1016=
",SBKP,2022-06-01 02:00:00
1654052400000,"METAF SBKP 010300Z  11014KT 4000     BR BKN033   17/14 Q1015=
",SBKP,2022-06-01 03:00:00
1654056000000,"METAF SBKP 010400Z  11014KT 4000     BR BKN033   17/14 Q1015=
",SBKP,2022-06-01 04:00:00
1654059600000,"METAF SBKP 010500Z  11012KT 4000     BR BKN033   17/15 Q1015=
",SBKP,2022-06-01 05:00:00
1654063200000,"METAF SBKP 010600Z  11008KT 2000     BR BKN033   16/15 Q1014=
",SBKP,2022-06-01 06:00:00
1654066800000,"METAF SBKP 010700Z  11008KT 2000     BR BKN033   16/15 Q1015=
",SBKP,2022-06-01 07:00:00
1654070400000,"METAF SBKP 010800Z  11008KT 2000     BR BKN033   17/15 Q1015=
",SBKP,2022-06-01 08:00:00
1654074000000,"METAF SBKP 010900Z  10008KT 2000     BR BKN033   17/15 Q1014=
",SBKP,2022-06-01 09:00:00
1654077600000,"METAF SBKP 011000Z  10008KT 2000     BR BKN033   17/15 Q1015=
",SBKP,2022-06-01 10:00:00
1654081200000,"METAF SBKP 011100Z  11008KT 3000     BR BKN033   17/15 Q1016=
",SBKP,2022-06-01 11:00:00
1654084800000,"METAF SBKP 011200Z 08005KT 9000       SCT033   20/15 Q1015=
",SBKP,2022-06-01 12:00:00
1654088400000,"METAF SBKP 011300Z 02004KT 9999       FEW033   22/15 Q1017=
",SBKP,2022-06-01 13:00:00
1654092000000,"METAF SBKP 011400Z  34005KT CAVOK 24/15 Q1017=
",SBKP,2022-06-01 14:00:00
1654095600000,"METAF SBKP 011500Z  33006KT CAVOK 25/15 Q1014=
",SBKP,2022-06-01 15:00:00
1654099200000,"METAF SBKP 011600Z  32006KT CAVOK 26/15 Q1014=
",SBKP,2022-06-01 16:00:00
1654102800000,"METAF SBKP 011700Z  29006KT CAVOK 27/15 Q1014=
",SBKP,2022-06-01 17:00:00
1654106400000,"METAF SBKP 011800Z  28005KT CAVOK 28/14 Q1012=
",SBKP,2022-06-01 18:00:00
1654110000000,"METAF SBKP 011900Z  25004KT CAVOK 28/15 Q1012=
",SBKP,2022-06-01 19:00:00
1654113600000,"METAF SBKP 012000Z  20006KT CAVOK 26/16 Q1013=
",SBKP,2022-06-01 20:00:00
1654117200000,"METAF SBKP 012100Z  19005KT CAVOK 25/16 Q1013=
",SBKP,2022-06-01 21:00:00
1654120800000,"METAF SBKP 012200Z  15003KT CAVOK 24/16 Q1014=
",SBKP,2022-06-01 22:00:00
1654124400000,"METAF SBKP 012300Z  14009KT CAVOK 23/16 Q1014=
",SBKP,2022-06-01 23:00:00
1654041600000,"METAF SBSP 010000Z  13008KT 1000     BR OVC033   15/14 Q1018=
",SBSP,2022-06-01 00:00:00
1654045200000,"METAF SBSP 010100Z  12007KT 1000     BR OVC033   15/14 Q1019=
",SBSP,2022-06-01 01:00:00
1654048800000,"METAF SBSP 010200Z  13007KT 1000     BR OVC033   15/14 Q1018=
",SBSP,2022-06-01 02:00:00
1654052400000,"METAF SBSP 010300Z  12007KT 1000     BR OVC033   15/14 Q1017=
",SBSP,2022-06-01 03:00:00
1654056000000,"METAF SBSP 010400Z  12007KT 1000     BR OVC033   15/15 Q1017=
",SBSP,2022-06-01 04:00:00
1654059600000,"METAF SBSP 010500Z  11006KT 1000     BR OVC033   16/15 Q1017=
",SBSP,2022-06-01 05:00:00
1654063200000,"METAF SBSP 010600Z  13004KT 0700 FG     OVC033   16/15 Q1015=
",SBSP,2022-06-01 06:00:00
1654066800000,"METAF SBSP 010700Z  14004KT 0700 FG     OVC033   16/15 Q1016=
",SBSP,2022-06-01 07:00:00
1654070400000,"METAF SBSP 010800Z  13005KT 0650 FG     OVC033   16/16 Q1016=
",SBSP,2022-06-01 08:00:00
1654074000000,"METAF SBSP 010900Z  14004KT 0600 FG     OVC033   16/16 Q1015=
",SBSP,2022-06-01 09:00:00
1654077600000,"METAF SBSP 011000Z  12004KT 0700 FG     OVC033   16/16 Q1016=
",SBSP,2022-06-01 10:00:00
1654081200000,"METAF SBSP 011100Z  13003KT 1000     BR OVC033   16/16 Q1017=
",SBSP,2022-06-01 11:00:00
1654084800000,"METAF SBSP 011200Z  12002KT 2000     BR OVC033   17/16 Q1017=
",SBSP,2022-06-01 12:00:00
1654088400000,"METAF SBSP 011300Z 07004KT 4000     BR OVC033   18/16 Q1018=
",SBSP,2022-06-01 13:00:00
1654092000000,"METAF SBSP 011400Z 08003KT 7000       OVC033   19/16 Q1018=
",SBSP,2022-06-01 14:00:00
1654095600000,"METAF SBSP 011500Z 08003KT 9999       OVC033   21/16 Q1015=
",SBSP,2022-06-01 15:00:00
1654099200000,"METAF SBSP 011600Z  11002KT 9999       BKN033   22/16 Q1014=
",SBSP,2022-06-01 16:00:00
1654102800000,"METAF SBSP 011700Z  14001KT 9999       OVC026   23/16 Q1015=
",SBSP,2022-06-01 17:00:00
1654106400000,"METAF SBSP 011800Z  16004KT 9999  - RA  OVC020   22/17 Q1013=
",SBSP,2022-06-01 18:00:00
1654110000000,"METAF SBSP 011900Z  17008KT 5000  - RABR OVC010   21/18 Q1014=
",SBSP,2022-06-01 19:00:00
1654113600000,"METAF SBSP 012000Z  17007KT 4000     BR OVC033   20/18 Q1014=
",SBSP,2022-06-01 20:00:00
1654117200000,"METAF SBSP 012100Z  17006KT 3000     BR OVC033   19/17 Q1014=
",SBSP,2022-06-01 21:00:00
1654120800000,"METAF SBSP 012200Z  15004KT 3000     BR OVC033   19/17 Q1015=
",SBSP,2022-06-01 22:00:00
1654124400000,"METAF SBSP 012300Z  14004KT 2000     BR OVC033   19/17 Q1016=
",SBSP,2022-06-01 23:00:00
1654128000000,"METAF SBGL 020000Z  10005KT CAVOK 24/21 Q1014=
",SBGL,2022-06-02 00:00:00
1654131600000,"METAF SBGL 020100Z  20003KT CAVOK 24/21 Q1014=
",SBGL,2022-06-02 01:00:00
1654192800000,"METAF SBGL 021800Z  20012KT 7000       OVC019   25/21 Q1014=
",SBGL,2022-06-02 18:00:00
1654196400000,"METAF SBGL 021900Z  20012KT 7000       OVC033   24/21 Q1014=
",SBGL,2022-06-02 19:00:00
1654200000000,"METAF SBGL 022000Z  20011KT 6000       OVC015   24/21 Q1015=
",SBGL,2022-06-02 20:00:00
1654203600000,"METAF SBGL 022100Z  21008KT 5000     BR OVC014   23/20 Q1016=
",SBGL,2022-06-02 21:00:00
1654207200000,"METAF SBGL 022200Z  22007KT 5000     BR OVC013   23/20 Q1016=
",SBGL,2022-06-02 22:00:00
1654210800000,"METAF SBGL 022300Z  23006KT 5000     BR OVC012   23/20 Q1017=
",SBGL,2022-06-02 23:00:00
1654128000000,"METAF SBGR 020000Z  12005KT 1000     BR OVC027   17/16 Q1016=
",SBGR,2022-06-02 00:00:00
1654131600000,"METAF SBGR 020100Z  12004KT 1000     BR OVC022   17/16 Q1016=
",SBGR,2022-06-02 01:00:00
1654192800000,"METAF SBGR 021800Z  16008KT 4000     BR OVC033   18/16 Q1015=
",SBGR,2022-06-02 18:00:00
1654196400000,"METAF SBGR 021900Z  15006KT 3000     BR OVC027   18/16 Q1015=
",SBGR,2022-06-02 19:00:00
1654200000000,"METAF SBGR 022000Z  14007KT 3000     BR OVC033   17/15 Q1015=
",SBGR,2022-06-02 20:00:00
1654203600000,"METAF SBGR 022100Z  14007KT 2000     BR OVC033   16/14 Q1016=
",SBGR,2022-06-02 21:00:00
1654207200000,"METAF SBGR 022200Z  14005KT 3000     BR OVC029   15/13 Q1016=
",SBGR,2022-06-02 22:00:00
1654210800000,"METAF SBGR 022300Z  13005KT 3000     BR OVC031   14/12 Q1016=
",SBGR,2022-06-02 23:00:00
1654128000000,"METAF SBKP 020000Z  12009KT 8000       FEW024   22/17 Q1014=
",SBKP,2022-06-02 00:00:00
1654131600000,"METAF SBKP 020100Z  11008KT 5000     BR BKN023   21/18 Q1015=
",SBKP,2022-06-02 01:00:00
1654192800000,"METAF SBKP 021800Z  24006KT CAVOK 25/16 Q1014=
",SBKP,2022-06-02 18:00:00
1654196400000,"METAF SBKP 021900Z  23005KT CAVOK 24/16 Q1013=
",SBKP,2022-06-02 19:00:00
1654200000000,"METAF SBKP 022000Z  17005KT CAVOK 23/17 Q1014=
",SBKP,2022-06-02 20:00:00
1654203600000,"METAF SBKP 022100Z  12007KT 9999       FEW031   21/16 Q1014=
",SBKP,2022-06-02 21:00:00
1654207200000,"METAF SBKP 022200Z  12010KT 8000       SCT031   20/16 Q1015=
",SBKP,2022-06-02 22:00:00
1654210800000,"METAF SBKP 022300Z  11010KT 7000       SCT033   19/15 Q1015=
",SBKP,2022-06-02 23:00:00
1654128000000,"METAF SBSP 020000Z  12003KT 2000     BR OVC033   19/17 Q1016=
",SBSP,2022-06-02 00:00:00
1654131600000,"METAF SBSP 020100Z  13003KT 2000     BR OVC033   19/17 Q1016=
",SBSP,2022-06-02 01:00:00
1654192800000,"METAF SBSP 021800Z  17008KT 3000     BR OVC031   17/15 Q1016=
",SBSP,2022-06-02 18:00:00
1654196400000,"METAF SBSP 021900Z  17007KT 2000     BR OVC032   16/14 Q1015=
",SBSP,2022-06-02 19:00:00
1654200000000,"METAF SBSP 022000Z  16007KT 3000     BR OVC033   16/14 Q1016=
",SBSP,2022-06-02 20:00:00
1654203600000,"METAF SBSP 022100Z  15008KT 3000     BR OVC033   15/13 Q1016=
",SBSP,2022-06-02 21:00:00
1654207200000,"METAF SBSP 022200Z  15005KT 3000     BR OVC033   15/13 Q1016=
",SBSP,2022-06-02 22:00:00
1654210800000,"METAF SBSP 022300Z  14005KT 2000     BR OVC033   15/13 Q1017=
",SBSP,2022-06-02 23:00:00
1654214400000,"METAF SBGL 030000Z  26006KT 7000       OVC033   22/19 Q1018=
",SBGL,2022-06-03 00:00:00
1654218000000,"METAF SBGL 030100Z  26005KT 7000       OVC033   22/19 Q1018=
",SBGL,2022-06-03 01:00:00
1654221600000,"METAF SBGL 030200Z  29005KT 6000       BKN033   22/18 Q1017=
",SBGL,2022-06-03 02:00:00
1654225200000,"METAF SBGL 030300Z  28006KT 6000       BKN033   22/18 Q1017=
",SBGL,2022-06-03 03:00:00
1654228800000,"METAF SBGL 030400Z  28007KT 6000       BKN033   21/18 Q1017=
",SBGL,2022-06-03 04:00:00
1654232400000,"METAF SBGL 030500Z  29006KT 5000     BR BKN033   21/18 Q1016=
",SBGL,2022-06-03 05:00:00
1654236000000,"METAF SBGL 030600Z  28005KT 4000     BR BKN033   21/18 Q1016=
",SBGL,2022-06-03 06:00:00
1654239600000,"METAF SBGL 030700Z  26006KT 4000     BR OVC033   21/18 Q1016=
",SBGL,2022-06-03 07:00:00
1654243200000,"METAF SBGL 030800Z  28006KT 3000     BR OVC033   20/18 Q1017=
",SBGL,2022-06-03 08:00:00
1654246800000,"METAF SBGL 030900Z  28005KT 3000     BR OVC033   20/18 Q1017=
",SBGL,2022-06-03 09:00:00
1654250400000,"METAF SBGL 031000Z  30006KT 3000     BR OVC033   20/18 Q1018=
",SBGL,2022-06-03 10:00:00
1654254000000,"METAF SBGL 031100Z  30006KT 5000     BR OVC033   21/18 Q1019=
",SBGL,2022-06-03 11:00:00
1654257600000,"METAF SBGL 031200Z  27004KT 6000       OVC033   21/18 Q1019=
",SBGL,2022-06-03 12:00:00
1654261200000,"METAF SBGL 031300Z  27004KT 7000       OVC033   22/18 Q1019=
",SBGL,2022-06-03 13:00:00
1654264800000,"METAF SBGL 031400Z  25004KT 8000       OVC033   22/19 Q1019=
",SBGL,2022-06-03 14:00:00
1654268400000,"METAF SBGL 031500Z  22005KT 7000       OVC033   23/19 Q1019=
",SBGL,2022-06-03 15:00:00
1654272000000,"METAF SBGL 031600Z  22004KT 7000       OVC033   23/19 Q1018=
",SBGL,2022-06-03 16:00:00
1654275600000,"METAF SBGL 031700Z  22005KT 8000       OVC033   23/19 Q1018=
",SBGL,2022-06-03 17:00:00
1654279200000,"METAF SBGL 031800Z  23004KT 8000       OVC025   23/19 Q1017=
",SBGL,2022-06-03 18:00:00
1654282800000,"METAF SBGL 031900Z  23005KT 9999       OVC027   23/19 Q1017=
",SBGL,2022-06-03 19:00:00
1654286400000,"METAF SBGL 032000Z  24006KT 9999       BKN027   23/18 Q1018=
",SBGL,2022-06-03 20:00:00
1654290000000,"METAF SBGL 032100Z  25006KT 9999       BKN023   23/18 Q1018=
",SBGL,2022-06-03 21:00:00
1654293600000,"METAF SBGL 032200Z  27004KT 9000       OVC020   22/18 Q1019=
",SBGL,2022-06-03 22:00:00
1654297200000,"METAF SBGL 032300Z  25002KT 6000       OVC019   21/18 Q1020=
",SBGL,2022-06-03 23:00:00
1654214400000,"METAF SBGR 030000Z  11005KT 1000     BR OVC033   16/15 Q1017=
",SBGR,2022-06-03 00:00:00
1654218000000,"METAF SBGR 030100Z  11006KT 1000     BR OVC033   15/14 Q1017=
",SBGR,2022-06-03 01:00:00
1654221600000,"METAF SBGR 030200Z  11005KT 1000     BR OVC033   15/14 Q1017=
",SBGR,2022-06-03 02:00:00
1654225200000,"METAF SBGR 030300Z  11004KT 1000     BR OVC033   15/14 Q1017=
",SBGR,2022-06-03 03:00:00
1654228800000,"METAF SBGR 030400Z  13005KT 1000     BR OVC033   15/14 Q1017=
",SBGR,2022-06-03 04:00:00
1654232400000,"METAF SBGR 030500Z  14004KT 1000     BR OVC031   15/14 Q1017=
",SBGR,2022-06-03 05:00:00
1654236000000,"METAF SBGR 030600Z  14003KT 1000     BR OVC028   15/14 Q1017=
",SBGR,2022-06-03 06:00:00
1654239600000,"METAF SBGR 030700Z  15004KT 1000     BR OVC025   15/14 Q1017=
",SBGR,2022-06-03 07:00:00
1654243200000,"METAF SBGR 030800Z  15004KT 1000     BR OVC030   15/14 Q1017=
",SBGR,2022-06-03 08:00:00
1654246800000,"METAF SBGR 030900Z  13003KT 1000     BR OVC033   15/14 Q1017=
",SBGR,2022-06-03 09:00:00
1654250400000,"METAF SBGR 031000Z  14004KT 1000     BR OVC033   15/14 Q1019=
",SBGR,2022-06-03 10:00:00
1654254000000,"METAF SBGR 031100Z  16004KT 1000     BR OVC033   15/14 Q1020=
",SBGR,2022-06-03 11:00:00
1654257600000,"METAF SBGR 031200Z  17005KT 3000     BR OVC033   16/15 Q1020=
",SBGR,2022-06-03 12:00:00
1654261200000,"METAF SBGR 031300Z  18006KT 4000     BR OVC033   16/14 Q1021=
",SBGR,2022-06-03 13:00:00
1654264800000,"METAF SBGR 031400Z  19006KT 7000       OVC033   18/14 Q1021=
",SBGR,2022-06-03 14:00:00
1654268400000,"METAF SBGR 031500Z  19005KT 9999       OVC033   18/14 Q1020=
",SBGR,2022-06-03 15:00:00
1654272000000,"METAF SBGR 031600Z  19006KT 9999       OVC033   19/13 Q1019=
",SBGR,2022-06-03 16:00:00
1654275600000,"METAF SBGR 031700Z  18007KT 9999       OVC022   19/14 Q1019=
",SBGR,2022-06-03 17:00:00
1654279200000,"METAF SBGR 031800Z  17008KT 9999       OVC021   19/14 Q1019=
",SBGR,2022-06-03 18:00:00
1654282800000,"METAF SBGR 031900Z  17009KT 9999       OVC033   18/13 Q1019=
",SBGR,2022-06-03 19:00:00
1654286400000,"METAF SBGR 032000Z  16007KT 8000       OVC016   17/13 Q1020=
",SBGR,2022-06-03 20:00:00
1654290000000,"METAF SBGR 032100Z  16007KT 4000     BR OVC012   16/13 Q1020=
",SBGR,2022-06-03 21:00:00
1654293600000,"METAF SBGR 032200Z  16007KT 3000     BR OVC033   15/13 Q1021=
",SBGR,2022-06-03 22:00:00
1654297200000,"METAF SBGR 032300Z  16005KT 2000     BR OVC033   14/13 Q1021=
",SBGR,2022-06-03 23:00:00
1654214400000,"METAF SBKP 030000Z  11008KT 4000     BR BKN033   18/15 Q1016=
",SBKP,2022-06-03 00:00:00
1654218000000,"METAF SBKP 030100Z  11008KT 4000     BR BKN033   18/15 Q1016=
",SBKP,2022-06-03 01:00:00
1654221600000,"METAF SBKP 030200Z  12008KT 4000     BR BKN033   17/15 Q1016=
",SBKP,2022-06-03 02:00:00
1654225200000,"METAF SBKP 030300Z  11007KT 4000     BR BKN033   17/15 Q1016=
",SBKP,2022-06-03 03:00:00
1654228800000,"METAF SBKP 030400Z  12006KT 3000     BR BKN033   17/15 Q1016=
",SBKP,2022-06-03 04:00:00
1654232400000,"METAF SBKP 030500Z  12007KT 4000     BR BKN033   17/15 Q1016=
",SBKP,2022-06-03 05:00:00
1654236000000,"METAF SBKP 030600Z  11005KT 3000     BR BKN033   17/15 Q1016=
",SBKP,2022-06-03 06:00:00
1654239600000,"METAF SBKP 030700Z  12005KT 3000     BR BKN032   17/15 Q1016=
",SBKP,2022-06-03 07:00:00
1654243200000,"METAF SBKP 030800Z  13006KT 2000     BR OVC029   16/15 Q1017=
",SBKP,2022-06-03 08:00:00
1654246800000,"METAF SBKP 030900Z  12006KT 2000     BR OVC029   16/15 Q1017=
",SBKP,2022-06-03 09:00:00
1654250400000,"METAF SBKP 031000Z  12006KT 3000     BR OVC033   16/15 Q1018=
",SBKP,2022-06-03 10:00:00
1654254000000,"METAF SBKP 031100Z  13007KT 4000     BR OVC033   17/15 Q1019=
",SBKP,2022-06-03 11:00:00
1654257600000,"METAF SBKP 031200Z  16005KT 4000     BR OVC033   18/15 Q1020=
",SBKP,2022-06-03 12:00:00
1654261200000,"METAF SBKP 031300Z  17006KT 9999       OVC033   20/15 Q1020=
",SBKP,2022-06-03 13:00:00
1654264800000,"METAF SBKP 031400Z  16008KT 9999       OVC033   19/14 Q1020=
",SBKP,2022-06-03 14:00:00
1654268400000,"METAF SBKP 031500Z  15006KT 9999       OVC033   21/14 Q1020=
",SBKP,2022-06-03 15:00:00
1654272000000,"METAF SBKP 031600Z  16005KT 9999       OVC033   22/14 Q1019=
",SBKP,2022-06-03 16:00:00
1654275600000,"METAF SBKP 031700Z  16006KT 9999       OVC033   22/14 Q1018=
",SBKP,2022-06-03 17:00:00
1654279200000,"METAF SBKP 031800Z  16007KT 9999       OVC033   22/14 Q1018=
",SBKP,2022-06-03 18:00:00
1654282800000,"METAF SBKP 031900Z  16009KT 9999       OVC031   22/14 Q1018=
",SBKP,2022-06-03 19:00:00
1654286400000,"METAF SBKP 032000Z  16010KT 9999       BKN033   21/13 Q1018=
",SBKP,2022-06-03 20:00:00
1654290000000,"METAF SBKP 032100Z  16010KT 9999       BKN033   20/13 Q1019=
",SBKP,2022-06-03 21:00:00
1654293600000,"METAF SBKP 032200Z  15010KT 9999       SCT033   19/13 Q1019=
",SBKP,2022-06-03 22:00:00
1654297200000,"METAF SBKP 032300Z  14009KT 9999       SCT033   18/13 Q1020=
",SBKP,2022-06-03 23:00:00
1654214400000,"METAF SBSP 030000Z  14005KT 1000     BR OVC033   15/14 Q1017=
",SBSP,2022-06-03 00:00:00
1654218000000,"METAF SBSP 030100Z  11004KT 1000     BR OVC033   15/14 Q1017=
",SBSP,2022-06-03 01:00:00
1654221600000,"METAF SBSP 030200Z  14004KT 1000     BR OVC033   15/14 Q1018=
",SBSP,2022-06-03 02:00:00
1654225200000,"METAF SBSP 030300Z  14004KT 1000     BR OVC033   15/14 Q1018=
",SBSP,2022-06-03 03:00:00
1654228800000,"METAF SBSP 030400Z  15004KT 1000     BR OVC029   15/14 Q1018=
",SBSP,2022-06-03 04:00:00
1654232400000,"METAF SBSP 030500Z  16004KT 1000     BR OVC029   15/14 Q1018=
",SBSP,2022-06-03 05:00:00
1654236000000,"METAF SBSP 030600Z  16003KT 1000     BR OVC023   15/14 Q1017=
",SBSP,2022-06-03 06:00:00
1654239600000,"METAF SBSP 030700Z  17004KT 1000     BR OVC033   15/14 Q1018=
",SBSP,2022-06-03 07:00:00
1654243200000,"METAF SBSP 030800Z  16003KT 1000     BR OVC033   15/14 Q1018=
",SBSP,2022-06-03 08:00:00
1654246800000,"METAF SBSP 030900Z  17004KT 1000     BR OVC033   15/14 Q1018=
",SBSP,2022-06-03 09:00:00
1654250400000,"METAF SBSP 031000Z  18005KT 1000     BR OVC033   15/14 Q1019=
",SBSP,2022-06-03 10:00:00
1654254000000,"METAF SBSP 031100Z  19004KT 1000     BR OVC033   15/14 Q1020=
",SBSP,2022-06-03 11:00:00
1654257600000,"METAF SBSP 031200Z  19005KT 2000     BR OVC033   16/14 Q1021=
",SBSP,2022-06-03 12:00:00
1654261200000,"METAF SBSP 031300Z  21005KT 6000       OVC033   17/14 Q1022=
",SBSP,2022-06-03 13:00:00
1654264800000,"METAF SBSP 031400Z  21006KT 9999       OVC016   18/14 Q1021=
",SBSP,2022-06-03 14:00:00
1654268400000,"METAF SBSP 031500Z  20006KT 9999       OVC019   19/14 Q1021=
",SBSP,2022-06-03 15:00:00
1654272000000,"METAF SBSP 031600Z  19009KT 9999       OVC017   19/14 Q1020=
",SBSP,2022-06-03 16:00:00
1654275600000,"METAF SBSP 031700Z  19009KT 9999       OVC033   18/13 Q1020=
",SBSP,2022-06-03 17:00:00
1654279200000,"METAF SBSP 031800Z  18009KT 9999       OVC016   18/13 Q1020=
",SBSP,2022-06-03 18:00:00
1654282800000,"METAF SBSP 031900Z  18009KT 8000       OVC014   18/14 Q1020=
",SBSP,2022-06-03 19:00:00
1654286400000,"METAF SBSP 032000Z  18008KT 5000     BR OVC033   17/14 Q1020=
",SBSP,2022-06-03 20:00:00
1654290000000,"METAF SBSP 032100Z  17007KT 3000    RABR OVC033   16/14 Q1021=
",SBSP,2022-06-03 21:00:00
1654293600000,"METAF SBSP 032200Z  18006KT 3000     BR OVC033   15/14 Q1021=
",SBSP,2022-06-03 22:00:00
1654297200000,"METAF SBSP 032300Z  18005KT 3000     BR OVC033   15/13 Q1022=
",SBSP,2022-06-03 23:00:00
1654300800000,"METAF SBGL 040000Z  13002KT 3000     BR OVC033   21/19 Q1020=
",SBGL,2022-06-04 00:00:00
1654304400000,"METAF SBGL 040100Z  13007KT 3000    RABR OVC033   21/19 Q1021=
",SBGL,2022-06-04 01:00:00
1654300800000,"METAF SBGR 040000Z  16005KT 2000     BR OVC033   13/12 Q1022=
",SBGR,2022-06-04 00:00:00
1654304400000,"METAF SBGR 040100Z  14004KT 1000     BR OVC014   12/11 Q1022=
",SBGR,2022-06-04 01:00:00
1654300800000,"METAF SBKP 040000Z  14010KT 9999       BKN033   18/13 Q1021=
",SBKP,2022-06-04 00:00:00
1654304400000,"METAF SBKP 040100Z  14008KT 9000       SCT033   17/13 Q1021=
",SBKP,2022-06-04 01:00:00
1654300800000,"METAF SBSP 040000Z  19005KT 2000     BR OVC022   16/14 Q1022=
",SBSP,2022-06-04 00:00:00
1654304400000,"METAF SBSP 040100Z  15008KT 2000    RABR OVC033   16/14 Q1022=
",SBSP,2022-06-04 01:00:00
1654538400000,"METAF SBGL 061800Z  17003KT CAVOK 24/16 Q1012=
",SBGL,2022-06-06 18:00:00
1654542000000,"METAF SBGL 061900Z  15005KT CAVOK 25/16 Q1013=
",SBGL,2022-06-06 19:00:00
1654545600000,"METAF SBGL 062000Z  17006KT CAVOK 24/17 Q1016=
",SBGL,2022-06-06 20:00:00
1654549200000,"METAF SBGL 062100Z  13005KT CAVOK 24/17 Q1013=
",SBGL,2022-06-06 21:00:00
1654552800000,"METAF SBGL 062200Z  11005KT CAVOK 24/17 Q1014=
",SBGL,2022-06-06 22:00:00
1654556400000,"METAF SBGL 062300Z 07002KT CAVOK 23/17 Q1015=
",SBGL,2022-06-06 23:00:00
1654538400000,"METAF SBGR 061800Z  29009KT CAVOK 23/12 Q1013=
",SBGR,2022-06-06 18:00:00
1654542000000,"METAF SBGR 061900Z  28006KT CAVOK 21/12 Q1014=
",SBGR,2022-06-06 19:00:00
1654545600000,"METAF SBGR 062000Z  28005KT CAVOK 22/13 Q1016=
",SBGR,2022-06-06 20:00:00
1654549200000,"METAF SBGR 062100Z  29007KT CAVOK 19/12 Q1013=
",SBGR,2022-06-06 21:00:00
1654552800000,"METAF SBGR 062200Z  29005KT CAVOK 18/12 Q1015=
",SBGR,2022-06-06 22:00:00
1654556400000,"METAF SBGR 062300Z  31006KT CAVOK 17/12 Q1016=
",SBGR,2022-06-06 23:00:00
1654538400000,"METAF SBKP 061800Z  30008KT CAVOK 26/11 Q1013=
",SBKP,2022-06-06 18:00:00
1654542000000,"METAF SBKP 061900Z  30007KT CAVOK 26/12 Q1014=
",SBKP,2022-06-06 19:00:00
1654545600000,"METAF SBKP 062000Z  30005KT CAVOK 26/12 Q1016=
",SBKP,2022-06-06 20:00:00
1654549200000,"METAF SBKP 062100Z  28006KT CAVOK 24/12 Q1012=
",SBKP,2022-06-06 21:00:00
1654552800000,"METAF SBKP 062200Z  28003KT CAVOK 23/12 Q1015=
",SBKP,2022-06-06 22:00:00
1654556400000,"METAF SBKP 062300Z  32003KT CAVOK 22/12 Q1016=
",SBKP,2022-06-06 23:00:00
1654538400000,"METAF SBSP 061800Z  30010KT CAVOK 25/12 Q1014=
",SBSP,2022-06-06 18:00:00
1654542000000,"METAF SBSP 061900Z  30008KT CAVOK 24/11 Q1014=
",SBSP,2022-06-06 19:00:00
1654545600000,"METAF SBSP 062000Z  30007KT CAVOK 24/11 Q1016=
",SBSP,2022-06-06 20:00:00
1654549200000,"METAF SBSP 062100Z  31005KT CAVOK 23/12 Q1012=
",SBSP,2022-06-06 21:00:00
1654552800000,"METAF SBSP 062200Z  31003KT CAVOK 22/12 Q1015=
",SBSP,2022-06-06 22:00:00
1654556400000,"METAF SBSP 062300Z  31004KT CAVOK 22/13 Q1016=
",SBSP,2022-06-06 23:00:00
1654560000000,"METAF SBGL 070000Z  14004KT CAVOK 23/16 Q1014=
",SBGL,2022-06-07 00:00:00
1654563600000,"METAF SBGL 070100Z  13004KT CAVOK 22/16 Q1014=
",SBGL,2022-06-07 01:00:00
1654567200000,"METAF SBGL 070200Z  11003KT CAVOK 22/16 Q1017=
",SBGL,2022-06-07 02:00:00
1654570800000,"METAF SBGL 070300Z 07004KT CAVOK 22/15 Q1013=
",SBGL,2022-06-07 03:00:00
1654574400000,"METAF SBGL 070400Z 06002KT CAVOK 22/15 Q1013=
",SBGL,2022-06-07 04:00:00
1654578000000,"METAF SBGL 070500Z  24001KT CAVOK 23/15 Q1013=
",SBGL,2022-06-07 05:00:00
1654581600000,"METAF SBGL 070600Z  23005KT CAVOK 21/14 Q1010=
",SBGL,2022-06-07 06:00:00
1654585200000,"METAF SBGL 070700Z  18004KT CAVOK 21/14 Q1011=
",SBGL,2022-06-07 07:00:00
1654588800000,"METAF SBGL 070800Z  18004KT CAVOK 21/15 Q1014=
",SBGL,2022-06-07 08:00:00
1654592400000,"METAF SBGL 070900Z  16002KT CAVOK 21/15 Q1012=
",SBGL,2022-06-07 09:00:00
1654596000000,"METAF SBGL 071000Z  35001KT CAVOK 21/15 Q1013=
",SBGL,2022-06-07 10:00:00
1654599600000,"METAF SBGL 071100Z  28001KT CAVOK 22/15 Q1015=
",SBGL,2022-06-07 11:00:00
1654603200000,"METAF SBGL 071200Z  27006KT CAVOK 22/14 Q1013=
",SBGL,2022-06-07 12:00:00
1654606800000,"METAF SBGL 071300Z  34001KT CAVOK 23/15 Q1013=
",SBGL,2022-06-07 13:00:00
1654610400000,"METAF SBGL 071400Z 05003KT CAVOK 23/16 Q1016=
",SBGL,2022-06-07 14:00:00
1654614000000,"METAF SBGL 071500Z 09003KT CAVOK 23/16 Q1012=
",SBGL,2022-06-07 15:00:00
1654617600000,"METAF SBGL 071600Z  14004KT CAVOK 24/16 Q1012=
",SBGL,2022-06-07 16:00:00
1654621200000,"METAF SBGL 071700Z  15006KT CAVOK 24/16 Q1012=
",SBGL,2022-06-07 17:00:00
1654624800000,"METAF SBGL 071800Z  17008KT CAVOK 24/18 Q1011=
",SBGL,2022-06-07 18:00:00
1654628400000,"METAF SBGL 071900Z  17008KT CAVOK 23/19 Q1012=
",SBGL,2022-06-07 19:00:00
1654632000000,"METAF SBGL 072000Z  18006KT 6000       FEW018   23/20 Q1015=
",SBGL,2022-06-07 20:00:00
1654635600000,"METAF SBGL 072100Z  18004KT 5000     BR BKN014   22/20 Q1014=
",SBGL,2022-06-07 21:00:00
1654639200000,"METAF SBGL 072200Z  18003KT 4000     BR BKN011   22/20 Q1014=
",SBGL,2022-06-07 22:00:00
1654642800000,"METAF SBGL 072300Z  24002KT 3000     BR BKN011   22/20 Q1015=
",SBGL,2022-06-07 23:00:00
1654560000000,"METAF SBGR 070000Z  30006KT CAVOK 16/12 Q1016=
",SBGR,2022-06-07 00:00:00
1654563600000,"METAF SBGR 070100Z  31005KT CAVOK 16/12 Q1015=
",SBGR,2022-06-07 01:00:00
1654567200000,"METAF SBGR 070200Z  36006KT CAVOK 16/12 Q1018=
",SBGR,2022-06-07 02:00:00
1654570800000,"METAF SBGR 070300Z  35007KT CAVOK 16/12 Q1013=
",SBGR,2022-06-07 03:00:00
1654574400000,"METAF SBGR 070400Z  35006KT CAVOK 16/12 Q1014=
",SBGR,2022-06-07 04:00:00
1654578000000,"METAF SBGR 070500Z  34006KT CAVOK 16/12 Q1015=
",SBGR,2022-06-07 05:00:00
1654581600000,"METAF SBGR 070600Z  34005KT CAVOK 15/11 Q1012=
",SBGR,2022-06-07 06:00:00
1654585200000,"METAF SBGR 070700Z  34005KT CAVOK 15/11 Q1012=
",SBGR,2022-06-07 07:00:00
1654588800000,"METAF SBGR 070800Z  35006KT CAVOK 15/12 Q1015=
",SBGR,2022-06-07 08:00:00
1654592400000,"METAF SBGR 070900Z  35008KT CAVOK 16/12 Q1011=
",SBGR,2022-06-07 09:00:00
1654596000000,"METAF SBGR 071000Z  34007KT CAVOK 15/11 Q1013=
",SBGR,2022-06-07 10:00:00
1654599600000,"METAF SBGR 071100Z  33008KT CAVOK 18/12 Q1015=
",SBGR,2022-06-07 11:00:00
1654603200000,"METAF SBGR 071200Z  34008KT CAVOK 20/13 Q1014=
",SBGR,2022-06-07 12:00:00
1654606800000,"METAF SBGR 071300Z  33010KT CAVOK 22/13 Q1014=
",SBGR,2022-06-07 13:00:00
1654610400000,"METAF SBGR 071400Z  32010KT CAVOK 23/13 Q1017=
",SBGR,2022-06-07 14:00:00
1654614000000,"METAF SBGR 071500Z  31011KT CAVOK 24/12 Q1012=
",SBGR,2022-06-07 15:00:00
1654617600000,"METAF SBGR 071600Z  30011KT CAVOK 24/11 Q1013=
",SBGR,2022-06-07 16:00:00
1654621200000,"METAF SBGR 071700Z  30010KT CAVOK 25/11 Q1013=
",SBGR,2022-06-07 17:00:00
1654624800000,"METAF SBGR 071800Z  30008KT CAVOK 25/11 Q1011=
",SBGR,2022-06-07 18:00:00
1654628400000,"METAF SBGR 071900Z  29005KT CAVOK 24/11 Q1012=
",SBGR,2022-06-07 19:00:00
1654632000000,"METAF SBGR 072000Z  15005KT CAVOK 21/15 Q1014=
",SBGR,2022-06-07 20:00:00
1654635600000,"METAF SBGR 072100Z  15006KT 2000     BR OVC033   17/16 Q1011=
",SBGR,2022-06-07 21:00:00
1654639200000,"METAF SBGR 072200Z  12006KT 2000     BR OVC033   17/16 Q1013=
",SBGR,2022-06-07 22:00:00
1654642800000,"METAF SBGR 072300Z 09007KT 2000     BR OVC026   17/16 Q1015=
",SBGR,2022-06-07 23:00:00
1654560000000,"METAF SBKP 070000Z  29003KT CAVOK 20/13 Q1014=
",SBKP,2022-06-07 00:00:00
1654563600000,"METAF SBKP 070100Z 06005KT CAVOK 19/13 Q1015=
",SBKP,2022-06-07 01:00:00
1654567200000,"METAF SBKP 070200Z 06006KT CAVOK 19/12 Q1018=
",SBKP,2022-06-07 02:00:00
1654570800000,"METAF SBKP 070300Z 04006KT CAVOK 18/12 Q1013=
",SBKP,2022-06-07 03:00:00
1654574400000,"METAF SBKP 070400Z 03006KT CAVOK 18/12 Q1014=
",SBKP,2022-06-07 04:00:00
1654578000000,"METAF SBKP 070500Z 02006KT CAVOK 18/12 Q1014=
",SBKP,2022-06-07 05:00:00
1654581600000,"METAF SBKP 070600Z 01005KT CAVOK 17/13 Q1011=
",SBKP,2022-06-07 06:00:00
1654585200000,"METAF SBKP 070700Z 03004KT CAVOK 16/12 Q1012=
",SBKP,2022-06-07 07:00:00
1654588800000,"METAF SBKP 070800Z 02007KT CAVOK 17/12 Q1015=
",SBKP,2022-06-07 08:00:00
1654592400000,"METAF SBKP 070900Z 02007KT CAVOK 16/12 Q1011=
",SBKP,2022-06-07 09:00:00
1654596000000,"METAF SBKP 071000Z 02006KT CAVOK 16/12 Q1013=
",SBKP,2022-06-07 10:00:00
1654599600000,"METAF SBKP 071100Z  36006KT CAVOK 18/12 Q1015=
",SBKP,2022-06-07 11:00:00
1654603200000,"METAF SBKP 071200Z  36007KT CAVOK 19/12 Q1013=
",SBKP,2022-06-07 12:00:00
1654606800000,"METAF SBKP 071300Z  36007KT CAVOK 21/12 Q1014=
",SBKP,2022-06-07 13:00:00
1654610400000,"METAF SBKP 071400Z  34007KT CAVOK 24/12 Q1017=
",SBKP,2022-06-07 14:00:00
1654614000000,"METAF SBKP 071500Z  32009KT CAVOK 25/11 Q1012=
",SBKP,2022-06-07 15:00:00
1654617600000,"METAF SBKP 071600Z  31009KT CAVOK 27/10 Q1013=
",SBKP,2022-06-07 16:00:00
1654621200000,"METAF SBKP 071700Z  31010KT CAVOK 27/09 Q1013=
",SBKP,2022-06-07 17:00:00
1654624800000,"METAF SBKP 071800Z  31008KT CAVOK 28/08 Q1010=
",SBKP,2022-06-07 18:00:00
1654628400000,"METAF SBKP 071900Z  30008KT CAVOK 28/09 Q1011=
",SBKP,2022-06-07 19:00:00
1654632000000,"METAF SBKP 072000Z  30007KT CAVOK 27/09 Q1013=
",SBKP,2022-06-07 20:00:00
1654635600000,"METAF SBKP 072100Z  30003KT CAVOK 25/09 Q1010=
",SBKP,2022-06-07 21:00:00
1654639200000,"METAF SBKP 072200Z  21003KT CAVOK 24/11 Q1012=
",SBKP,2022-06-07 22:00:00
1654642800000,"METAF SBKP 072300Z  13008KT CAVOK 22/14 Q1013=
",SBKP,2022-06-07 23:00:00
1654560000000,"METAF SBSP 070000Z  28005KT CAVOK 19/13 Q1017=
",SBSP,2022-06-07 00:00:00
1654563600000,"METAF SBSP 070100Z  30004KT CAVOK 18/13 Q1015=
",SBSP,2022-06-07 01:00:00
1654567200000,"METAF SBSP 070200Z  33004KT CAVOK 18/13 Q1017=
",SBSP,2022-06-07 02:00:00
1654570800000,"METAF SBSP 070300Z  34005KT CAVOK 17/13 Q1013=
",SBSP,2022-06-07 03:00:00
1654574400000,"METAF SBSP 070400Z  25001KT CAVOK 17/13 Q1014=
",SBSP,2022-06-07 04:00:00
1654578000000,"METAF SBSP 070500Z  18003KT 4000     BR SCT033   16/13 Q1015=
",SBSP,2022-06-07 05:00:00
1654581600000,"METAF SBSP 070600Z  30002KT 3000     BR SCT033   16/14 Q1013=
",SBSP,2022-06-07 06:00:00
1654585200000,"METAF SBSP 070700Z  30003KT 3000     BR SCT033   16/14 Q1012=
",SBSP,2022-06-07 07:00:00
1654588800000,"METAF SBSP 070800Z  33004KT 4000     BR FEW033   16/13 Q1014=
",SBSP,2022-06-07 08:00:00
1654592400000,"METAF SBSP 070900Z  34005KT 6000       FEW033   16/12 Q1011=
",SBSP,2022-06-07 09:00:00
1654596000000,"METAF SBSP 071000Z  32004KT CAVOK 16/12 Q1013=
",SBSP,2022-06-07 10:00:00
1654599600000,"METAF SBSP 071100Z  33005KT CAVOK 18/12 Q1015=
",SBSP,2022-06-07 11:00:00
1654603200000,"METAF SBSP 071200Z  36005KT CAVOK 19/13 Q1014=
",SBSP,2022-06-07 12:00:00
1654606800000,"METAF SBSP 071300Z  33007KT CAVOK 21/12 Q1014=
",SBSP,2022-06-07 13:00:00
1654610400000,"METAF SBSP 071400Z  32008KT CAVOK 23/12 Q1016=
",SBSP,2022-06-07 14:00:00
1654614000000,"METAF SBSP 071500Z  30006KT CAVOK 23/11 Q1012=
",SBSP,2022-06-07 15:00:00
1654617600000,"METAF SBSP 071600Z  29006KT CAVOK 24/11 Q1013=
",SBSP,2022-06-07 16:00:00
1654621200000,"METAF SBSP 071700Z  28005KT CAVOK 24/12 Q1014=
",SBSP,2022-06-07 17:00:00
1654624800000,"METAF SBSP 071800Z  14009KT 6000       OVC010   20/17 Q1013=
",SBSP,2022-06-07 18:00:00
1654628400000,"METAF SBSP 071900Z  14009KT 3000     BR OVC033   19/17 Q1012=
",SBSP,2022-06-07 19:00:00
1654632000000,"METAF SBSP 072000Z  14009KT 2000     BR OVC031   18/16 Q1014=
",SBSP,2022-06-07 20:00:00
1654635600000,"METAF SBSP 072100Z  14007KT 1000     BR OVC031   17/16 Q1011=
",SBSP,2022-06-07 21:00:00
1654639200000,"METAF SBSP 072200Z  12007KT 2000     BR OVC031   17/16 Q1013=
",SBSP,2022-06-07 22:00:00
1654642800000,"METAF SBSP 072300Z  11005KT 2000     BR OVC033   18/16 Q1016=
",SBSP,2022-06-07 23:00:00
1654646400000,"METAF SBGL 080000Z  30005KT 5000     BR OVC015   22/19 Q1015=
",SBGL,2022-06-08 00:00:00
1654650000000,"METAF SBGL 080100Z  33004KT 4000     BR OVC015   22/19 Q1015=
",SBGL,2022-06-08 01:00:00
1654653600000,"METAF SBGL 080200Z  33005KT 5000     BR OVC017   22/19 Q1017=
",SBGL,2022-06-08 02:00:00
1654657200000,"METAF SBGL 080300Z  32003KT 4000     BR OVC017   21/19 Q1015=
",SBGL,2022-06-08 03:00:00
1654660800000,"METAF SBGL 080400Z 02001KT 4000     BR BKN018   21/19 Q1015=
",SBGL,2022-06-08 04:00:00
1654664400000,"METAF SBGL 080500Z  17001KT 3000     BR BKN018   21/19 Q1015=
",SBGL,2022-06-08 05:00:00
1654668000000,"METAF SBGL 080600Z  29003KT 3000     BR OVC019   20/18 Q1014=
",SBGL,2022-06-08 06:00:00
1654671600000,"METAF SBGL 080700Z  31001KT 3000     BR OVC018   20/18 Q1015=
",SBGL,2022-06-08 07:00:00
1654675200000,"METAF SBGL 080800Z  32003KT 3000     BR OVC020   20/18 Q1017=
",SBGL,2022-06-08 08:00:00
1654678800000,"METAF SBGL 080900Z  32004KT 4000     BR OVC024   20/18 Q1016=
",SBGL,2022-06-08 09:00:00
1654682400000,"METAF SBGL 081000Z  30003KT 5000     BR OVC019   20/18 Q1016=
",SBGL,2022-06-08 10:00:00
1654686000000,"METAF SBGL 081100Z  32003KT 6000       OVC021   21/18 Q1018=
",SBGL,2022-06-08 11:00:00
1654689600000,"METAF SBGL 081200Z  16002KT 6000       SCT010   20/17 Q1016=
",SBGL,2022-06-08 12:00:00
1654693200000,"METAF SBGL 081300Z 09005KT 5000     BR SCT033   21/18 Q1017=
",SBGL,2022-06-08 13:00:00
1654696800000,"METAF SBGL 081400Z 05003KT 5000     BR SCT033   21/18 Q1018=
",SBGL,2022-06-08 14:00:00
1654700400000,"METAF SBGL 081500Z 03003KT 7000       SCT033   21/18 Q1016=
",SBGL,2022-06-08 15:00:00
1654704000000,"METAF SBGL 081600Z 09002KT 9999       FEW033   22/18 Q1014=
",SBGL,2022-06-08 16:00:00
1654707600000,"METAF SBGL 081700Z  12002KT CAVOK 23/18 Q1014=
",SBGL,2022-06-08 17:00:00
1654711200000,"METAF SBGL 081800Z  16009KT CAVOK 23/19 Q1012=
",SBGL,2022-06-08 18:00:00
1654714800000,"METAF SBGL 081900Z  15008KT 6000       SCT018   23/19 Q1015=
",SBGL,2022-06-08 19:00:00
1654718400000,"METAF SBGL 082000Z  15005KT 5000     BR BKN017   23/20 Q1017=
",SBGL,2022-06-08 20:00:00
1654722000000,"METAF SBGL 082100Z  11002KT 4000     BR BKN016   22/20 Q1015=
",SBGL,2022-06-08 21:00:00
1654725600000,"METAF SBGL 082200Z  11004KT 5000     BR SCT015   22/19 Q1016=
",SBGL,2022-06-08 22:00:00
1654729200000,"METAF SBGL 082300Z 08004KT 4000     BR SCT014   22/19 Q1016=
",SBGL,2022-06-08 23:00:00
1654646400000,"METAF SBGR 080000Z 08007KT 2000     BR OVC021   16/15 Q1014=
",SBGR,2022-06-08 00:00:00
1654650000000,"METAF SBGR 080100Z  10006KT 1000     BR OVC024   16/15 Q1014=
",SBGR,2022-06-08 01:00:00
1654653600000,"METAF SBGR 080200Z  13004KT 2000     BR OVC028   17/15 Q1017=
",SBGR,2022-06-08 02:00:00
1654657200000,"METAF SBGR 080300Z 07004KT 1000     BR OVC033   16/15 Q1013=
",SBGR,2022-06-08 03:00:00
1654660800000,"METAF SBGR 080400Z 06005KT 1000     BR OVC033   16/15 Q1014=
",SBGR,2022-06-08 04:00:00
1654664400000,"METAF SBGR 080500Z 04004KT 2000     BR BKN033   16/14 Q1015=
",SBGR,2022-06-08 05:00:00
1654668000000,"METAF SBGR 080600Z 04004KT 1000     BR OVC027   15/15 Q1014=
",SBGR,2022-06-08 06:00:00
1654671600000,"METAF SBGR 080700Z 05002KT 1000     BR BKN031   14/13 Q1014=
",SBGR,2022-06-08 07:00:00
1654675200000,"METAF SBGR 080800Z  36004KT 2000     BR BKN033   14/13 Q1016=
",SBGR,2022-06-08 08:00:00
1654678800000,"METAF SBGR 080900Z  34006KT 3000     BR SCT032   15/13 Q1013=
",SBGR,2022-06-08 09:00:00
1654682400000,"METAF SBGR 081000Z  34006KT 4000     BR SCT033   15/13 Q1015=
",SBGR,2022-06-08 10:00:00
1654686000000,"METAF SBGR 081100Z  32008KT 5000     BR SCT033   17/14 Q1017=
",SBGR,2022-06-08 11:00:00
1654689600000,"METAF SBGR 081200Z  36002KT 7000       BKN015   18/15 Q1017=
",SBGR,2022-06-08 12:00:00
1654693200000,"METAF SBGR 081300Z  32003KT 9999       BKN024   21/15 Q1017=
",SBGR,2022-06-08 13:00:00
1654696800000,"METAF SBGR 081400Z  32007KT 9999       BKN030   22/15 Q1019=
",SBGR,2022-06-08 14:00:00
1654700400000,"METAF SBGR 081500Z  31009KT 9999       SCT032   23/14 Q1015=
",SBGR,2022-06-08 15:00:00
1654704000000,"METAF SBGR 081600Z  30009KT 9999       FEW033   23/14 Q1015=
",SBGR,2022-06-08 16:00:00
1654707600000,"METAF SBGR 081700Z  29009KT 9999       FEW033   23/14 Q1015=
",SBGR,2022-06-08 17:00:00
1654711200000,"METAF SBGR 081800Z  29003KT 9999  - RA  BKN025   22/16 Q1012=
",SBGR,2022-06-08 18:00:00
1654714800000,"METAF SBGR 081900Z  22003KT 9999  - RA  SCT027   22/16 Q1015=
",SBGR,2022-06-08 19:00:00
1654718400000,"METAF SBGR 082000Z  16007KT 5000  -TSRABR BKN015 FEW030CB 19/16 Q1016=
",SBGR,2022-06-08 20:00:00
1654722000000,"METAF SBGR 082100Z  13005KT 2000    RABR OVC029   16/15 Q1013=
",SBGR,2022-06-08 21:00:00
1654725600000,"METAF SBGR 082200Z  12005KT 2000     BR OVC029   16/15 Q1016=
",SBGR,2022-06-08 22:00:00
1654729200000,"METAF SBGR 082300Z  10004KT 1000     BR OVC031   16/15 Q1017=
",SBGR,2022-06-08 23:00:00
1654646400000,"METAF SBKP 080000Z  11010KT 5000     BR SCT026   19/16 Q1012=
",SBKP,2022-06-08 00:00:00
1654650000000,"METAF SBKP 080100Z  11006KT 5000     BR BKN027   19/16 Q1013=
",SBKP,2022-06-08 01:00:00
1654653600000,"METAF SBKP 080200Z  12003KT 4000     BR BKN023   18/16 Q1016=
",SBKP,2022-06-08 02:00:00
1654657200000,"METAF SBKP 080300Z 08004KT 4000     BR SCT033   18/16 Q1013=
",SBKP,2022-06-08 03:00:00
1654660800000,"METAF SBKP 080400Z 08004KT 5000     BR FEW033   18/15 Q1013=
",SBKP,2022-06-08 04:00:00
1654664400000,"METAF SBKP 080500Z 05004KT 7000       FEW033   18/14 Q1014=
",SBKP,2022-06-08 05:00:00
1654668000000,"METAF SBKP 080600Z 06004KT 4000     BR SCT032   17/15 Q1013=
",SBKP,2022-06-08 06:00:00
1654671600000,"METAF SBKP 080700Z 08002KT 4000     BR SCT033   17/15 Q1014=
",SBKP,2022-06-08 07:00:00
1654675200000,"METAF SBKP 080800Z 01003KT 4000     BR SCT033   17/15 Q1016=
",SBKP,2022-06-08 08:00:00
1654678800000,"METAF SBKP 080900Z  36004KT 4000     BR SCT033   17/14 Q1014=
",SBKP,2022-06-08 09:00:00
1654682400000,"METAF SBKP 081000Z  35004KT 4000     BR SCT033   17/14 Q1015=
",SBKP,2022-06-08 10:00:00
1654686000000,"METAF SBKP 081100Z 01006KT 8000       FEW033   18/14 Q1017=
",SBKP,2022-06-08 11:00:00
1654689600000,"METAF SBKP 081200Z 01003KT 8000       SCT031   18/14 Q1016=
",SBKP,2022-06-08 12:00:00
1654693200000,"METAF SBKP 081300Z  36005KT 9999       SCT032   21/14 Q1018=
",SBKP,2022-06-08 13:00:00
1654696800000,"METAF SBKP 081400Z  35006KT 9999       SCT030   22/14 Q1019=
",SBKP,2022-06-08 14:00:00
1654700400000,"METAF SBKP 081500Z  33008KT 9999       BKN032   23/14 Q1015=
",SBKP,2022-06-08 15:00:00
1654704000000,"METAF SBKP 081600Z  33008KT 9999       BKN033   24/15 Q1015=
",SBKP,2022-06-08 16:00:00
1654707600000,"METAF SBKP 081700Z  32008KT 9999       BKN033   25/15 Q1015=
",SBKP,2022-06-08 17:00:00
1654711200000,"METAF SBKP 081800Z  33006KT 9999       BKN033   25/14 Q1011=
",SBKP,2022-06-08 18:00:00
1654714800000,"METAF SBKP 081900Z  33006KT 9999       SCT033   25/15 Q1014=
",SBKP,2022-06-08 19:00:00
1654718400000,"METAF SBKP 082000Z  33005KT 9999       BKN033   24/15 Q1015=
",SBKP,2022-06-08 20:00:00
1654722000000,"METAF SBKP 082100Z  34006KT 9999       BKN033   23/15 Q1012=
",SBKP,2022-06-08 21:00:00
1654725600000,"METAF SBKP 082200Z  29005KT 9999    RA  OVC026   22/16 Q1015=
",SBKP,2022-06-08 22:00:00
1654729200000,"METAF SBKP 082300Z  19003KT 6000  - RA  BKN014   21/17 Q1016=
",SBKP,2022-06-08 23:00:00
1654646400000,"METAF SBSP 080000Z 08004KT 3000     BR OVC033   18/16 Q1015=
",SBSP,2022-06-08 00:00:00
1654650000000,"METAF SBSP 080100Z  12005KT 2000     BR OVC033   17/16 Q1014=
",SBSP,2022-06-08 01:00:00
1654653600000,"METAF SBSP 080200Z 08003KT 3000     BR OVC031   17/16 Q1017=
",SBSP,2022-06-08 02:00:00
1654657200000,"METAF SBSP 080300Z 06005KT 2000     BR OVC033   17/16 Q1013=
",SBSP,2022-06-08 03:00:00
1654660800000,"METAF SBSP 080400Z 07003KT 2000     BR OVC033   17/15 Q1014=
",SBSP,2022-06-08 04:00:00
1654664400000,"METAF SBSP 080500Z 07004KT 3000     BR OVC033   17/15 Q1015=
",SBSP,2022-06-08 05:00:00
1654668000000,"METAF SBSP 080600Z 03004KT 2000     BR OVC033   17/15 Q1015=
",SBSP,2022-06-08 06:00:00
1654671600000,"METAF SBSP 080700Z 04003KT 2000     BR OVC033   16/15 Q1014=
",SBSP,2022-06-08 07:00:00
1654675200000,"METAF SBSP 080800Z 02003KT 2000     BR OVC022   16/15 Q1016=
",SBSP,2022-06-08 08:00:00
1654678800000,"METAF SBSP 080900Z 01004KT 1000     BR OVC023   16/15 Q1013=
",SBSP,2022-06-08 09:00:00
1654682400000,"METAF SBSP 081000Z 01003KT 1000     BR OVC028   16/15 Q1016=
",SBSP,2022-06-08 10:00:00
1654686000000,"METAF SBSP 081100Z  33005KT 5000     BR BKN033   17/14 Q1017=
",SBSP,2022-06-08 11:00:00
1654689600000,"METAF SBSP 081200Z  34003KT 8000       BKN033   18/14 Q1017=
",SBSP,2022-06-08 12:00:00
1654693200000,"METAF SBSP 081300Z  36002KT 9999       BKN033   19/14 Q1017=
",SBSP,2022-06-08 13:00:00
1654696800000,"METAF SBSP 081400Z  32002KT 9999       BKN027   21/14 Q1019=
",SBSP,2022-06-08 14:00:00
1654700400000,"METAF SBSP 081500Z  31004KT 9999       BKN033   22/14 Q1015=
",SBSP,2022-06-08 15:00:00
1654704000000,"METAF SBSP 081600Z  29004KT 9999       OVC030   23/14 Q1015=
",SBSP,2022-06-08 16:00:00
1654707600000,"METAF SBSP 081700Z  17005KT 9999  - RA  BKN019   21/16 Q1016=
",SBSP,2022-06-08 17:00:00
1654711200000,"METAF SBSP 081800Z  15008KT 6000    RA  OVC033   19/16 Q1013=
",SBSP,2022-06-08 18:00:00
1654714800000,"METAF SBSP 081900Z  14009KT 4000    RABR OVC033   18/16 Q1015=
",SBSP,2022-06-08 19:00:00
1654718400000,"METAF SBSP 082000Z  15007KT 3000     BR OVC033   17/15 Q1017=
",SBSP,2022-06-08 20:00:00
1654722000000,"METAF SBSP 082100Z  14005KT 3000     BR OVC031   17/15 Q1013=
",SBSP,2022-06-08 21:00:00
1654725600000,"METAF SBSP 082200Z  12005KT 3000     BR OVC029   17/15 Q1016=
",SBSP,2022-06-08 22:00:00
1654729200000,"METAF SBSP 082300Z 07003KT 3000     BR OVC032   16/15 Q1017=
",SBSP,2022-06-08 23:00:00
1654732800000,"METAF SBGL 090000Z  32004KT 6000       BKN033   22/19 Q1016=
",SBGL,2022-06-09 00:00:00
1654736400000,"METAF SBGL 090100Z  32003KT 6000       BKN033   22/19 Q1016=
",SBGL,2022-06-09 01:00:00
1654740000000,"METAF SBGL 090200Z  32003KT 6000       OVC033   22/19 Q1018=
",SBGL,2022-06-09 02:00:00
1654743600000,"METAF SBGL 090300Z  32005KT 5000     BR OVC033   21/18 Q1016=
",SBGL,2022-06-09 03:00:00
1654747200000,"METAF SBGL 090400Z  30003KT 5000     BR OVC033   21/19 Q1016=
",SBGL,2022-06-09 04:00:00
1654750800000,"METAF SBGL 090500Z  28005KT 4000     BR OVC033   21/19 Q1017=
",SBGL,2022-06-09 05:00:00
1654754400000,"METAF SBGL 090600Z  29005KT 3000     BR OVC012   21/19 Q1015=
",SBGL,2022-06-09 06:00:00
1654758000000,"METAF SBGL 090700Z  28004KT 2000     BR OVC033   21/19 Q1016=
",SBGL,2022-06-09 07:00:00
1654761600000,"METAF SBGL 090800Z  29006KT 3000     BR BKN033   21/19 Q1019=
",SBGL,2022-06-09 08:00:00
1654765200000,"METAF SBGL 090900Z  30006KT 3000     BR OVC033   21/19 Q1016=
",SBGL,2022-06-09 09:00:00
1654768800000,"METAF SBGL 091000Z  27005KT 2000     BR BKN033   21/19 Q1017=
",SBGL,2022-06-09 10:00:00
1654772400000,"METAF SBGL 091100Z  26004KT 3000     BR OVC033   21/19 Q1018=
",SBGL,2022-06-09 11:00:00
1654776000000,"METAF SBGL 091200Z  24002KT 4000     BR OVC011   22/19 Q1018=
",SBGL,2022-06-09 12:00:00
1654779600000,"METAF SBGL 091300Z  25002KT 5000     BR OVC013   22/19 Q1019=
",SBGL,2022-06-09 13:00:00
1654783200000,"METAF SBGL 091400Z  34001KT 5000     BR OVC013   22/19 Q1021=
",SBGL,2022-06-09 14:00:00
1654786800000,"METAF SBGL 091500Z  29001KT 5000     BR OVC013   22/19 Q1018=
",SBGL,2022-06-09 15:00:00
1654790400000,"METAF SBGL 091600Z  17003KT 6000       BKN016   23/19 Q1017=
",SBGL,2022-06-09 16:00:00
1654794000000,"METAF SBGL 091700Z  13004KT 7000       BKN019   23/19 Q1017=
",SBGL,2022-06-09 17:00:00
1654797600000,"METAF SBGL 091800Z  16009KT 6000       BKN017   23/20 Q1015=
",SBGL,2022-06-09 18:00:00
1654801200000,"METAF SBGL 091900Z  14009KT 5000     BR OVC015   23/20 Q1017=
",SBGL,2022-06-09 19:00:00
1654804800000,"METAF SBGL 092000Z  14007KT 5000     BR OVC032   23/20 Q1019=
",SBGL,2022-06-09 20:00:00
1654808400000,"METAF SBGL 092100Z  12006KT 5000     BR OVC013   22/20 Q1017=
",SBGL,2022-06-09 21:00:00
1654812000000,"METAF SBGL 092200Z  10005KT 5000     BR OVC013   22/20 Q1017=
",SBGL,2022-06-09 22:00:00
1654815600000,"METAF SBGL 092300Z  11005KT 4000     BR OVC012   22/20 Q1019=
",SBGL,2022-06-09 23:00:00
1654732800000,"METAF SBGR 090000Z  13004KT 1000     BR OVC022   16/15 Q1015=
",SBGR,2022-06-09 00:00:00
1654736400000,"METAF SBGR 090100Z  13005KT 1000     BR OVC026   16/15 Q1017=
",SBGR,2022-06-09 01:00:00
1654740000000,"METAF SBGR 090200Z  13004KT 1000     BR OVC028   16/15 Q1018=
",SBGR,2022-06-09 02:00:00
1654743600000,"METAF SBGR 090300Z  11002KT 1000     BR OVC027   15/15 Q1015=
",SBGR,2022-06-09 03:00:00
1654747200000,"METAF SBGR 090400Z  13003KT 1000     BR OVC024   16/15 Q1016=
",SBGR,2022-06-09 04:00:00
1654750800000,"METAF SBGR 090500Z  13003KT 1000     BR OVC024   16/15 Q1017=
",SBGR,2022-06-09 05:00:00
1654754400000,"METAF SBGR 090600Z  11004KT 1000     BR OVC033   14/13 Q1015=
",SBGR,2022-06-09 06:00:00
1654758000000,"METAF SBGR 090700Z  12004KT 1000     BR OVC033   15/14 Q1017=
",SBGR,2022-06-09 07:00:00
1654761600000,"METAF SBGR 090800Z  10004KT 1000     BR OVC033   15/14 Q1017=
",SBGR,2022-06-09 08:00:00
1654765200000,"METAF SBGR 090900Z 07004KT 1000     BR OVC033   15/14 Q1015=
",SBGR,2022-06-09 09:00:00
1654768800000,"METAF SBGR 091000Z 08004KT 1000     BR OVC033   15/14 Q1017=
",SBGR,2022-06-09 10:00:00
1654772400000,"METAF SBGR 091100Z 08004KT 1000     BR OVC033   15/14 Q1018=
",SBGR,2022-06-09 11:00:00
1654776000000,"METAF SBGR 091200Z 09003KT 2000     BR OVC033   16/15 Q1018=
",SBGR,2022-06-09 12:00:00
1654779600000,"METAF SBGR 091300Z 09004KT 5000     BR OVC010   18/15 Q1019=
",SBGR,2022-06-09 13:00:00
1654783200000,"METAF SBGR 091400Z  11003KT 9999       BKN017   20/15 Q1020=
",SBGR,2022-06-09 14:00:00
1654786800000,"METAF SBGR 091500Z  11002KT 9999       OVC022   21/15 Q1016=
",SBGR,2022-06-09 15:00:00
1654790400000,"METAF SBGR 091600Z  14001KT 9999       OVC028   22/15 Q1017=
",SBGR,2022-06-09 16:00:00
1654794000000,"METAF SBGR 091700Z  25001KT 9999    RA  BKN030   22/15 Q1017=
",SBGR,2022-06-09 17:00:00
1654797600000,"METAF SBGR 091800Z 01001KT 9999       BKN019   20/15 Q1014=
",SBGR,2022-06-09 18:00:00
1654801200000,"METAF SBGR 091900Z  26000KT 9999       OVC023   21/15 Q1017=
",SBGR,2022-06-09 19:00:00
1654804800000,"METAF SBGR 092000Z  18001KT 9999       BKN024   21/15 Q1018=
",SBGR,2022-06-09 20:00:00
1654808400000,"METAF SBGR 092100Z  13001KT 7000       BKN024   18/15 Q1015=
",SBGR,2022-06-09 21:00:00
1654812000000,"METAF SBGR 092200Z 08003KT 5000     BR BKN024   17/15 Q1017=
",SBGR,2022-06-09 22:00:00
1654815600000,"METAF SBGR 092300Z 05004KT 3000     BR BKN019   16/14 Q1019=
",SBGR,2022-06-09 23:00:00
1654732800000,"METAF SBKP 090000Z  10006KT 6000       BKN030   19/15 Q1013=
",SBKP,2022-06-09 00:00:00
1654736400000,"METAF SBKP 090100Z  12007KT 4000     BR BKN028   18/16 Q1016=
",SBKP,2022-06-09 01:00:00
1654740000000,"METAF SBKP 090200Z  11008KT 3000     BR BKN026   17/15 Q1018=
",SBKP,2022-06-09 02:00:00
1654743600000,"METAF SBKP 090300Z  10006KT 1000     BR OVC026   16/15 Q1014=
",SBKP,2022-06-09 03:00:00
1654747200000,"METAF SBKP 090400Z  11007KT 1000     BR OVC025   16/15 Q1015=
",SBKP,2022-06-09 04:00:00
1654750800000,"METAF SBKP 090500Z  11007KT 1000     BR OVC025   16/15 Q1016=
",SBKP,2022-06-09 05:00:00
1654754400000,"METAF SBKP 090600Z  11006KT 2000     BR BKN031   16/14 Q1013=
",SBKP,2022-06-09 06:00:00
1654758000000,"METAF SBKP 090700Z  12007KT 3000     BR BKN031   16/14 Q1016=
",SBKP,2022-06-09 07:00:00
1654761600000,"METAF SBKP 090800Z  11006KT 2000     BR BKN031   16/14 Q1017=
",SBKP,2022-06-09 08:00:00
1654765200000,"METAF SBKP 090900Z 09005KT 1000     BR OVC033   15/14 Q1014=
",SBKP,2022-06-09 09:00:00
1654768800000,"METAF SBKP 091000Z  10006KT 1000     BR OVC032   15/14 Q1016=
",SBKP,2022-06-09 10:00:00
1654772400000,"METAF SBKP 091100Z 09005KT 2000     BR BKN033   16/14 Q1018=
",SBKP,2022-06-09 11:00:00
1654776000000,"METAF SBKP 091200Z  10004KT 5000     BR BKN033   17/14 Q1017=
",SBKP,2022-06-09 12:00:00
1654779600000,"METAF SBKP 091300Z 08003KT 9999       SCT033   19/14 Q1019=
",SBKP,2022-06-09 13:00:00
1654783200000,"METAF SBKP 091400Z 08001KT 9999       FEW028   22/14 Q1020=
",SBKP,2022-06-09 14:00:00
1654786800000,"METAF SBKP 091500Z  31003KT CAVOK 23/14 Q1016=
",SBKP,2022-06-09 15:00:00
1654790400000,"METAF SBKP 091600Z  30003KT 9999       FEW033   24/13 Q1017=
",SBKP,2022-06-09 16:00:00
1654794000000,"METAF SBKP 091700Z  29004KT CAVOK 25/13 Q1016=
",SBKP,2022-06-09 17:00:00
1654797600000,"METAF SBKP 091800Z  30002KT 9999       SCT033   23/14 Q1013=
",SBKP,2022-06-09 18:00:00
1654801200000,"METAF SBKP 091900Z  31003KT 9999       SCT033   24/14 Q1016=
",SBKP,2022-06-09 19:00:00
1654804800000,"METAF SBKP 092000Z  31002KT 9999       SCT033   24/14 Q1018=
",SBKP,2022-06-09 20:00:00
1654808400000,"METAF SBKP 092100Z  32002KT 9999       BKN033   23/14 Q1015=
",SBKP,2022-06-09 21:00:00
1654812000000,"METAF SBKP 092200Z  34002KT 9999       BKN033   22/15 Q1017=
",SBKP,2022-06-09 22:00:00
1654815600000,"METAF SBKP 092300Z 03002KT 9999       BKN033   21/15 Q1017=
",SBKP,2022-06-09 23:00:00
1654732800000,"METAF SBSP 090000Z  16004KT 2000     BR OVC030   16/15 Q1016=
",SBSP,2022-06-09 00:00:00
1654736400000,"METAF SBSP 090100Z  14004KT 2000     BR OVC024   16/14 Q1017=
",SBSP,2022-06-09 01:00:00
1654740000000,"METAF SBSP 090200Z  15003KT 2000     BR OVC025   16/14 Q1018=
",SBSP,2022-06-09 02:00:00
1654743600000,"METAF SBSP 090300Z  17003KT 1000     BR OVC025   16/14 Q1015=
",SBSP,2022-06-09 03:00:00
1654747200000,"METAF SBSP 090400Z  17003KT 2000     BR OVC030   16/14 Q1017=
",SBSP,2022-06-09 04:00:00
1654750800000,"METAF SBSP 090500Z  18001KT 2000     BR OVC030   16/14 Q1017=
",SBSP,2022-06-09 05:00:00
1654754400000,"METAF SBSP 090600Z  13001KT 2000     BR OVC033   15/13 Q1016=
",SBSP,2022-06-09 06:00:00
1654758000000,"METAF SBSP 090700Z  12002KT 2000     BR OVC033   14/13 Q1017=
",SBSP,2022-06-09 07:00:00
1654761600000,"METAF SBSP 090800Z 09002KT 1000     BR OVC033   14/13 Q1018=
",SBSP,2022-06-09 08:00:00
1654765200000,"METAF SBSP 090900Z 05003KT 1000     BR OVC033   14/13 Q1015=
",SBSP,2022-06-09 09:00:00
1654768800000,"METAF SBSP 091000Z 05002KT 3000     BR OVC033   15/13 Q1017=
",SBSP,2022-06-09 10:00:00
1654772400000,"METAF SBSP 091100Z 04004KT 4000     BR OVC033   16/13 Q1018=
",SBSP,2022-06-09 11:00:00
1654776000000,"METAF SBSP 091200Z  12001KT 4000     BR OVC030   15/13 Q1019=
",SBSP,2022-06-09 12:00:00
1654779600000,"METAF SBSP 091300Z 06003KT 7000       OVC029   17/14 Q1019=
",SBSP,2022-06-09 13:00:00
1654783200000,"METAF SBSP 091400Z 07003KT 9999       BKN030   19/14 Q1020=
",SBSP,2022-06-09 14:00:00
1654786800000,"METAF SBSP 091500Z 05004KT 9999       BKN023   20/14 Q1017=
",SBSP,2022-06-09 15:00:00
1654790400000,"METAF SBSP 091600Z 03002KT 9999       SCT031   22/14 Q1017=
",SBSP,2022-06-09 16:00:00
1654794000000,"METAF SBSP 091700Z  32001KT 9999       BKN033   22/13 Q1017=
",SBSP,2022-06-09 17:00:00
1654797600000,"METAF SBSP 091800Z  32001KT 9999       BKN027   19/14 Q1015=
",SBSP,2022-06-09 18:00:00
1654801200000,"METAF SBSP 091900Z  36000KT 9999       BKN024   20/14 Q1017=
",SBSP,2022-06-09 19:00:00
1654804800000,"METAF SBSP 092000Z  14001KT 9999       SCT024   20/14 Q1018=
",SBSP,2022-06-09 20:00:00
1654808400000,"METAF SBSP 092100Z  11001KT 9999       SCT027   19/15 Q1015=
",SBSP,2022-06-09 21:00:00
1654812000000,"METAF SBSP 092200Z  11004KT 5000     BR BKN032   18/15 Q1017=
",SBSP,2022-06-09 22:00:00
1654815600000,"METAF SBSP 092300Z  13003KT 2000     BR OVC031   17/16 Q1018=
",SBSP,2022-06-09 23:00:00
1654819200000,"METAF SBGL 100000Z  11004KT 4000     BR OVC033   22/20 Q1018=
",SBGL,2022-06-10 00:00:00
1654822800000,"METAF SBGL 100100Z 08005KT 3000     BR OVC032   22/20 Q1018=
",SBGL,2022-06-10 01:00:00
1654826400000,"METAF SBGL 100200Z 08004KT 3000     BR OVC026   22/20 Q1020=
",SBGL,2022-06-10 02:00:00
1654830000000,"METAF SBGL 100300Z 06007KT 2000     BR BKN033   21/20 Q1016=
",SBGL,2022-06-10 03:00:00
1654833600000,"METAF SBGL 100400Z  15003KT 2000     BR SCT033   21/20 Q1016=
",SBGL,2022-06-10 04:00:00
1654837200000,"METAF SBGL 100500Z  20005KT 2000     BR BKN033   22/20 Q1016=
",SBGL,2022-06-10 05:00:00
1654840800000,"METAF SBGL 100600Z 09005KT 2000     BR OVC021   21/20 Q1015=
",SBGL,2022-06-10 06:00:00
1654844400000,"METAF SBGL 100700Z 07004KT 2000     BR BKN023   21/19 Q1016=
",SBGL,2022-06-10 07:00:00
1654848000000,"METAF SBGL 100800Z  19002KT 3000     BR BKN025   21/19 Q1018=
",SBGL,2022-06-10 08:00:00
1654851600000,"METAF SBGL 100900Z  24001KT 2000     BR BKN026   21/19 Q1015=
",SBGL,2022-06-10 09:00:00
1654855200000,"METAF SBGL 101000Z  23003KT 2000     BR SCT033   21/19 Q1016=
",SBGL,2022-06-10 10:00:00
1654858800000,"METAF SBGL 101100Z  27004KT 3000     BR SCT011   21/19 Q1017=
",SBGL,2022-06-10 11:00:00
1654862400000,"METAF SBGL 101200Z 07005KT 2000     BR FEW033   21/20 Q1016=
",SBGL,2022-06-10 12:00:00
1654866000000,"METAF SBGL 101300Z 08005KT 2000     BR SCT033   21/20 Q1017=
",SBGL,2022-06-10 13:00:00
1654869600000,"METAF SBGL 101400Z  15002KT 3000     BR FEW011   21/19 Q1017=
",SBGL,2022-06-10 14:00:00
1654873200000,"METAF SBGL 101500Z  14002KT 4000     BR FEW033   22/19 Q1013=
",SBGL,2022-06-10 15:00:00
1654876800000,"METAF SBGL 101600Z  13002KT 7000       FEW033   23/19 Q1013=
",SBGL,2022-06-10 16:00:00
1654880400000,"METAF SBGL 101700Z  10003KT CAVOK 23/19 Q1013=
",SBGL,2022-06-10 17:00:00
1654884000000,"METAF SBGL 101800Z  19005KT CAVOK 25/19 Q1009=
",SBGL,2022-06-10 18:00:00
1654887600000,"METAF SBGL 101900Z  17010KT CAVOK 24/20 Q1011=
",SBGL,2022-06-10 19:00:00
1654891200000,"METAF SBGL 102000Z  19008KT 6000       FEW019   23/20 Q1013=
",SBGL,2022-06-10 20:00:00
1654894800000,"METAF SBGL 102100Z  19006KT 5000     BR BKN033   23/20 Q1012=
",SBGL,2022-06-10 21:00:00
1654898400000,"METAF SBGL 102200Z  22003KT 4000     BR OVC033   23/20 Q1013=
",SBGL,2022-06-10 22:00:00
1654902000000,"METAF SBGL 102300Z  25003KT 4000     BR OVC033   22/20 Q1015=
",SBGL,2022-06-10 23:00:00
1654819200000,"METAF SBGR 100000Z  10004KT 1000     BR OVC022   16/15 Q1017=
",SBGR,2022-06-10 00:00:00
1654822800000,"METAF SBGR 100100Z  11004KT 1000     BR OVC027   15/15 Q1018=
",SBGR,2022-06-10 01:00:00
1654826400000,"METAF SBGR 100200Z  14004KT 0400 FG     OVC027   15/15 Q1019=
",SBGR,2022-06-10 02:00:00
1654830000000,"METAF SBGR 100300Z  13004KT 0400 FG     OVC026   15/15 Q1016=
",SBGR,2022-06-10 03:00:00
1654833600000,"METAF SBGR 100400Z  12003KT 0500 FG     OVC026   15/15 Q1017=
",SBGR,2022-06-10 04:00:00
1654837200000,"METAF SBGR 100500Z 07003KT 0500 FG     OVC030   15/15 Q1017=
",SBGR,2022-06-10 05:00:00
1654840800000,"METAF SBGR 100600Z  11003KT 0650 FG     OVC033   15/14 Q1015=
",SBGR,2022-06-10 06:00:00
1654844400000,"METAF SBGR 100700Z 09003KT 0750 FG     OVC033   15/14 Q1017=
",SBGR,2022-06-10 07:00:00
1654848000000,"METAF SBGR 100800Z  10002KT 1000     BR OVC033   14/14 Q1018=
",SBGR,2022-06-10 08:00:00
1654851600000,"METAF SBGR 100900Z 03003KT 1000     BR OVC032   15/14 Q1016=
",SBGR,2022-06-10 09:00:00
1654855200000,"METAF SBGR 101000Z 01005KT 2000     BR BKN028   15/14 Q1017=
",SBGR,2022-06-10 10:00:00
1654858800000,"METAF SBGR 101100Z  33009KT 4000     BR BKN029   17/15 Q1017=
",SBGR,2022-06-10 11:00:00
1654862400000,"METAF SBGR 101200Z  33008KT 7000       BKN031   18/15 Q1015=
",SBGR,2022-06-10 12:00:00
1654866000000,"METAF SBGR 101300Z  32009KT 9000       BKN017   20/15 Q1017=
",SBGR,2022-06-10 13:00:00
1654869600000,"METAF SBGR 101400Z  32010KT 9999       BKN023   21/15 Q1018=
",SBGR,2022-06-10 14:00:00
1654873200000,"METAF SBGR 101500Z  31012KT 9999       BKN025   22/15 Q1015=
",SBGR,2022-06-10 15:00:00
1654876800000,"METAF SBGR 101600Z  31012KT 9999       SCT028   22/15 Q1014=
",SBGR,2022-06-10 16:00:00
1654880400000,"METAF SBGR 101700Z  30011KT 9999       SCT030   23/15 Q1014=
",SBGR,2022-06-10 17:00:00
1654884000000,"METAF SBGR 101800Z  29009KT 9999       BKN028   22/15 Q1011=
",SBGR,2022-06-10 18:00:00
1654887600000,"METAF SBGR 101900Z  28008KT 9999       BKN028   22/15 Q1013=
",SBGR,2022-06-10 19:00:00
1654891200000,"METAF SBGR 102000Z  26005KT 9999       BKN023   21/16 Q1014=
",SBGR,2022-06-10 20:00:00
1654894800000,"METAF SBGR 102100Z  25006KT 7000       BKN020   19/15 Q1013=
",SBGR,2022-06-10 21:00:00
1654898400000,"METAF SBGR 102200Z  21005KT 2000  - RABR OVC033   18/16 Q1015=
",SBGR,2022-06-10 22:00:00
1654902000000,"METAF SBGR 102300Z  20002KT 1000  - RABR OVC033   17/16 Q1016=
",SBGR,2022-06-10 23:00:00
1654819200000,"METAF SBKP 100000Z 07003KT 7000       SCT032   19/16 Q1015=
",SBKP,2022-06-10 00:00:00
1654822800000,"METAF SBKP 100100Z  10005KT 7000       FEW033   19/15 Q1017=
",SBKP,2022-06-10 01:00:00
1654826400000,"METAF SBKP 100200Z  10005KT 5000     BR FEW029   18/15 Q1018=
",SBKP,2022-06-10 02:00:00
1654830000000,"METAF SBKP 100300Z  10004KT 4000     BR SCT033   18/15 Q1016=
",SBKP,2022-06-10 03:00:00
1654833600000,"METAF SBKP 100400Z  11005KT 4000     BR SCT031   18/15 Q1017=
",SBKP,2022-06-10 04:00:00
1654837200000,"METAF SBKP 100500Z  10004KT 4000     BR SCT030   18/15 Q1017=
",SBKP,2022-06-10 05:00:00
1654840800000,"METAF SBKP 100600Z 06002KT 4000     BR BKN033   17/15 Q1015=
",SBKP,2022-06-10 06:00:00
1654844400000,"METAF SBKP 100700Z 02002KT 5000     BR BKN033   17/15 Q1016=
",SBKP,2022-06-10 07:00:00
1654848000000,"METAF SBKP 100800Z 02004KT 5000     BR OVC033   17/14 Q1018=
",SBKP,2022-06-10 08:00:00
1654851600000,"METAF SBKP 100900Z 01005KT 4000     BR OVC032   17/15 Q1016=
",SBKP,2022-06-10 09:00:00
1654855200000,"METAF SBKP 101000Z 01006KT 3000     BR BKN028   17/15 Q1017=
",SBKP,2022-06-10 10:00:00
1654858800000,"METAF SBKP 101100Z 01007KT 4000     BR OVC029   18/15 Q1017=
",SBKP,2022-06-10 11:00:00
1654862400000,"METAF SBKP 101200Z  35006KT 9000       BKN019   19/15 Q1015=
",SBKP,2022-06-10 12:00:00
1654866000000,"METAF SBKP 101300Z  33006KT 9999       BKN018   21/15 Q1017=
",SBKP,2022-06-10 13:00:00
1654869600000,"METAF SBKP 101400Z  34007KT 9999       BKN024   22/16 Q1018=
",SBKP,2022-06-10 14:00:00
1654873200000,"METAF SBKP 101500Z  32009KT 9999       OVC029   23/15 Q1015=
",SBKP,2022-06-10 15:00:00
1654876800000,"METAF SBKP 101600Z  31009KT 9999       BKN033   24/14 Q1015=
",SBKP,2022-06-10 16:00:00
1654880400000,"METAF SBKP 101700Z  29010KT 9999       SCT033   25/15 Q1014=
",SBKP,2022-06-10 17:00:00
1654884000000,"METAF SBKP 101800Z  28008KT 9999       SCT033   25/14 Q1010=
",SBKP,2022-06-10 18:00:00
1654887600000,"METAF SBKP 101900Z  29008KT 9999       SCT033   25/14 Q1012=
",SBKP,2022-06-10 19:00:00
1654891200000,"METAF SBKP 102000Z  28009KT 9999    RA  SCT033   24/15 Q1014=
",SBKP,2022-06-10 20:00:00
1654894800000,"METAF SBKP 102100Z  25009KT 9999    RA  BKN026   22/16 Q1013=
",SBKP,2022-06-10 21:00:00
1654898400000,"METAF SBKP 102200Z  24006KT 7000    RA  BKN016   20/17 Q1015=
",SBKP,2022-06-10 22:00:00
1654902000000,"METAF SBKP 102300Z  24006KT 7000    RA  OVC016   20/17 Q1016=
",SBKP,2022-06-10 23:00:00
1654819200000,"METAF SBSP 100000Z  15005KT 1000     BR OVC023   16/15 Q1017=
",SBSP,2022-06-10 00:00:00
1654822800000,"METAF SBSP 100100Z  14005KT 1000     BR OVC026   16/15 Q1018=
",SBSP,2022-06-10 01:00:00
1654826400000,"METAF SBSP 100200Z  16004KT 1000     BR OVC028   16/15 Q1019=
",SBSP,2022-06-10 02:00:00
1654830000000,"METAF SBSP 100300Z  14003KT 0750 FG     OVC027   16/15 Q1016=
",SBSP,2022-06-10 03:00:00
1654833600000,"METAF SBSP 100400Z 08003KT 0750 FG     OVC030   16/15 Q1017=
",SBSP,2022-06-10 04:00:00
1654837200000,"METAF SBSP 100500Z 02004KT 1000     BR OVC027   16/15 Q1017=
",SBSP,2022-06-10 05:00:00
1654840800000,"METAF SBSP 100600Z 09003KT 1000     BR OVC033   16/15 Q1016=
",SBSP,2022-06-10 06:00:00
1654844400000,"METAF SBSP 100700Z  12003KT 2000     BR OVC033   16/15 Q1017=
",SBSP,2022-06-10 07:00:00
1654848000000,"METAF SBSP 100800Z  11003KT 1000     BR OVC033   16/15 Q1018=
",SBSP,2022-06-10 08:00:00
1654851600000,"METAF SBSP 100900Z 04005KT 2000     BR OVC033   16/15 Q1015=
",SBSP,2022-06-10 09:00:00
1654855200000,"METAF SBSP 101000Z 01006KT 2000     BR OVC033   16/15 Q1016=
",SBSP,2022-06-10 10:00:00
1654858800000,"METAF SBSP 101100Z  35008KT 6000       BKN029   17/14 Q1017=
",SBSP,2022-06-10 11:00:00
1654862400000,"METAF SBSP 101200Z  34008KT 7000       BKN032   18/15 Q1015=
",SBSP,2022-06-10 12:00:00
1654866000000,"METAF SBSP 101300Z  33008KT 9999       BKN032   20/14 Q1017=
",SBSP,2022-06-10 13:00:00
1654869600000,"METAF SBSP 101400Z  32008KT 9999       BKN026   22/15 Q1017=
",SBSP,2022-06-10 14:00:00
1654873200000,"METAF SBSP 101500Z  31010KT 9999       OVC030   23/14 Q1014=
",SBSP,2022-06-10 15:00:00
1654876800000,"METAF SBSP 101600Z  30010KT 9999       BKN033   24/14 Q1014=
",SBSP,2022-06-10 16:00:00
1654880400000,"METAF SBSP 101700Z  29010KT 9999       BKN033   24/14 Q1014=
",SBSP,2022-06-10 17:00:00
1654884000000,"METAF SBSP 101800Z  28007KT 9999       OVC031   23/14 Q1011=
",SBSP,2022-06-10 18:00:00
1654887600000,"METAF SBSP 101900Z  23004KT 9999  - RA  OVC022   21/16 Q1013=
",SBSP,2022-06-10 19:00:00
1654891200000,"METAF SBSP 102000Z  16008KT 3000  -TSRABR OVC024 FEW030CB 18/16 Q1015=
",SBSP,2022-06-10 20:00:00
1654894800000,"METAF SBSP 102100Z  17006KT 2000  - RABR OVC024   17/16 Q1013=
",SBSP,2022-06-10 21:00:00
1654898400000,"METAF SBSP 102200Z  18006KT 2000  - RABR OVC033   17/16 Q1015=
",SBSP,2022-06-10 22:00:00
1654902000000,"METAF SBSP 102300Z  27002KT 2000     BR OVC023   17/16 Q1016=
",SBSP,2022-06-10 23:00:00
1654905600000,"METAF SBGL 110000Z  28005KT 4000     BR OVC033   22/19 Q1012=
",SBGL,2022-06-11 00:00:00
1654909200000,"METAF SBGL 110100Z  29002KT 3000     BR OVC033   22/19 Q1014=
",SBGL,2022-06-11 01:00:00
1654912800000,"METAF SBGL 110200Z  28004KT 4000     BR OVC033   22/19 Q1015=
",SBGL,2022-06-11 02:00:00
1654916400000,"METAF SBGL 110300Z  22003KT 4000     BR OVC033   21/19 Q1015=
",SBGL,2022-06-11 03:00:00
1654920000000,"METAF SBGL 110400Z  25003KT 4000     BR OVC033   21/19 Q1014=
",SBGL,2022-06-11 04:00:00
1654923600000,"METAF SBGL 110500Z  26004KT 4000     BR OVC033   21/19 Q1016=
",SBGL,2022-06-11 05:00:00
1654927200000,"METAF SBGL 110600Z  30007KT 3000     BR OVC033   20/18 Q1012=
",SBGL,2022-06-11 06:00:00
1654930800000,"METAF SBGL 110700Z  31006KT 4000     BR OVC033   20/18 Q1015=
",SBGL,2022-06-11 07:00:00
1654934400000,"METAF SBGL 110800Z  28005KT 3000     BR OVC033   20/18 Q1016=
",SBGL,2022-06-11 08:00:00
1654938000000,"METAF SBGL 110900Z  30003KT 3000     BR OVC033   20/18 Q1015=
",SBGL,2022-06-11 09:00:00
1654941600000,"METAF SBGL 111000Z  27003KT 3000     BR OVC033   20/18 Q1016=
",SBGL,2022-06-11 10:00:00
1654945200000,"METAF SBGL 111100Z  32003KT 3000     BR OVC033   20/18 Q1018=
",SBGL,2022-06-11 11:00:00
1654948800000,"METAF SBGL 111200Z  27004KT 5000     BR OVC033   20/18 Q1015=
",SBGL,2022-06-11 12:00:00
1654952400000,"METAF SBGL 111300Z  20002KT 6000       OVC033   21/17 Q1019=
",SBGL,2022-06-11 13:00:00
1654956000000,"METAF SBGL 111400Z  20005KT 7000       OVC033   21/17 Q1020=
",SBGL,2022-06-11 14:00:00
1654959600000,"METAF SBGL 111500Z  17005KT 6000    RA  OVC033   20/17 Q1018=
",SBGL,2022-06-11 15:00:00
1654963200000,"METAF SBGL 111600Z  15006KT 6000       OVC033   20/17 Q1016=
",SBGL,2022-06-11 16:00:00
1654966800000,"METAF SBGL 111700Z  13004KT 7000       OVC033   20/17 Q1017=
",SBGL,2022-06-11 17:00:00
1654970400000,"METAF SBGL 111800Z  17007KT 7000    RA  OVC033   20/17 Q1012=
",SBGL,2022-06-11 18:00:00
1654974000000,"METAF SBGL 111900Z  15006KT 9000       OVC033   21/17 Q1016=
",SBGL,2022-06-11 19:00:00
1654977600000,"METAF SBGL 112000Z  16005KT 9999       OVC033   21/16 Q1017=
",SBGL,2022-06-11 20:00:00
1654981200000,"METAF SBGL 112100Z  16006KT 9999       OVC033   21/16 Q1016=
",SBGL,2022-06-11 21:00:00
1654984800000,"METAF SBGL 112200Z  14004KT 7000       OVC033   20/17 Q1017=
",SBGL,2022-06-11 22:00:00
1654988400000,"METAF SBGL 112300Z  11003KT 6000       OVC033   20/17 Q1018=
",SBGL,2022-06-11 23:00:00
1654905600000,"METAF SBGR 110000Z  13003KT 0700 FG     OVC013   14/13 Q1013=
",SBGR,2022-06-11 00:00:00
1654909200000,"METAF SBGR 110100Z  13003KT 0700 FG     OVC013   15/15 Q1014=
",SBGR,2022-06-11 01:00:00
1654912800000,"METAF SBGR 110200Z  13002KT 1000     BR OVC013   15/15 Q1015=
",SBGR,2022-06-11 02:00:00
1654916400000,"METAF SBGR 110300Z  16003KT 1000     BR OVC017   15/14 Q1013=
",SBGR,2022-06-11 03:00:00
1654920000000,"METAF SBGR 110400Z  13002KT 1000     BR OVC014   15/14 Q1015=
",SBGR,2022-06-11 04:00:00
1654923600000,"METAF SBGR 110500Z  13002KT 1000     BR OVC018   15/14 Q1016=
",SBGR,2022-06-11 05:00:00
1654927200000,"METAF SBGR 110600Z  10003KT 1000     BR OVC031   12/11 Q1013=
",SBGR,2022-06-11 06:00:00
1654930800000,"METAF SBGR 110700Z  13003KT 1000     BR OVC030   13/12 Q1016=
",SBGR,2022-06-11 07:00:00
1654934400000,"METAF SBGR 110800Z  16003KT 1000     BR OVC029   13/12 Q1016=
",SBGR,2022-06-11 08:00:00
1654938000000,"METAF SBGR 110900Z  15003KT 1000     BR OVC029   14/13 Q1015=
",SBGR,2022-06-11 09:00:00
1654941600000,"METAF SBGR 111000Z  13003KT 1000     BR OVC030   14/13 Q1017=
",SBGR,2022-06-11 10:00:00
1654945200000,"METAF SBGR 111100Z  14003KT 2000     BR OVC030   15/13 Q1019=
",SBGR,2022-06-11 11:00:00
1654948800000,"METAF SBGR 111200Z  15006KT 3000     BR OVC033   15/13 Q1017=
",SBGR,2022-06-11 12:00:00
1654952400000,"METAF SBGR 111300Z  15006KT 5000     BR OVC033   15/13 Q1020=
",SBGR,2022-06-11 13:00:00
1654956000000,"METAF SBGR 111400Z  15005KT 8000       OVC033   16/12 Q1019=
",SBGR,2022-06-11 14:00:00
1654959600000,"METAF SBGR 111500Z  14003KT 9999       OVC033   17/12 Q1016=
",SBGR,2022-06-11 15:00:00
1654963200000,"METAF SBGR 111600Z  12001KT 9999       OVC022   18/12 Q1017=
",SBGR,2022-06-11 16:00:00
1654966800000,"METAF SBGR 111700Z  34002KT 9999       OVC023   19/13 Q1017=
",SBGR,2022-06-11 17:00:00
1654970400000,"METAF SBGR 111800Z  17003KT 9999       BKN022   18/12 Q1013=
",SBGR,2022-06-11 18:00:00
1654974000000,"METAF SBGR 111900Z  19003KT 9999       BKN024   18/12 Q1017=
",SBGR,2022-06-11 19:00:00
1654977600000,"METAF SBGR 112000Z  21001KT 9999       BKN025   18/13 Q1016=
",SBGR,2022-06-11 20:00:00
1654981200000,"METAF SBGR 112100Z  18003KT 8000       SCT023   14/11 Q1014=
",SBGR,2022-06-11 21:00:00
1654984800000,"METAF SBGR 112200Z  14003KT 3000     BR BKN024   13/12 Q1017=
",SBGR,2022-06-11 22:00:00
1654988400000,"METAF SBGR 112300Z 06004KT 2000     BR BKN028   12/11 Q1018=
",SBGR,2022-06-11 23:00:00
1654905600000,"METAF SBKP 110000Z  16001KT 4000     BR BKN021   18/16 Q1012=
",SBKP,2022-06-11 00:00:00
1654909200000,"METAF SBKP 110100Z  12001KT 4000     BR OVC024   18/16 Q1014=
",SBKP,2022-06-11 01:00:00
1654912800000,"METAF SBKP 110200Z  30001KT 4000     BR OVC020   18/16 Q1016=
",SBKP,2022-06-11 02:00:00
1654916400000,"METAF SBKP 110300Z  31002KT 2000     BR OVC019   17/16 Q1014=
",SBKP,2022-06-11 03:00:00
1654920000000,"METAF SBKP 110400Z  30002KT 2000     BR BKN017   17/16 Q1015=
",SBKP,2022-06-11 04:00:00
1654923600000,"METAF SBKP 110500Z  26003KT 1000     BR OVC019   16/16 Q1017=
",SBKP,2022-06-11 05:00:00
1654927200000,"METAF SBKP 110600Z  12006KT 5000     BR OVC032   15/12 Q1013=
",SBKP,2022-06-11 06:00:00
1654930800000,"METAF SBKP 110700Z  11006KT 5000     BR OVC027   15/12 Q1015=
",SBKP,2022-06-11 07:00:00
1654934400000,"METAF SBKP 110800Z  12004KT 4000     BR OVC032   15/12 Q1017=
",SBKP,2022-06-11 08:00:00
1654938000000,"METAF SBKP 110900Z  12004KT 5000     BR OVC030   15/12 Q1014=
",SBKP,2022-06-11 09:00:00
1654941600000,"METAF SBKP 111000Z  11005KT 5000     BR BKN033   15/13 Q1016=
",SBKP,2022-06-11 10:00:00
1654945200000,"METAF SBKP 111100Z 09003KT 5000     BR OVC026   16/13 Q1019=
",SBKP,2022-06-11 11:00:00
1654948800000,"METAF SBKP 111200Z  11005KT 9000       BKN033   17/13 Q1015=
",SBKP,2022-06-11 12:00:00
1654952400000,"METAF SBKP 111300Z  14006KT 9999       BKN033   18/13 Q1019=
",SBKP,2022-06-11 13:00:00
1654956000000,"METAF SBKP 111400Z  15003KT 9999       OVC033   19/12 Q1020=
",SBKP,2022-06-11 14:00:00
1654959600000,"METAF SBKP 111500Z  34001KT 9999       BKN030   20/12 Q1016=
",SBKP,2022-06-11 15:00:00
1654963200000,"METAF SBKP 111600Z  27003KT 9999       BKN033   21/12 Q1016=
",SBKP,2022-06-11 16:00:00
1654966800000,"METAF SBKP 111700Z  29005KT 9999       SCT033   22/12 Q1017=
",SBKP,2022-06-11 17:00:00
1654970400000,"METAF SBKP 111800Z  28006KT 9999       FEW033   22/10 Q1011=
",SBKP,2022-06-11 18:00:00
1654974000000,"METAF SBKP 111900Z  24007KT 9999       FEW033   22/11 Q1016=
",SBKP,2022-06-11 19:00:00
1654977600000,"METAF SBKP 112000Z  25007KT 9999       FEW033   22/11 Q1016=
",SBKP,2022-06-11 20:00:00
1654981200000,"METAF SBKP 112100Z  27007KT 9999       FEW033   21/11 Q1014=
",SBKP,2022-06-11 21:00:00
1654984800000,"METAF SBKP 112200Z  26006KT 9999       SCT033   20/11 Q1017=
",SBKP,2022-06-11 22:00:00
1654988400000,"METAF SBKP 112300Z  29004KT 9999       SCT033   19/11 Q1018=
",SBKP,2022-06-11 23:00:00
1654905600000,"METAF SBSP 110000Z  15004KT 2000     BR OVC018   15/14 Q1014=
",SBSP,2022-06-11 00:00:00
1654909200000,"METAF SBSP 110100Z  13004KT 2000     BR OVC023   15/14 Q1015=
",SBSP,2022-06-11 01:00:00
1654912800000,"METAF SBSP 110200Z  13003KT 2000     BR OVC023   15/14 Q1015=
",SBSP,2022-06-11 02:00:00
1654916400000,"METAF SBSP 110300Z  16004KT 2000     BR OVC022   15/14 Q1014=
",SBSP,2022-06-11 03:00:00
1654920000000,"METAF SBSP 110400Z  14004KT 2000     BR OVC023   15/14 Q1015=
",SBSP,2022-06-11 04:00:00
1654923600000,"METAF SBSP 110500Z  16005KT 2000     BR OVC023   15/14 Q1017=
",SBSP,2022-06-11 05:00:00
1654927200000,"METAF SBSP 110600Z  14004KT 1000     BR OVC033   14/13 Q1015=
",SBSP,2022-06-11 06:00:00
1654930800000,"METAF SBSP 110700Z  12004KT 2000     BR OVC033   14/13 Q1016=
",SBSP,2022-06-11 07:00:00
1654934400000,"METAF SBSP 110800Z  16004KT 2000     BR OVC033   14/13 Q1016=
",SBSP,2022-06-11 08:00:00
1654938000000,"METAF SBSP 110900Z  15003KT 2000     BR OVC033   14/13 Q1015=
",SBSP,2022-06-11 09:00:00
1654941600000,"METAF SBSP 111000Z  13002KT 2000     BR OVC033   15/13 Q1017=
",SBSP,2022-06-11 10:00:00
1654945200000,"METAF SBSP 111100Z  17001KT 3000     BR OVC033   15/13 Q1019=
",SBSP,2022-06-11 11:00:00
1654948800000,"METAF SBSP 111200Z  16008KT 3000     BR OVC033   15/13 Q1019=
",SBSP,2022-06-11 12:00:00
1654952400000,"METAF SBSP 111300Z  15007KT 6000       OVC033   16/12 Q1021=
",SBSP,2022-06-11 13:00:00
1654956000000,"METAF SBSP 111400Z  14005KT 8000       OVC033   16/12 Q1019=
",SBSP,2022-06-11 14:00:00
1654959600000,"METAF SBSP 111500Z  15006KT 8000       OVC033   16/12 Q1016=
",SBSP,2022-06-11 15:00:00
1654963200000,"METAF SBSP 111600Z  12004KT 9000       OVC033   16/12 Q1017=
",SBSP,2022-06-11 16:00:00
1654966800000,"METAF SBSP 111700Z 08001KT 9999       OVC022   18/12 Q1017=
",SBSP,2022-06-11 17:00:00
1654970400000,"METAF SBSP 111800Z  16007KT 8000       OVC023   16/12 Q1015=
",SBSP,2022-06-11 18:00:00
1654974000000,"METAF SBSP 111900Z  15007KT 6000       OVC033   15/12 Q1018=
",SBSP,2022-06-11 19:00:00
1654977600000,"METAF SBSP 112000Z  15003KT 5000     BR OVC030   15/12 Q1016=
",SBSP,2022-06-11 20:00:00
1654981200000,"METAF SBSP 112100Z  16006KT 3000     BR OVC025   14/12 Q1015=
",SBSP,2022-06-11 21:00:00
1654984800000,"METAF SBSP 112200Z 04001KT 3000     BR OVC022   14/12 Q1017=
",SBSP,2022-06-11 22:00:00
1654988400000,"METAF SBSP 112300Z  35002KT 5000     BR OVC028   15/12 Q1018=
",SBSP,2022-06-11 23:00:00
1654992000000,"METAF SBGL 120000Z 09002KT 6000       OVC033   20/17 Q1014=
",SBGL,2022-06-12 00:00:00
1654995600000,"METAF SBGL 120100Z 08002KT 5000     BR OVC033   20/17 Q1016=
",SBGL,2022-06-12 01:00:00
1654999200000,"METAF SBGL 120200Z 05002KT 5000     BR OVC033   20/17 Q1017=
",SBGL,2022-06-12 02:00:00
1655002800000,"METAF SBGL 120300Z 07002KT 3000     BR OVC033   19/17 Q1016=
",SBGL,2022-06-12 03:00:00
1655006400000,"METAF SBGL 120400Z  14002KT 3000  - RABR OVC033   19/17 Q1015=
",SBGL,2022-06-12 04:00:00
1655010000000,"METAF SBGL 120500Z 04003KT 2000     BR OVC033   19/17 Q1015=
",SBGL,2022-06-12 05:00:00
1655013600000,"METAF SBGL 120600Z  31003KT 3000     BR OVC033   19/17 Q1012=
",SBGL,2022-06-12 06:00:00
1655017200000,"METAF SBGL 120700Z  29001KT 3000    RABR OVC033   19/17 Q1016=
",SBGL,2022-06-12 07:00:00
1655020800000,"METAF SBGL 120800Z  29003KT 2000    RABR OVC033   19/17 Q1017=
",SBGL,2022-06-12 08:00:00
1655024400000,"METAF SBGL 120900Z  26003KT 2000    RABR OVC033   19/17 Q1017=
",SBGL,2022-06-12 09:00:00
1655028000000,"METAF SBGL 121000Z  33004KT 2000    RABR OVC033   19/17 Q1016=
",SBGL,2022-06-12 10:00:00
1655031600000,"METAF SBGL 121100Z  28003KT 3000     BR OVC033   19/17 Q1017=
",SBGL,2022-06-12 11:00:00
1655035200000,"METAF SBGL 121200Z  31003KT 2000     BR OVC033   19/17 Q1015=
",SBGL,2022-06-12 12:00:00
1655038800000,"METAF SBGL 121300Z  25003KT 3000    RABR OVC033   19/17 Q1019=
",SBGL,2022-06-12 13:00:00
1655042400000,"METAF SBGL 121400Z  25004KT 4000    RABR OVC033   19/17 Q1020=
",SBGL,2022-06-12 14:00:00
1655046000000,"METAF SBGL 121500Z  22004KT 6000       OVC033   19/16 Q1018=
",SBGL,2022-06-12 15:00:00
1655049600000,"METAF SBGL 121600Z  30001KT 8000       OVC033   20/16 Q1016=
",SBGL,2022-06-12 16:00:00
1655053200000,"METAF SBGL 121700Z  24001KT 9999       OVC033   20/15 Q1016=
",SBGL,2022-06-12 17:00:00
1655056800000,"METAF SBGL 121800Z  22008KT 9999       OVC033   20/16 Q1013=
",SBGL,2022-06-12 18:00:00
1655060400000,"METAF SBGL 121900Z  22007KT 9999       OVC033   20/15 Q1017=
",SBGL,2022-06-12 19:00:00
1655064000000,"METAF SBGL 122000Z  25006KT 9999       OVC033   20/15 Q1018=
",SBGL,2022-06-12 20:00:00
1655067600000,"METAF SBGL 122100Z  22006KT 9999       OVC033   20/15 Q1017=
",SBGL,2022-06-12 21:00:00
1655071200000,"METAF SBGL 122200Z  26004KT 9999       OVC033   20/15 Q1017=
",SBGL,2022-06-12 22:00:00
1655074800000,"METAF SBGL 122300Z  23007KT 9999       OVC033   20/15 Q1019=
",SBGL,2022-06-12 23:00:00
1654992000000,"METAF SBGR 120000Z  32001KT 1000     BR BKN015   11/11 Q1014=
",SBGR,2022-06-12 00:00:00
1654995600000,"METAF SBGR 120100Z  16001KT 0800 FG     OVC024   12/11 Q1016=
",SBGR,2022-06-12 01:00:00
1654999200000,"METAF SBGR 120200Z  33003KT 0500 FG     OVC021   11/11 Q1016=
",SBGR,2022-06-12 02:00:00
1655002800000,"METAF SBGR 120300Z  24002KT 0450 FG     OVC026   11/11 Q1014=
",SBGR,2022-06-12 03:00:00
1655006400000,"METAF SBGR 120400Z  33004KT 0550 FG     OVC030   11/11 Q1014=
",SBGR,2022-06-12 04:00:00
1655010000000,"METAF SBGR 120500Z  30005KT 1000     BR BKN026   11/10 Q1015=
",SBGR,2022-06-12 05:00:00
1655013600000,"METAF SBGR 120600Z  27002KT 0700 FG     OVC018   12/11 Q1013=
",SBGR,2022-06-12 06:00:00
1655017200000,"METAF SBGR 120700Z  26002KT 1000     BR OVC018   12/11 Q1016=
",SBGR,2022-06-12 07:00:00
1655020800000,"METAF SBGR 120800Z  32003KT 1000     BR OVC019   12/11 Q1016=
",SBGR,2022-06-12 08:00:00
1655024400000,"METAF SBGR 120900Z  33005KT 1000     BR OVC017   11/11 Q1014=
",SBGR,2022-06-12 09:00:00
1655028000000,"METAF SBGR 121000Z  32006KT 1000     BR OVC019   12/11 Q1017=
",SBGR,2022-06-12 10:00:00
1655031600000,"METAF SBGR 121100Z  31006KT 1000     BR OVC033   12/11 Q1019=
",SBGR,2022-06-12 11:00:00
1655035200000,"METAF SBGR 121200Z  18003KT 6000       OVC011   13/10 Q1017=
",SBGR,2022-06-12 12:00:00
1655038800000,"METAF SBGR 121300Z  32002KT 9000       BKN016   14/10 Q1020=
",SBGR,2022-06-12 13:00:00
1655042400000,"METAF SBGR 121400Z  31006KT CAVOK 16/09 Q1019=
",SBGR,2022-06-12 14:00:00
1655046000000,"METAF SBGR 121500Z  30008KT CAVOK 17/07 Q1016=
",SBGR,2022-06-12 15:00:00
1655049600000,"METAF SBGR 121600Z  30007KT CAVOK 15/06 Q1017=
",SBGR,2022-06-12 16:00:00
1655053200000,"METAF SBGR 121700Z  29009KT CAVOK 16/04 Q1018=
",SBGR,2022-06-12 17:00:00
1655056800000,"METAF SBGR 121800Z  26006KT CAVOK 17/05 Q1015=
",SBGR,2022-06-12 18:00:00
1655060400000,"METAF SBGR 121900Z  28007KT CAVOK 16/05 Q1017=
",SBGR,2022-06-12 19:00:00
1655064000000,"METAF SBGR 122000Z  28007KT CAVOK 14/02 Q1017=
",SBGR,2022-06-12 20:00:00
1655067600000,"METAF SBGR 122100Z  29008KT CAVOK 13/00 Q1014=
",SBGR,2022-06-12 21:00:00
1655071200000,"METAF SBGR 122200Z  27006KT CAVOK 12/01 Q1018=
",SBGR,2022-06-12 22:00:00
1655074800000,"METAF SBGR 122300Z  27005KT CAVOK 12/02 Q1021=
",SBGR,2022-06-12 23:00:00
1654992000000,"METAF SBKP 120000Z  25003KT 9999       BKN033   16/12 Q1013=
",SBKP,2022-06-12 00:00:00
1654995600000,"METAF SBKP 120100Z  21004KT 8000       SCT031   16/12 Q1016=
",SBKP,2022-06-12 01:00:00
1654999200000,"METAF SBKP 120200Z  26003KT 6000       BKN031   15/12 Q1016=
",SBKP,2022-06-12 02:00:00
1655002800000,"METAF SBKP 120300Z  24006KT 6000       OVC033   15/12 Q1015=
",SBKP,2022-06-12 03:00:00
1655006400000,"METAF SBKP 120400Z  23003KT 7000       OVC033   14/11 Q1016=
",SBKP,2022-06-12 04:00:00
1655010000000,"METAF SBKP 120500Z  31003KT 9000       OVC033   14/10 Q1016=
",SBKP,2022-06-12 05:00:00
1655013600000,"METAF SBKP 120600Z  14002KT 2000     BR OVC018   14/13 Q1013=
",SBKP,2022-06-12 06:00:00
1655017200000,"METAF SBKP 120700Z  19003KT 1000     BR OVC018   14/12 Q1017=
",SBKP,2022-06-12 07:00:00
1655020800000,"METAF SBKP 120800Z  33001KT 1000     BR OVC017   13/12 Q1017=
",SBKP,2022-06-12 08:00:00
1655024400000,"METAF SBKP 120900Z  32002KT 1000     BR OVC015   13/12 Q1016=
",SBKP,2022-06-12 09:00:00
1655028000000,"METAF SBKP 121000Z  33004KT 1000     BR OVC018   13/12 Q1018=
",SBKP,2022-06-12 10:00:00
1655031600000,"METAF SBKP 121100Z  34004KT 1000     BR OVC033   13/12 Q1019=
",SBKP,2022-06-12 11:00:00
1655035200000,"METAF SBKP 121200Z  17002KT 4000     BR OVC033   14/12 Q1017=
",SBKP,2022-06-12 12:00:00
1655038800000,"METAF SBKP 121300Z  22004KT 7000       BKN012   15/12 Q1021=
",SBKP,2022-06-12 13:00:00
1655042400000,"METAF SBKP 121400Z  31004KT CAVOK 17/09 Q1020=
",SBKP,2022-06-12 14:00:00
1655046000000,"METAF SBKP 121500Z  29006KT CAVOK 18/06 Q1017=
",SBKP,2022-06-12 15:00:00
1655049600000,"METAF SBKP 121600Z  27007KT CAVOK 18/05 Q1018=
",SBKP,2022-06-12 16:00:00
1655053200000,"METAF SBKP 121700Z  27006KT CAVOK 17/05 Q1019=
",SBKP,2022-06-12 17:00:00
1655056800000,"METAF SBKP 121800Z  23007KT CAVOK 19/01 Q1014=
",SBKP,2022-06-12 18:00:00
1655060400000,"METAF SBKP 121900Z  24006KT CAVOK 19/M01 Q1017=
",SBKP,2022-06-12 19:00:00
1655064000000,"METAF SBKP 122000Z  24006KT CAVOK 18/00 Q1019=
",SBKP,2022-06-12 20:00:00
1655067600000,"METAF SBKP 122100Z  27006KT CAVOK 18/M01 Q1016=
",SBKP,2022-06-12 21:00:00
1655071200000,"METAF SBKP 122200Z  27004KT CAVOK 18/00 Q1018=
",SBKP,2022-06-12 22:00:00
1655074800000,"METAF SBKP 122300Z  22005KT CAVOK 17/00 Q1021=
",SBKP,2022-06-12 23:00:00
1654992000000,"METAF SBSP 120000Z  18005KT 1000     BR OVC025   14/13 Q1016=
",SBSP,2022-06-12 00:00:00
1654995600000,"METAF SBSP 120100Z  11001KT 2000     BR OVC030   14/13 Q1017=
",SBSP,2022-06-12 01:00:00
1654999200000,"METAF SBSP 120200Z  32003KT 2000     BR OVC028   14/13 Q1015=
",SBSP,2022-06-12 02:00:00
1655002800000,"METAF SBSP 120300Z  25002KT 2000     BR OVC028   13/12 Q1014=
",SBSP,2022-06-12 03:00:00
1655006400000,"METAF SBSP 120400Z  34007KT 3000     BR OVC031   14/12 Q1014=
",SBSP,2022-06-12 04:00:00
1655010000000,"METAF SBSP 120500Z  32006KT 4000     BR BKN033   14/12 Q1016=
",SBSP,2022-06-12 05:00:00
1655013600000,"METAF SBSP 120600Z  21004KT 2000     BR OVC033   13/12 Q1015=
",SBSP,2022-06-12 06:00:00
1655017200000,"METAF SBSP 120700Z  26002KT 2000     BR OVC033   13/12 Q1017=
",SBSP,2022-06-12 07:00:00
1655020800000,"METAF SBSP 120800Z  27003KT 2000     BR OVC033   13/11 Q1016=
",SBSP,2022-06-12 08:00:00
1655024400000,"METAF SBSP 120900Z  32006KT 3000     BR OVC033   13/11 Q1013=
",SBSP,2022-06-12 09:00:00
1655028000000,"METAF SBSP 121000Z  33005KT 4000     BR OVC033   13/11 Q1017=
",SBSP,2022-06-12 10:00:00
1655031600000,"METAF SBSP 121100Z  31004KT 4000     BR OVC033   14/11 Q1020=
",SBSP,2022-06-12 11:00:00
1655035200000,"METAF SBSP 121200Z  18005KT 3000     BR OVC033   12/11 Q1019=
",SBSP,2022-06-12 12:00:00
1655038800000,"METAF SBSP 121300Z  35003KT 8000       OVC013   14/10 Q1020=
",SBSP,2022-06-12 13:00:00
1655042400000,"METAF SBSP 121400Z  33006KT 9999       FEW026   15/09 Q1018=
",SBSP,2022-06-12 14:00:00
1655046000000,"METAF SBSP 121500Z  31007KT CAVOK 16/06 Q1016=
",SBSP,2022-06-12 15:00:00
1655049600000,"METAF SBSP 121600Z  29008KT CAVOK 17/04 Q1017=
",SBSP,2022-06-12 16:00:00
1655053200000,"METAF SBSP 121700Z  28008KT CAVOK 17/03 Q1018=
",SBSP,2022-06-12 17:00:00
1655056800000,"METAF SBSP 121800Z  24004KT CAVOK 18/04 Q1016=
",SBSP,2022-06-12 18:00:00
1655060400000,"METAF SBSP 121900Z  29007KT CAVOK 18/00 Q1017=
",SBSP,2022-06-12 19:00:00
1655064000000,"METAF SBSP 122000Z  29008KT CAVOK 18/00 Q1017=
",SBSP,2022-06-12 20:00:00
1655067600000,"METAF SBSP 122100Z  29010KT CAVOK 17/M02 Q1014=
",SBSP,2022-06-12 21:00:00
1655071200000,"METAF SBSP 122200Z  27007KT CAVOK 17/00 Q1019=
",SBSP,2022-06-12 22:00:00
1655074800000,"METAF SBSP 122300Z  27005KT CAVOK 16/01 Q1021=
",SBSP,2022-06-12 23:00:00
1655078400000,"METAF SBGL 130000Z  21008KT 9999       OVC033   20/13 Q1017=
",SBGL,2022-06-13 00:00:00
1655082000000,"METAF SBGL 130100Z  26003KT 9999       OVC033   20/13 Q1019=
",SBGL,2022-06-13 01:00:00
1655085600000,"METAF SBGL 130200Z  27005KT 9999       OVC033   20/13 Q1021=
",SBGL,2022-06-13 02:00:00
1655089200000,"METAF SBGL 130300Z  27006KT 9999       OVC033   19/13 Q1018=
",SBGL,2022-06-13 03:00:00
1655092800000,"METAF SBGL 130400Z  31006KT 9999       BKN033   19/13 Q1017=
",SBGL,2022-06-13 04:00:00
1655096400000,"METAF SBGL 130500Z  25006KT 9999       BKN033   19/13 Q1019=
",SBGL,2022-06-13 05:00:00
1655100000000,"METAF SBGL 130600Z  31008KT 9999       FEW032   18/12 Q1016=
",SBGL,2022-06-13 06:00:00
1655103600000,"METAF SBGL 130700Z  32010KT CAVOK 18/12 Q1020=
",SBGL,2022-06-13 07:00:00
1655107200000,"METAF SBGL 130800Z  30011KT CAVOK 18/12 Q1021=
",SBGL,2022-06-13 08:00:00
1655110800000,"METAF SBGL 130900Z  30010KT CAVOK 18/12 Q1018=
",SBGL,2022-06-13 09:00:00
1655114400000,"METAF SBGL 131000Z  29008KT CAVOK 18/11 Q1019=
",SBGL,2022-06-13 10:00:00
1655118000000,"METAF SBGL 131100Z  28006KT CAVOK 18/11 Q1022=
",SBGL,2022-06-13 11:00:00
1655121600000,"METAF SBGL 131200Z  29009KT 9999       SCT033   18/12 Q1018=
",SBGL,2022-06-13 12:00:00
1655125200000,"METAF SBGL 131300Z  28010KT CAVOK 19/12 Q1023=
",SBGL,2022-06-13 13:00:00
1655128800000,"METAF SBGL 131400Z  28009KT CAVOK 21/11 Q1023=
",SBGL,2022-06-13 14:00:00
1655132400000,"METAF SBGL 131500Z  27008KT CAVOK 22/11 Q1019=
",SBGL,2022-06-13 15:00:00
1655136000000,"METAF SBGL 131600Z  20007KT CAVOK 22/12 Q1020=
",SBGL,2022-06-13 16:00:00
1655139600000,"METAF SBGL 131700Z  20010KT CAVOK 21/13 Q1021=
",SBGL,2022-06-13 17:00:00
1655143200000,"METAF SBGL 131800Z  25008KT 9999       SCT033   21/12 Q1017=
",SBGL,2022-06-13 18:00:00
1655146800000,"METAF SBGL 131900Z  28008KT 9999       FEW033   21/12 Q1020=
",SBGL,2022-06-13 19:00:00
1655150400000,"METAF SBGL 132000Z  28008KT CAVOK 21/12 Q1022=
",SBGL,2022-06-13 20:00:00
1655154000000,"METAF SBGL 132100Z  25005KT CAVOK 20/12 Q1019=
",SBGL,2022-06-13 21:00:00
1655157600000,"METAF SBGL 132200Z  22004KT CAVOK 20/13 Q1022=
",SBGL,2022-06-13 22:00:00
1655161200000,"METAF SBGL 132300Z  25002KT 9999       BKN027   20/14 Q1024=
",SBGL,2022-06-13 23:00:00
1655078400000,"METAF SBGR 130000Z  16005KT 1000     BR OVC012   09/08 Q1017=
",SBGR,2022-06-13 00:00:00
1655082000000,"METAF SBGR 130100Z  18001KT 1000     BR BKN017   08/07 Q1019=
",SBGR,2022-06-13 01:00:00
1655085600000,"METAF SBGR 130200Z  19001KT 2000     BR SCT019   09/08 Q1019=
",SBGR,2022-06-13 02:00:00
1655089200000,"METAF SBGR 130300Z  31004KT 3000     BR SCT022   09/07 Q1015=
",SBGR,2022-06-13 03:00:00
1655092800000,"METAF SBGR 130400Z  26003KT 6000       FEW020   09/06 Q1018=
",SBGR,2022-06-13 04:00:00
1655096400000,"METAF SBGR 130500Z  28001KT CAVOK 09/06 Q1021=
",SBGR,2022-06-13 05:00:00
1655100000000,"METAF SBGR 130600Z  12003KT 3000     BR FEW021   06/04 Q1017=
",SBGR,2022-06-13 06:00:00
1655103600000,"METAF SBGR 130700Z 09005KT 4000     BR    06/04 Q1021=
",SBGR,2022-06-13 07:00:00
1655107200000,"METAF SBGR 130800Z 07003KT CAVOK 06/02 Q1020=
",SBGR,2022-06-13 08:00:00
1655110800000,"METAF SBGR 130900Z 04005KT CAVOK 05/00 Q1015=
",SBGR,2022-06-13 09:00:00
1655114400000,"METAF SBGR 131000Z 05005KT CAVOK 06/01 Q1020=
",SBGR,2022-06-13 10:00:00
1655118000000,"METAF SBGR 131100Z 01003KT CAVOK 09/02 Q1021=
",SBGR,2022-06-13 11:00:00
1655121600000,"METAF SBGR 131200Z  12006KT CAVOK 12/05 Q1020=
",SBGR,2022-06-13 12:00:00
1655125200000,"METAF SBGR 131300Z  12005KT CAVOK 14/06 Q1024=
",SBGR,2022-06-13 13:00:00
1655128800000,"METAF SBGR 131400Z 09004KT CAVOK 16/06 Q1023=
",SBGR,2022-06-13 14:00:00
1655132400000,"METAF SBGR 131500Z  10003KT CAVOK 17/06 Q1018=
",SBGR,2022-06-13 15:00:00
1655136000000,"METAF SBGR 131600Z 08002KT CAVOK 17/06 Q1021=
",SBGR,2022-06-13 16:00:00
1655139600000,"METAF SBGR 131700Z  17003KT CAVOK 15/06 Q1022=
",SBGR,2022-06-13 17:00:00
1655143200000,"METAF SBGR 131800Z  12005KT CAVOK 16/07 Q1017=
",SBGR,2022-06-13 18:00:00
1655146800000,"METAF SBGR 131900Z  11004KT CAVOK 17/06 Q1022=
",SBGR,2022-06-13 19:00:00
1655150400000,"METAF SBGR 132000Z 07003KT CAVOK 15/07 Q1022=
",SBGR,2022-06-13 20:00:00
1655154000000,"METAF SBGR 132100Z 01004KT CAVOK 010/04 Q1017=
",SBGR,2022-06-13 21:00:00
1655157600000,"METAF SBGR 132200Z  11003KT CAVOK 010/03 Q1022=
",SBGR,2022-06-13 22:00:00
1655161200000,"METAF SBGR 132300Z  14003KT CAVOK 010/03 Q1023=
",SBGR,2022-06-13 23:00:00
1655078400000,"METAF SBKP 130000Z  15004KT CAVOK 15/05 Q1016=
",SBKP,2022-06-13 00:00:00
1655082000000,"METAF SBKP 130100Z  11003KT CAVOK 14/05 Q1019=
",SBKP,2022-06-13 01:00:00
1655085600000,"METAF SBKP 130200Z  18001KT CAVOK 14/05 Q1020=
",SBKP,2022-06-13 02:00:00
1655089200000,"METAF SBKP 130300Z  32003KT CAVOK 14/05 Q1016=
",SBKP,2022-06-13 03:00:00
1655092800000,"METAF SBKP 130400Z  34003KT CAVOK 13/05 Q1018=
",SBKP,2022-06-13 04:00:00
1655096400000,"METAF SBKP 130500Z  15002KT CAVOK 13/05 Q1020=
",SBKP,2022-06-13 05:00:00
1655100000000,"METAF SBKP 130600Z  12008KT 6000       SCT019   11/08 Q1016=
",SBKP,2022-06-13 06:00:00
1655103600000,"METAF SBKP 130700Z  11008KT 8000       FEW020   11/07 Q1020=
",SBKP,2022-06-13 07:00:00
1655107200000,"METAF SBKP 130800Z  11009KT CAVOK 11/06 Q1021=
",SBKP,2022-06-13 08:00:00
1655110800000,"METAF SBKP 130900Z 08006KT CAVOK 010/05 Q1016=
",SBKP,2022-06-13 09:00:00
1655114400000,"METAF SBKP 131000Z  10005KT CAVOK 11/05 Q1020=
",SBKP,2022-06-13 10:00:00
1655118000000,"METAF SBKP 131100Z  11003KT CAVOK 11/06 Q1022=
",SBKP,2022-06-13 11:00:00
1655121600000,"METAF SBKP 131200Z  12009KT CAVOK 14/03 Q1019=
",SBKP,2022-06-13 12:00:00
1655125200000,"METAF SBKP 131300Z  11007KT CAVOK 16/04 Q1024=
",SBKP,2022-06-13 13:00:00
1655128800000,"METAF SBKP 131400Z  12004KT CAVOK 18/04 Q1024=
",SBKP,2022-06-13 14:00:00
1655132400000,"METAF SBKP 131500Z 06003KT CAVOK 19/04 Q1019=
",SBKP,2022-06-13 15:00:00
1655136000000,"METAF SBKP 131600Z  10003KT CAVOK 20/04 Q1021=
",SBKP,2022-06-13 16:00:00
1655139600000,"METAF SBKP 131700Z  19002KT CAVOK 20/04 Q1021=
",SBKP,2022-06-13 17:00:00
1655143200000,"METAF SBKP 131800Z  12008KT CAVOK 19/05 Q1016=
",SBKP,2022-06-13 18:00:00
1655146800000,"METAF SBKP 131900Z  13008KT CAVOK 19/05 Q1022=
",SBKP,2022-06-13 19:00:00
1655150400000,"METAF SBKP 132000Z  12007KT CAVOK 19/05 Q1022=
",SBKP,2022-06-13 20:00:00
1655154000000,"METAF SBKP 132100Z  10004KT CAVOK 17/05 Q1017=
",SBKP,2022-06-13 21:00:00
1655157600000,"METAF SBKP 132200Z  11004KT CAVOK 16/05 Q1020=
",SBKP,2022-06-13 22:00:00
1655161200000,"METAF SBKP 132300Z  13006KT CAVOK 16/05 Q1022=
",SBKP,2022-06-13 23:00:00
1655078400000,"METAF SBSP 130000Z  12002KT 3000     BR OVC033   11/09 Q1018=
",SBSP,2022-06-13 00:00:00
1655082000000,"METAF SBSP 130100Z  18001KT 3000     BR OVC033   11/09 Q1019=
",SBSP,2022-06-13 01:00:00
1655085600000,"METAF SBSP 130200Z  34002KT 4000     BR BKN021   11/09 Q1019=
",SBSP,2022-06-13 02:00:00
1655089200000,"METAF SBSP 130300Z  33005KT 5000     BR SCT021   11/09 Q1014=
",SBSP,2022-06-13 03:00:00
1655092800000,"METAF SBSP 130400Z  25001KT 6000       SCT021   12/09 Q1018=
",SBSP,2022-06-13 04:00:00
1655096400000,"METAF SBSP 130500Z  17003KT 6000       SCT019   11/08 Q1022=
",SBSP,2022-06-13 05:00:00
1655100000000,"METAF SBSP 130600Z  23000KT CAVOK 010/06 Q1018=
",SBSP,2022-06-13 06:00:00
1655103600000,"METAF SBSP 130700Z  11001KT CAVOK 010/06 Q1022=
",SBSP,2022-06-13 07:00:00
1655107200000,"METAF SBSP 130800Z  34003KT CAVOK 010/05 Q1019=
",SBSP,2022-06-13 08:00:00
1655110800000,"METAF SBSP 130900Z  32001KT CAVOK 09/05 Q1015=
",SBSP,2022-06-13 09:00:00
1655114400000,"METAF SBSP 131000Z 01003KT CAVOK 09/05 Q1020=
",SBSP,2022-06-13 10:00:00
1655118000000,"METAF SBSP 131100Z  30001KT CAVOK 010/05 Q1022=
",SBSP,2022-06-13 11:00:00
1655121600000,"METAF SBSP 131200Z  13002KT 9999       FEW024   12/06 Q1022=
",SBSP,2022-06-13 12:00:00
1655125200000,"METAF SBSP 131300Z 06002KT CAVOK 14/06 Q1024=
",SBSP,2022-06-13 13:00:00
1655128800000,"METAF SBSP 131400Z 03001KT CAVOK 16/06 Q1022=
",SBSP,2022-06-13 14:00:00
1655132400000,"METAF SBSP 131500Z 08001KT CAVOK 17/05 Q1018=
",SBSP,2022-06-13 15:00:00
1655136000000,"METAF SBSP 131600Z 01001KT CAVOK 18/05 Q1021=
",SBSP,2022-06-13 16:00:00
1655139600000,"METAF SBSP 131700Z  23001KT CAVOK 18/05 Q1022=
",SBSP,2022-06-13 17:00:00
1655143200000,"METAF SBSP 131800Z  16004KT CAVOK 16/07 Q1018=
",SBSP,2022-06-13 18:00:00
1655146800000,"METAF SBSP 131900Z  14004KT CAVOK 17/07 Q1022=
",SBSP,2022-06-13 19:00:00
1655150400000,"METAF SBSP 132000Z 03001KT CAVOK 17/07 Q1021=
",SBSP,2022-06-13 20:00:00
1655154000000,"METAF SBSP 132100Z  25002KT CAVOK 16/07 Q1016=
",SBSP,2022-06-13 21:00:00
1655157600000,"METAF SBSP 132200Z  17005KT CAVOK 15/08 Q1022=
",SBSP,2022-06-13 22:00:00
1655161200000,"METAF SBSP 132300Z  16004KT 8000       FEW022   13/09 Q1023=
",SBSP,2022-06-13 23:00:00
1655164800000,"METAF SBGL 140000Z  28004KT 8000       BKN021   19/15 Q1020=
",SBGL,2022-06-14 00:00:00
1655168400000,"METAF SBGL 140100Z  31006KT 9000       BKN020   19/14 Q1022=
",SBGL,2022-06-14 01:00:00
1655172000000,"METAF SBGL 140200Z  32008KT 9000       BKN021   19/14 Q1024=
",SBGL,2022-06-14 02:00:00
1655175600000,"METAF SBGL 140300Z  32008KT 8000       BKN020   18/14 Q1020=
",SBGL,2022-06-14 03:00:00
1655179200000,"METAF SBGL 140400Z  30004KT 7000       BKN018   18/14 Q1021=
",SBGL,2022-06-14 04:00:00
1655182800000,"METAF SBGL 140500Z  32006KT 7000       OVC018   18/14 Q1022=
",SBGL,2022-06-14 05:00:00
1655186400000,"METAF SBGL 140600Z  28008KT 7000       BKN033   17/13 Q1019=
",SBGL,2022-06-14 06:00:00
1655190000000,"METAF SBGL 140700Z  30008KT 8000       BKN033   17/13 Q1021=
",SBGL,2022-06-14 07:00:00
1655193600000,"METAF SBGL 140800Z  29008KT 9999       BKN030   18/13 Q1023=
",SBGL,2022-06-14 08:00:00
1655197200000,"METAF SBGL 140900Z  29008KT 9999       BKN028   17/13 Q1021=
",SBGL,2022-06-14 09:00:00
1655200800000,"METAF SBGL 141000Z  29007KT 9999       BKN028   17/13 Q1022=
",SBGL,2022-06-14 10:00:00
1655204400000,"METAF SBGL 141100Z  30008KT 9999       OVC028   18/13 Q1023=
",SBGL,2022-06-14 11:00:00
1655208000000,"METAF SBGL 141200Z  27007KT 9999       OVC026   18/12 Q1022=
",SBGL,2022-06-14 12:00:00
1655211600000,"METAF SBGL 141300Z  28004KT 9999       OVC028   20/13 Q1024=
",SBGL,2022-06-14 13:00:00
1655215200000,"METAF SBGL 141400Z  28004KT 9999       BKN033   21/13 Q1025=
",SBGL,2022-06-14 14:00:00
1655218800000,"METAF SBGL 141500Z  35003KT 9999       OVC033   21/14 Q1022=
",SBGL,2022-06-14 15:00:00
1655222400000,"METAF SBGL 141600Z  20002KT 9999       OVC029   21/14 Q1022=
",SBGL,2022-06-14 16:00:00
1655226000000,"METAF SBGL 141700Z  17006KT 9999       BKN024   21/16 Q1022=
",SBGL,2022-06-14 17:00:00
1655229600000,"METAF SBGL 141800Z  16005KT 9999       OVC026   21/15 Q1019=
",SBGL,2022-06-14 18:00:00
1655233200000,"METAF SBGL 141900Z  14006KT 9999       OVC026   21/15 Q1022=
",SBGL,2022-06-14 19:00:00
1655236800000,"METAF SBGL 142000Z  15005KT 9999       OVC026   21/15 Q1023=
",SBGL,2022-06-14 20:00:00
1655240400000,"METAF SBGL 142100Z  13005KT 9999       OVC023   21/15 Q1022=
",SBGL,2022-06-14 21:00:00
1655244000000,"METAF SBGL 142200Z 07006KT 9999       OVC021   20/16 Q1022=
",SBGL,2022-06-14 22:00:00
1655247600000,"METAF SBGL 142300Z 09005KT 9000       BKN019   20/16 Q1023=
",SBGL,2022-06-14 23:00:00
1655164800000,"METAF SBGR 140000Z  14006KT 0450 FG     OVC018   010/09 Q1018=
",SBGR,2022-06-14 00:00:00
1655168400000,"METAF SBGR 140100Z  11006KT 0600 FG     OVC029   11/10 Q1022=
",SBGR,2022-06-14 01:00:00
1655172000000,"METAF SBGR 140200Z  11003KT 0600 FG     OVC033   11/10 Q1022=
",SBGR,2022-06-14 02:00:00
1655175600000,"METAF SBGR 140300Z 06005KT 0600 FG     OVC033   010/10 Q1017=
",SBGR,2022-06-14 03:00:00
1655179200000,"METAF SBGR 140400Z  10005KT 0800 FG     OVC033   010/09 Q1020=
",SBGR,2022-06-14 04:00:00
1655182800000,"METAF SBGR 140500Z  11005KT 0700 FG     OVC033   010/09 Q1021=
",SBGR,2022-06-14 05:00:00
1655186400000,"METAF SBGR 140600Z 09006KT 0700 FG     OVC027   08/08 Q1019=
",SBGR,2022-06-14 06:00:00
1655190000000,"METAF SBGR 140700Z 09005KT 1000     BR OVC028   08/07 Q1022=
",SBGR,2022-06-14 07:00:00
1655193600000,"METAF SBGR 140800Z 09006KT 1000     BR BKN028   07/06 Q1021=
",SBGR,2022-06-14 08:00:00
1655197200000,"METAF SBGR 140900Z 08005KT 0750 FG     OVC028   06/05 Q1017=
",SBGR,2022-06-14 09:00:00
1655200800000,"METAF SBGR 141000Z  10005KT 1000     BR BKN028   06/06 Q1021=
",SBGR,2022-06-14 10:00:00
1655204400000,"METAF SBGR 141100Z 08005KT 3000     BR BKN028   09/07 Q1023=
",SBGR,2022-06-14 11:00:00
1655208000000,"METAF SBGR 141200Z  10006KT 5000     BR BKN027   11/09 Q1022=
",SBGR,2022-06-14 12:00:00
1655211600000,"METAF SBGR 141300Z  10007KT CAVOK 14/09 Q1025=
",SBGR,2022-06-14 13:00:00
1655215200000,"METAF SBGR 141400Z  10006KT CAVOK 16/08 Q1024=
",SBGR,2022-06-14 14:00:00
1655218800000,"METAF SBGR 141500Z 08006KT CAVOK 17/08 Q1020=
",SBGR,2022-06-14 15:00:00
1655222400000,"METAF SBGR 141600Z 06005KT CAVOK 19/08 Q1021=
",SBGR,2022-06-14 16:00:00
1655226000000,"METAF SBGR 141700Z 08003KT CAVOK 20/07 Q1021=
",SBGR,2022-06-14 17:00:00
1655229600000,"METAF SBGR 141800Z 08005KT CAVOK 18/07 Q1019=
",SBGR,2022-06-14 18:00:00
1655233200000,"METAF SBGR 141900Z 08005KT CAVOK 19/07 Q1022=
",SBGR,2022-06-14 19:00:00
1655236800000,"METAF SBGR 142000Z 07004KT CAVOK 17/08 Q1020=
",SBGR,2022-06-14 20:00:00
1655240400000,"METAF SBGR 142100Z 04006KT CAVOK 12/05 Q1018=
",SBGR,2022-06-14 21:00:00
1655244000000,"METAF SBGR 142200Z 03006KT CAVOK 11/05 Q1021=
",SBGR,2022-06-14 22:00:00
1655247600000,"METAF SBGR 142300Z 03006KT CAVOK 11/05 Q1020=
",SBGR,2022-06-14 23:00:00
1655164800000,"METAF SBKP 140000Z  12008KT CAVOK 14/07 Q1017=
",SBKP,2022-06-14 00:00:00
1655168400000,"METAF SBKP 140100Z  11010KT CAVOK 13/08 Q1021=
",SBKP,2022-06-14 01:00:00
1655172000000,"METAF SBKP 140200Z  11010KT 8000       FEW033   12/09 Q1022=
",SBKP,2022-06-14 02:00:00
1655175600000,"METAF SBKP 140300Z 09007KT 5000     BR SCT033   11/09 Q1016=
",SBKP,2022-06-14 03:00:00
1655179200000,"METAF SBKP 140400Z  11006KT 4000     BR SCT033   11/08 Q1019=
",SBKP,2022-06-14 04:00:00
1655182800000,"METAF SBKP 140500Z  11008KT 3000     BR BKN033   010/08 Q1020=
",SBKP,2022-06-14 05:00:00
1655186400000,"METAF SBKP 140600Z  11011KT 6000       FEW027   11/08 Q1018=
",SBKP,2022-06-14 06:00:00
1655190000000,"METAF SBKP 140700Z  11012KT CAVOK 11/07 Q1022=
",SBKP,2022-06-14 07:00:00
1655193600000,"METAF SBKP 140800Z  11010KT CAVOK 11/06 Q1020=
",SBKP,2022-06-14 08:00:00
1655197200000,"METAF SBKP 140900Z  10008KT CAVOK 11/05 Q1017=
",SBKP,2022-06-14 09:00:00
1655200800000,"METAF SBKP 141000Z  10008KT CAVOK 11/04 Q1020=
",SBKP,2022-06-14 10:00:00
1655204400000,"METAF SBKP 141100Z  11008KT CAVOK 12/04 Q1022=
",SBKP,2022-06-14 11:00:00
1655208000000,"METAF SBKP 141200Z  11011KT CAVOK 14/08 Q1021=
",SBKP,2022-06-14 12:00:00
1655211600000,"METAF SBKP 141300Z  10008KT CAVOK 17/07 Q1026=
",SBKP,2022-06-14 13:00:00
1655215200000,"METAF SBKP 141400Z 08006KT CAVOK 19/06 Q1024=
",SBKP,2022-06-14 14:00:00
1655218800000,"METAF SBKP 141500Z 06004KT CAVOK 21/05 Q1020=
",SBKP,2022-06-14 15:00:00
1655222400000,"METAF SBKP 141600Z 02004KT CAVOK 22/03 Q1021=
",SBKP,2022-06-14 16:00:00
1655226000000,"METAF SBKP 141700Z  36005KT CAVOK 23/00 Q1020=
",SBKP,2022-06-14 17:00:00
1655229600000,"METAF SBKP 141800Z  11006KT CAVOK 22/05 Q1018=
",SBKP,2022-06-14 18:00:00
1655233200000,"METAF SBKP 141900Z  10004KT CAVOK 22/06 Q1022=
",SBKP,2022-06-14 19:00:00
1655236800000,"METAF SBKP 142000Z 08004KT CAVOK 22/06 Q1021=
",SBKP,2022-06-14 20:00:00
1655240400000,"METAF SBKP 142100Z 04005KT CAVOK 20/04 Q1018=
",SBKP,2022-06-14 21:00:00
1655244000000,"METAF SBKP 142200Z 04005KT CAVOK 19/02 Q1021=
",SBKP,2022-06-14 22:00:00
1655247600000,"METAF SBKP 142300Z 03006KT CAVOK 17/02 Q1020=
",SBKP,2022-06-14 23:00:00
1655164800000,"METAF SBSP 140000Z  14005KT 1000     BR OVC020   12/11 Q1019=
",SBSP,2022-06-14 00:00:00
1655168400000,"METAF SBSP 140100Z  12005KT 2000     BR OVC033   12/11 Q1022=
",SBSP,2022-06-14 01:00:00
1655172000000,"METAF SBSP 140200Z 02001KT 1000     BR OVC028   12/11 Q1022=
",SBSP,2022-06-14 02:00:00
1655175600000,"METAF SBSP 140300Z 04004KT 1000     BR OVC032   11/10 Q1017=
",SBSP,2022-06-14 03:00:00
1655179200000,"METAF SBSP 140400Z  10004KT 2000     BR OVC028   11/10 Q1021=
",SBSP,2022-06-14 04:00:00
1655182800000,"METAF SBSP 140500Z 07004KT 1000     BR OVC025   11/10 Q1022=
",SBSP,2022-06-14 05:00:00
1655186400000,"METAF SBSP 140600Z 05004KT 2000     BR OVC027   010/09 Q1020=
",SBSP,2022-06-14 06:00:00
1655190000000,"METAF SBSP 140700Z 05003KT 2000     BR OVC028   010/09 Q1022=
",SBSP,2022-06-14 07:00:00
1655193600000,"METAF SBSP 140800Z 07003KT 1000     BR OVC028   09/08 Q1022=
",SBSP,2022-06-14 08:00:00
1655197200000,"METAF SBSP 140900Z 05004KT 1000     BR OVC028   09/08 Q1016=
",SBSP,2022-06-14 09:00:00
1655200800000,"METAF SBSP 141000Z 09004KT 1000     BR OVC028   08/08 Q1022=
",SBSP,2022-06-14 10:00:00
1655204400000,"METAF SBSP 141100Z 04003KT 4000     BR BKN028   09/07 Q1023=
",SBSP,2022-06-14 11:00:00
1655208000000,"METAF SBSP 141200Z 04004KT 5000     BR BKN031   11/08 Q1023=
",SBSP,2022-06-14 12:00:00
1655211600000,"METAF SBSP 141300Z 05003KT 9999       FEW033   14/08 Q1025=
",SBSP,2022-06-14 13:00:00
1655215200000,"METAF SBSP 141400Z 07003KT CAVOK 16/08 Q1024=
",SBSP,2022-06-14 14:00:00
1655218800000,"METAF SBSP 141500Z 04005KT CAVOK 17/08 Q1019=
",SBSP,2022-06-14 15:00:00
1655222400000,"METAF SBSP 141600Z 03004KT CAVOK 19/07 Q1021=
",SBSP,2022-06-14 16:00:00
1655226000000,"METAF SBSP 141700Z 09004KT CAVOK 20/08 Q1022=
",SBSP,2022-06-14 17:00:00
1655229600000,"METAF SBSP 141800Z  13004KT 9999       BKN022   18/12 Q1019=
",SBSP,2022-06-14 18:00:00
1655233200000,"METAF SBSP 141900Z  12004KT 9999       FEW028   18/11 Q1022=
",SBSP,2022-06-14 19:00:00
1655236800000,"METAF SBSP 142000Z 07004KT CAVOK 19/10 Q1020=
",SBSP,2022-06-14 20:00:00
1655240400000,"METAF SBSP 142100Z 05002KT CAVOK 18/09 Q1017=
",SBSP,2022-06-14 21:00:00
1655244000000,"METAF SBSP 142200Z 01004KT CAVOK 17/08 Q1021=
",SBSP,2022-06-14 22:00:00
1655247600000,"METAF SBSP 142300Z 03003KT CAVOK 16/07 Q1021=
",SBSP,2022-06-14 23:00:00
1655251200000,"METAF SBGL 150000Z 06005KT 5000     BR OVC015   19/16 Q1022=
",SBGL,2022-06-15 00:00:00
1655254800000,"METAF SBGL 150100Z 07006KT 5000     BR OVC015   19/16 Q1022=
",SBGL,2022-06-15 01:00:00
1655258400000,"METAF SBGL 150200Z 08005KT 5000     BR BKN016   19/16 Q1023=
",SBGL,2022-06-15 02:00:00
1655262000000,"METAF SBGL 150300Z 06006KT 5000     BR OVC016   19/16 Q1022=
",SBGL,2022-06-15 03:00:00
1655265600000,"METAF SBGL 150400Z 08007KT 6000       SCT018   19/16 Q1022=
",SBGL,2022-06-15 04:00:00
1655269200000,"METAF SBGL 150500Z 07005KT 7000       SCT019   19/15 Q1021=
",SBGL,2022-06-15 05:00:00
1655272800000,"METAF SBGL 150600Z  32004KT 2000     BR OVC033   17/16 Q1020=
",SBGL,2022-06-15 06:00:00
1655276400000,"METAF SBGL 150700Z  33003KT 3000     BR BKN033   17/16 Q1022=
",SBGL,2022-06-15 07:00:00
1655280000000,"METAF SBGL 150800Z  35001KT 3000     BR BKN033   17/16 Q1022=
",SBGL,2022-06-15 08:00:00
1655283600000,"METAF SBGL 150900Z  35002KT 3000     BR BKN012   17/15 Q1021=
",SBGL,2022-06-15 09:00:00
1655287200000,"METAF SBGL 151000Z 01002KT 2000     BR BKN010   17/16 Q1023=
",SBGL,2022-06-15 10:00:00
1655290800000,"METAF SBGL 151100Z  34003KT 3000     BR SCT011   17/16 Q1022=
",SBGL,2022-06-15 11:00:00
1655294400000,"METAF SBGL 151200Z  32002KT 5000     BR BKN011   18/15 Q1021=
",SBGL,2022-06-15 12:00:00
1655298000000,"METAF SBGL 151300Z 05004KT 7000       SCT016   18/15 Q1023=
",SBGL,2022-06-15 13:00:00
1655301600000,"METAF SBGL 151400Z  36001KT 9999       FEW021   19/15 Q1024=
",SBGL,2022-06-15 14:00:00
1655305200000,"METAF SBGL 151500Z  11000KT CAVOK 20/14 Q1021=
",SBGL,2022-06-15 15:00:00
1655308800000,"METAF SBGL 151600Z 09000KT CAVOK 21/14 Q1021=
",SBGL,2022-06-15 16:00:00
1655312400000,"METAF SBGL 151700Z  12002KT CAVOK 22/13 Q1020=
",SBGL,2022-06-15 17:00:00
1655316000000,"METAF SBGL 151800Z  14003KT CAVOK 22/15 Q1019=
",SBGL,2022-06-15 18:00:00
1655319600000,"METAF SBGL 151900Z  15008KT CAVOK 22/16 Q1020=
",SBGL,2022-06-15 19:00:00
1655323200000,"METAF SBGL 152000Z  13009KT CAVOK 22/15 Q1020=
",SBGL,2022-06-15 20:00:00
1655326800000,"METAF SBGL 152100Z  12008KT 9999       FEW033   21/15 Q1020=
",SBGL,2022-06-15 21:00:00
1655330400000,"METAF SBGL 152200Z  12008KT 9999       SCT033   21/15 Q1021=
",SBGL,2022-06-15 22:00:00
1655334000000,"METAF SBGL 152300Z  10007KT CAVOK 20/15 Q1021=
",SBGL,2022-06-15 23:00:00
1655251200000,"METAF SBGR 150000Z  12005KT 1000     BR OVC024   13/12 Q1019=
",SBGR,2022-06-15 00:00:00
1655254800000,"METAF SBGR 150100Z 07003KT 1000     BR OVC033   13/12 Q1023=
",SBGR,2022-06-15 01:00:00
1655258400000,"METAF SBGR 150200Z 08007KT 1000     BR OVC033   12/11 Q1020=
",SBGR,2022-06-15 02:00:00
1655262000000,"METAF SBGR 150300Z 05005KT 1000     BR OVC033   11/10 Q1018=
",SBGR,2022-06-15 03:00:00
1655265600000,"METAF SBGR 150400Z 09004KT 1000     BR OVC013   010/09 Q1022=
",SBGR,2022-06-15 04:00:00
1655269200000,"METAF SBGR 150500Z 02005KT 4000     BR SCT033   08/06 Q1020=
",SBGR,2022-06-15 05:00:00
1655272800000,"METAF SBGR 150600Z  11005KT 0650 FG     OVC023   11/10 Q1017=
",SBGR,2022-06-15 06:00:00
1655276400000,"METAF SBGR 150700Z  10005KT 0750 FG     OVC012   11/10 Q1022=
",SBGR,2022-06-15 07:00:00
1655280000000,"METAF SBGR 150800Z 09004KT 0700 FG     OVC013   010/09 Q1020=
",SBGR,2022-06-15 08:00:00
1655283600000,"METAF SBGR 150900Z 02005KT 1000     BR OVC011   09/08 Q1017=
",SBGR,2022-06-15 09:00:00
1655287200000,"METAF SBGR 151000Z 02004KT CAVOK 08/05 Q1022=
",SBGR,2022-06-15 10:00:00
1655290800000,"METAF SBGR 151100Z  34003KT CAVOK 13/06 Q1020=
",SBGR,2022-06-15 11:00:00
1655294400000,"METAF SBGR 151200Z  11003KT 5000     BR BKN011   12/09 Q1019=
",SBGR,2022-06-15 12:00:00
1655298000000,"METAF SBGR 151300Z  11003KT CAVOK 15/09 Q1023=
",SBGR,2022-06-15 13:00:00
1655301600000,"METAF SBGR 151400Z  28002KT CAVOK 19/09 Q1022=
",SBGR,2022-06-15 14:00:00
1655305200000,"METAF SBGR 151500Z  31005KT CAVOK 21/08 Q1019=
",SBGR,2022-06-15 15:00:00
1655308800000,"METAF SBGR 151600Z  29005KT CAVOK 22/07 Q1022=
",SBGR,2022-06-15 16:00:00
1655312400000,"METAF SBGR 151700Z  29006KT CAVOK 21/08 Q1019=
",SBGR,2022-06-15 17:00:00
1655316000000,"METAF SBGR 151800Z  29004KT CAVOK 21/09 Q1018=
",SBGR,2022-06-15 18:00:00
1655319600000,"METAF SBGR 151900Z  28004KT CAVOK 19/09 Q1019=
",SBGR,2022-06-15 19:00:00
1655323200000,"METAF SBGR 152000Z  16001KT CAVOK 18/08 Q1018=
",SBGR,2022-06-15 20:00:00
1655326800000,"METAF SBGR 152100Z  12002KT CAVOK 17/08 Q1018=
",SBGR,2022-06-15 21:00:00
1655330400000,"METAF SBGR 152200Z  13003KT CAVOK 15/07 Q1020=
",SBGR,2022-06-15 22:00:00
1655334000000,"METAF SBGR 152300Z  11005KT CAVOK 14/09 Q1019=
",SBGR,2022-06-15 23:00:00
1655251200000,"METAF SBKP 150000Z  11011KT 9000       FEW033   15/11 Q1019=
",SBKP,2022-06-15 00:00:00
1655254800000,"METAF SBKP 150100Z  11009KT 4000     BR BKN027   14/12 Q1023=
",SBKP,2022-06-15 01:00:00
1655258400000,"METAF SBKP 150200Z  10008KT 3000     BR BKN019   13/11 Q1020=
",SBKP,2022-06-15 02:00:00
1655262000000,"METAF SBKP 150300Z 08006KT 4000     BR SCT033   12/10 Q1018=
",SBKP,2022-06-15 03:00:00
1655265600000,"METAF SBKP 150400Z 08006KT CAVOK 13/08 Q1021=
",SBKP,2022-06-15 04:00:00
1655269200000,"METAF SBKP 150500Z 08006KT CAVOK 13/07 Q1020=
",SBKP,2022-06-15 05:00:00
1655272800000,"METAF SBKP 150600Z  10008KT CAVOK 13/09 Q1017=
",SBKP,2022-06-15 06:00:00
1655276400000,"METAF SBKP 150700Z  11007KT CAVOK 13/08 Q1022=
",SBKP,2022-06-15 07:00:00
1655280000000,"METAF SBKP 150800Z  10006KT CAVOK 12/08 Q1020=
",SBKP,2022-06-15 08:00:00
1655283600000,"METAF SBKP 150900Z 07007KT CAVOK 12/07 Q1018=
",SBKP,2022-06-15 09:00:00
1655287200000,"METAF SBKP 151000Z 07004KT CAVOK 12/06 Q1022=
",SBKP,2022-06-15 10:00:00
1655290800000,"METAF SBKP 151100Z 03002KT CAVOK 14/05 Q1021=
",SBKP,2022-06-15 11:00:00
1655294400000,"METAF SBKP 151200Z  12003KT CAVOK 15/06 Q1019=
",SBKP,2022-06-15 12:00:00
1655298000000,"METAF SBKP 151300Z  24001KT CAVOK 18/06 Q1024=
",SBKP,2022-06-15 13:00:00
1655301600000,"METAF SBKP 151400Z  30002KT CAVOK 19/06 Q1022=
",SBKP,2022-06-15 14:00:00
1655305200000,"METAF SBKP 151500Z  33004KT CAVOK 21/05 Q1020=
",SBKP,2022-06-15 15:00:00
1655308800000,"METAF SBKP 151600Z  29004KT CAVOK 23/05 Q1022=
",SBKP,2022-06-15 16:00:00
1655312400000,"METAF SBKP 151700Z  27004KT CAVOK 23/06 Q1019=
",SBKP,2022-06-15 17:00:00
1655316000000,"METAF SBKP 151800Z  23002KT CAVOK 23/07 Q1018=
",SBKP,2022-06-15 18:00:00
1655319600000,"METAF SBKP 151900Z  12003KT CAVOK 23/07 Q1018=
",SBKP,2022-06-15 19:00:00
1655323200000,"METAF SBKP 152000Z  18001KT CAVOK 23/07 Q1018=
",SBKP,2022-06-15 20:00:00
1655326800000,"METAF SBKP 152100Z  16002KT CAVOK 21/07 Q1017=
",SBKP,2022-06-15 21:00:00
1655330400000,"METAF SBKP 152200Z  15004KT CAVOK 20/08 Q1019=
",SBKP,2022-06-15 22:00:00
1655334000000,"METAF SBKP 152300Z  13005KT CAVOK 19/08 Q1019=
",SBKP,2022-06-15 23:00:00
1655251200000,"METAF SBSP 150000Z  13004KT 2000     BR OVC033   14/13 Q1020=
",SBSP,2022-06-15 00:00:00
1655254800000,"METAF SBSP 150100Z 06002KT 2000     BR OVC033   14/12 Q1022=
",SBSP,2022-06-15 01:00:00
1655258400000,"METAF SBSP 150200Z 06005KT 1000     BR OVC028   13/12 Q1021=
",SBSP,2022-06-15 02:00:00
1655262000000,"METAF SBSP 150300Z 02004KT 1000     BR OVC033   13/12 Q1018=
",SBSP,2022-06-15 03:00:00
1655265600000,"METAF SBSP 150400Z 04005KT 1000     BR OVC033   13/12 Q1021=
",SBSP,2022-06-15 04:00:00
1655269200000,"METAF SBSP 150500Z  36005KT 2000     BR OVC033   12/11 Q1020=
",SBSP,2022-06-15 05:00:00
1655272800000,"METAF SBSP 150600Z 06003KT 1000     BR OVC033   12/11 Q1018=
",SBSP,2022-06-15 06:00:00
1655276400000,"METAF SBSP 150700Z 06003KT 2000     BR OVC033   12/11 Q1022=
",SBSP,2022-06-15 07:00:00
1655280000000,"METAF SBSP 150800Z 01004KT 2000     BR OVC033   12/10 Q1020=
",SBSP,2022-06-15 08:00:00
1655283600000,"METAF SBSP 150900Z 01007KT 2000     BR OVC012   11/10 Q1018=
",SBSP,2022-06-15 09:00:00
1655287200000,"METAF SBSP 151000Z 02004KT 3000     BR BKN010   11/09 Q1022=
",SBSP,2022-06-15 10:00:00
1655290800000,"METAF SBSP 151100Z  36005KT 6000       SCT010   12/09 Q1021=
",SBSP,2022-06-15 11:00:00
1655294400000,"METAF SBSP 151200Z 03003KT 5000     BR BKN014   12/09 Q1019=
",SBSP,2022-06-15 12:00:00
1655298000000,"METAF SBSP 151300Z 03004KT CAVOK 14/09 Q1022=
",SBSP,2022-06-15 13:00:00
1655301600000,"METAF SBSP 151400Z  34003KT CAVOK 17/08 Q1022=
",SBSP,2022-06-15 14:00:00
1655305200000,"METAF SBSP 151500Z  34005KT CAVOK 19/06 Q1019=
",SBSP,2022-06-15 15:00:00
1655308800000,"METAF SBSP 151600Z  30003KT CAVOK 21/05 Q1021=
",SBSP,2022-06-15 16:00:00
1655312400000,"METAF SBSP 151700Z  29005KT CAVOK 21/06 Q1019=
",SBSP,2022-06-15 17:00:00
1655316000000,"METAF SBSP 151800Z  31005KT CAVOK 22/06 Q1018=
",SBSP,2022-06-15 18:00:00
1655319600000,"METAF SBSP 151900Z  30004KT CAVOK 22/06 Q1019=
",SBSP,2022-06-15 19:00:00
1655323200000,"METAF SBSP 152000Z  14003KT CAVOK 20/07 Q1018=
",SBSP,2022-06-15 20:00:00
1655326800000,"METAF SBSP 152100Z  13006KT CAVOK 17/11 Q1018=
",SBSP,2022-06-15 21:00:00
1655330400000,"METAF SBSP 152200Z  13004KT 5000     BR SCT033   15/12 Q1020=
",SBSP,2022-06-15 22:00:00
1655334000000,"METAF SBSP 152300Z  11003KT 6000       SCT033   15/12 Q1019=
",SBSP,2022-06-15 23:00:00
1655337600000,"METAF SBGL 160000Z 09006KT CAVOK 20/15 Q1021=
",SBGL,2022-06-16 00:00:00
1655341200000,"METAF SBGL 160100Z 07006KT CAVOK 19/15 Q1021=
",SBGL,2022-06-16 01:00:00
1655337600000,"METAF SBGR 160000Z 08004KT CAVOK 13/09 Q1020=
",SBGR,2022-06-16 00:00:00
1655341200000,"METAF SBGR 160100Z 06005KT CAVOK 12/09 Q1020=
",SBGR,2022-06-16 01:00:00
1655337600000,"METAF SBKP 160000Z  12005KT CAVOK 19/07 Q1019=
",SBKP,2022-06-16 00:00:00
1655341200000,"METAF SBKP 160100Z  11006KT CAVOK 18/07 Q1020=
",SBKP,2022-06-16 01:00:00
1655337600000,"METAF SBSP 160000Z 07002KT 6000       FEW033   15/12 Q1020=
",SBSP,2022-06-16 00:00:00
1655341200000,"METAF SBSP 160100Z  35002KT 6000       FEW033   15/12 Q1020=
",SBSP,2022-06-16 01:00:00
1655532000000,"METAF SBGL 180600Z  25005KT CAVOK 21/13 Q1009=
",SBGL,2022-06-18 06:00:00
1655535600000,"METAF SBGL 180700Z  26002KT CAVOK 21/13 Q1009=
",SBGL,2022-06-18 07:00:00
1655539200000,"METAF SBGL 180800Z 07001KT CAVOK 22/13 Q1011=
",SBGL,2022-06-18 08:00:00
1655542800000,"METAF SBGL 180900Z  27003KT CAVOK 22/14 Q1011=
",SBGL,2022-06-18 09:00:00
1655546400000,"METAF SBGL 181000Z  25007KT CAVOK 22/13 Q1012=
",SBGL,2022-06-18 10:00:00
1655550000000,"METAF SBGL 181100Z  29006KT CAVOK 23/13 Q1014=
",SBGL,2022-06-18 11:00:00
1655553600000,"METAF SBGL 181200Z  28007KT CAVOK 23/14 Q1013=
",SBGL,2022-06-18 12:00:00
1655557200000,"METAF SBGL 181300Z  25004KT CAVOK 24/15 Q1015=
",SBGL,2022-06-18 13:00:00
1655560800000,"METAF SBGL 181400Z  21005KT CAVOK 24/17 Q1017=
",SBGL,2022-06-18 14:00:00
1655564400000,"METAF SBGL 181500Z  17006KT 9999       FEW033   24/18 Q1016=
",SBGL,2022-06-18 15:00:00
1655568000000,"METAF SBGL 181600Z  17008KT 9999       FEW032   24/18 Q1014=
",SBGL,2022-06-18 16:00:00
1655571600000,"METAF SBGL 181700Z  17009KT 9999       FEW030   24/19 Q1016=
",SBGL,2022-06-18 17:00:00
1655575200000,"METAF SBGL 181800Z  22012KT 9999       OVC025   24/19 Q1012=
",SBGL,2022-06-18 18:00:00
1655578800000,"METAF SBGL 181900Z  19010KT 6000       OVC016   23/20 Q1017=
",SBGL,2022-06-18 19:00:00
1655582400000,"METAF SBGL 182000Z  17010KT 5000     BR OVC013   22/19 Q1019=
",SBGL,2022-06-18 20:00:00
1655586000000,"METAF SBGL 182100Z  17007KT 5000     BR OVC013   22/19 Q1018=
",SBGL,2022-06-18 21:00:00
1655589600000,"METAF SBGL 182200Z  16007KT 5000     BR OVC013   22/19 Q1018=
",SBGL,2022-06-18 22:00:00
1655593200000,"METAF SBGL 182300Z  15006KT 5000     BR OVC013   22/19 Q1020=
",SBGL,2022-06-18 23:00:00
1655532000000,"METAF SBGR 180600Z  30015KT 9000       SCT033   16/12 Q1013=
",SBGR,2022-06-18 06:00:00
1655535600000,"METAF SBGR 180700Z  31014KT 6000       SCT025   17/13 Q1011=
",SBGR,2022-06-18 07:00:00
1655539200000,"METAF SBGR 180800Z  30013KT 3000     BR BKN010   16/14 Q1013=
",SBGR,2022-06-18 08:00:00
1655542800000,"METAF SBGR 180900Z  31015KT 3000     BR BKN024   16/14 Q1012=
",SBGR,2022-06-18 09:00:00
1655546400000,"METAF SBGR 181000Z  31012KT 2000     BR OVC021   15/14 Q1013=
",SBGR,2022-06-18 10:00:00
1655550000000,"METAF SBGR 181100Z  30009KT 3000     BR OVC013   16/15 Q1016=
",SBGR,2022-06-18 11:00:00
1655553600000,"METAF SBGR 181200Z  30006KT 6000       OVC030   17/14 Q1015=
",SBGR,2022-06-18 12:00:00
1655557200000,"METAF SBGR 181300Z  30005KT 5000     BR OVC023   17/14 Q1017=
",SBGR,2022-06-18 13:00:00
1655560800000,"METAF SBGR 181400Z  29005KT 4000     BR OVC030   16/14 Q1018=
",SBGR,2022-06-18 14:00:00
1655564400000,"METAF SBGR 181500Z  31008KT 6000       OVC023   18/14 Q1016=
",SBGR,2022-06-18 15:00:00
1655568000000,"METAF SBGR 181600Z  30008KT 7000       OVC014   18/15 Q1017=
",SBGR,2022-06-18 16:00:00
1655571600000,"METAF SBGR 181700Z  30004KT 6000       OVC014   18/15 Q1018=
",SBGR,2022-06-18 17:00:00
1655575200000,"METAF SBGR 181800Z  13006KT 3000     BR OVC022   16/14 Q1014=
",SBGR,2022-06-18 18:00:00
1655578800000,"METAF SBGR 181900Z  13006KT 3000     BR OVC024   16/14 Q1018=
",SBGR,2022-06-18 19:00:00
1655582400000,"METAF SBGR 182000Z  11002KT 2000    RABR OVC029   16/14 Q1018=
",SBGR,2022-06-18 20:00:00
1655586000000,"METAF SBGR 182100Z  10003KT 1000    RABR OVC024   14/13 Q1016=
",SBGR,2022-06-18 21:00:00
1655589600000,"METAF SBGR 182200Z  12005KT 1000     BR OVC023   15/14 Q1019=
",SBGR,2022-06-18 22:00:00
1655593200000,"METAF SBGR 182300Z  11006KT 1000     BR OVC024   15/14 Q1020=
",SBGR,2022-06-18 23:00:00
1655532000000,"METAF SBKP 180600Z  31009KT 6000       SCT030   17/14 Q1014=
",SBKP,2022-06-18 06:00:00
1655535600000,"METAF SBKP 180700Z  35008KT 5000     BR BKN026   17/14 Q1012=
",SBKP,2022-06-18 07:00:00
1655539200000,"METAF SBKP 180800Z  34006KT 6000       SCT027   17/14 Q1015=
",SBKP,2022-06-18 08:00:00
1655542800000,"METAF SBKP 180900Z  35006KT 4000     BR BKN022   17/14 Q1013=
",SBKP,2022-06-18 09:00:00
1655546400000,"METAF SBKP 181000Z  34006KT 3000     BR OVC016   17/15 Q1014=
",SBKP,2022-06-18 10:00:00
1655550000000,"METAF SBKP 181100Z  34006KT 5000     BR OVC033   17/14 Q1016=
",SBKP,2022-06-18 11:00:00
1655553600000,"METAF SBKP 181200Z  35005KT 9999       OVC030   19/10 Q1015=
",SBKP,2022-06-18 12:00:00
1655557200000,"METAF SBKP 181300Z  35006KT 9999       OVC033   19/11 Q1017=
",SBKP,2022-06-18 13:00:00
1655560800000,"METAF SBKP 181400Z  34006KT 9999       OVC033   19/12 Q1019=
",SBKP,2022-06-18 14:00:00
1655564400000,"METAF SBKP 181500Z  32007KT 9999       OVC024   20/13 Q1017=
",SBKP,2022-06-18 15:00:00
1655568000000,"METAF SBKP 181600Z  31005KT 9999       OVC024   20/14 Q1017=
",SBKP,2022-06-18 16:00:00
1655571600000,"METAF SBKP 181700Z  30006KT 9999       OVC017   20/16 Q1017=
",SBKP,2022-06-18 17:00:00
1655575200000,"METAF SBKP 181800Z  36005KT 6000    RA  OVC012   19/16 Q1013=
",SBKP,2022-06-18 18:00:00
1655578800000,"METAF SBKP 181900Z  31003KT 7000    RA  OVC014   20/16 Q1017=
",SBKP,2022-06-18 19:00:00
1655582400000,"METAF SBKP 182000Z  26004KT 9000       BKN017   20/16 Q1019=
",SBKP,2022-06-18 20:00:00
1655586000000,"METAF SBKP 182100Z  31004KT 7000       BKN016   19/16 Q1016=
",SBKP,2022-06-18 21:00:00
1655589600000,"METAF SBKP 182200Z  33002KT 5000     BR BKN015   19/16 Q1018=
",SBKP,2022-06-18 22:00:00
1655593200000,"METAF SBKP 182300Z 02003KT 3000     BR BKN015   18/16 Q1019=
",SBKP,2022-06-18 23:00:00
1655532000000,"METAF SBSP 180600Z  30014KT 9999       SCT033   18/12 Q1013=
",SBSP,2022-06-18 06:00:00
1655535600000,"METAF SBSP 180700Z  32013KT 9999       SCT033   18/13 Q1010=
",SBSP,2022-06-18 07:00:00
1655539200000,"METAF SBSP 180800Z  29011KT 9000       BKN027   18/13 Q1013=
",SBSP,2022-06-18 08:00:00
1655542800000,"METAF SBSP 180900Z  30010KT 7000       BKN022   18/14 Q1012=
",SBSP,2022-06-18 09:00:00
1655546400000,"METAF SBSP 181000Z  30010KT 5000     BR OVC022   17/14 Q1014=
",SBSP,2022-06-18 10:00:00
1655550000000,"METAF SBSP 181100Z  30009KT 5000     BR OVC018   17/15 Q1016=
",SBSP,2022-06-18 11:00:00
1655553600000,"METAF SBSP 181200Z  29003KT 4000    RABR OVC033   17/14 Q1016=
",SBSP,2022-06-18 12:00:00
1655557200000,"METAF SBSP 181300Z  29004KT 6000       OVC024   18/14 Q1017=
",SBSP,2022-06-18 13:00:00
1655560800000,"METAF SBSP 181400Z  28002KT 6000       OVC029   18/15 Q1018=
",SBSP,2022-06-18 14:00:00
1655564400000,"METAF SBSP 181500Z  20002KT 4000  - RABR OVC033   17/15 Q1016=
",SBSP,2022-06-18 15:00:00
1655568000000,"METAF SBSP 181600Z  15006KT 3000  - RABR OVC033   16/14 Q1017=
",SBSP,2022-06-18 16:00:00
1655571600000,"METAF SBSP 181700Z  15008KT 5000    RABR OVC033   16/14 Q1019=
",SBSP,2022-06-18 17:00:00
1655575200000,"METAF SBSP 181800Z  13005KT 3000     BR OVC029   15/13 Q1015=
",SBSP,2022-06-18 18:00:00
1655578800000,"METAF SBSP 181900Z  14007KT 4000     BR OVC031   16/13 Q1018=
",SBSP,2022-06-18 19:00:00
1655582400000,"METAF SBSP 182000Z  14006KT 3000     BR OVC032   15/13 Q1018=
",SBSP,2022-06-18 20:00:00
1655586000000,"METAF SBSP 182100Z  11004KT 2000     BR OVC029   15/14 Q1016=
",SBSP,2022-06-18 21:00:00
1655589600000,"METAF SBSP 182200Z  13007KT 1000     BR OVC029   15/14 Q1019=
",SBSP,2022-06-18 22:00:00
1655593200000,"METAF SBSP 182300Z  12007KT 1000     BR OVC029   14/13 Q1021=
",SBSP,2022-06-18 23:00:00
1655596800000,"METAF SBGL 190000Z  17004KT 3000     BR OVC010   21/19 Q1016=
",SBGL,2022-06-19 00:00:00
1655600400000,"METAF SBGL 190100Z  14006KT 4000     BR OVC011   21/19 Q1020=
",SBGL,2022-06-19 01:00:00
1655604000000,"METAF SBGL 190200Z  13004KT 4000     BR OVC011   21/19 Q1021=
",SBGL,2022-06-19 02:00:00
1655607600000,"METAF SBGL 190300Z  10003KT 3000     BR OVC033   21/19 Q1019=
",SBGL,2022-06-19 03:00:00
1655611200000,"METAF SBGL 190400Z 08004KT 2000     BR OVC033   21/19 Q1019=
",SBGL,2022-06-19 04:00:00
1655614800000,"METAF SBGL 190500Z  12004KT 2000     BR OVC033   21/19 Q1020=
",SBGL,2022-06-19 05:00:00
1655618400000,"METAF SBGL 190600Z  11006KT 3000     BR OVC033   21/19 Q1019=
",SBGL,2022-06-19 06:00:00
1655622000000,"METAF SBGL 190700Z 09005KT 2000    RABR OVC033   20/19 Q1019=
",SBGL,2022-06-19 07:00:00
1655625600000,"METAF SBGL 190800Z 08005KT 2000    RABR OVC033   20/19 Q1020=
",SBGL,2022-06-19 08:00:00
1655629200000,"METAF SBGL 190900Z 05005KT 2000     BR OVC033   20/19 Q1019=
",SBGL,2022-06-19 09:00:00
1655632800000,"METAF SBGL 191000Z 07005KT 2000     BR OVC033   20/19 Q1021=
",SBGL,2022-06-19 10:00:00
1655636400000,"METAF SBGL 191100Z 09005KT 3000     BR OVC033   21/19 Q1021=
",SBGL,2022-06-19 11:00:00
1655640000000,"METAF SBGL 191200Z 09004KT 4000     BR OVC011   21/19 Q1022=
",SBGL,2022-06-19 12:00:00
1655643600000,"METAF SBGL 191300Z  10004KT 6000       BKN015   22/19 Q1022=
",SBGL,2022-06-19 13:00:00
1655647200000,"METAF SBGL 191400Z  12003KT 5000     BR OVC033   20/17 Q1025=
",SBGL,2022-06-19 14:00:00
1655650800000,"METAF SBGL 191500Z  14003KT 7000       OVC033   20/17 Q1022=
",SBGL,2022-06-19 15:00:00
1655654400000,"METAF SBGL 191600Z  12003KT 9999       OVC033   21/16 Q1022=
",SBGL,2022-06-19 16:00:00
1655658000000,"METAF SBGL 191700Z  14004KT 9999       OVC033   22/16 Q1022=
",SBGL,2022-06-19 17:00:00
1655661600000,"METAF SBGL 191800Z  11009KT 9999       OVC033   22/16 Q1018=
",SBGL,2022-06-19 18:00:00
1655665200000,"METAF SBGL 191900Z 08010KT 9999       OVC033   22/17 Q1021=
",SBGL,2022-06-19 19:00:00
1655668800000,"METAF SBGL 192000Z 09010KT 9999       OVC033   22/17 Q1021=
",SBGL,2022-06-19 20:00:00
1655672400000,"METAF SBGL 192100Z 09010KT 9999       OVC033   21/16 Q1020=
",SBGL,2022-06-19 21:00:00
1655676000000,"METAF SBGL 192200Z  12008KT 9999       OVC033   21/16 Q1022=
",SBGL,2022-06-19 22:00:00
1655679600000,"METAF SBGL 192300Z  10009KT 9000       OVC033   21/16 Q1022=
",SBGL,2022-06-19 23:00:00
1655596800000,"METAF SBGR 190000Z  10004KT 1000     BR OVC029   14/13 Q1016=
",SBGR,2022-06-19 00:00:00
1655600400000,"METAF SBGR 190100Z  12004KT 1000     BR OVC022   14/14 Q1020=
",SBGR,2022-06-19 01:00:00
1655604000000,"METAF SBGR 190200Z  11003KT 1000     BR OVC016   14/14 Q1020=
",SBGR,2022-06-19 02:00:00
1655607600000,"METAF SBGR 190300Z  10002KT 0750 FG     OVC012   14/14 Q1017=
",SBGR,2022-06-19 03:00:00
1655611200000,"METAF SBGR 190400Z  11004KT 1000     BR OVC022   14/14 Q1019=
",SBGR,2022-06-19 04:00:00
1655614800000,"METAF SBGR 190500Z 09005KT 1000     BR OVC019   14/14 Q1021=
",SBGR,2022-06-19 05:00:00
1655618400000,"METAF SBGR 190600Z 08005KT 1000     BR OVC014   13/13 Q1018=
",SBGR,2022-06-19 06:00:00
1655622000000,"METAF SBGR 190700Z 09005KT 1000     BR OVC018   14/13 Q1019=
",SBGR,2022-06-19 07:00:00
1655625600000,"METAF SBGR 190800Z 09004KT 1000     BR OVC033   14/13 Q1019=
",SBGR,2022-06-19 08:00:00
1655629200000,"METAF SBGR 190900Z 09004KT 1000     BR OVC033   14/13 Q1020=
",SBGR,2022-06-19 09:00:00
1655632800000,"METAF SBGR 191000Z  10004KT 1000     BR OVC033   14/13 Q1022=
",SBGR,2022-06-19 10:00:00
1655636400000,"METAF SBGR 191100Z  10005KT 1000     BR OVC033   14/13 Q1022=
",SBGR,2022-06-19 11:00:00
1655640000000,"METAF SBGR 191200Z  10005KT 2000     BR OVC033   15/13 Q1022=
",SBGR,2022-06-19 12:00:00
1655643600000,"METAF SBGR 191300Z 09005KT 5000     BR OVC010   16/13 Q1023=
",SBGR,2022-06-19 13:00:00
1655647200000,"METAF SBGR 191400Z  11005KT 8000       OVC015   16/12 Q1024=
",SBGR,2022-06-19 14:00:00
1655650800000,"METAF SBGR 191500Z 08005KT 9999       OVC019   18/13 Q1020=
",SBGR,2022-06-19 15:00:00
1655654400000,"METAF SBGR 191600Z  11004KT 9999       OVC024   19/13 Q1022=
",SBGR,2022-06-19 16:00:00
1655658000000,"METAF SBGR 191700Z 09003KT 9999       OVC027   20/13 Q1021=
",SBGR,2022-06-19 17:00:00
1655661600000,"METAF SBGR 191800Z  33004KT 9999       SCT032   21/13 Q1015=
",SBGR,2022-06-19 18:00:00
1655665200000,"METAF SBGR 191900Z  31003KT 9999       FEW033   22/12 Q1020=
",SBGR,2022-06-19 19:00:00
1655668800000,"METAF SBGR 192000Z  27003KT CAVOK 20/12 Q1020=
",SBGR,2022-06-19 20:00:00
1655672400000,"METAF SBGR 192100Z  27003KT 9999       FEW033   16/09 Q1017=
",SBGR,2022-06-19 21:00:00
1655676000000,"METAF SBGR 192200Z  13006KT 5000     BR FEW033   14/12 Q1021=
",SBGR,2022-06-19 22:00:00
1655679600000,"METAF SBGR 192300Z  11005KT 2000     BR BKN033   13/12 Q1021=
",SBGR,2022-06-19 23:00:00
1655596800000,"METAF SBKP 190000Z 05002KT 1000     BR OVC014   17/16 Q1015=
",SBKP,2022-06-19 00:00:00
1655600400000,"METAF SBKP 190100Z 07003KT 1000     BR OVC013   16/16 Q1019=
",SBKP,2022-06-19 01:00:00
1655604000000,"METAF SBKP 190200Z 09002KT 1000     BR OVC010   16/15 Q1021=
",SBKP,2022-06-19 02:00:00
1655607600000,"METAF SBKP 190300Z 03002KT 1000     BR OVC010   16/15 Q1017=
",SBKP,2022-06-19 03:00:00
1655611200000,"METAF SBKP 190400Z 02002KT 1000     BR OVC014   16/15 Q1018=
",SBKP,2022-06-19 04:00:00
1655614800000,"METAF SBKP 190500Z 07002KT 1000     BR OVC014   16/15 Q1020=
",SBKP,2022-06-19 05:00:00
1655618400000,"METAF SBKP 190600Z 07004KT 1000     BR OVC013   16/15 Q1017=
",SBKP,2022-06-19 06:00:00
1655622000000,"METAF SBKP 190700Z 07004KT 1000     BR OVC019   16/15 Q1018=
",SBKP,2022-06-19 07:00:00
1655625600000,"METAF SBKP 190800Z 09004KT 2000     BR OVC033   16/15 Q1019=
",SBKP,2022-06-19 08:00:00
1655629200000,"METAF SBKP 190900Z 09005KT 3000     BR OVC033   16/14 Q1019=
",SBKP,2022-06-19 09:00:00
1655632800000,"METAF SBKP 191000Z  10004KT 4000     BR OVC033   16/14 Q1021=
",SBKP,2022-06-19 10:00:00
1655636400000,"METAF SBKP 191100Z  11004KT 5000     BR OVC011   16/13 Q1022=
",SBKP,2022-06-19 11:00:00
1655640000000,"METAF SBKP 191200Z  11005KT 9000       BKN016   17/13 Q1022=
",SBKP,2022-06-19 12:00:00
1655643600000,"METAF SBKP 191300Z 09006KT 9999       BKN024   19/13 Q1022=
",SBKP,2022-06-19 13:00:00
1655647200000,"METAF SBKP 191400Z  10005KT 9999       OVC029   20/13 Q1024=
",SBKP,2022-06-19 14:00:00
1655650800000,"METAF SBKP 191500Z 04003KT 9999       BKN033   21/12 Q1019=
",SBKP,2022-06-19 15:00:00
1655654400000,"METAF SBKP 191600Z  34003KT 9999       FEW033   23/11 Q1021=
",SBKP,2022-06-19 16:00:00
1655658000000,"METAF SBKP 191700Z  32003KT CAVOK 23/10 Q1020=
",SBKP,2022-06-19 17:00:00
1655661600000,"METAF SBKP 191800Z  33005KT CAVOK 23/09 Q1014=
",SBKP,2022-06-19 18:00:00
1655665200000,"METAF SBKP 191900Z  31004KT CAVOK 24/09 Q1019=
",SBKP,2022-06-19 19:00:00
1655668800000,"METAF SBKP 192000Z  26004KT CAVOK 24/09 Q1019=
",SBKP,2022-06-19 20:00:00
1655672400000,"METAF SBKP 192100Z  24003KT CAVOK 22/09 Q1017=
",SBKP,2022-06-19 21:00:00
1655676000000,"METAF SBKP 192200Z  18003KT CAVOK 21/10 Q1020=
",SBKP,2022-06-19 22:00:00
1655679600000,"METAF SBKP 192300Z  15004KT CAVOK 20/09 Q1020=
",SBKP,2022-06-19 23:00:00
1655596800000,"METAF SBSP 190000Z  13004KT 1000     BR OVC029   14/13 Q1017=
",SBSP,2022-06-19 00:00:00
1655600400000,"METAF SBSP 190100Z  14006KT 1000     BR OVC029   14/13 Q1021=
",SBSP,2022-06-19 01:00:00
1655604000000,"METAF SBSP 190200Z  11003KT 1000     BR OVC033   14/13 Q1020=
",SBSP,2022-06-19 02:00:00
1655607600000,"METAF SBSP 190300Z 09003KT 1000     BR OVC022   14/13 Q1016=
",SBSP,2022-06-19 03:00:00
1655611200000,"METAF SBSP 190400Z  11006KT 2000     BR OVC033   15/13 Q1020=
",SBSP,2022-06-19 04:00:00
1655614800000,"METAF SBSP 190500Z  11006KT 1000     BR OVC022   15/14 Q1021=
",SBSP,2022-06-19 05:00:00
1655618400000,"METAF SBSP 190600Z  10005KT 1000     BR OVC023   15/13 Q1018=
",SBSP,2022-06-19 06:00:00
1655622000000,"METAF SBSP 190700Z  12006KT 1000     BR OVC023   15/14 Q1019=
",SBSP,2022-06-19 07:00:00
1655625600000,"METAF SBSP 190800Z  12005KT 1000     BR OVC017   14/14 Q1020=
",SBSP,2022-06-19 08:00:00
1655629200000,"METAF SBSP 190900Z  13005KT 1000     BR OVC017   14/14 Q1020=
",SBSP,2022-06-19 09:00:00
1655632800000,"METAF SBSP 191000Z  13004KT 1000     BR OVC033   15/14 Q1022=
",SBSP,2022-06-19 10:00:00
1655636400000,"METAF SBSP 191100Z  11004KT 2000     BR OVC033   15/14 Q1022=
",SBSP,2022-06-19 11:00:00
1655640000000,"METAF SBSP 191200Z 09003KT 4000     BR OVC033   16/14 Q1023=
",SBSP,2022-06-19 12:00:00
1655643600000,"METAF SBSP 191300Z 07004KT 7000       OVC013   17/13 Q1023=
",SBSP,2022-06-19 13:00:00
1655647200000,"METAF SBSP 191400Z  11005KT 6000       OVC010   15/12 Q1024=
",SBSP,2022-06-19 14:00:00
1655650800000,"METAF SBSP 191500Z 08004KT 9999       OVC017   17/12 Q1020=
",SBSP,2022-06-19 15:00:00
1655654400000,"METAF SBSP 191600Z  12005KT 9999       OVC019   18/12 Q1022=
",SBSP,2022-06-19 16:00:00
1655658000000,"METAF SBSP 191700Z  13005KT 9999       OVC026   18/13 Q1021=
",SBSP,2022-06-19 17:00:00
1655661600000,"METAF SBSP 191800Z  36002KT 9999       BKN033   20/11 Q1016=
",SBSP,2022-06-19 18:00:00
1655665200000,"METAF SBSP 191900Z  14004KT 9999       SCT030   20/12 Q1021=
",SBSP,2022-06-19 19:00:00
1655668800000,"METAF SBSP 192000Z  14008KT 6000       BKN033   16/13 Q1021=
",SBSP,2022-06-19 20:00:00
1655672400000,"METAF SBSP 192100Z  14007KT 2000     BR OVC033   14/13 Q1018=
",SBSP,2022-06-19 21:00:00
1655676000000,"METAF SBSP 192200Z  13006KT 1000     BR OVC033   14/13 Q1021=
",SBSP,2022-06-19 22:00:00
1655679600000,"METAF SBSP 192300Z  12005KT 1000     BR OVC029   14/13 Q1021=
",SBSP,2022-06-19 23:00:00
1655683200000,"METAF SBGL 200000Z  10006KT 6000       BKN033   19/16 Q1019=
",SBGL,2022-06-20 00:00:00
1655686800000,"METAF SBGL 200100Z 09008KT 6000       BKN033   19/16 Q1022=
",SBGL,2022-06-20 01:00:00
1655690400000,"METAF SBGL 200200Z  11007KT 6000       SCT033   19/16 Q1023=
",SBGL,2022-06-20 02:00:00
1655694000000,"METAF SBGL 200300Z 08006KT 5000     BR BKN033   19/16 Q1020=
",SBGL,2022-06-20 03:00:00
1655697600000,"METAF SBGL 200400Z 08003KT 5000     BR SCT033   19/16 Q1021=
",SBGL,2022-06-20 04:00:00
1655701200000,"METAF SBGL 200500Z 09003KT 5000     BR SCT033   19/16 Q1021=
",SBGL,2022-06-20 05:00:00
1655704800000,"METAF SBGL 200600Z 09004KT 2000     BR SCT033   18/16 Q1018=
",SBGL,2022-06-20 06:00:00
1655708400000,"METAF SBGL 200700Z 08005KT 3000     BR FEW033   18/16 Q1021=
",SBGL,2022-06-20 07:00:00
1655712000000,"METAF SBGL 200800Z  13004KT 4000     BR    18/16 Q1021=
",SBGL,2022-06-20 08:00:00
1655715600000,"METAF SBGL 200900Z 07002KT 4000     BR    18/15 Q1019=
",SBGL,2022-06-20 09:00:00
1655719200000,"METAF SBGL 201000Z 08002KT 4000     BR    18/15 Q1021=
",SBGL,2022-06-20 10:00:00
1655722800000,"METAF SBGL 201100Z 09002KT CAVOK 19/15 Q1021=
",SBGL,2022-06-20 11:00:00
1655726400000,"METAF SBGL 201200Z  12004KT 5000     BR FEW033   18/16 Q1019=
",SBGL,2022-06-20 12:00:00
1655730000000,"METAF SBGL 201300Z  13002KT CAVOK 20/16 Q1023=
",SBGL,2022-06-20 13:00:00
1655733600000,"METAF SBGL 201400Z  14002KT CAVOK 21/15 Q1023=
",SBGL,2022-06-20 14:00:00
1655737200000,"METAF SBGL 201500Z  14002KT CAVOK 22/16 Q1019=
",SBGL,2022-06-20 15:00:00
1655740800000,"METAF SBGL 201600Z  16003KT CAVOK 23/16 Q1020=
",SBGL,2022-06-20 16:00:00
1655744400000,"METAF SBGL 201700Z  17004KT CAVOK 23/17 Q1019=
",SBGL,2022-06-20 17:00:00
1655748000000,"METAF SBGL 201800Z  17004KT CAVOK 24/17 Q1017=
",SBGL,2022-06-20 18:00:00
1655751600000,"METAF SBGL 201900Z  17003KT CAVOK 24/17 Q1018=
",SBGL,2022-06-20 19:00:00
1655755200000,"METAF SBGL 202000Z  17005KT CAVOK 24/18 Q1018=
",SBGL,2022-06-20 20:00:00
1655758800000,"METAF SBGL 202100Z  10007KT CAVOK 23/18 Q1018=
",SBGL,2022-06-20 21:00:00
1655762400000,"METAF SBGL 202200Z 09008KT CAVOK 22/19 Q1019=
",SBGL,2022-06-20 22:00:00
1655766000000,"METAF SBGL 202300Z  10008KT CAVOK 22/18 Q1019=
",SBGL,2022-06-20 23:00:00
1655683200000,"METAF SBGR 200000Z 09004KT 0750 FG     OVC033   13/12 Q1017=
",SBGR,2022-06-20 00:00:00
1655686800000,"METAF SBGR 200100Z 08005KT 0750 FG     OVC033   13/12 Q1020=
",SBGR,2022-06-20 01:00:00
1655690400000,"METAF SBGR 200200Z 08004KT 0700 FG     OVC033   12/12 Q1020=
",SBGR,2022-06-20 02:00:00
1655694000000,"METAF SBGR 200300Z 05004KT 0750 FG     OVC033   11/11 Q1017=
",SBGR,2022-06-20 03:00:00
1655697600000,"METAF SBGR 200400Z 07004KT 1000     BR OVC033   11/11 Q1019=
",SBGR,2022-06-20 04:00:00
1655701200000,"METAF SBGR 200500Z  36004KT 2000     BR FEW033   11/10 Q1020=
",SBGR,2022-06-20 05:00:00
1655704800000,"METAF SBGR 200600Z 04004KT 1000     BR BKN033   11/10 Q1016=
",SBGR,2022-06-20 06:00:00
1655708400000,"METAF SBGR 200700Z 01004KT CAVOK 12/09 Q1020=
",SBGR,2022-06-20 07:00:00
1655712000000,"METAF SBGR 200800Z  34004KT CAVOK 12/09 Q1019=
",SBGR,2022-06-20 08:00:00
1655715600000,"METAF SBGR 200900Z  33006KT CAVOK 13/10 Q1017=
",SBGR,2022-06-20 09:00:00
1655719200000,"METAF SBGR 201000Z  34005KT 5000     BR FEW033   12/09 Q1020=
",SBGR,2022-06-20 10:00:00
1655722800000,"METAF SBGR 201100Z  33005KT CAVOK 16/12 Q1020=
",SBGR,2022-06-20 11:00:00
1655726400000,"METAF SBGR 201200Z 01002KT 9999       FEW033   17/12 Q1018=
",SBGR,2022-06-20 12:00:00
1655730000000,"METAF SBGR 201300Z  33003KT CAVOK 20/12 Q1023=
",SBGR,2022-06-20 13:00:00
1655733600000,"METAF SBGR 201400Z  30007KT 9999       FEW033   21/13 Q1023=
",SBGR,2022-06-20 14:00:00
1655737200000,"METAF SBGR 201500Z  30011KT 9999       BKN033   22/13 Q1019=
",SBGR,2022-06-20 15:00:00
1655740800000,"METAF SBGR 201600Z  30009KT 9999       FEW032   21/13 Q1021=
",SBGR,2022-06-20 16:00:00
1655744400000,"METAF SBGR 201700Z  30009KT 9999       FEW032   20/13 Q1019=
",SBGR,2022-06-20 17:00:00
1655748000000,"METAF SBGR 201800Z  30004KT CAVOK 18/13 Q1017=
",SBGR,2022-06-20 18:00:00
1655751600000,"METAF SBGR 201900Z  30004KT CAVOK 20/13 Q1018=
",SBGR,2022-06-20 19:00:00
1655755200000,"METAF SBGR 202000Z  31002KT CAVOK 20/14 Q1017=
",SBGR,2022-06-20 20:00:00
1655758800000,"METAF SBGR 202100Z 02002KT CAVOK 16/11 Q1018=
",SBGR,2022-06-20 21:00:00
1655762400000,"METAF SBGR 202200Z 04003KT CAVOK 15/11 Q1019=
",SBGR,2022-06-20 22:00:00
1655766000000,"METAF SBGR 202300Z 04005KT CAVOK 15/11 Q1019=
",SBGR,2022-06-20 23:00:00
1655683200000,"METAF SBKP 200000Z  11007KT 8000       FEW033   16/13 Q1016=
",SBKP,2022-06-20 00:00:00
1655686800000,"METAF SBKP 200100Z  10007KT 7000       FEW033   16/12 Q1020=
",SBKP,2022-06-20 01:00:00
1655690400000,"METAF SBKP 200200Z 08005KT CAVOK 16/12 Q1020=
",SBKP,2022-06-20 02:00:00
1655694000000,"METAF SBKP 200300Z 04006KT CAVOK 16/11 Q1017=
",SBKP,2022-06-20 03:00:00
1655697600000,"METAF SBKP 200400Z 03005KT CAVOK 16/11 Q1020=
",SBKP,2022-06-20 04:00:00
1655701200000,"METAF SBKP 200500Z 03004KT CAVOK 16/12 Q1019=
",SBKP,2022-06-20 05:00:00
1655704800000,"METAF SBKP 200600Z 06004KT CAVOK 15/11 Q1015=
",SBKP,2022-06-20 06:00:00
1655708400000,"METAF SBKP 200700Z 02004KT CAVOK 15/11 Q1020=
",SBKP,2022-06-20 07:00:00
1655712000000,"METAF SBKP 200800Z  35002KT CAVOK 15/11 Q1019=
",SBKP,2022-06-20 08:00:00
1655715600000,"METAF SBKP 200900Z  35004KT 6000       FEW033   14/11 Q1017=
",SBKP,2022-06-20 09:00:00
1655719200000,"METAF SBKP 201000Z  36003KT 7000       FEW033   15/11 Q1020=
",SBKP,2022-06-20 10:00:00
1655722800000,"METAF SBKP 201100Z  34003KT 9000       FEW033   15/11 Q1020=
",SBKP,2022-06-20 11:00:00
1655726400000,"METAF SBKP 201200Z  30001KT CAVOK 17/11 Q1017=
",SBKP,2022-06-20 12:00:00
1655730000000,"METAF SBKP 201300Z  31005KT CAVOK 19/11 Q1023=
",SBKP,2022-06-20 13:00:00
1655733600000,"METAF SBKP 201400Z  30006KT 9999       FEW033   21/12 Q1023=
",SBKP,2022-06-20 14:00:00
1655737200000,"METAF SBKP 201500Z  29008KT CAVOK 21/13 Q1020=
",SBKP,2022-06-20 15:00:00
1655740800000,"METAF SBKP 201600Z  27006KT CAVOK 22/12 Q1021=
",SBKP,2022-06-20 16:00:00
1655744400000,"METAF SBKP 201700Z  25004KT CAVOK 22/12 Q1018=
",SBKP,2022-06-20 17:00:00
1655748000000,"METAF SBKP 201800Z  31003KT CAVOK 23/12 Q1016=
",SBKP,2022-06-20 18:00:00
1655751600000,"METAF SBKP 201900Z  34002KT CAVOK 24/12 Q1017=
",SBKP,2022-06-20 19:00:00
1655755200000,"METAF SBKP 202000Z 02003KT CAVOK 23/12 Q1017=
",SBKP,2022-06-20 20:00:00
1655758800000,"METAF SBKP 202100Z 04005KT CAVOK 22/12 Q1017=
",SBKP,2022-06-20 21:00:00
1655762400000,"METAF SBKP 202200Z 04004KT CAVOK 21/11 Q1018=
",SBKP,2022-06-20 22:00:00
1655766000000,"METAF SBKP 202300Z 07004KT CAVOK 20/12 Q1018=
",SBKP,2022-06-20 23:00:00
1655683200000,"METAF SBSP 200000Z 03003KT 2000     BR OVC033   14/13 Q1018=
",SBSP,2022-06-20 00:00:00
1655686800000,"METAF SBSP 200100Z 05004KT 2000     BR OVC033   14/13 Q1021=
",SBSP,2022-06-20 01:00:00
1655690400000,"METAF SBSP 200200Z 08003KT 1000     BR OVC033   14/13 Q1021=
",SBSP,2022-06-20 02:00:00
1655694000000,"METAF SBSP 200300Z 04004KT 1000     BR OVC033   13/12 Q1017=
",SBSP,2022-06-20 03:00:00
1655697600000,"METAF SBSP 200400Z 04004KT 1000     BR OVC033   13/12 Q1020=
",SBSP,2022-06-20 04:00:00
1655701200000,"METAF SBSP 200500Z 01005KT 1000     BR OVC033   13/12 Q1020=
",SBSP,2022-06-20 05:00:00
1655704800000,"METAF SBSP 200600Z 01005KT 1000     BR OVC033   13/12 Q1016=
",SBSP,2022-06-20 06:00:00
1655708400000,"METAF SBSP 200700Z  35002KT 1000     BR BKN033   13/12 Q1020=
",SBSP,2022-06-20 07:00:00
1655712000000,"METAF SBSP 200800Z  35003KT 2000     BR BKN033   13/12 Q1019=
",SBSP,2022-06-20 08:00:00
1655715600000,"METAF SBSP 200900Z  33004KT 3000     BR BKN033   13/12 Q1016=
",SBSP,2022-06-20 09:00:00
1655719200000,"METAF SBSP 201000Z  33005KT 5000     BR FEW033   14/11 Q1020=
",SBSP,2022-06-20 10:00:00
1655722800000,"METAF SBSP 201100Z  34007KT CAVOK 16/11 Q1020=
",SBSP,2022-06-20 11:00:00
1655726400000,"METAF SBSP 201200Z 01004KT 6000       BKN033   15/12 Q1019=
",SBSP,2022-06-20 12:00:00
1655730000000,"METAF SBSP 201300Z  36003KT CAVOK 17/12 Q1023=
",SBSP,2022-06-20 13:00:00
1655733600000,"METAF SBSP 201400Z  32004KT CAVOK 19/11 Q1023=
",SBSP,2022-06-20 14:00:00
1655737200000,"METAF SBSP 201500Z  30008KT 9999       SCT033   21/12 Q1019=
",SBSP,2022-06-20 15:00:00
1655740800000,"METAF SBSP 201600Z  30009KT 9999       FEW033   22/12 Q1021=
",SBSP,2022-06-20 16:00:00
1655744400000,"METAF SBSP 201700Z  31010KT CAVOK 22/11 Q1019=
",SBSP,2022-06-20 17:00:00
1655748000000,"METAF SBSP 201800Z  31006KT 9999       FEW033   21/12 Q1017=
",SBSP,2022-06-20 18:00:00
1655751600000,"METAF SBSP 201900Z  31005KT CAVOK 22/12 Q1017=
",SBSP,2022-06-20 19:00:00
1655755200000,"METAF SBSP 202000Z  30002KT CAVOK 21/13 Q1017=
",SBSP,2022-06-20 20:00:00
1655758800000,"METAF SBSP 202100Z 06002KT CAVOK 20/13 Q1018=
",SBSP,2022-06-20 21:00:00
1655762400000,"METAF SBSP 202200Z 06002KT CAVOK 19/13 Q1019=
",SBSP,2022-06-20 22:00:00
1655766000000,"METAF SBSP 202300Z 06002KT CAVOK 18/13 Q1019=
",SBSP,2022-06-20 23:00:00
1655769600000,"METAF SBGL 210000Z  11005KT 4000     BR FEW013   21/19 Q1017=
",SBGL,2022-06-21 00:00:00
1655773200000,"METAF SBGL 210100Z  10004KT 4000     BR    21/19 Q1019=
",SBGL,2022-06-21 01:00:00
1655776800000,"METAF SBGL 210200Z  10004KT 4000     BR    21/18 Q1020=
",SBGL,2022-06-21 02:00:00
1655780400000,"METAF SBGL 210300Z 08006KT CAVOK 21/18 Q1018=
",SBGL,2022-06-21 03:00:00
1655784000000,"METAF SBGL 210400Z 08005KT CAVOK 21/17 Q1019=
",SBGL,2022-06-21 04:00:00
1655787600000,"METAF SBGL 210500Z 07006KT CAVOK 21/17 Q1019=
",SBGL,2022-06-21 05:00:00
1655791200000,"METAF SBGL 210600Z 09007KT 2000     BR    19/18 Q1017=
",SBGL,2022-06-21 06:00:00
1655794800000,"METAF SBGL 210700Z  10004KT 4000     BR    19/17 Q1019=
",SBGL,2022-06-21 07:00:00
1655798400000,"METAF SBGL 210800Z  19002KT 4000     BR    19/17 Q1021=
",SBGL,2022-06-21 08:00:00
1655802000000,"METAF SBGL 210900Z  25003KT 4000     BR    19/17 Q1018=
",SBGL,2022-06-21 09:00:00
1655805600000,"METAF SBGL 211000Z  21003KT 4000     BR    19/17 Q1020=
",SBGL,2022-06-21 10:00:00
1655809200000,"METAF SBGL 211100Z  15002KT CAVOK 20/17 Q1020=
",SBGL,2022-06-21 11:00:00
1655812800000,"METAF SBGL 211200Z  12003KT CAVOK 20/17 Q1020=
",SBGL,2022-06-21 12:00:00
1655816400000,"METAF SBGL 211300Z  17005KT CAVOK 22/17 Q1021=
",SBGL,2022-06-21 13:00:00
1655820000000,"METAF SBGL 211400Z  18002KT CAVOK 22/18 Q1021=
",SBGL,2022-06-21 14:00:00
1655823600000,"METAF SBGL 211500Z  11001KT CAVOK 23/17 Q1018=
",SBGL,2022-06-21 15:00:00
1655827200000,"METAF SBGL 211600Z  12003KT CAVOK 24/17 Q1018=
",SBGL,2022-06-21 16:00:00
1655830800000,"METAF SBGL 211700Z  13003KT CAVOK 25/17 Q1017=
",SBGL,2022-06-21 17:00:00
1655834400000,"METAF SBGL 211800Z  15004KT CAVOK 25/18 Q1015=
",SBGL,2022-06-21 18:00:00
1655838000000,"METAF SBGL 211900Z  15004KT CAVOK 25/19 Q1016=
",SBGL,2022-06-21 19:00:00
1655841600000,"METAF SBGL 212000Z  13005KT CAVOK 25/19 Q1016=
",SBGL,2022-06-21 20:00:00
1655845200000,"METAF SBGL 212100Z  10007KT CAVOK 25/20 Q1015=
",SBGL,2022-06-21 21:00:00
1655848800000,"METAF SBGL 212200Z 08008KT CAVOK 24/19 Q1016=
",SBGL,2022-06-21 22:00:00
1655852400000,"METAF SBGL 212300Z 08008KT CAVOK 23/19 Q1016=
",SBGL,2022-06-21 23:00:00
1655769600000,"METAF SBGR 210000Z 06004KT 2000     BR BKN029   14/12 Q1017=
",SBGR,2022-06-21 00:00:00
1655773200000,"METAF SBGR 210100Z 04005KT 3000     BR    14/12 Q1019=
",SBGR,2022-06-21 01:00:00
1655776800000,"METAF SBGR 210200Z 01005KT 4000     BR FEW033   14/12 Q1019=
",SBGR,2022-06-21 02:00:00
1655780400000,"METAF SBGR 210300Z  35006KT CAVOK 15/12 Q1017=
",SBGR,2022-06-21 03:00:00
1655784000000,"METAF SBGR 210400Z  35005KT CAVOK 14/11 Q1019=
",SBGR,2022-06-21 04:00:00
1655787600000,"METAF SBGR 210500Z  35005KT CAVOK 14/11 Q1019=
",SBGR,2022-06-21 05:00:00
1655791200000,"METAF SBGR 210600Z 05005KT 1000     BR OVC033   12/12 Q1017=
",SBGR,2022-06-21 06:00:00
1655794800000,"METAF SBGR 210700Z 05004KT 2000     BR BKN033   12/11 Q1020=
",SBGR,2022-06-21 07:00:00
1655798400000,"METAF SBGR 210800Z  36005KT 4000     BR FEW033   13/11 Q1020=
",SBGR,2022-06-21 08:00:00
1655802000000,"METAF SBGR 210900Z  34006KT CAVOK 14/11 Q1017=
",SBGR,2022-06-21 09:00:00
1655805600000,"METAF SBGR 211000Z  35006KT CAVOK 14/11 Q1019=
",SBGR,2022-06-21 10:00:00
1655809200000,"METAF SBGR 211100Z  35006KT CAVOK 18/13 Q1019=
",SBGR,2022-06-21 11:00:00
1655812800000,"METAF SBGR 211200Z 04005KT CAVOK 19/14 Q1018=
",SBGR,2022-06-21 12:00:00
1655816400000,"METAF SBGR 211300Z 01004KT CAVOK 22/14 Q1021=
",SBGR,2022-06-21 13:00:00
1655820000000,"METAF SBGR 211400Z  34008KT CAVOK 23/13 Q1020=
",SBGR,2022-06-21 14:00:00
1655823600000,"METAF SBGR 211500Z  33009KT CAVOK 25/13 Q1018=
",SBGR,2022-06-21 15:00:00
1655827200000,"METAF SBGR 211600Z  32009KT CAVOK 25/13 Q1019=
",SBGR,2022-06-21 16:00:00
1655830800000,"METAF SBGR 211700Z  31009KT CAVOK 25/13 Q1017=
",SBGR,2022-06-21 17:00:00
1655834400000,"METAF SBGR 211800Z  33010KT CAVOK 25/13 Q1015=
",SBGR,2022-06-21 18:00:00
1655838000000,"METAF SBGR 211900Z  32009KT CAVOK 25/12 Q1016=
",SBGR,2022-06-21 19:00:00
1655841600000,"METAF SBGR 212000Z  31005KT CAVOK 23/13 Q1016=
",SBGR,2022-06-21 20:00:00
1655845200000,"METAF SBGR 212100Z  32007KT CAVOK 20/11 Q1015=
",SBGR,2022-06-21 21:00:00
1655848800000,"METAF SBGR 212200Z  32005KT CAVOK 19/11 Q1017=
",SBGR,2022-06-21 22:00:00
1655852400000,"METAF SBGR 212300Z  33006KT CAVOK 18/11 Q1017=
",SBGR,2022-06-21 23:00:00
1655823600000,"METAF SBKP 211500Z  34008KT CAVOK 25/13 Q1018=
",SBKP,2022-06-21 15:00:00
1655827200000,"METAF SBKP 211600Z  34007KT CAVOK 26/12 Q1019=
",SBKP,2022-06-21 16:00:00
1655769600000,"METAF SBKP 210000Z 08005KT 7000       FEW033   18/15 Q1016=
",SBKP,2022-06-21 00:00:00
1655773200000,"METAF SBKP 210100Z 06005KT CAVOK 18/14 Q1019=
",SBKP,2022-06-21 01:00:00
1655776800000,"METAF SBKP 210200Z 05004KT CAVOK 18/14 Q1019=
",SBKP,2022-06-21 02:00:00
1655780400000,"METAF SBKP 210300Z 03005KT CAVOK 17/13 Q1017=
",SBKP,2022-06-21 03:00:00
1655784000000,"METAF SBKP 210400Z 04005KT CAVOK 17/13 Q1018=
",SBKP,2022-06-21 04:00:00
1655787600000,"METAF SBKP 210500Z 03005KT CAVOK 17/13 Q1018=
",SBKP,2022-06-21 05:00:00
1655791200000,"METAF SBKP 210600Z 09003KT 5000     BR SCT033   15/13 Q1017=
",SBKP,2022-06-21 06:00:00
1655794800000,"METAF SBKP 210700Z 08004KT 6000       FEW033   16/13 Q1021=
",SBKP,2022-06-21 07:00:00
1655798400000,"METAF SBKP 210800Z 06004KT CAVOK 16/13 Q1020=
",SBKP,2022-06-21 08:00:00
1655802000000,"METAF SBKP 210900Z 03006KT CAVOK 16/12 Q1017=
",SBKP,2022-06-21 09:00:00
1655805600000,"METAF SBKP 211000Z 04005KT CAVOK 16/12 Q1019=
",SBKP,2022-06-21 10:00:00
1655809200000,"METAF SBKP 211100Z 02006KT CAVOK 18/12 Q1019=
",SBKP,2022-06-21 11:00:00
1655812800000,"METAF SBKP 211200Z 03004KT CAVOK 19/13 Q1018=
",SBKP,2022-06-21 12:00:00
1655816400000,"METAF SBKP 211300Z 01008KT CAVOK 22/13 Q1021=
",SBKP,2022-06-21 13:00:00
1655820000000,"METAF SBKP 211400Z  35007KT CAVOK 24/13 Q1020=
",SBKP,2022-06-21 14:00:00
1655830800000,"METAF SBKP 211700Z  33007KT CAVOK 27/12 Q1016=
",SBKP,2022-06-21 17:00:00
1655834400000,"METAF SBKP 211800Z  33008KT CAVOK 27/12 Q1014=
",SBKP,2022-06-21 18:00:00
1655838000000,"METAF SBKP 211900Z  33007KT CAVOK 28/11 Q1016=
",SBKP,2022-06-21 19:00:00
1655841600000,"METAF SBKP 212000Z  32007KT CAVOK 27/11 Q1015=
",SBKP,2022-06-21 20:00:00
1655845200000,"METAF SBKP 212100Z  33004KT CAVOK 26/11 Q1014=
",SBKP,2022-06-21 21:00:00
1655848800000,"METAF SBKP 212200Z  31003KT CAVOK 24/11 Q1016=
",SBKP,2022-06-21 22:00:00
1655852400000,"METAF SBKP 212300Z  29004KT CAVOK 23/12 Q1016=
",SBKP,2022-06-21 23:00:00
1655769600000,"METAF SBSP 210000Z 03005KT 1000     BR BKN033   16/15 Q1017=
",SBSP,2022-06-21 00:00:00
1655773200000,"METAF SBSP 210100Z 02005KT 2000     BR BKN032   16/15 Q1019=
",SBSP,2022-06-21 01:00:00
1655776800000,"METAF SBSP 210200Z 02004KT 1000     BR BKN033   16/15 Q1019=
",SBSP,2022-06-21 02:00:00
1655780400000,"METAF SBSP 210300Z 02004KT 1000     BR BKN033   15/14 Q1017=
",SBSP,2022-06-21 03:00:00
1655784000000,"METAF SBSP 210400Z 02003KT 1000     BR BKN033   15/14 Q1019=
",SBSP,2022-06-21 04:00:00
1655787600000,"METAF SBSP 210500Z 06003KT 1000     BR BKN033   15/14 Q1019=
",SBSP,2022-06-21 05:00:00
1655791200000,"METAF SBSP 210600Z 03005KT 0550 FG     OVC023   14/14 Q1018=
",SBSP,2022-06-21 06:00:00
1655794800000,"METAF SBSP 210700Z 02005KT 0750 FG     OVC033   14/14 Q1020=
",SBSP,2022-06-21 07:00:00
1655798400000,"METAF SBSP 210800Z 01004KT 0700 FG     OVC033   14/14 Q1020=
",SBSP,2022-06-21 08:00:00
1655802000000,"METAF SBSP 210900Z 01004KT 1000     BR OVC033   14/14 Q1016=
",SBSP,2022-06-21 09:00:00
1655805600000,"METAF SBSP 211000Z 01003KT 1000     BR BKN033   14/13 Q1019=
",SBSP,2022-06-21 10:00:00
1655809200000,"METAF SBSP 211100Z  35004KT 5000     BR SCT033   16/13 Q1019=
",SBSP,2022-06-21 11:00:00
1655812800000,"METAF SBSP 211200Z 03006KT 6000       BKN033   16/13 Q1018=
",SBSP,2022-06-21 12:00:00
1655816400000,"METAF SBSP 211300Z 02005KT CAVOK 19/13 Q1020=
",SBSP,2022-06-21 13:00:00
1655820000000,"METAF SBSP 211400Z  35006KT CAVOK 21/13 Q1020=
",SBSP,2022-06-21 14:00:00
1655823600000,"METAF SBSP 211500Z  33007KT CAVOK 24/13 Q1018=
",SBSP,2022-06-21 15:00:00
1655827200000,"METAF SBSP 211600Z  32008KT CAVOK 26/12 Q1018=
",SBSP,2022-06-21 16:00:00
1655830800000,"METAF SBSP 211700Z  31009KT CAVOK 26/11 Q1017=
",SBSP,2022-06-21 17:00:00
1655834400000,"METAF SBSP 211800Z  32010KT CAVOK 26/12 Q1014=
",SBSP,2022-06-21 18:00:00
1655838000000,"METAF SBSP 211900Z  32010KT CAVOK 26/11 Q1015=
",SBSP,2022-06-21 19:00:00
1655841600000,"METAF SBSP 212000Z  32009KT CAVOK 26/11 Q1016=
",SBSP,2022-06-21 20:00:00
1655845200000,"METAF SBSP 212100Z  32005KT CAVOK 24/11 Q1015=
",SBSP,2022-06-21 21:00:00
1655848800000,"METAF SBSP 212200Z  32004KT CAVOK 23/12 Q1017=
",SBSP,2022-06-21 22:00:00
1655852400000,"METAF SBSP 212300Z  33004KT CAVOK 22/12 Q1017=
",SBSP,2022-06-21 23:00:00
1655856000000,"METAF SBGL 220000Z  10007KT CAVOK 23/19 Q1016=
",SBGL,2022-06-22 00:00:00
1655859600000,"METAF SBGL 220100Z 09006KT CAVOK 22/17 Q1017=
",SBGL,2022-06-22 01:00:00
1655863200000,"METAF SBGL 220200Z  10006KT CAVOK 22/17 Q1018=
",SBGL,2022-06-22 02:00:00
1655866800000,"METAF SBGL 220300Z 08006KT CAVOK 22/17 Q1016=
",SBGL,2022-06-22 03:00:00
1655870400000,"METAF SBGL 220400Z  10005KT CAVOK 22/17 Q1016=
",SBGL,2022-06-22 04:00:00
1655874000000,"METAF SBGL 220500Z  11003KT CAVOK 22/17 Q1015=
",SBGL,2022-06-22 05:00:00
1655877600000,"METAF SBGL 220600Z  14005KT CAVOK 20/16 Q1015=
",SBGL,2022-06-22 06:00:00
1655881200000,"METAF SBGL 220700Z  13004KT CAVOK 21/15 Q1016=
",SBGL,2022-06-22 07:00:00
1655884800000,"METAF SBGL 220800Z  11004KT CAVOK 21/15 Q1017=
",SBGL,2022-06-22 08:00:00
1655888400000,"METAF SBGL 220900Z  10005KT CAVOK 21/16 Q1015=
",SBGL,2022-06-22 09:00:00
1655892000000,"METAF SBGL 221000Z  12003KT CAVOK 21/16 Q1016=
",SBGL,2022-06-22 10:00:00
1655895600000,"METAF SBGL 221100Z  18002KT CAVOK 22/16 Q1016=
",SBGL,2022-06-22 11:00:00
1655899200000,"METAF SBGL 221200Z  23002KT CAVOK 23/16 Q1016=
",SBGL,2022-06-22 12:00:00
1655902800000,"METAF SBGL 221300Z  11001KT CAVOK 24/16 Q1017=
",SBGL,2022-06-22 13:00:00
1655906400000,"METAF SBGL 221400Z  10003KT CAVOK 25/16 Q1018=
",SBGL,2022-06-22 14:00:00
1655910000000,"METAF SBGL 221500Z 08003KT CAVOK 26/16 Q1015=
",SBGL,2022-06-22 15:00:00
1655913600000,"METAF SBGL 221600Z 09002KT CAVOK 27/15 Q1015=
",SBGL,2022-06-22 16:00:00
1655917200000,"METAF SBGL 221700Z 08003KT CAVOK 27/15 Q1014=
",SBGL,2022-06-22 17:00:00
1655920800000,"METAF SBGL 221800Z 09004KT CAVOK 27/17 Q1012=
",SBGL,2022-06-22 18:00:00
1655924400000,"METAF SBGL 221900Z 08004KT CAVOK 27/16 Q1013=
",SBGL,2022-06-22 19:00:00
1655928000000,"METAF SBGL 222000Z  10004KT CAVOK 27/17 Q1015=
",SBGL,2022-06-22 20:00:00
1655931600000,"METAF SBGL 222100Z  10006KT CAVOK 26/18 Q1013=
",SBGL,2022-06-22 21:00:00
1655935200000,"METAF SBGL 222200Z 09005KT CAVOK 25/19 Q1014=
",SBGL,2022-06-22 22:00:00
1655938800000,"METAF SBGL 222300Z 08003KT CAVOK 24/18 Q1015=
",SBGL,2022-06-22 23:00:00
1655856000000,"METAF SBGR 220000Z 01007KT CAVOK 18/12 Q1017=
",SBGR,2022-06-22 00:00:00
1655859600000,"METAF SBGR 220100Z  36007KT CAVOK 18/12 Q1017=
",SBGR,2022-06-22 01:00:00
1655863200000,"METAF SBGR 220200Z  36007KT CAVOK 18/12 Q1018=
",SBGR,2022-06-22 02:00:00
1655866800000,"METAF SBGR 220300Z  36009KT CAVOK 18/11 Q1016=
",SBGR,2022-06-22 03:00:00
1655870400000,"METAF SBGR 220400Z  36008KT CAVOK 17/11 Q1016=
",SBGR,2022-06-22 04:00:00
1655874000000,"METAF SBGR 220500Z  36008KT CAVOK 17/11 Q1016=
",SBGR,2022-06-22 05:00:00
1655877600000,"METAF SBGR 220600Z  35008KT CAVOK 16/11 Q1015=
",SBGR,2022-06-22 06:00:00
1655881200000,"METAF SBGR 220700Z  36008KT CAVOK 16/11 Q1016=
",SBGR,2022-06-22 07:00:00
1655884800000,"METAF SBGR 220800Z  34007KT CAVOK 15/11 Q1017=
",SBGR,2022-06-22 08:00:00
1655888400000,"METAF SBGR 220900Z  35008KT CAVOK 16/10 Q1015=
",SBGR,2022-06-22 09:00:00
1655892000000,"METAF SBGR 221000Z  35008KT CAVOK 15/10 Q1017=
",SBGR,2022-06-22 10:00:00
1655895600000,"METAF SBGR 221100Z  35010KT CAVOK 19/11 Q1017=
",SBGR,2022-06-22 11:00:00
1655899200000,"METAF SBGR 221200Z  34010KT CAVOK 20/11 Q1017=
",SBGR,2022-06-22 12:00:00
1655902800000,"METAF SBGR 221300Z  34012KT CAVOK 22/11 Q1018=
",SBGR,2022-06-22 13:00:00
1655906400000,"METAF SBGR 221400Z  33012KT CAVOK 24/11 Q1019=
",SBGR,2022-06-22 14:00:00
1655910000000,"METAF SBGR 221500Z  32013KT CAVOK 24/10 Q1016=
",SBGR,2022-06-22 15:00:00
1655913600000,"METAF SBGR 221600Z  31011KT CAVOK 25/11 Q1017=
",SBGR,2022-06-22 16:00:00
1655917200000,"METAF SBGR 221700Z  32011KT CAVOK 25/11 Q1016=
",SBGR,2022-06-22 17:00:00
1655920800000,"METAF SBGR 221800Z  32011KT CAVOK 25/11 Q1013=
",SBGR,2022-06-22 18:00:00
1655924400000,"METAF SBGR 221900Z  32010KT CAVOK 25/11 Q1014=
",SBGR,2022-06-22 19:00:00
1655928000000,"METAF SBGR 222000Z  31006KT CAVOK 23/11 Q1016=
",SBGR,2022-06-22 20:00:00
1655931600000,"METAF SBGR 222100Z  32008KT CAVOK 20/10 Q1013=
",SBGR,2022-06-22 21:00:00
1655935200000,"METAF SBGR 222200Z  34007KT CAVOK 19/10 Q1015=
",SBGR,2022-06-22 22:00:00
1655938800000,"METAF SBGR 222300Z  33007KT CAVOK 19/10 Q1016=
",SBGR,2022-06-22 23:00:00
1655856000000,"METAF SBKP 220000Z 06007KT CAVOK 20/13 Q1016=
",SBKP,2022-06-22 00:00:00
1655859600000,"METAF SBKP 220100Z 04008KT CAVOK 20/13 Q1017=
",SBKP,2022-06-22 01:00:00
1655863200000,"METAF SBKP 220200Z 03006KT CAVOK 20/12 Q1017=
",SBKP,2022-06-22 02:00:00
1655866800000,"METAF SBKP 220300Z 02006KT CAVOK 19/12 Q1016=
",SBKP,2022-06-22 03:00:00
1655870400000,"METAF SBKP 220400Z 02006KT CAVOK 18/12 Q1016=
",SBKP,2022-06-22 04:00:00
1655874000000,"METAF SBKP 220500Z 02007KT CAVOK 18/12 Q1016=
",SBKP,2022-06-22 05:00:00
1655877600000,"METAF SBKP 220600Z 03008KT CAVOK 17/13 Q1014=
",SBKP,2022-06-22 06:00:00
1655881200000,"METAF SBKP 220700Z 02008KT CAVOK 17/12 Q1016=
",SBKP,2022-06-22 07:00:00
1655884800000,"METAF SBKP 220800Z 03006KT CAVOK 17/12 Q1017=
",SBKP,2022-06-22 08:00:00
1655888400000,"METAF SBKP 220900Z 01007KT CAVOK 17/12 Q1015=
",SBKP,2022-06-22 09:00:00
1655892000000,"METAF SBKP 221000Z 02008KT CAVOK 16/11 Q1017=
",SBKP,2022-06-22 10:00:00
1655895600000,"METAF SBKP 221100Z 02009KT CAVOK 18/11 Q1017=
",SBKP,2022-06-22 11:00:00
1655899200000,"METAF SBKP 221200Z 01009KT CAVOK 20/11 Q1016=
",SBKP,2022-06-22 12:00:00
1655902800000,"METAF SBKP 221300Z  36010KT CAVOK 22/11 Q1018=
",SBKP,2022-06-22 13:00:00
1655906400000,"METAF SBKP 221400Z  36009KT CAVOK 24/11 Q1019=
",SBKP,2022-06-22 14:00:00
1655910000000,"METAF SBKP 221500Z  34009KT CAVOK 26/10 Q1016=
",SBKP,2022-06-22 15:00:00
1655913600000,"METAF SBKP 221600Z  33008KT CAVOK 27/10 Q1017=
",SBKP,2022-06-22 16:00:00
1655917200000,"METAF SBKP 221700Z  33008KT CAVOK 27/09 Q1015=
",SBKP,2022-06-22 17:00:00
1655920800000,"METAF SBKP 221800Z  32010KT CAVOK 28/10 Q1012=
",SBKP,2022-06-22 18:00:00
1655924400000,"METAF SBKP 221900Z  33009KT CAVOK 28/10 Q1014=
",SBKP,2022-06-22 19:00:00
1655928000000,"METAF SBKP 222000Z  32007KT CAVOK 27/10 Q1015=
",SBKP,2022-06-22 20:00:00
1655931600000,"METAF SBKP 222100Z  33006KT CAVOK 26/10 Q1013=
",SBKP,2022-06-22 21:00:00
1655935200000,"METAF SBKP 222200Z  34005KT CAVOK 24/10 Q1015=
",SBKP,2022-06-22 22:00:00
1655938800000,"METAF SBKP 222300Z  33005KT CAVOK 23/10 Q1015=
",SBKP,2022-06-22 23:00:00
1655856000000,"METAF SBSP 220000Z 01004KT CAVOK 19/14 Q1017=
",SBSP,2022-06-22 00:00:00
1655859600000,"METAF SBSP 220100Z  36005KT CAVOK 19/13 Q1017=
",SBSP,2022-06-22 01:00:00
1655863200000,"METAF SBSP 220200Z  36005KT CAVOK 18/12 Q1018=
",SBSP,2022-06-22 02:00:00
1655866800000,"METAF SBSP 220300Z  36006KT CAVOK 18/12 Q1015=
",SBSP,2022-06-22 03:00:00
1655870400000,"METAF SBSP 220400Z 01006KT CAVOK 18/12 Q1016=
",SBSP,2022-06-22 04:00:00
1655874000000,"METAF SBSP 220500Z 01006KT CAVOK 18/11 Q1016=
",SBSP,2022-06-22 05:00:00
1655877600000,"METAF SBSP 220600Z  36006KT CAVOK 17/12 Q1015=
",SBSP,2022-06-22 06:00:00
1655881200000,"METAF SBSP 220700Z 01005KT CAVOK 17/11 Q1015=
",SBSP,2022-06-22 07:00:00
1655884800000,"METAF SBSP 220800Z  34006KT CAVOK 17/11 Q1016=
",SBSP,2022-06-22 08:00:00
1655888400000,"METAF SBSP 220900Z  33006KT CAVOK 16/11 Q1015=
",SBSP,2022-06-22 09:00:00
1655892000000,"METAF SBSP 221000Z  33006KT CAVOK 16/11 Q1017=
",SBSP,2022-06-22 10:00:00
1655895600000,"METAF SBSP 221100Z  34007KT CAVOK 18/11 Q1017=
",SBSP,2022-06-22 11:00:00
1655899200000,"METAF SBSP 221200Z  34007KT CAVOK 20/11 Q1017=
",SBSP,2022-06-22 12:00:00
1655902800000,"METAF SBSP 221300Z  34009KT CAVOK 22/10 Q1017=
",SBSP,2022-06-22 13:00:00
1655906400000,"METAF SBSP 221400Z  33011KT CAVOK 24/10 Q1018=
",SBSP,2022-06-22 14:00:00
1655910000000,"METAF SBSP 221500Z  32012KT CAVOK 25/09 Q1016=
",SBSP,2022-06-22 15:00:00
1655913600000,"METAF SBSP 221600Z  32011KT CAVOK 26/09 Q1016=
",SBSP,2022-06-22 16:00:00
1655917200000,"METAF SBSP 221700Z  32010KT CAVOK 26/10 Q1015=
",SBSP,2022-06-22 17:00:00
1655920800000,"METAF SBSP 221800Z  32012KT CAVOK 27/09 Q1013=
",SBSP,2022-06-22 18:00:00
1655924400000,"METAF SBSP 221900Z  32011KT CAVOK 26/10 Q1013=
",SBSP,2022-06-22 19:00:00
1655928000000,"METAF SBSP 222000Z  32010KT CAVOK 26/10 Q1015=
",SBSP,2022-06-22 20:00:00
1655931600000,"METAF SBSP 222100Z  32007KT CAVOK 25/10 Q1013=
",SBSP,2022-06-22 21:00:00
1655935200000,"METAF SBSP 222200Z  34005KT CAVOK 24/10 Q1015=
",SBSP,2022-06-22 22:00:00
1655938800000,"METAF SBSP 222300Z  33006KT CAVOK 23/10 Q1016=
",SBSP,2022-06-22 23:00:00
1655942400000,"METAF SBGL 230000Z  10005KT CAVOK 23/18 Q1014=
",SBGL,2022-06-23 00:00:00
1655946000000,"METAF SBGL 230100Z  11004KT CAVOK 23/18 Q1015=
",SBGL,2022-06-23 01:00:00
1655949600000,"METAF SBGL 230200Z  10005KT CAVOK 23/17 Q1015=
",SBGL,2022-06-23 02:00:00
1655953200000,"METAF SBGL 230300Z 09006KT CAVOK 23/16 Q1013=
",SBGL,2022-06-23 03:00:00
1655956800000,"METAF SBGL 230400Z  10004KT CAVOK 23/16 Q1014=
",SBGL,2022-06-23 04:00:00
1655960400000,"METAF SBGL 230500Z 09003KT CAVOK 24/16 Q1014=
",SBGL,2022-06-23 05:00:00
1655964000000,"METAF SBGL 230600Z  14002KT CAVOK 21/15 Q1013=
",SBGL,2022-06-23 06:00:00
1655967600000,"METAF SBGL 230700Z  18002KT CAVOK 22/15 Q1014=
",SBGL,2022-06-23 07:00:00
1655971200000,"METAF SBGL 230800Z  23003KT CAVOK 22/16 Q1016=
",SBGL,2022-06-23 08:00:00
1655974800000,"METAF SBGL 230900Z  28002KT CAVOK 22/16 Q1014=
",SBGL,2022-06-23 09:00:00
1655978400000,"METAF SBGL 231000Z  14001KT CAVOK 22/15 Q1016=
",SBGL,2022-06-23 10:00:00
1655982000000,"METAF SBGL 231100Z  10002KT CAVOK 22/15 Q1017=
",SBGL,2022-06-23 11:00:00
1655985600000,"METAF SBGL 231200Z  14002KT CAVOK 23/15 Q1016=
",SBGL,2022-06-23 12:00:00
1655989200000,"METAF SBGL 231300Z  12002KT CAVOK 23/16 Q1017=
",SBGL,2022-06-23 13:00:00
1655992800000,"METAF SBGL 231400Z  12003KT CAVOK 24/15 Q1018=
",SBGL,2022-06-23 14:00:00
1655996400000,"METAF SBGL 231500Z 09002KT CAVOK 25/15 Q1016=
",SBGL,2022-06-23 15:00:00
1656000000000,"METAF SBGL 231600Z 06003KT CAVOK 26/14 Q1015=
",SBGL,2022-06-23 16:00:00
1656003600000,"METAF SBGL 231700Z 06003KT CAVOK 27/14 Q1015=
",SBGL,2022-06-23 17:00:00
1656007200000,"METAF SBGL 231800Z  10004KT CAVOK 27/16 Q1012=
",SBGL,2022-06-23 18:00:00
1656010800000,"METAF SBGL 231900Z  10004KT CAVOK 28/15 Q1014=
",SBGL,2022-06-23 19:00:00
1656014400000,"METAF SBGL 232000Z  13004KT CAVOK 27/17 Q1016=
",SBGL,2022-06-23 20:00:00
1656018000000,"METAF SBGL 232100Z  12004KT CAVOK 26/18 Q1014=
",SBGL,2022-06-23 21:00:00
1656021600000,"METAF SBGL 232200Z  10004KT CAVOK 25/18 Q1015=
",SBGL,2022-06-23 22:00:00
1656025200000,"METAF SBGL 232300Z 07004KT CAVOK 24/17 Q1016=
",SBGL,2022-06-23 23:00:00
1655942400000,"METAF SBGR 230000Z 01007KT CAVOK 18/12 Q1014=
",SBGR,2022-06-23 00:00:00
1655946000000,"METAF SBGR 230100Z  36008KT CAVOK 18/12 Q1015=
",SBGR,2022-06-23 01:00:00
1655949600000,"METAF SBGR 230200Z 01007KT CAVOK 17/12 Q1017=
",SBGR,2022-06-23 02:00:00
1655953200000,"METAF SBGR 230300Z  35009KT CAVOK 18/11 Q1014=
",SBGR,2022-06-23 03:00:00
1655956800000,"METAF SBGR 230400Z  35008KT CAVOK 17/11 Q1016=
",SBGR,2022-06-23 04:00:00
1655960400000,"METAF SBGR 230500Z  35008KT CAVOK 18/10 Q1017=
",SBGR,2022-06-23 05:00:00
1655964000000,"METAF SBGR 230600Z  36007KT CAVOK 15/10 Q1014=
",SBGR,2022-06-23 06:00:00
1655967600000,"METAF SBGR 230700Z  35008KT CAVOK 16/10 Q1016=
",SBGR,2022-06-23 07:00:00
1655971200000,"METAF SBGR 230800Z  36007KT CAVOK 15/09 Q1018=
",SBGR,2022-06-23 08:00:00
1655974800000,"METAF SBGR 230900Z  35009KT CAVOK 16/09 Q1015=
",SBGR,2022-06-23 09:00:00
1655978400000,"METAF SBGR 231000Z  35008KT CAVOK 16/09 Q1017=
",SBGR,2022-06-23 10:00:00
1655982000000,"METAF SBGR 231100Z  34009KT CAVOK 19/09 Q1018=
",SBGR,2022-06-23 11:00:00
1655985600000,"METAF SBGR 231200Z  35007KT CAVOK 21/10 Q1017=
",SBGR,2022-06-23 12:00:00
1655989200000,"METAF SBGR 231300Z  34009KT CAVOK 22/10 Q1019=
",SBGR,2022-06-23 13:00:00
1655992800000,"METAF SBGR 231400Z  33009KT CAVOK 24/09 Q1020=
",SBGR,2022-06-23 14:00:00
1655996400000,"METAF SBGR 231500Z  32011KT CAVOK 25/08 Q1017=
",SBGR,2022-06-23 15:00:00
1656000000000,"METAF SBGR 231600Z  30011KT CAVOK 25/08 Q1018=
",SBGR,2022-06-23 16:00:00
1656003600000,"METAF SBGR 231700Z  30010KT CAVOK 25/08 Q1018=
",SBGR,2022-06-23 17:00:00
1656007200000,"METAF SBGR 231800Z  30009KT CAVOK 26/08 Q1015=
",SBGR,2022-06-23 18:00:00
1656010800000,"METAF SBGR 231900Z  30007KT CAVOK 25/08 Q1017=
",SBGR,2022-06-23 19:00:00
1656014400000,"METAF SBGR 232000Z  30005KT CAVOK 23/09 Q1018=
",SBGR,2022-06-23 20:00:00
1656018000000,"METAF SBGR 232100Z  31007KT CAVOK 19/07 Q1015=
",SBGR,2022-06-23 21:00:00
1656021600000,"METAF SBGR 232200Z  31006KT CAVOK 18/06 Q1017=
",SBGR,2022-06-23 22:00:00
1656025200000,"METAF SBGR 232300Z  33007KT CAVOK 18/06 Q1018=
",SBGR,2022-06-23 23:00:00
1655942400000,"METAF SBKP 230000Z 04006KT CAVOK 20/12 Q1013=
",SBKP,2022-06-23 00:00:00
1655946000000,"METAF SBKP 230100Z 04008KT CAVOK 20/13 Q1015=
",SBKP,2022-06-23 01:00:00
1655949600000,"METAF SBKP 230200Z 03006KT CAVOK 19/12 Q1017=
",SBKP,2022-06-23 02:00:00
1655953200000,"METAF SBKP 230300Z 02007KT CAVOK 19/11 Q1015=
",SBKP,2022-06-23 03:00:00
1655956800000,"METAF SBKP 230400Z 02006KT CAVOK 18/11 Q1016=
",SBKP,2022-06-23 04:00:00
1655960400000,"METAF SBKP 230500Z 03007KT CAVOK 18/11 Q1016=
",SBKP,2022-06-23 05:00:00
1655964000000,"METAF SBKP 230600Z 02005KT CAVOK 17/12 Q1013=
",SBKP,2022-06-23 06:00:00
1655967600000,"METAF SBKP 230700Z 03006KT CAVOK 16/12 Q1016=
",SBKP,2022-06-23 07:00:00
1655971200000,"METAF SBKP 230800Z 03006KT CAVOK 16/11 Q1017=
",SBKP,2022-06-23 08:00:00
1655974800000,"METAF SBKP 230900Z 02007KT CAVOK 16/10 Q1016=
",SBKP,2022-06-23 09:00:00
1655978400000,"METAF SBKP 231000Z 03005KT CAVOK 16/10 Q1017=
",SBKP,2022-06-23 10:00:00
1655982000000,"METAF SBKP 231100Z 02006KT CAVOK 18/10 Q1018=
",SBKP,2022-06-23 11:00:00
1655985600000,"METAF SBKP 231200Z 01007KT CAVOK 20/10 Q1016=
",SBKP,2022-06-23 12:00:00
1655989200000,"METAF SBKP 231300Z 01008KT CAVOK 22/09 Q1019=
",SBKP,2022-06-23 13:00:00
1655992800000,"METAF SBKP 231400Z  36008KT CAVOK 24/09 Q1020=
",SBKP,2022-06-23 14:00:00
1655996400000,"METAF SBKP 231500Z  34008KT CAVOK 25/08 Q1018=
",SBKP,2022-06-23 15:00:00
1656000000000,"METAF SBKP 231600Z  32007KT CAVOK 27/07 Q1018=
",SBKP,2022-06-23 16:00:00
1656003600000,"METAF SBKP 231700Z  32006KT CAVOK 27/06 Q1017=
",SBKP,2022-06-23 17:00:00
1656007200000,"METAF SBKP 231800Z  31008KT CAVOK 28/06 Q1014=
",SBKP,2022-06-23 18:00:00
1656010800000,"METAF SBKP 231900Z  31007KT CAVOK 28/06 Q1017=
",SBKP,2022-06-23 19:00:00
1656014400000,"METAF SBKP 232000Z  31005KT CAVOK 27/06 Q1017=
",SBKP,2022-06-23 20:00:00
1656018000000,"METAF SBKP 232100Z  33005KT CAVOK 25/06 Q1015=
",SBKP,2022-06-23 21:00:00
1656021600000,"METAF SBKP 232200Z  32004KT CAVOK 24/06 Q1017=
",SBKP,2022-06-23 22:00:00
1656025200000,"METAF SBKP 232300Z  31004KT CAVOK 23/06 Q1018=
",SBKP,2022-06-23 23:00:00
1655942400000,"METAF SBSP 230000Z  35006KT CAVOK 20/11 Q1014=
",SBSP,2022-06-23 00:00:00
1655946000000,"METAF SBSP 230100Z  36005KT CAVOK 19/11 Q1015=
",SBSP,2022-06-23 01:00:00
1655949600000,"METAF SBSP 230200Z  36005KT CAVOK 19/12 Q1017=
",SBSP,2022-06-23 02:00:00
1655953200000,"METAF SBSP 230300Z  34004KT CAVOK 18/12 Q1014=
",SBSP,2022-06-23 03:00:00
1655956800000,"METAF SBSP 230400Z  35004KT CAVOK 18/12 Q1015=
",SBSP,2022-06-23 04:00:00
1655960400000,"METAF SBSP 230500Z  35004KT CAVOK 17/11 Q1017=
",SBSP,2022-06-23 05:00:00
1655964000000,"METAF SBSP 230600Z  35005KT CAVOK 17/12 Q1014=
",SBSP,2022-06-23 06:00:00
1655967600000,"METAF SBSP 230700Z  34005KT CAVOK 17/11 Q1015=
",SBSP,2022-06-23 07:00:00
1655971200000,"METAF SBSP 230800Z  34005KT CAVOK 17/11 Q1017=
",SBSP,2022-06-23 08:00:00
1655974800000,"METAF SBSP 230900Z  32006KT CAVOK 16/10 Q1015=
",SBSP,2022-06-23 09:00:00
1655978400000,"METAF SBSP 231000Z  32005KT CAVOK 16/10 Q1017=
",SBSP,2022-06-23 10:00:00
1655982000000,"METAF SBSP 231100Z  33006KT CAVOK 18/09 Q1018=
",SBSP,2022-06-23 11:00:00
1655985600000,"METAF SBSP 231200Z  33006KT CAVOK 20/10 Q1017=
",SBSP,2022-06-23 12:00:00
1655989200000,"METAF SBSP 231300Z  34008KT CAVOK 22/09 Q1018=
",SBSP,2022-06-23 13:00:00
1655992800000,"METAF SBSP 231400Z  33010KT CAVOK 25/08 Q1019=
",SBSP,2022-06-23 14:00:00
1655996400000,"METAF SBSP 231500Z  31011KT CAVOK 25/07 Q1017=
",SBSP,2022-06-23 15:00:00
1656000000000,"METAF SBSP 231600Z  31011KT CAVOK 26/07 Q1017=
",SBSP,2022-06-23 16:00:00
1656003600000,"METAF SBSP 231700Z  31011KT CAVOK 26/07 Q1017=
",SBSP,2022-06-23 17:00:00
1656007200000,"METAF SBSP 231800Z  31010KT CAVOK 27/06 Q1015=
",SBSP,2022-06-23 18:00:00
1656010800000,"METAF SBSP 231900Z  31010KT CAVOK 27/07 Q1017=
",SBSP,2022-06-23 19:00:00
1656014400000,"METAF SBSP 232000Z  32009KT CAVOK 26/07 Q1017=
",SBSP,2022-06-23 20:00:00
1656018000000,"METAF SBSP 232100Z  32006KT CAVOK 25/07 Q1015=
",SBSP,2022-06-23 21:00:00
1656021600000,"METAF SBSP 232200Z  32004KT CAVOK 23/07 Q1017=
",SBSP,2022-06-23 22:00:00
1656025200000,"METAF SBSP 232300Z  32004KT CAVOK 22/08 Q1018=
",SBSP,2022-06-23 23:00:00
1656028800000,"METAF SBGL 240000Z 09006KT CAVOK 23/18 Q1014=
",SBGL,2022-06-24 00:00:00
1656032400000,"METAF SBGL 240100Z 09006KT CAVOK 23/18 Q1015=
",SBGL,2022-06-24 01:00:00
1656036000000,"METAF SBGL 240200Z  10004KT CAVOK 23/18 Q1017=
",SBGL,2022-06-24 02:00:00
1656039600000,"METAF SBGL 240300Z 09005KT CAVOK 23/16 Q1015=
",SBGL,2022-06-24 03:00:00
1656043200000,"METAF SBGL 240400Z  11004KT CAVOK 22/15 Q1015=
",SBGL,2022-06-24 04:00:00
1656046800000,"METAF SBGL 240500Z  11004KT CAVOK 23/15 Q1016=
",SBGL,2022-06-24 05:00:00
1656050400000,"METAF SBGL 240600Z  15003KT CAVOK 21/16 Q1013=
",SBGL,2022-06-24 06:00:00
1656054000000,"METAF SBGL 240700Z  16003KT CAVOK 21/15 Q1016=
",SBGL,2022-06-24 07:00:00
1656057600000,"METAF SBGL 240800Z  15002KT CAVOK 22/15 Q1017=
",SBGL,2022-06-24 08:00:00
1656061200000,"METAF SBGL 240900Z  13003KT CAVOK 22/15 Q1016=
",SBGL,2022-06-24 09:00:00
1656064800000,"METAF SBGL 241000Z  11004KT CAVOK 22/14 Q1016=
",SBGL,2022-06-24 10:00:00
1656068400000,"METAF SBGL 241100Z  14003KT CAVOK 22/13 Q1017=
",SBGL,2022-06-24 11:00:00
1656072000000,"METAF SBGL 241200Z  16002KT CAVOK 22/12 Q1016=
",SBGL,2022-06-24 12:00:00
1656075600000,"METAF SBGL 241300Z  14003KT CAVOK 24/15 Q1018=
",SBGL,2022-06-24 13:00:00
1656079200000,"METAF SBGL 241400Z  13002KT CAVOK 25/14 Q1019=
",SBGL,2022-06-24 14:00:00
1656082800000,"METAF SBGL 241500Z  12002KT CAVOK 26/14 Q1016=
",SBGL,2022-06-24 15:00:00
1656086400000,"METAF SBGL 241600Z  11002KT CAVOK 26/13 Q1016=
",SBGL,2022-06-24 16:00:00
1656090000000,"METAF SBGL 241700Z  14002KT CAVOK 27/13 Q1016=
",SBGL,2022-06-24 17:00:00
1656093600000,"METAF SBGL 241800Z  12004KT CAVOK 27/15 Q1013=
",SBGL,2022-06-24 18:00:00
1656097200000,"METAF SBGL 241900Z  12004KT CAVOK 27/15 Q1015=
",SBGL,2022-06-24 19:00:00
1656100800000,"METAF SBGL 242000Z  15005KT CAVOK 26/17 Q1017=
",SBGL,2022-06-24 20:00:00
1656104400000,"METAF SBGL 242100Z  19006KT CAVOK 25/18 Q1015=
",SBGL,2022-06-24 21:00:00
1656108000000,"METAF SBGL 242200Z  21005KT CAVOK 24/19 Q1017=
",SBGL,2022-06-24 22:00:00
1656111600000,"METAF SBGL 242300Z  23005KT CAVOK 24/18 Q1018=
",SBGL,2022-06-24 23:00:00
1656028800000,"METAF SBGR 240000Z  33005KT CAVOK 17/07 Q1016=
",SBGR,2022-06-24 00:00:00
1656032400000,"METAF SBGR 240100Z  34006KT CAVOK 16/07 Q1018=
",SBGR,2022-06-24 01:00:00
1656036000000,"METAF SBGR 240200Z  35007KT CAVOK 16/08 Q1018=
",SBGR,2022-06-24 02:00:00
1656039600000,"METAF SBGR 240300Z  35007KT CAVOK 16/08 Q1015=
",SBGR,2022-06-24 03:00:00
1656043200000,"METAF SBGR 240400Z  35007KT CAVOK 15/08 Q1017=
",SBGR,2022-06-24 04:00:00
1656046800000,"METAF SBGR 240500Z  35007KT CAVOK 15/08 Q1018=
",SBGR,2022-06-24 05:00:00
1656050400000,"METAF SBGR 240600Z  36006KT CAVOK 15/09 Q1015=
",SBGR,2022-06-24 06:00:00
1656054000000,"METAF SBGR 240700Z  35007KT CAVOK 15/09 Q1017=
",SBGR,2022-06-24 07:00:00
1656057600000,"METAF SBGR 240800Z  36007KT CAVOK 14/08 Q1018=
",SBGR,2022-06-24 08:00:00
1656061200000,"METAF SBGR 240900Z  35007KT CAVOK 14/07 Q1016=
",SBGR,2022-06-24 09:00:00
1656064800000,"METAF SBGR 241000Z  35008KT CAVOK 14/07 Q1018=
",SBGR,2022-06-24 10:00:00
1656068400000,"METAF SBGR 241100Z  33007KT CAVOK 18/09 Q1019=
",SBGR,2022-06-24 11:00:00
1656072000000,"METAF SBGR 241200Z  33005KT CAVOK 21/12 Q1018=
",SBGR,2022-06-24 12:00:00
1656075600000,"METAF SBGR 241300Z  33008KT CAVOK 22/11 Q1020=
",SBGR,2022-06-24 13:00:00
1656079200000,"METAF SBGR 241400Z  33007KT CAVOK 24/10 Q1021=
",SBGR,2022-06-24 14:00:00
1656082800000,"METAF SBGR 241500Z  30009KT CAVOK 25/09 Q1018=
",SBGR,2022-06-24 15:00:00
1656086400000,"METAF SBGR 241600Z  30009KT CAVOK 25/06 Q1019=
",SBGR,2022-06-24 16:00:00
1656090000000,"METAF SBGR 241700Z  30009KT CAVOK 24/07 Q1019=
",SBGR,2022-06-24 17:00:00
1656093600000,"METAF SBGR 241800Z  31010KT CAVOK 25/09 Q1014=
",SBGR,2022-06-24 18:00:00
1656097200000,"METAF SBGR 241900Z  30008KT CAVOK 25/08 Q1018=
",SBGR,2022-06-24 19:00:00
1656100800000,"METAF SBGR 242000Z  29005KT CAVOK 23/07 Q1018=
",SBGR,2022-06-24 20:00:00
1656104400000,"METAF SBGR 242100Z  29006KT CAVOK 20/06 Q1016=
",SBGR,2022-06-24 21:00:00
1656108000000,"METAF SBGR 242200Z  28004KT CAVOK 19/05 Q1018=
",SBGR,2022-06-24 22:00:00
1656111600000,"METAF SBGR 242300Z  28005KT CAVOK 17/05 Q1019=
",SBGR,2022-06-24 23:00:00
1656028800000,"METAF SBKP 240000Z 05004KT CAVOK 20/08 Q1015=
",SBKP,2022-06-24 00:00:00
1656032400000,"METAF SBKP 240100Z 05005KT CAVOK 19/08 Q1018=
",SBKP,2022-06-24 01:00:00
1656036000000,"METAF SBKP 240200Z 05005KT CAVOK 18/09 Q1018=
",SBKP,2022-06-24 02:00:00
1656039600000,"METAF SBKP 240300Z 03006KT CAVOK 18/08 Q1015=
",SBKP,2022-06-24 03:00:00
1656043200000,"METAF SBKP 240400Z 03006KT CAVOK 18/08 Q1017=
",SBKP,2022-06-24 04:00:00
1656046800000,"METAF SBKP 240500Z 04006KT CAVOK 17/08 Q1018=
",SBKP,2022-06-24 05:00:00
1656050400000,"METAF SBKP 240600Z 05004KT CAVOK 16/10 Q1014=
",SBKP,2022-06-24 06:00:00
1656054000000,"METAF SBKP 240700Z 04006KT CAVOK 17/10 Q1017=
",SBKP,2022-06-24 07:00:00
1656057600000,"METAF SBKP 240800Z 03006KT CAVOK 16/09 Q1018=
",SBKP,2022-06-24 08:00:00
1656061200000,"METAF SBKP 240900Z 03005KT CAVOK 16/09 Q1016=
",SBKP,2022-06-24 09:00:00
1656064800000,"METAF SBKP 241000Z 04005KT CAVOK 15/08 Q1018=
",SBKP,2022-06-24 10:00:00
1656068400000,"METAF SBKP 241100Z 02004KT CAVOK 17/08 Q1019=
",SBKP,2022-06-24 11:00:00
1656072000000,"METAF SBKP 241200Z 02007KT CAVOK 20/10 Q1018=
",SBKP,2022-06-24 12:00:00
1656075600000,"METAF SBKP 241300Z 01007KT CAVOK 22/10 Q1021=
",SBKP,2022-06-24 13:00:00
1656079200000,"METAF SBKP 241400Z  35006KT CAVOK 24/09 Q1021=
",SBKP,2022-06-24 14:00:00
1656082800000,"METAF SBKP 241500Z  32006KT CAVOK 25/08 Q1018=
",SBKP,2022-06-24 15:00:00
1656086400000,"METAF SBKP 241600Z  31005KT CAVOK 26/06 Q1019=
",SBKP,2022-06-24 16:00:00
1656090000000,"METAF SBKP 241700Z  30005KT CAVOK 27/06 Q1018=
",SBKP,2022-06-24 17:00:00
1656093600000,"METAF SBKP 241800Z  33008KT CAVOK 28/03 Q1014=
",SBKP,2022-06-24 18:00:00
1656097200000,"METAF SBKP 241900Z  32007KT CAVOK 28/01 Q1018=
",SBKP,2022-06-24 19:00:00
1656100800000,"METAF SBKP 242000Z  31005KT CAVOK 27/03 Q1017=
",SBKP,2022-06-24 20:00:00
1656104400000,"METAF SBKP 242100Z  32004KT CAVOK 25/04 Q1015=
",SBKP,2022-06-24 21:00:00
1656108000000,"METAF SBKP 242200Z  28004KT CAVOK 23/06 Q1018=
",SBKP,2022-06-24 22:00:00
1656111600000,"METAF SBKP 242300Z  26003KT CAVOK 22/07 Q1018=
",SBKP,2022-06-24 23:00:00
1656028800000,"METAF SBSP 240000Z  31004KT CAVOK 19/09 Q1016=
",SBSP,2022-06-24 00:00:00
1656032400000,"METAF SBSP 240100Z  33004KT CAVOK 19/08 Q1017=
",SBSP,2022-06-24 01:00:00
1656036000000,"METAF SBSP 240200Z  33004KT CAVOK 18/08 Q1018=
",SBSP,2022-06-24 02:00:00
1656039600000,"METAF SBSP 240300Z  32005KT CAVOK 18/07 Q1015=
",SBSP,2022-06-24 03:00:00
1656043200000,"METAF SBSP 240400Z  32004KT CAVOK 17/08 Q1017=
",SBSP,2022-06-24 04:00:00
1656046800000,"METAF SBSP 240500Z  33004KT CAVOK 17/08 Q1018=
",SBSP,2022-06-24 05:00:00
1656050400000,"METAF SBSP 240600Z  33003KT CAVOK 16/11 Q1016=
",SBSP,2022-06-24 06:00:00
1656054000000,"METAF SBSP 240700Z  34003KT CAVOK 16/11 Q1017=
",SBSP,2022-06-24 07:00:00
1656057600000,"METAF SBSP 240800Z  36004KT CAVOK 16/11 Q1018=
",SBSP,2022-06-24 08:00:00
1656061200000,"METAF SBSP 240900Z  33005KT CAVOK 16/10 Q1015=
",SBSP,2022-06-24 09:00:00
1656064800000,"METAF SBSP 241000Z  32004KT CAVOK 15/10 Q1018=
",SBSP,2022-06-24 10:00:00
1656068400000,"METAF SBSP 241100Z  32004KT CAVOK 17/08 Q1019=
",SBSP,2022-06-24 11:00:00
1656072000000,"METAF SBSP 241200Z  35003KT CAVOK 19/11 Q1018=
",SBSP,2022-06-24 12:00:00
1656075600000,"METAF SBSP 241300Z  34003KT CAVOK 21/10 Q1020=
",SBSP,2022-06-24 13:00:00
1656079200000,"METAF SBSP 241400Z  31005KT CAVOK 23/10 Q1021=
",SBSP,2022-06-24 14:00:00
1656082800000,"METAF SBSP 241500Z  31007KT CAVOK 25/09 Q1018=
",SBSP,2022-06-24 15:00:00
1656086400000,"METAF SBSP 241600Z  30007KT CAVOK 26/07 Q1019=
",SBSP,2022-06-24 16:00:00
1656090000000,"METAF SBSP 241700Z  30008KT CAVOK 25/07 Q1018=
",SBSP,2022-06-24 17:00:00
1656093600000,"METAF SBSP 241800Z  32009KT CAVOK 27/08 Q1014=
",SBSP,2022-06-24 18:00:00
1656097200000,"METAF SBSP 241900Z  31009KT CAVOK 27/07 Q1017=
",SBSP,2022-06-24 19:00:00
1656100800000,"METAF SBSP 242000Z  30009KT CAVOK 26/05 Q1017=
",SBSP,2022-06-24 20:00:00
1656104400000,"METAF SBSP 242100Z  28003KT CAVOK 25/05 Q1016=
",SBSP,2022-06-24 21:00:00
1656108000000,"METAF SBSP 242200Z  20002KT CAVOK 22/09 Q1018=
",SBSP,2022-06-24 22:00:00
1656111600000,"METAF SBSP 242300Z  17003KT CAVOK 20/13 Q1019=
",SBSP,2022-06-24 23:00:00
1656115200000,"METAF SBGL 250000Z  18006KT CAVOK 22/19 Q1016=
",SBGL,2022-06-25 00:00:00
1656118800000,"METAF SBGL 250100Z  19004KT CAVOK 22/19 Q1018=
",SBGL,2022-06-25 01:00:00
1656122400000,"METAF SBGL 250200Z  25006KT 4000     BR    22/19 Q1019=
",SBGL,2022-06-25 02:00:00
1656126000000,"METAF SBGL 250300Z  28004KT 3000     BR    21/19 Q1016=
",SBGL,2022-06-25 03:00:00
1656129600000,"METAF SBGL 250400Z  21004KT 4000     BR    21/18 Q1017=
",SBGL,2022-06-25 04:00:00
1656133200000,"METAF SBGL 250500Z  22003KT CAVOK 21/18 Q1017=
",SBGL,2022-06-25 05:00:00
1656136800000,"METAF SBGL 250600Z  18003KT CAVOK 20/14 Q1013=
",SBGL,2022-06-25 06:00:00
1656140400000,"METAF SBGL 250700Z  11005KT CAVOK 20/15 Q1017=
",SBGL,2022-06-25 07:00:00
1656144000000,"METAF SBGL 250800Z  11003KT CAVOK 20/16 Q1018=
",SBGL,2022-06-25 08:00:00
1656147600000,"METAF SBGL 250900Z  13005KT CAVOK 20/16 Q1016=
",SBGL,2022-06-25 09:00:00
1656151200000,"METAF SBGL 251000Z 08004KT CAVOK 20/16 Q1017=
",SBGL,2022-06-25 10:00:00
1656154800000,"METAF SBGL 251100Z  19001KT CAVOK 20/16 Q1017=
",SBGL,2022-06-25 11:00:00
1656158400000,"METAF SBGL 251200Z  20003KT CAVOK 21/16 Q1017=
",SBGL,2022-06-25 12:00:00
1656162000000,"METAF SBGL 251300Z  21004KT CAVOK 23/15 Q1017=
",SBGL,2022-06-25 13:00:00
1656165600000,"METAF SBGL 251400Z  23004KT CAVOK 25/15 Q1017=
",SBGL,2022-06-25 14:00:00
1656169200000,"METAF SBGL 251500Z  22008KT CAVOK 26/15 Q1016=
",SBGL,2022-06-25 15:00:00
1656172800000,"METAF SBGL 251600Z  21011KT CAVOK 25/16 Q1017=
",SBGL,2022-06-25 16:00:00
1656176400000,"METAF SBGL 251700Z  22011KT CAVOK 24/17 Q1017=
",SBGL,2022-06-25 17:00:00
1656180000000,"METAF SBGL 251800Z  22010KT 9999       FEW027   23/18 Q1017=
",SBGL,2022-06-25 18:00:00
1656183600000,"METAF SBGL 251900Z  23008KT 9000       BKN023   23/18 Q1018=
",SBGL,2022-06-25 19:00:00
1656115200000,"METAF SBGR 250000Z  12001KT CAVOK 16/11 Q1016=
",SBGR,2022-06-25 00:00:00
1656118800000,"METAF SBGR 250100Z 07002KT CAVOK 15/11 Q1020=
",SBGR,2022-06-25 01:00:00
1656122400000,"METAF SBGR 250200Z  36005KT CAVOK 15/09 Q1020=
",SBGR,2022-06-25 02:00:00
1656126000000,"METAF SBGR 250300Z  33005KT CAVOK 15/09 Q1017=
",SBGR,2022-06-25 03:00:00
1656129600000,"METAF SBGR 250400Z  34005KT CAVOK 14/08 Q1018=
",SBGR,2022-06-25 04:00:00
1656133200000,"METAF SBGR 250500Z  33005KT CAVOK 14/07 Q1019=
",SBGR,2022-06-25 05:00:00
1656136800000,"METAF SBGR 250600Z  35005KT CAVOK 14/09 Q1015=
",SBGR,2022-06-25 06:00:00
1656140400000,"METAF SBGR 250700Z  33006KT CAVOK 14/09 Q1019=
",SBGR,2022-06-25 07:00:00
1656144000000,"METAF SBGR 250800Z  33006KT CAVOK 13/08 Q1019=
",SBGR,2022-06-25 08:00:00
1656147600000,"METAF SBGR 250900Z  33007KT CAVOK 13/08 Q1017=
",SBGR,2022-06-25 09:00:00
1656151200000,"METAF SBGR 251000Z  33006KT CAVOK 13/07 Q1019=
",SBGR,2022-06-25 10:00:00
1656154800000,"METAF SBGR 251100Z  32005KT CAVOK 16/09 Q1020=
",SBGR,2022-06-25 11:00:00
1656158400000,"METAF SBGR 251200Z  31004KT CAVOK 19/10 Q1019=
",SBGR,2022-06-25 12:00:00
1656162000000,"METAF SBGR 251300Z  28004KT CAVOK 21/10 Q1020=
",SBGR,2022-06-25 13:00:00
1656165600000,"METAF SBGR 251400Z  23005KT CAVOK 22/10 Q1020=
",SBGR,2022-06-25 14:00:00
1656169200000,"METAF SBGR 251500Z  21006KT CAVOK 22/10 Q1020=
",SBGR,2022-06-25 15:00:00
1656172800000,"METAF SBGR 251600Z  20006KT CAVOK 23/11 Q1020=
",SBGR,2022-06-25 16:00:00
1656176400000,"METAF SBGR 251700Z  18008KT 9999       FEW033   22/12 Q1018=
",SBGR,2022-06-25 17:00:00
1656180000000,"METAF SBGR 251800Z  17010KT 9999       BKN029   21/14 Q1018=
",SBGR,2022-06-25 18:00:00
1656183600000,"METAF SBGR 251900Z  17011KT 9999       OVC020   19/14 Q1019=
",SBGR,2022-06-25 19:00:00
1656115200000,"METAF SBKP 250000Z  30001KT CAVOK 20/09 Q1015=
",SBKP,2022-06-25 00:00:00
1656118800000,"METAF SBKP 250100Z 07005KT CAVOK 19/10 Q1019=
",SBKP,2022-06-25 01:00:00
1656122400000,"METAF SBKP 250200Z 06005KT CAVOK 18/09 Q1019=
",SBKP,2022-06-25 02:00:00
1656126000000,"METAF SBKP 250300Z 03005KT CAVOK 17/08 Q1017=
",SBKP,2022-06-25 03:00:00
1656129600000,"METAF SBKP 250400Z 03005KT CAVOK 17/08 Q1018=
",SBKP,2022-06-25 04:00:00
1656133200000,"METAF SBKP 250500Z 04005KT CAVOK 16/07 Q1019=
",SBKP,2022-06-25 05:00:00
1656136800000,"METAF SBKP 250600Z 01002KT CAVOK 15/11 Q1014=
",SBKP,2022-06-25 06:00:00
1656140400000,"METAF SBKP 250700Z 06002KT CAVOK 15/10 Q1019=
",SBKP,2022-06-25 07:00:00
1656144000000,"METAF SBKP 250800Z 05004KT CAVOK 15/09 Q1019=
",SBKP,2022-06-25 08:00:00
1656147600000,"METAF SBKP 250900Z 03005KT CAVOK 14/08 Q1017=
",SBKP,2022-06-25 09:00:00
1656151200000,"METAF SBKP 251000Z 04005KT CAVOK 14/07 Q1018=
",SBKP,2022-06-25 10:00:00
1656154800000,"METAF SBKP 251100Z 03003KT CAVOK 16/07 Q1020=
",SBKP,2022-06-25 11:00:00
1656158400000,"METAF SBKP 251200Z 02002KT CAVOK 18/08 Q1019=
",SBKP,2022-06-25 12:00:00
1656162000000,"METAF SBKP 251300Z  34003KT CAVOK 20/08 Q1020=
",SBKP,2022-06-25 13:00:00
1656165600000,"METAF SBKP 251400Z  30002KT CAVOK 22/08 Q1020=
",SBKP,2022-06-25 14:00:00
1656169200000,"METAF SBKP 251500Z  25003KT CAVOK 23/09 Q1019=
",SBKP,2022-06-25 15:00:00
1656172800000,"METAF SBKP 251600Z  22005KT CAVOK 25/09 Q1019=
",SBKP,2022-06-25 16:00:00
1656176400000,"METAF SBKP 251700Z  22006KT CAVOK 25/08 Q1017=
",SBKP,2022-06-25 17:00:00
1656180000000,"METAF SBKP 251800Z  21007KT CAVOK 25/09 Q1017=
",SBKP,2022-06-25 18:00:00
1656183600000,"METAF SBKP 251900Z  20008KT CAVOK 25/11 Q1017=
",SBKP,2022-06-25 19:00:00
1656115200000,"METAF SBSP 250000Z  20002KT 1000     BR BKN020   17/16 Q1017=
",SBSP,2022-06-25 00:00:00
1656118800000,"METAF SBSP 250100Z  17001KT 2000     BR BKN023   17/16 Q1019=
",SBSP,2022-06-25 01:00:00
1656122400000,"METAF SBSP 250200Z 02001KT 1000     BR FEW020   17/16 Q1019=
",SBSP,2022-06-25 02:00:00
1656126000000,"METAF SBSP 250300Z  32002KT 0700 FG     OVC017   16/16 Q1016=
",SBSP,2022-06-25 03:00:00
1656129600000,"METAF SBSP 250400Z  32002KT 1000     BR OVC016   16/15 Q1017=
",SBSP,2022-06-25 04:00:00
1656133200000,"METAF SBSP 250500Z  28002KT 0800 FG     FEW017   15/15 Q1018=
",SBSP,2022-06-25 05:00:00
1656136800000,"METAF SBSP 250600Z  34003KT 4000     BR SCT033   16/14 Q1016=
",SBSP,2022-06-25 06:00:00
1656140400000,"METAF SBSP 250700Z  32003KT 4000     BR SCT033   16/13 Q1019=
",SBSP,2022-06-25 07:00:00
1656144000000,"METAF SBSP 250800Z  30003KT 6000       FEW033   15/12 Q1019=
",SBSP,2022-06-25 08:00:00
1656147600000,"METAF SBSP 250900Z  32004KT CAVOK 15/11 Q1016=
",SBSP,2022-06-25 09:00:00
1656151200000,"METAF SBSP 251000Z  32004KT CAVOK 15/11 Q1019=
",SBSP,2022-06-25 10:00:00
1656154800000,"METAF SBSP 251100Z  30003KT CAVOK 16/11 Q1020=
",SBSP,2022-06-25 11:00:00
1656158400000,"METAF SBSP 251200Z  26002KT CAVOK 18/11 Q1019=
",SBSP,2022-06-25 12:00:00
1656162000000,"METAF SBSP 251300Z  25003KT CAVOK 20/11 Q1020=
",SBSP,2022-06-25 13:00:00
1656165600000,"METAF SBSP 251400Z  20005KT CAVOK 22/12 Q1020=
",SBSP,2022-06-25 14:00:00
1656169200000,"METAF SBSP 251500Z  18007KT 9999       SCT032   22/13 Q1020=
",SBSP,2022-06-25 15:00:00
1656172800000,"METAF SBSP 251600Z  17008KT 9999       BKN025   21/14 Q1020=
",SBSP,2022-06-25 16:00:00
1656176400000,"METAF SBSP 251700Z  18009KT 9999       BKN020   20/14 Q1019=
",SBSP,2022-06-25 17:00:00
1656180000000,"METAF SBSP 251800Z  18011KT 9000       OVC014   19/14 Q1019=
",SBSP,2022-06-25 18:00:00
1656183600000,"METAF SBSP 251900Z  18010KT 6000       OVC010   17/14 Q1020=
",SBSP,2022-06-25 19:00:00
1656223200000,"METAF SBGL 260600Z  25004KT 2000     BR OVC033   20/19 Q1017=
",SBGL,2022-06-26 06:00:00
1656226800000,"METAF SBGL 260700Z  19003KT 2000  - RABR OVC033   20/19 Q1019=
",SBGL,2022-06-26 07:00:00
1656230400000,"METAF SBGL 260800Z  15005KT 4000  - RABR OVC011   21/18 Q1020=
",SBGL,2022-06-26 08:00:00
1656234000000,"METAF SBGL 260900Z  13006KT 5000     BR OVC013   21/18 Q1019=
",SBGL,2022-06-26 09:00:00
1656237600000,"METAF SBGL 261000Z 08002KT 4000     BR OVC013   20/18 Q1019=
",SBGL,2022-06-26 10:00:00
1656241200000,"METAF SBGL 261100Z 01003KT 4000     BR OVC013   21/18 Q1021=
",SBGL,2022-06-26 11:00:00
1656244800000,"METAF SBGL 261200Z  13004KT 6000       OVC014   21/17 Q1021=
",SBGL,2022-06-26 12:00:00
1656248400000,"METAF SBGL 261300Z  13005KT 9999       OVC020   21/17 Q1023=
",SBGL,2022-06-26 13:00:00
1656252000000,"METAF SBGL 261400Z  14004KT 9999       OVC020   21/17 Q1024=
",SBGL,2022-06-26 14:00:00
1656255600000,"METAF SBGL 261500Z  14006KT 9999       BKN022   21/16 Q1021=
",SBGL,2022-06-26 15:00:00
1656259200000,"METAF SBGL 261600Z  13003KT 9999       BKN026   22/16 Q1019=
",SBGL,2022-06-26 16:00:00
1656262800000,"METAF SBGL 261700Z  16004KT 9999       BKN030   22/15 Q1019=
",SBGL,2022-06-26 17:00:00
1656266400000,"METAF SBGL 261800Z  16011KT 9999       OVC031   22/15 Q1018=
",SBGL,2022-06-26 18:00:00
1656270000000,"METAF SBGL 261900Z  15012KT 9999       BKN029   22/15 Q1021=
",SBGL,2022-06-26 19:00:00
1656273600000,"METAF SBGL 262000Z  14008KT 9999       BKN033   21/15 Q1022=
",SBGL,2022-06-26 20:00:00
1656277200000,"METAF SBGL 262100Z  12007KT 9999       BKN033   21/15 Q1020=
",SBGL,2022-06-26 21:00:00
1656280800000,"METAF SBGL 262200Z  10008KT 9999       BKN033   20/15 Q1021=
",SBGL,2022-06-26 22:00:00
1656284400000,"METAF SBGL 262300Z  10008KT 9999       OVC033   20/15 Q1022=
",SBGL,2022-06-26 23:00:00
1656223200000,"METAF SBGR 260600Z  14006KT 1000     BR OVC013   14/14 Q1019=
",SBGR,2022-06-26 06:00:00
1656226800000,"METAF SBGR 260700Z  14006KT 1000     BR OVC033   15/14 Q1020=
",SBGR,2022-06-26 07:00:00
1656230400000,"METAF SBGR 260800Z  11006KT 1000     BR OVC033   14/14 Q1020=
",SBGR,2022-06-26 08:00:00
1656234000000,"METAF SBGR 260900Z  10005KT 1000     BR OVC010   14/13 Q1017=
",SBGR,2022-06-26 09:00:00
1656237600000,"METAF SBGR 261000Z  10004KT 1000     BR OVC033   14/13 Q1020=
",SBGR,2022-06-26 10:00:00
1656241200000,"METAF SBGR 261100Z  10005KT 1000     BR OVC033   14/13 Q1022=
",SBGR,2022-06-26 11:00:00
1656244800000,"METAF SBGR 261200Z  15004KT 4000     BR OVC033   15/13 Q1021=
",SBGR,2022-06-26 12:00:00
1656248400000,"METAF SBGR 261300Z  14006KT 9000       OVC017   17/13 Q1023=
",SBGR,2022-06-26 13:00:00
1656252000000,"METAF SBGR 261400Z  12005KT 9999       OVC022   18/12 Q1023=
",SBGR,2022-06-26 14:00:00
1656255600000,"METAF SBGR 261500Z  10003KT 9999       OVC025   19/12 Q1019=
",SBGR,2022-06-26 15:00:00
1656259200000,"METAF SBGR 261600Z 09002KT 9999       OVC030   20/12 Q1019=
",SBGR,2022-06-26 16:00:00
1656262800000,"METAF SBGR 261700Z  13001KT 9999       BKN032   20/12 Q1020=
",SBGR,2022-06-26 17:00:00
1656266400000,"METAF SBGR 261800Z  17006KT 9999       OVC023   18/13 Q1018=
",SBGR,2022-06-26 18:00:00
1656270000000,"METAF SBGR 261900Z  15008KT 9999       OVC020   18/13 Q1020=
",SBGR,2022-06-26 19:00:00
1656273600000,"METAF SBGR 262000Z  13008KT 7000       OVC032   16/13 Q1020=
",SBGR,2022-06-26 20:00:00
1656277200000,"METAF SBGR 262100Z  12008KT 3000     BR OVC033   15/13 Q1018=
",SBGR,2022-06-26 21:00:00
1656280800000,"METAF SBGR 262200Z  11006KT 2000     BR OVC033   13/12 Q1020=
",SBGR,2022-06-26 22:00:00
1656284400000,"METAF SBGR 262300Z  12006KT 2000     BR OVC032   14/13 Q1022=
",SBGR,2022-06-26 23:00:00
1656223200000,"METAF SBKP 260600Z  14006KT 2000     BR OVC024   15/13 Q1017=
",SBKP,2022-06-26 06:00:00
1656226800000,"METAF SBKP 260700Z  14007KT 2000     BR OVC020   15/13 Q1019=
",SBKP,2022-06-26 07:00:00
1656230400000,"METAF SBKP 260800Z  12008KT 1000     BR OVC016   14/13 Q1020=
",SBKP,2022-06-26 08:00:00
1656234000000,"METAF SBKP 260900Z  11008KT 2000     BR OVC028   15/13 Q1017=
",SBKP,2022-06-26 09:00:00
1656237600000,"METAF SBKP 261000Z  11007KT 3000     BR OVC010   15/13 Q1019=
",SBKP,2022-06-26 10:00:00
1656241200000,"METAF SBKP 261100Z  11008KT 6000       BKN033   16/13 Q1021=
",SBKP,2022-06-26 11:00:00
1656244800000,"METAF SBKP 261200Z  16005KT 8000       OVC010   17/13 Q1019=
",SBKP,2022-06-26 12:00:00
1656248400000,"METAF SBKP 261300Z  14005KT 9999       BKN033   19/13 Q1023=
",SBKP,2022-06-26 13:00:00
1656252000000,"METAF SBKP 261400Z  12006KT 9999       BKN033   20/12 Q1023=
",SBKP,2022-06-26 14:00:00
1656255600000,"METAF SBKP 261500Z  12004KT 9999       BKN033   21/12 Q1019=
",SBKP,2022-06-26 15:00:00
1656259200000,"METAF SBKP 261600Z  10003KT 9999       SCT033   22/12 Q1019=
",SBKP,2022-06-26 16:00:00
1656262800000,"METAF SBKP 261700Z  14002KT 9999       FEW033   23/11 Q1019=
",SBKP,2022-06-26 17:00:00
1656266400000,"METAF SBKP 261800Z  21004KT CAVOK 23/11 Q1015=
",SBKP,2022-06-26 18:00:00
1656270000000,"METAF SBKP 261900Z  18006KT CAVOK 24/11 Q1019=
",SBKP,2022-06-26 19:00:00
1656273600000,"METAF SBKP 262000Z  16006KT CAVOK 23/12 Q1019=
",SBKP,2022-06-26 20:00:00
1656277200000,"METAF SBKP 262100Z  14008KT 9999       FEW033   21/12 Q1017=
",SBKP,2022-06-26 21:00:00
1656280800000,"METAF SBKP 262200Z  11011KT 9999       FEW033   18/13 Q1018=
",SBKP,2022-06-26 22:00:00
1656284400000,"METAF SBKP 262300Z  12011KT 9000       SCT033   17/13 Q1020=
",SBKP,2022-06-26 23:00:00
1656223200000,"METAF SBSP 260600Z  15006KT 2000     BR OVC033   15/14 Q1020=
",SBSP,2022-06-26 06:00:00
1656226800000,"METAF SBSP 260700Z  15007KT 2000     BR OVC033   15/14 Q1021=
",SBSP,2022-06-26 07:00:00
1656230400000,"METAF SBSP 260800Z  13007KT 2000     BR OVC033   15/14 Q1020=
",SBSP,2022-06-26 08:00:00
1656234000000,"METAF SBSP 260900Z  13005KT 1000     BR OVC033   15/14 Q1017=
",SBSP,2022-06-26 09:00:00
1656237600000,"METAF SBSP 261000Z  13005KT 1000     BR OVC016   15/14 Q1020=
",SBSP,2022-06-26 10:00:00
1656241200000,"METAF SBSP 261100Z  11004KT 2000     BR OVC033   15/14 Q1022=
",SBSP,2022-06-26 11:00:00
1656244800000,"METAF SBSP 261200Z  15004KT 4000     BR OVC033   16/13 Q1022=
",SBSP,2022-06-26 12:00:00
1656248400000,"METAF SBSP 261300Z  14007KT 6000       OVC011   16/13 Q1024=
",SBSP,2022-06-26 13:00:00
1656252000000,"METAF SBSP 261400Z  13007KT 6000       OVC011   17/13 Q1023=
",SBSP,2022-06-26 14:00:00
1656255600000,"METAF SBSP 261500Z  12004KT 7000       OVC012   17/13 Q1019=
",SBSP,2022-06-26 15:00:00
1656259200000,"METAF SBSP 261600Z  14004KT 9999       OVC016   18/13 Q1020=
",SBSP,2022-06-26 16:00:00
1656262800000,"METAF SBSP 261700Z  15005KT 9999       OVC018   19/14 Q1020=
",SBSP,2022-06-26 17:00:00
1656266400000,"METAF SBSP 261800Z  14008KT 8000       OVC013   17/13 Q1019=
",SBSP,2022-06-26 18:00:00
1656270000000,"METAF SBSP 261900Z  13009KT 7000       OVC011   16/13 Q1021=
",SBSP,2022-06-26 19:00:00
1656273600000,"METAF SBSP 262000Z  13010KT 4000     BR OVC032   15/13 Q1021=
",SBSP,2022-06-26 20:00:00
1656277200000,"METAF SBSP 262100Z  12007KT 3000     BR OVC033   15/13 Q1018=
",SBSP,2022-06-26 21:00:00
1656280800000,"METAF SBSP 262200Z  11005KT 3000     BR OVC033   15/13 Q1020=
",SBSP,2022-06-26 22:00:00
1656284400000,"METAF SBSP 262300Z  12005KT 4000     BR OVC033   15/13 Q1022=
",SBSP,2022-06-26 23:00:00
1656288000000,"METAF SBGL 270000Z  10007KT 9999       OVC033   20/15 Q1021=
",SBGL,2022-06-27 00:00:00
1656291600000,"METAF SBGL 270100Z 09006KT 9999       OVC033   19/15 Q1023=
",SBGL,2022-06-27 01:00:00
1656295200000,"METAF SBGL 270200Z 03007KT 7000       OVC033   19/15 Q1025=
",SBGL,2022-06-27 02:00:00
1656298800000,"METAF SBGL 270300Z 03007KT 7000       OVC033   19/15 Q1022=
",SBGL,2022-06-27 03:00:00
1656302400000,"METAF SBGL 270400Z 05008KT 8000       BKN033   19/15 Q1021=
",SBGL,2022-06-27 04:00:00
1656306000000,"METAF SBGL 270500Z 08006KT 8000       BKN033   19/15 Q1021=
",SBGL,2022-06-27 05:00:00
1656309600000,"METAF SBGL 270600Z 05006KT 4000     BR OVC013   17/15 Q1021=
",SBGL,2022-06-27 06:00:00
1656313200000,"METAF SBGL 270700Z 06006KT 6000       OVC023   18/14 Q1023=
",SBGL,2022-06-27 07:00:00
1656316800000,"METAF SBGL 270800Z 03006KT 8000       OVC024   18/14 Q1024=
",SBGL,2022-06-27 08:00:00
1656320400000,"METAF SBGL 270900Z 02007KT 8000       OVC023   18/14 Q1022=
",SBGL,2022-06-27 09:00:00
1656324000000,"METAF SBGL 271000Z 02006KT 9000       SCT020   18/14 Q1022=
",SBGL,2022-06-27 10:00:00
1656327600000,"METAF SBGL 271100Z 07005KT 9999       FEW023   19/14 Q1022=
",SBGL,2022-06-27 11:00:00
1656331200000,"METAF SBGL 271200Z 05004KT 8000       BKN017   18/15 Q1022=
",SBGL,2022-06-27 12:00:00
1656334800000,"METAF SBGL 271300Z 07004KT 9999       BKN022   19/14 Q1025=
",SBGL,2022-06-27 13:00:00
1656338400000,"METAF SBGL 271400Z 03003KT 9999       BKN027   20/14 Q1026=
",SBGL,2022-06-27 14:00:00
1656342000000,"METAF SBGL 271500Z 04003KT 9999       SCT031   20/13 Q1023=
",SBGL,2022-06-27 15:00:00
1656345600000,"METAF SBGL 271600Z 09002KT CAVOK 21/13 Q1022=
",SBGL,2022-06-27 16:00:00
1656349200000,"METAF SBGL 271700Z 08002KT CAVOK 21/13 Q1020=
",SBGL,2022-06-27 17:00:00
1656352800000,"METAF SBGL 271800Z  13004KT 9999       BKN033   22/13 Q1018=
",SBGL,2022-06-27 18:00:00
1656356400000,"METAF SBGL 271900Z  13011KT 9999       OVC033   22/14 Q1020=
",SBGL,2022-06-27 19:00:00
1656360000000,"METAF SBGL 272000Z  12012KT 9999       BKN033   21/14 Q1023=
",SBGL,2022-06-27 20:00:00
1656363600000,"METAF SBGL 272100Z  10011KT 9999       BKN033   21/14 Q1021=
",SBGL,2022-06-27 21:00:00
1656367200000,"METAF SBGL 272200Z  10011KT 9999       SCT033   21/14 Q1022=
",SBGL,2022-06-27 22:00:00
1656370800000,"METAF SBGL 272300Z 06011KT CAVOK 20/13 Q1021=
",SBGL,2022-06-27 23:00:00
1656288000000,"METAF SBGR 270000Z  14007KT 2000     BR OVC033   13/12 Q1021=
",SBGR,2022-06-27 00:00:00
1656291600000,"METAF SBGR 270100Z  13007KT 2000     BR OVC033   14/12 Q1022=
",SBGR,2022-06-27 01:00:00
1656295200000,"METAF SBGR 270200Z  11008KT 2000     BR OVC033   13/12 Q1022=
",SBGR,2022-06-27 02:00:00
1656298800000,"METAF SBGR 270300Z  10005KT 1000     BR OVC031   13/12 Q1018=
",SBGR,2022-06-27 03:00:00
1656302400000,"METAF SBGR 270400Z 07006KT 1000     BR OVC031   13/12 Q1019=
",SBGR,2022-06-27 04:00:00
1656306000000,"METAF SBGR 270500Z 08006KT 1000     BR OVC033   13/12 Q1020=
",SBGR,2022-06-27 05:00:00
1656309600000,"METAF SBGR 270600Z  10006KT 2000     BR OVC033   13/11 Q1019=
",SBGR,2022-06-27 06:00:00
1656313200000,"METAF SBGR 270700Z  10007KT 1000     BR OVC033   13/11 Q1021=
",SBGR,2022-06-27 07:00:00
1656316800000,"METAF SBGR 270800Z 09006KT 1000     BR OVC033   13/11 Q1022=
",SBGR,2022-06-27 08:00:00
1656320400000,"METAF SBGR 270900Z 06006KT 1000     BR OVC033   12/11 Q1018=
",SBGR,2022-06-27 09:00:00
1656324000000,"METAF SBGR 271000Z 05008KT 2000     BR OVC033   12/11 Q1020=
",SBGR,2022-06-27 10:00:00
1656327600000,"METAF SBGR 271100Z 05006KT 2000     BR OVC030   13/11 Q1021=
",SBGR,2022-06-27 11:00:00
1656331200000,"METAF SBGR 271200Z 08006KT 5000     BR OVC033   14/11 Q1021=
",SBGR,2022-06-27 12:00:00
1656334800000,"METAF SBGR 271300Z 08006KT 9999       BKN033   16/12 Q1023=
",SBGR,2022-06-27 13:00:00
1656338400000,"METAF SBGR 271400Z 05004KT 9999       OVC033   18/12 Q1023=
",SBGR,2022-06-27 14:00:00
1656342000000,"METAF SBGR 271500Z  35003KT 9999       OVC028   19/12 Q1019=
",SBGR,2022-06-27 15:00:00
1656345600000,"METAF SBGR 271600Z  33006KT 9999       BKN033   21/12 Q1020=
",SBGR,2022-06-27 16:00:00
1656349200000,"METAF SBGR 271700Z  32008KT 9999       SCT033   22/12 Q1019=
",SBGR,2022-06-27 17:00:00
1656352800000,"METAF SBGR 271800Z  32003KT 9999       SCT033   21/12 Q1017=
",SBGR,2022-06-27 18:00:00
1656356400000,"METAF SBGR 271900Z  29003KT 9999       FEW033   21/12 Q1019=
",SBGR,2022-06-27 19:00:00
1656360000000,"METAF SBGR 272000Z  29003KT 9999       FEW033   21/12 Q1019=
",SBGR,2022-06-27 20:00:00
1656363600000,"METAF SBGR 272100Z  15002KT 9999       FEW031   16/11 Q1017=
",SBGR,2022-06-27 21:00:00
1656367200000,"METAF SBGR 272200Z 07006KT 6000       FEW033   15/12 Q1019=
",SBGR,2022-06-27 22:00:00
1656370800000,"METAF SBGR 272300Z 06006KT 2000     BR BKN033   14/13 Q1020=
",SBGR,2022-06-27 23:00:00
1656288000000,"METAF SBKP 270000Z  13009KT 7000       SCT033   16/12 Q1018=
",SBKP,2022-06-27 00:00:00
1656291600000,"METAF SBKP 270100Z  13011KT 5000     BR BKN033   15/12 Q1021=
",SBKP,2022-06-27 01:00:00
1656295200000,"METAF SBKP 270200Z  12012KT 5000     BR BKN033   15/12 Q1021=
",SBKP,2022-06-27 02:00:00
1656298800000,"METAF SBKP 270300Z  11011KT 4000     BR BKN033   15/12 Q1018=
",SBKP,2022-06-27 03:00:00
1656302400000,"METAF SBKP 270400Z  10010KT 4000     BR BKN033   14/12 Q1019=
",SBKP,2022-06-27 04:00:00
1656306000000,"METAF SBKP 270500Z  10007KT 3000     BR BKN031   14/12 Q1019=
",SBKP,2022-06-27 05:00:00
1656309600000,"METAF SBKP 270600Z  12007KT 4000     BR BKN033   14/12 Q1018=
",SBKP,2022-06-27 06:00:00
1656313200000,"METAF SBKP 270700Z  10007KT 4000     BR BKN033   14/12 Q1021=
",SBKP,2022-06-27 07:00:00
1656316800000,"METAF SBKP 270800Z  10008KT 3000     BR BKN033   13/12 Q1021=
",SBKP,2022-06-27 08:00:00
1656320400000,"METAF SBKP 270900Z  10007KT 1000     BR OVC033   13/12 Q1018=
",SBKP,2022-06-27 09:00:00
1656324000000,"METAF SBKP 271000Z 09007KT 1000     BR OVC033   13/12 Q1019=
",SBKP,2022-06-27 10:00:00
1656327600000,"METAF SBKP 271100Z 07005KT 4000     BR BKN033   14/12 Q1020=
",SBKP,2022-06-27 11:00:00
1656331200000,"METAF SBKP 271200Z 09003KT 9999       BKN033   16/12 Q1020=
",SBKP,2022-06-27 12:00:00
1656334800000,"METAF SBKP 271300Z 05004KT 9999       BKN033   18/11 Q1023=
",SBKP,2022-06-27 13:00:00
1656338400000,"METAF SBKP 271400Z 01005KT 9999       SCT033   20/12 Q1023=
",SBKP,2022-06-27 14:00:00
1656342000000,"METAF SBKP 271500Z  34005KT 9999       SCT033   21/12 Q1019=
",SBKP,2022-06-27 15:00:00
1656345600000,"METAF SBKP 271600Z  34006KT 9999       FEW033   22/12 Q1020=
",SBKP,2022-06-27 16:00:00
1656349200000,"METAF SBKP 271700Z  34007KT CAVOK 23/11 Q1019=
",SBKP,2022-06-27 17:00:00
1656352800000,"METAF SBKP 271800Z  31005KT 9999       FEW033   23/11 Q1016=
",SBKP,2022-06-27 18:00:00
1656356400000,"METAF SBKP 271900Z  29004KT CAVOK 24/11 Q1019=
",SBKP,2022-06-27 19:00:00
1656360000000,"METAF SBKP 272000Z  29003KT CAVOK 23/11 Q1019=
",SBKP,2022-06-27 20:00:00
1656363600000,"METAF SBKP 272100Z  24002KT CAVOK 22/11 Q1016=
",SBKP,2022-06-27 21:00:00
1656367200000,"METAF SBKP 272200Z  13003KT CAVOK 21/12 Q1018=
",SBKP,2022-06-27 22:00:00
1656370800000,"METAF SBKP 272300Z  11004KT CAVOK 20/12 Q1019=
",SBKP,2022-06-27 23:00:00
1656288000000,"METAF SBSP 270000Z  14007KT 2000     BR OVC033   14/13 Q1022=
",SBSP,2022-06-27 00:00:00
1656291600000,"METAF SBSP 270100Z  13008KT 2000     BR OVC033   14/13 Q1022=
",SBSP,2022-06-27 01:00:00
1656295200000,"METAF SBSP 270200Z  10008KT 2000     BR OVC033   14/13 Q1022=
",SBSP,2022-06-27 02:00:00
1656298800000,"METAF SBSP 270300Z 07005KT 2000     BR OVC029   14/12 Q1019=
",SBSP,2022-06-27 03:00:00
1656302400000,"METAF SBSP 270400Z 05004KT 3000     BR OVC033   14/12 Q1019=
",SBSP,2022-06-27 04:00:00
1656306000000,"METAF SBSP 270500Z 08004KT 3000     BR OVC033   14/12 Q1021=
",SBSP,2022-06-27 05:00:00
1656309600000,"METAF SBSP 270600Z 09004KT 4000     BR OVC033   14/11 Q1020=
",SBSP,2022-06-27 06:00:00
1656313200000,"METAF SBSP 270700Z  11006KT 4000     BR OVC033   14/11 Q1022=
",SBSP,2022-06-27 07:00:00
1656316800000,"METAF SBSP 270800Z 08006KT 3000     BR OVC033   14/12 Q1022=
",SBSP,2022-06-27 08:00:00
1656320400000,"METAF SBSP 270900Z 03006KT 3000     BR OVC033   13/12 Q1018=
",SBSP,2022-06-27 09:00:00
1656324000000,"METAF SBSP 271000Z 02008KT 3000     BR OVC033   13/11 Q1020=
",SBSP,2022-06-27 10:00:00
1656327600000,"METAF SBSP 271100Z 03008KT 4000     BR OVC033   14/11 Q1021=
",SBSP,2022-06-27 11:00:00
1656331200000,"METAF SBSP 271200Z 05004KT 9999       OVC033   15/10 Q1021=
",SBSP,2022-06-27 12:00:00
1656334800000,"METAF SBSP 271300Z 05006KT 9999       BKN033   16/10 Q1023=
",SBSP,2022-06-27 13:00:00
1656338400000,"METAF SBSP 271400Z 06004KT 9999       BKN033   18/11 Q1024=
",SBSP,2022-06-27 14:00:00
1656342000000,"METAF SBSP 271500Z 01005KT 9999       OVC033   19/11 Q1019=
",SBSP,2022-06-27 15:00:00
1656345600000,"METAF SBSP 271600Z  36006KT 9999       BKN033   20/11 Q1020=
",SBSP,2022-06-27 16:00:00
1656349200000,"METAF SBSP 271700Z  34007KT 9999       SCT033   22/11 Q1019=
",SBSP,2022-06-27 17:00:00
1656352800000,"METAF SBSP 271800Z  14006KT 9999       BKN020   18/13 Q1018=
",SBSP,2022-06-27 18:00:00
1656356400000,"METAF SBSP 271900Z  14008KT 8000       BKN033   17/14 Q1019=
",SBSP,2022-06-27 19:00:00
1656360000000,"METAF SBSP 272000Z  13008KT 5000     BR BKN033   17/14 Q1020=
",SBSP,2022-06-27 20:00:00
1656363600000,"METAF SBSP 272100Z  11006KT 2000     BR OVC033   15/14 Q1017=
",SBSP,2022-06-27 21:00:00
1656367200000,"METAF SBSP 272200Z  10004KT 4000     BR OVC033   16/14 Q1020=
",SBSP,2022-06-27 22:00:00
1656370800000,"METAF SBSP 272300Z 05005KT 4000     BR BKN033   16/13 Q1020=
",SBSP,2022-06-27 23:00:00
1656374400000,"METAF SBGL 280000Z 09012KT CAVOK 19/14 Q1019=
",SBGL,2022-06-28 00:00:00
1656378000000,"METAF SBGL 280100Z 09013KT CAVOK 19/14 Q1019=
",SBGL,2022-06-28 01:00:00
1656381600000,"METAF SBGL 280200Z 09012KT CAVOK 19/13 Q1023=
",SBGL,2022-06-28 02:00:00
1656385200000,"METAF SBGL 280300Z 07011KT CAVOK 19/13 Q1020=
",SBGL,2022-06-28 03:00:00
1656388800000,"METAF SBGL 280400Z 07008KT CAVOK 19/13 Q1019=
",SBGL,2022-06-28 04:00:00
1656392400000,"METAF SBGL 280500Z 08006KT CAVOK 18/13 Q1018=
",SBGL,2022-06-28 05:00:00
1656396000000,"METAF SBGL 280600Z  14004KT CAVOK 17/13 Q1018=
",SBGL,2022-06-28 06:00:00
1656399600000,"METAF SBGL 280700Z  12002KT CAVOK 17/13 Q1019=
",SBGL,2022-06-28 07:00:00
1656403200000,"METAF SBGL 280800Z  20002KT CAVOK 17/13 Q1022=
",SBGL,2022-06-28 08:00:00
1656406800000,"METAF SBGL 280900Z 01003KT CAVOK 17/13 Q1020=
",SBGL,2022-06-28 09:00:00
1656410400000,"METAF SBGL 281000Z 03003KT CAVOK 17/13 Q1020=
",SBGL,2022-06-28 10:00:00
1656414000000,"METAF SBGL 281100Z  15001KT CAVOK 18/13 Q1021=
",SBGL,2022-06-28 11:00:00
1656417600000,"METAF SBGL 281200Z  16004KT CAVOK 18/14 Q1020=
",SBGL,2022-06-28 12:00:00
1656421200000,"METAF SBGL 281300Z  15004KT CAVOK 20/14 Q1021=
",SBGL,2022-06-28 13:00:00
1656424800000,"METAF SBGL 281400Z  16004KT CAVOK 21/13 Q1023=
",SBGL,2022-06-28 14:00:00
1656428400000,"METAF SBGL 281500Z  13004KT CAVOK 22/14 Q1019=
",SBGL,2022-06-28 15:00:00
1656432000000,"METAF SBGL 281600Z  14003KT CAVOK 22/15 Q1019=
",SBGL,2022-06-28 16:00:00
1656435600000,"METAF SBGL 281700Z  11001KT CAVOK 23/14 Q1018=
",SBGL,2022-06-28 17:00:00
1656439200000,"METAF SBGL 281800Z  16005KT CAVOK 23/15 Q1014=
",SBGL,2022-06-28 18:00:00
1656442800000,"METAF SBGL 281900Z  16006KT CAVOK 23/16 Q1016=
",SBGL,2022-06-28 19:00:00
1656446400000,"METAF SBGL 282000Z  14006KT CAVOK 23/16 Q1018=
",SBGL,2022-06-28 20:00:00
1656450000000,"METAF SBGL 282100Z  13005KT CAVOK 23/16 Q1015=
",SBGL,2022-06-28 21:00:00
1656453600000,"METAF SBGL 282200Z  13004KT CAVOK 23/16 Q1017=
",SBGL,2022-06-28 22:00:00
1656457200000,"METAF SBGL 282300Z  11004KT CAVOK 22/16 Q1017=
",SBGL,2022-06-28 23:00:00
1656374400000,"METAF SBGR 280000Z  10005KT 1000     BR OVC033   13/12 Q1018=
",SBGR,2022-06-28 00:00:00
1656378000000,"METAF SBGR 280100Z 09006KT 1000     BR OVC033   14/13 Q1019=
",SBGR,2022-06-28 01:00:00
1656381600000,"METAF SBGR 280200Z 06005KT 1000     BR OVC033   13/12 Q1019=
",SBGR,2022-06-28 02:00:00
1656385200000,"METAF SBGR 280300Z 04005KT 1000     BR OVC033   12/11 Q1016=
",SBGR,2022-06-28 03:00:00
1656388800000,"METAF SBGR 280400Z 05005KT 2000     BR BKN033   12/11 Q1017=
",SBGR,2022-06-28 04:00:00
1656392400000,"METAF SBGR 280500Z 03005KT 3000     BR SCT033   12/10 Q1018=
",SBGR,2022-06-28 05:00:00
1656396000000,"METAF SBGR 280600Z 07004KT 1000     BR BKN033   11/10 Q1017=
",SBGR,2022-06-28 06:00:00
1656399600000,"METAF SBGR 280700Z 09003KT 1000     BR OVC033   11/10 Q1019=
",SBGR,2022-06-28 07:00:00
1656403200000,"METAF SBGR 280800Z 02005KT 3000     BR BKN033   11/09 Q1019=
",SBGR,2022-06-28 08:00:00
1656406800000,"METAF SBGR 280900Z  35006KT 5000     BR FEW033   12/09 Q1017=
",SBGR,2022-06-28 09:00:00
1656410400000,"METAF SBGR 281000Z  36006KT CAVOK 12/08 Q1018=
",SBGR,2022-06-28 10:00:00
1656414000000,"METAF SBGR 281100Z  35007KT CAVOK 16/10 Q1019=
",SBGR,2022-06-28 11:00:00
1656417600000,"METAF SBGR 281200Z  33003KT 9000       FEW033   17/12 Q1020=
",SBGR,2022-06-28 12:00:00
1656421200000,"METAF SBGR 281300Z  32005KT CAVOK 19/12 Q1022=
",SBGR,2022-06-28 13:00:00
1656424800000,"METAF SBGR 281400Z  32008KT CAVOK 21/12 Q1022=
",SBGR,2022-06-28 14:00:00
1656428400000,"METAF SBGR 281500Z  31012KT CAVOK 22/11 Q1018=
",SBGR,2022-06-28 15:00:00
1656432000000,"METAF SBGR 281600Z  31010KT CAVOK 23/11 Q1019=
",SBGR,2022-06-28 16:00:00
1656435600000,"METAF SBGR 281700Z  31010KT CAVOK 23/11 Q1018=
",SBGR,2022-06-28 17:00:00
1656439200000,"METAF SBGR 281800Z  30011KT CAVOK 23/10 Q1015=
",SBGR,2022-06-28 18:00:00
1656442800000,"METAF SBGR 281900Z  30010KT CAVOK 23/10 Q1017=
",SBGR,2022-06-28 19:00:00
1656446400000,"METAF SBGR 282000Z  29007KT CAVOK 22/11 Q1018=
",SBGR,2022-06-28 20:00:00
1656450000000,"METAF SBGR 282100Z  31007KT CAVOK 18/10 Q1015=
",SBGR,2022-06-28 21:00:00
1656453600000,"METAF SBGR 282200Z  32007KT CAVOK 17/10 Q1017=
",SBGR,2022-06-28 22:00:00
1656457200000,"METAF SBGR 282300Z  31007KT CAVOK 16/10 Q1017=
",SBGR,2022-06-28 23:00:00
1656374400000,"METAF SBKP 280000Z  12007KT CAVOK 18/13 Q1016=
",SBKP,2022-06-28 00:00:00
1656378000000,"METAF SBKP 280100Z  11009KT 6000       SCT033   16/13 Q1019=
",SBKP,2022-06-28 01:00:00
1656381600000,"METAF SBKP 280200Z  10007KT 7000       FEW033   16/13 Q1018=
",SBKP,2022-06-28 02:00:00
1656385200000,"METAF SBKP 280300Z 08006KT 7000       FEW033   16/13 Q1015=
",SBKP,2022-06-28 03:00:00
1656388800000,"METAF SBKP 280400Z 05005KT CAVOK 16/12 Q1016=
",SBKP,2022-06-28 04:00:00
1656392400000,"METAF SBKP 280500Z 05005KT CAVOK 16/12 Q1017=
",SBKP,2022-06-28 05:00:00
1656396000000,"METAF SBKP 280600Z 09004KT 5000     BR FEW033   15/12 Q1016=
",SBKP,2022-06-28 06:00:00
1656399600000,"METAF SBKP 280700Z 09005KT 6000       FEW033   15/12 Q1019=
",SBKP,2022-06-28 07:00:00
1656403200000,"METAF SBKP 280800Z 06004KT 7000       FEW033   15/11 Q1019=
",SBKP,2022-06-28 08:00:00
1656406800000,"METAF SBKP 280900Z 03006KT CAVOK 14/10 Q1017=
",SBKP,2022-06-28 09:00:00
1656410400000,"METAF SBKP 281000Z 03005KT CAVOK 14/09 Q1019=
",SBKP,2022-06-28 10:00:00
1656414000000,"METAF SBKP 281100Z 02005KT CAVOK 16/10 Q1020=
",SBKP,2022-06-28 11:00:00
1656417600000,"METAF SBKP 281200Z  35002KT CAVOK 17/11 Q1019=
",SBKP,2022-06-28 12:00:00
1656421200000,"METAF SBKP 281300Z  34005KT CAVOK 19/11 Q1022=
",SBKP,2022-06-28 13:00:00
1656424800000,"METAF SBKP 281400Z  33005KT CAVOK 21/11 Q1022=
",SBKP,2022-06-28 14:00:00
1656428400000,"METAF SBKP 281500Z  33008KT CAVOK 22/11 Q1018=
",SBKP,2022-06-28 15:00:00
1656432000000,"METAF SBKP 281600Z  32007KT CAVOK 24/11 Q1019=
",SBKP,2022-06-28 16:00:00
1656435600000,"METAF SBKP 281700Z  32008KT CAVOK 25/10 Q1017=
",SBKP,2022-06-28 17:00:00
1656439200000,"METAF SBKP 281800Z  30009KT CAVOK 26/10 Q1014=
",SBKP,2022-06-28 18:00:00
1656442800000,"METAF SBKP 281900Z  32008KT CAVOK 26/10 Q1017=
",SBKP,2022-06-28 19:00:00
1656446400000,"METAF SBKP 282000Z  29009KT CAVOK 26/10 Q1018=
",SBKP,2022-06-28 20:00:00
1656450000000,"METAF SBKP 282100Z  30006KT CAVOK 24/10 Q1015=
",SBKP,2022-06-28 21:00:00
1656453600000,"METAF SBKP 282200Z  32005KT CAVOK 23/10 Q1017=
",SBKP,2022-06-28 22:00:00
1656457200000,"METAF SBKP 282300Z  32004KT CAVOK 22/10 Q1017=
",SBKP,2022-06-28 23:00:00
1656374400000,"METAF SBSP 280000Z 08003KT 3000     BR OVC031   15/13 Q1019=
",SBSP,2022-06-28 00:00:00
1656378000000,"METAF SBSP 280100Z 07003KT 3000     BR OVC033   15/13 Q1019=
",SBSP,2022-06-28 01:00:00
1656381600000,"METAF SBSP 280200Z 05005KT 3000     BR BKN033   15/13 Q1019=
",SBSP,2022-06-28 02:00:00
1656385200000,"METAF SBSP 280300Z 03005KT 4000     BR BKN033   14/12 Q1016=
",SBSP,2022-06-28 03:00:00
1656388800000,"METAF SBSP 280400Z 03005KT 4000     BR BKN033   14/12 Q1017=
",SBSP,2022-06-28 04:00:00
1656392400000,"METAF SBSP 280500Z 03005KT 4000     BR BKN033   14/12 Q1017=
",SBSP,2022-06-28 05:00:00
1656396000000,"METAF SBSP 280600Z 04004KT 2000     BR OVC033   13/12 Q1018=
",SBSP,2022-06-28 06:00:00
1656399600000,"METAF SBSP 280700Z 01004KT 2000     BR OVC033   13/12 Q1019=
",SBSP,2022-06-28 07:00:00
1656403200000,"METAF SBSP 280800Z  36005KT 2000     BR BKN033   13/12 Q1019=
",SBSP,2022-06-28 08:00:00
1656406800000,"METAF SBSP 280900Z  36005KT 2000     BR BKN033   13/12 Q1017=
",SBSP,2022-06-28 09:00:00
1656410400000,"METAF SBSP 281000Z  36004KT 3000     BR BKN033   13/11 Q1018=
",SBSP,2022-06-28 10:00:00
1656414000000,"METAF SBSP 281100Z  35005KT 8000       FEW033   15/11 Q1019=
",SBSP,2022-06-28 11:00:00
1656417600000,"METAF SBSP 281200Z  35003KT 6000       BKN033   14/11 Q1020=
",SBSP,2022-06-28 12:00:00
1656421200000,"METAF SBSP 281300Z  34005KT 9999       FEW033   17/11 Q1021=
",SBSP,2022-06-28 13:00:00
1656424800000,"METAF SBSP 281400Z  33008KT CAVOK 20/12 Q1021=
",SBSP,2022-06-28 14:00:00
1656428400000,"METAF SBSP 281500Z  32011KT CAVOK 22/11 Q1017=
",SBSP,2022-06-28 15:00:00
1656432000000,"METAF SBSP 281600Z  31009KT CAVOK 23/10 Q1018=
",SBSP,2022-06-28 16:00:00
1656435600000,"METAF SBSP 281700Z  31010KT CAVOK 24/10 Q1017=
",SBSP,2022-06-28 17:00:00
1656439200000,"METAF SBSP 281800Z  30011KT CAVOK 24/09 Q1015=
",SBSP,2022-06-28 18:00:00
1656442800000,"METAF SBSP 281900Z  31011KT CAVOK 24/10 Q1016=
",SBSP,2022-06-28 19:00:00
1656446400000,"METAF SBSP 282000Z  31011KT CAVOK 24/10 Q1017=
",SBSP,2022-06-28 20:00:00
1656450000000,"METAF SBSP 282100Z  32007KT CAVOK 23/10 Q1014=
",SBSP,2022-06-28 21:00:00
1656453600000,"METAF SBSP 282200Z  31004KT CAVOK 22/11 Q1017=
",SBSP,2022-06-28 22:00:00
1656457200000,"METAF SBSP 282300Z  30005KT CAVOK 21/11 Q1017=
",SBSP,2022-06-28 23:00:00
1656460800000,"METAF SBGL 290000Z  14006KT CAVOK 21/16 Q1015=
",SBGL,2022-06-29 00:00:00
1656464400000,"METAF SBGL 290100Z  12006KT CAVOK 21/15 Q1017=
",SBGL,2022-06-29 01:00:00
1656468000000,"METAF SBGL 290200Z  10006KT CAVOK 21/14 Q1017=
",SBGL,2022-06-29 02:00:00
1656471600000,"METAF SBGL 290300Z 09004KT CAVOK 21/14 Q1015=
",SBGL,2022-06-29 03:00:00
1656475200000,"METAF SBGL 290400Z  10005KT CAVOK 21/15 Q1015=
",SBGL,2022-06-29 04:00:00
1656478800000,"METAF SBGL 290500Z  10004KT CAVOK 21/15 Q1015=
",SBGL,2022-06-29 05:00:00
1656482400000,"METAF SBGL 290600Z  12006KT CAVOK 20/14 Q1013=
",SBGL,2022-06-29 06:00:00
1656486000000,"METAF SBGL 290700Z  10007KT CAVOK 20/14 Q1014=
",SBGL,2022-06-29 07:00:00
1656489600000,"METAF SBGL 290800Z  15003KT CAVOK 20/14 Q1015=
",SBGL,2022-06-29 08:00:00
1656493200000,"METAF SBGL 290900Z  35001KT CAVOK 21/14 Q1013=
",SBGL,2022-06-29 09:00:00
1656496800000,"METAF SBGL 291000Z  27004KT CAVOK 21/15 Q1015=
",SBGL,2022-06-29 10:00:00
1656500400000,"METAF SBGL 291100Z  29005KT CAVOK 22/15 Q1015=
",SBGL,2022-06-29 11:00:00
1656504000000,"METAF SBGL 291200Z  13003KT CAVOK 21/13 Q1014=
",SBGL,2022-06-29 12:00:00
1656507600000,"METAF SBGL 291300Z 09005KT CAVOK 22/15 Q1016=
",SBGL,2022-06-29 13:00:00
1656511200000,"METAF SBGL 291400Z  17001KT CAVOK 23/16 Q1017=
",SBGL,2022-06-29 14:00:00
1656514800000,"METAF SBGL 291500Z  13001KT CAVOK 24/15 Q1013=
",SBGL,2022-06-29 15:00:00
1656518400000,"METAF SBGL 291600Z 09001KT CAVOK 25/15 Q1013=
",SBGL,2022-06-29 16:00:00
1656522000000,"METAF SBGL 291700Z  33001KT CAVOK 26/14 Q1012=
",SBGL,2022-06-29 17:00:00
1656525600000,"METAF SBGL 291800Z 08005KT CAVOK 26/16 Q1009=
",SBGL,2022-06-29 18:00:00
1656529200000,"METAF SBGL 291900Z 07005KT CAVOK 26/16 Q1012=
",SBGL,2022-06-29 19:00:00
1656532800000,"METAF SBGL 292000Z  10002KT CAVOK 26/16 Q1015=
",SBGL,2022-06-29 20:00:00
1656536400000,"METAF SBGL 292100Z 08004KT CAVOK 25/17 Q1013=
",SBGL,2022-06-29 21:00:00
1656540000000,"METAF SBGL 292200Z 05009KT CAVOK 24/17 Q1012=
",SBGL,2022-06-29 22:00:00
1656543600000,"METAF SBGL 292300Z 05012KT CAVOK 24/17 Q1011=
",SBGL,2022-06-29 23:00:00
1656460800000,"METAF SBGR 290000Z  32007KT CAVOK 16/11 Q1015=
",SBGR,2022-06-29 00:00:00
1656464400000,"METAF SBGR 290100Z  32007KT CAVOK 15/11 Q1017=
",SBGR,2022-06-29 01:00:00
1656468000000,"METAF SBGR 290200Z  31007KT CAVOK 15/11 Q1018=
",SBGR,2022-06-29 02:00:00
1656471600000,"METAF SBGR 290300Z  32008KT CAVOK 15/11 Q1014=
",SBGR,2022-06-29 03:00:00
1656475200000,"METAF SBGR 290400Z  33008KT CAVOK 15/11 Q1016=
",SBGR,2022-06-29 04:00:00
1656478800000,"METAF SBGR 290500Z  33009KT CAVOK 14/10 Q1016=
",SBGR,2022-06-29 05:00:00
1656482400000,"METAF SBGR 290600Z  32009KT 7000       FEW033   14/11 Q1013=
",SBGR,2022-06-29 06:00:00
1656486000000,"METAF SBGR 290700Z  32008KT 6000       FEW033   14/11 Q1015=
",SBGR,2022-06-29 07:00:00
1656489600000,"METAF SBGR 290800Z  33009KT 6000       FEW033   14/11 Q1016=
",SBGR,2022-06-29 08:00:00
1656493200000,"METAF SBGR 290900Z  33012KT 7000       FEW033   14/11 Q1013=
",SBGR,2022-06-29 09:00:00
1656496800000,"METAF SBGR 291000Z  33011KT 7000       FEW033   14/10 Q1015=
",SBGR,2022-06-29 10:00:00
1656500400000,"METAF SBGR 291100Z  33011KT CAVOK 15/11 Q1015=
",SBGR,2022-06-29 11:00:00
1656504000000,"METAF SBGR 291200Z  33010KT CAVOK 18/12 Q1014=
",SBGR,2022-06-29 12:00:00
1656507600000,"METAF SBGR 291300Z  32011KT CAVOK 20/12 Q1017=
",SBGR,2022-06-29 13:00:00
1656511200000,"METAF SBGR 291400Z  31012KT CAVOK 22/12 Q1017=
",SBGR,2022-06-29 14:00:00
1656514800000,"METAF SBGR 291500Z  31016KT CAVOK 22/11 Q1014=
",SBGR,2022-06-29 15:00:00
1656518400000,"METAF SBGR 291600Z  31016KT CAVOK 23/11 Q1014=
",SBGR,2022-06-29 16:00:00
1656522000000,"METAF SBGR 291700Z  30016KT CAVOK 24/10 Q1014=
",SBGR,2022-06-29 17:00:00
1656525600000,"METAF SBGR 291800Z  29009KT CAVOK 24/11 Q1013=
",SBGR,2022-06-29 18:00:00
1656529200000,"METAF SBGR 291900Z  29008KT CAVOK 24/11 Q1016=
",SBGR,2022-06-29 19:00:00
1656532800000,"METAF SBGR 292000Z  32007KT CAVOK 22/11 Q1015=
",SBGR,2022-06-29 20:00:00
1656536400000,"METAF SBGR 292100Z  30009KT CAVOK 20/09 Q1012=
",SBGR,2022-06-29 21:00:00
1656540000000,"METAF SBGR 292200Z  29010KT CAVOK 20/08 Q1015=
",SBGR,2022-06-29 22:00:00
1656543600000,"METAF SBGR 292300Z  28007KT CAVOK 17/09 Q1016=
",SBGR,2022-06-29 23:00:00
1656460800000,"METAF SBKP 290000Z  34004KT CAVOK 19/11 Q1014=
",SBKP,2022-06-29 00:00:00
1656464400000,"METAF SBKP 290100Z  32004KT CAVOK 18/12 Q1017=
",SBKP,2022-06-29 01:00:00
1656468000000,"METAF SBKP 290200Z  34003KT CAVOK 18/12 Q1018=
",SBKP,2022-06-29 02:00:00
1656471600000,"METAF SBKP 290300Z 01005KT CAVOK 17/11 Q1015=
",SBKP,2022-06-29 03:00:00
1656475200000,"METAF SBKP 290400Z 02005KT CAVOK 16/11 Q1016=
",SBKP,2022-06-29 04:00:00
1656478800000,"METAF SBKP 290500Z 02006KT CAVOK 16/11 Q1016=
",SBKP,2022-06-29 05:00:00
1656482400000,"METAF SBKP 290600Z 01007KT CAVOK 15/11 Q1013=
",SBKP,2022-06-29 06:00:00
1656486000000,"METAF SBKP 290700Z 01005KT CAVOK 15/11 Q1015=
",SBKP,2022-06-29 07:00:00
1656489600000,"METAF SBKP 290800Z 01006KT CAVOK 15/11 Q1017=
",SBKP,2022-06-29 08:00:00
1656493200000,"METAF SBKP 290900Z  36008KT 8000       FEW033   15/11 Q1014=
",SBKP,2022-06-29 09:00:00
1656496800000,"METAF SBKP 291000Z 01008KT 8000       FEW033   14/11 Q1016=
",SBKP,2022-06-29 10:00:00
1656500400000,"METAF SBKP 291100Z 01008KT CAVOK 15/11 Q1016=
",SBKP,2022-06-29 11:00:00
1656504000000,"METAF SBKP 291200Z 01007KT CAVOK 17/11 Q1015=
",SBKP,2022-06-29 12:00:00
1656507600000,"METAF SBKP 291300Z  35007KT CAVOK 20/11 Q1018=
",SBKP,2022-06-29 13:00:00
1656511200000,"METAF SBKP 291400Z  34009KT CAVOK 22/12 Q1018=
",SBKP,2022-06-29 14:00:00
1656514800000,"METAF SBKP 291500Z  32011KT CAVOK 24/11 Q1015=
",SBKP,2022-06-29 15:00:00
1656518400000,"METAF SBKP 291600Z  31013KT CAVOK 26/10 Q1014=
",SBKP,2022-06-29 16:00:00
1656522000000,"METAF SBKP 291700Z  30014KT CAVOK 26/09 Q1014=
",SBKP,2022-06-29 17:00:00
1656525600000,"METAF SBKP 291800Z  30008KT CAVOK 26/11 Q1011=
",SBKP,2022-06-29 18:00:00
1656529200000,"METAF SBKP 291900Z  27007KT CAVOK 26/11 Q1016=
",SBKP,2022-06-29 19:00:00
1656532800000,"METAF SBKP 292000Z  28008KT CAVOK 26/10 Q1015=
",SBKP,2022-06-29 20:00:00
1656536400000,"METAF SBKP 292100Z  29008KT CAVOK 24/09 Q1012=
",SBKP,2022-06-29 21:00:00
1656540000000,"METAF SBKP 292200Z  29007KT CAVOK 23/10 Q1015=
",SBKP,2022-06-29 22:00:00
1656543600000,"METAF SBKP 292300Z  30006KT CAVOK 22/10 Q1016=
",SBKP,2022-06-29 23:00:00
1656460800000,"METAF SBSP 290000Z  33005KT CAVOK 19/11 Q1015=
",SBSP,2022-06-29 00:00:00
1656464400000,"METAF SBSP 290100Z  31006KT CAVOK 18/11 Q1016=
",SBSP,2022-06-29 01:00:00
1656468000000,"METAF SBSP 290200Z  30005KT CAVOK 18/11 Q1018=
",SBSP,2022-06-29 02:00:00
1656471600000,"METAF SBSP 290300Z  31006KT CAVOK 17/11 Q1014=
",SBSP,2022-06-29 03:00:00
1656475200000,"METAF SBSP 290400Z  32005KT CAVOK 17/11 Q1015=
",SBSP,2022-06-29 04:00:00
1656478800000,"METAF SBSP 290500Z  33007KT CAVOK 17/11 Q1016=
",SBSP,2022-06-29 05:00:00
1656482400000,"METAF SBSP 290600Z  31005KT CAVOK 16/12 Q1013=
",SBSP,2022-06-29 06:00:00
1656486000000,"METAF SBSP 290700Z  32008KT CAVOK 16/12 Q1015=
",SBSP,2022-06-29 07:00:00
1656489600000,"METAF SBSP 290800Z  32009KT CAVOK 16/12 Q1015=
",SBSP,2022-06-29 08:00:00
1656493200000,"METAF SBSP 290900Z  32008KT CAVOK 15/11 Q1012=
",SBSP,2022-06-29 09:00:00
1656496800000,"METAF SBSP 291000Z  33006KT CAVOK 15/11 Q1014=
",SBSP,2022-06-29 10:00:00
1656500400000,"METAF SBSP 291100Z  33010KT CAVOK 17/11 Q1015=
",SBSP,2022-06-29 11:00:00
1656504000000,"METAF SBSP 291200Z  33008KT CAVOK 18/12 Q1014=
",SBSP,2022-06-29 12:00:00
1656507600000,"METAF SBSP 291300Z  32010KT CAVOK 20/12 Q1017=
",SBSP,2022-06-29 13:00:00
1656511200000,"METAF SBSP 291400Z  31011KT CAVOK 22/11 Q1017=
",SBSP,2022-06-29 14:00:00
1656514800000,"METAF SBSP 291500Z  31015KT CAVOK 23/10 Q1013=
",SBSP,2022-06-29 15:00:00
1656518400000,"METAF SBSP 291600Z  31016KT CAVOK 24/10 Q1014=
",SBSP,2022-06-29 16:00:00
1656522000000,"METAF SBSP 291700Z  30016KT CAVOK 25/08 Q1013=
",SBSP,2022-06-29 17:00:00
1656525600000,"METAF SBSP 291800Z  28008KT CAVOK 24/10 Q1013=
",SBSP,2022-06-29 18:00:00
1656529200000,"METAF SBSP 291900Z  30007KT CAVOK 25/09 Q1015=
",SBSP,2022-06-29 19:00:00
1656532800000,"METAF SBSP 292000Z  32011KT CAVOK 25/09 Q1013=
",SBSP,2022-06-29 20:00:00
1656536400000,"METAF SBSP 292100Z  30011KT CAVOK 23/09 Q1011=
",SBSP,2022-06-29 21:00:00
1656540000000,"METAF SBSP 292200Z  31009KT CAVOK 23/09 Q1014=
",SBSP,2022-06-29 22:00:00
1656543600000,"METAF SBSP 292300Z  28004KT CAVOK 21/10 Q1016=
",SBSP,2022-06-29 23:00:00
1656547200000,"METAF SBGL 300000Z 07006KT CAVOK 23/17 Q1011=
",SBGL,2022-06-30 00:00:00
1656550800000,"METAF SBGL 300100Z  13005KT CAVOK 22/17 Q1014=
",SBGL,2022-06-30 01:00:00
1656554400000,"METAF SBGL 300200Z  22008KT CAVOK 23/17 Q1016=
",SBGL,2022-06-30 02:00:00
1656558000000,"METAF SBGL 300300Z  27006KT CAVOK 22/18 Q1014=
",SBGL,2022-06-30 03:00:00
1656561600000,"METAF SBGL 300400Z  30008KT 4000     BR SCT018   21/19 Q1013=
",SBGL,2022-06-30 04:00:00
1656565200000,"METAF SBGL 300500Z  25008KT 3000     BR    21/19 Q1014=
",SBGL,2022-06-30 05:00:00
1656568800000,"METAF SBGL 300600Z  28007KT 2000     BR OVC010   20/19 Q1014=
",SBGL,2022-06-30 06:00:00
1656572400000,"METAF SBGL 300700Z  27005KT 2000     BR OVC033   20/19 Q1017=
",SBGL,2022-06-30 07:00:00
1656576000000,"METAF SBGL 300800Z  25005KT 2000     BR OVC033   21/19 Q1019=
",SBGL,2022-06-30 08:00:00
1656579600000,"METAF SBGL 300900Z  23003KT 3000     BR OVC033   20/19 Q1018=
",SBGL,2022-06-30 09:00:00
1656583200000,"METAF SBGL 301000Z  30002KT 3000     BR OVC033   20/18 Q1019=
",SBGL,2022-06-30 10:00:00
1656586800000,"METAF SBGL 301100Z  31005KT 3000     BR OVC010   20/18 Q1019=
",SBGL,2022-06-30 11:00:00
1656590400000,"METAF SBGL 301200Z  28005KT 9999       OVC033   21/16 Q1018=
",SBGL,2022-06-30 12:00:00
1656594000000,"METAF SBGL 301300Z  23002KT 9999       OVC033   21/15 Q1021=
",SBGL,2022-06-30 13:00:00
1656597600000,"METAF SBGL 301400Z 05002KT 9999       BKN027   22/16 Q1023=
",SBGL,2022-06-30 14:00:00
1656601200000,"METAF SBGL 301500Z  14004KT 9999       BKN031   22/15 Q1020=
",SBGL,2022-06-30 15:00:00
1656604800000,"METAF SBGL 301600Z  16008KT 9999       BKN031   22/16 Q1021=
",SBGL,2022-06-30 16:00:00
1656608400000,"METAF SBGL 301700Z  16006KT 9999       SCT032   22/16 Q1019=
",SBGL,2022-06-30 17:00:00
1656612000000,"METAF SBGL 301800Z  14006KT 9999       FEW031   22/16 Q1017=
",SBGL,2022-06-30 18:00:00
1656615600000,"METAF SBGL 301900Z  14004KT CAVOK 22/16 Q1017=
",SBGL,2022-06-30 19:00:00
1656619200000,"METAF SBGL 302000Z  15005KT CAVOK 22/16 Q1017=
",SBGL,2022-06-30 20:00:00
1656622800000,"METAF SBGL 302100Z  14008KT CAVOK 22/16 Q1017=
",SBGL,2022-06-30 21:00:00
1656626400000,"METAF SBGL 302200Z  13009KT 9999       FEW033   21/16 Q1019=
",SBGL,2022-06-30 22:00:00
1656630000000,"METAF SBGL 302300Z  12008KT 8000       BKN033   21/17 Q1020=
",SBGL,2022-06-30 23:00:00
1656547200000,"METAF SBGR 300000Z  15005KT 0750 FG     OVC033   15/15 Q1015=
",SBGR,2022-06-30 00:00:00
1656550800000,"METAF SBGR 300100Z 09001KT 1000     BR OVC033   16/15 Q1015=
",SBGR,2022-06-30 01:00:00
1656554400000,"METAF SBGR 300200Z  10002KT 0800 FG     OVC033   15/14 Q1016=
",SBGR,2022-06-30 02:00:00
1656558000000,"METAF SBGR 300300Z  31004KT 1000     BR OVC014   13/13 Q1013=
",SBGR,2022-06-30 03:00:00
1656561600000,"METAF SBGR 300400Z  29007KT 3000     BR BKN033   14/12 Q1014=
",SBGR,2022-06-30 04:00:00
1656565200000,"METAF SBGR 300500Z  29005KT 3000     BR SCT029   12/10 Q1016=
",SBGR,2022-06-30 05:00:00
1656568800000,"METAF SBGR 300600Z  14003KT 1000     BR OVC022   14/13 Q1016=
",SBGR,2022-06-30 06:00:00
1656572400000,"METAF SBGR 300700Z 09002KT 1000     BR OVC022   14/13 Q1018=
",SBGR,2022-06-30 07:00:00
1656576000000,"METAF SBGR 300800Z 01003KT 1000     BR OVC023   14/13 Q1019=
",SBGR,2022-06-30 08:00:00
1656579600000,"METAF SBGR 300900Z  32004KT 0750 FG     OVC017   13/13 Q1015=
",SBGR,2022-06-30 09:00:00
1656583200000,"METAF SBGR 301000Z  31006KT 0650 FG     OVC016   13/13 Q1018=
",SBGR,2022-06-30 10:00:00
1656586800000,"METAF SBGR 301100Z  33007KT 1000     BR OVC020   14/13 Q1019=
",SBGR,2022-06-30 11:00:00
1656590400000,"METAF SBGR 301200Z 04000KT 7000       BKN013   16/13 Q1019=
",SBGR,2022-06-30 12:00:00
1656594000000,"METAF SBGR 301300Z  29001KT 9999       SCT024   19/13 Q1022=
",SBGR,2022-06-30 13:00:00
1656597600000,"METAF SBGR 301400Z  30005KT CAVOK 20/11 Q1022=
",SBGR,2022-06-30 14:00:00
1656601200000,"METAF SBGR 301500Z  28008KT CAVOK 21/11 Q1018=
",SBGR,2022-06-30 15:00:00
1656604800000,"METAF SBGR 301600Z  28007KT CAVOK 22/09 Q1019=
",SBGR,2022-06-30 16:00:00
1656608400000,"METAF SBGR 301700Z  29008KT CAVOK 23/08 Q1019=
",SBGR,2022-06-30 17:00:00
1656612000000,"METAF SBGR 301800Z  29007KT CAVOK 22/07 Q1016=
",SBGR,2022-06-30 18:00:00
1656615600000,"METAF SBGR 301900Z  30007KT CAVOK 22/08 Q1016=
",SBGR,2022-06-30 19:00:00
1656619200000,"METAF SBGR 302000Z  29004KT CAVOK 20/09 Q1017=
",SBGR,2022-06-30 20:00:00
1656622800000,"METAF SBGR 302100Z  27005KT CAVOK 16/07 Q1018=
",SBGR,2022-06-30 21:00:00
1656626400000,"METAF SBGR 302200Z  26004KT CAVOK 15/07 Q1019=
",SBGR,2022-06-30 22:00:00
1656630000000,"METAF SBGR 302300Z  26003KT CAVOK 15/06 Q1019=
",SBGR,2022-06-30 23:00:00
1656547200000,"METAF SBKP 300000Z  24004KT CAVOK 19/11 Q1014=
",SBKP,2022-06-30 00:00:00
1656550800000,"METAF SBKP 300100Z  24003KT CAVOK 18/11 Q1016=
",SBKP,2022-06-30 01:00:00
1656554400000,"METAF SBKP 300200Z  21004KT CAVOK 17/11 Q1017=
",SBKP,2022-06-30 02:00:00
1656558000000,"METAF SBKP 300300Z  25003KT CAVOK 16/11 Q1014=
",SBKP,2022-06-30 03:00:00
1656561600000,"METAF SBKP 300400Z  26003KT CAVOK 16/11 Q1015=
",SBKP,2022-06-30 04:00:00
1656565200000,"METAF SBKP 300500Z  28002KT 8000       FEW031   15/11 Q1016=
",SBKP,2022-06-30 05:00:00
1656568800000,"METAF SBKP 300600Z  16003KT 3000     BR BKN033   14/12 Q1015=
",SBKP,2022-06-30 06:00:00
1656572400000,"METAF SBKP 300700Z  11002KT 2000     BR OVC032   13/12 Q1017=
",SBKP,2022-06-30 07:00:00
1656576000000,"METAF SBKP 300800Z  10003KT 1000     BR OVC028   13/12 Q1018=
",SBKP,2022-06-30 08:00:00
1656579600000,"METAF SBKP 300900Z  10003KT 0800 FG     OVC026   12/11 Q1016=
",SBKP,2022-06-30 09:00:00
1656583200000,"METAF SBKP 301000Z 08003KT 0750 FG     OVC023   12/11 Q1018=
",SBKP,2022-06-30 10:00:00
1656586800000,"METAF SBKP 301100Z 07002KT 1000     BR OVC022   12/11 Q1019=
",SBKP,2022-06-30 11:00:00
1656590400000,"METAF SBKP 301200Z 06002KT 9999       FEW031   16/11 Q1018=
",SBKP,2022-06-30 12:00:00
1656594000000,"METAF SBKP 301300Z 03001KT 9999       FEW033   19/12 Q1022=
",SBKP,2022-06-30 13:00:00
1656597600000,"METAF SBKP 301400Z  29002KT CAVOK 20/12 Q1022=
",SBKP,2022-06-30 14:00:00
1656601200000,"METAF SBKP 301500Z  28004KT CAVOK 22/11 Q1018=
",SBKP,2022-06-30 15:00:00
1656604800000,"METAF SBKP 301600Z  27005KT CAVOK 23/10 Q1020=
",SBKP,2022-06-30 16:00:00
1656608400000,"METAF SBKP 301700Z  28006KT CAVOK 24/09 Q1019=
",SBKP,2022-06-30 17:00:00
1656612000000,"METAF SBKP 301800Z  27005KT CAVOK 24/08 Q1016=
",SBKP,2022-06-30 18:00:00
1656615600000,"METAF SBKP 301900Z  28006KT CAVOK 24/07 Q1016=
",SBKP,2022-06-30 19:00:00
1656619200000,"METAF SBKP 302000Z  29005KT CAVOK 24/07 Q1017=
",SBKP,2022-06-30 20:00:00
1656622800000,"METAF SBKP 302100Z  27003KT CAVOK 22/07 Q1017=
",SBKP,2022-06-30 21:00:00
1656626400000,"METAF SBKP 302200Z  24003KT CAVOK 21/08 Q1018=
",SBKP,2022-06-30 22:00:00
1656630000000,"METAF SBKP 302300Z  24003KT CAVOK 20/09 Q1018=
",SBKP,2022-06-30 23:00:00
1656547200000,"METAF SBSP 300000Z  12003KT 1000     BR OVC026   16/15 Q1016=
",SBSP,2022-06-30 00:00:00
1656550800000,"METAF SBSP 300100Z  13002KT 2000     BR OVC031   16/15 Q1016=
",SBSP,2022-06-30 01:00:00
1656554400000,"METAF SBSP 300200Z 02002KT 2000     BR OVC022   16/15 Q1016=
",SBSP,2022-06-30 02:00:00
1656558000000,"METAF SBSP 300300Z  33005KT 2000     BR OVC033   16/14 Q1013=
",SBSP,2022-06-30 03:00:00
1656561600000,"METAF SBSP 300400Z  30006KT 3000     BR BKN033   16/14 Q1015=
",SBSP,2022-06-30 04:00:00
1656565200000,"METAF SBSP 300500Z  29003KT 3000     BR BKN026   16/14 Q1017=
",SBSP,2022-06-30 05:00:00
1656568800000,"METAF SBSP 300600Z  13004KT 2000     BR OVC028   14/13 Q1017=
",SBSP,2022-06-30 06:00:00
1656572400000,"METAF SBSP 300700Z  14001KT 2000     BR OVC028   14/13 Q1018=
",SBSP,2022-06-30 07:00:00
1656576000000,"METAF SBSP 300800Z 03002KT 2000     BR OVC027   14/13 Q1018=
",SBSP,2022-06-30 08:00:00
1656579600000,"METAF SBSP 300900Z  33004KT 3000     BR OVC020   15/13 Q1015=
",SBSP,2022-06-30 09:00:00
1656583200000,"METAF SBSP 301000Z  33007KT 3000     BR OVC033   15/13 Q1017=
",SBSP,2022-06-30 10:00:00
1656586800000,"METAF SBSP 301100Z  33009KT 3000     BR OVC033   15/13 Q1019=
",SBSP,2022-06-30 11:00:00
1656590400000,"METAF SBSP 301200Z 01003KT 8000       OVC014   16/12 Q1020=
",SBSP,2022-06-30 12:00:00
1656594000000,"METAF SBSP 301300Z 01001KT 9999       SCT020   18/12 Q1022=
",SBSP,2022-06-30 13:00:00
1656597600000,"METAF SBSP 301400Z  31003KT 9999       FEW028   19/12 Q1022=
",SBSP,2022-06-30 14:00:00
1656601200000,"METAF SBSP 301500Z  29007KT CAVOK 21/10 Q1017=
",SBSP,2022-06-30 15:00:00
1656604800000,"METAF SBSP 301600Z  29006KT CAVOK 22/09 Q1019=
",SBSP,2022-06-30 16:00:00
1656608400000,"METAF SBSP 301700Z  31008KT CAVOK 24/06 Q1018=
",SBSP,2022-06-30 17:00:00
1656612000000,"METAF SBSP 301800Z  30008KT CAVOK 24/05 Q1016=
",SBSP,2022-06-30 18:00:00
1656615600000,"METAF SBSP 301900Z  30007KT CAVOK 24/05 Q1016=
",SBSP,2022-06-30 19:00:00
1656619200000,"METAF SBSP 302000Z  29005KT CAVOK 23/06 Q1017=
",SBSP,2022-06-30 20:00:00
1656622800000,"METAF SBSP 302100Z  25001KT CAVOK 20/09 Q1018=
",SBSP,2022-06-30 21:00:00
1656626400000,"METAF SBSP 302200Z  18001KT CAVOK 19/10 Q1019=
",SBSP,2022-06-30 22:00:00
1656630000000,"METAF SBSP 302300Z  14002KT CAVOK 18/11 Q1019=
",SBSP,2022-06-30 23:00:00
